IKResults
version=1
nRows=3989
nColumns=18
inDegrees=yes

Units are S.I. units (second, meters, Newtons, ...)
If the header above contains a line with 'inDegrees', this indicates whether rotational values are in degrees (yes) or radians (no).

endheader
time	TH_x	TH_y	TH_z	TH_x_trans	TH_y_trans	TH_z_trans	SC_y	SC_z	SC_x	AC_y	AC_z	AC_x	GH_y	GH_z	GH_yy	EL_x	PS_y
     25.54000000	      7.58652571	   -175.00069153	      0.00000000	      0.04080703	      1.38724351	      0.07843850	    -23.88752444	      4.82288973	     18.77282220	     58.69741126	     -2.75865759	     -7.42076000	     44.97261006	     11.93950370	     11.51041267	     17.60194098	     77.12499939
     25.55000000	      7.56728473	   -174.97397749	      0.00000000	      0.04084005	      1.38720112	      0.07833640	    -23.87644691	      4.84095618	     18.75440351	     58.69153791	     -2.78222482	     -7.42040676	     44.94595263	     11.94006051	     11.52737874	     17.59299297	     77.11199640
     25.56000000	      7.55937637	   -174.98860956	      0.00000000	      0.04085535	      1.38719332	      0.07823282	    -23.81746302	      4.83443759	     18.74169845	     58.66445338	     -2.78987891	     -7.43318936	     44.92387178	     11.94383806	     11.58022548	     17.58537957	     77.13717791
     25.57000000	      7.54958695	   -174.97459763	      0.00000000	      0.04087600	      1.38716001	      0.07815254	    -23.80906304	      4.84124890	     18.72683102	     58.65850904	     -2.80813467	     -7.43280529	     44.90217526	     11.95165455	     11.61897617	     17.57532559	     77.14796961
     25.58000000	      7.53626273	   -174.94887838	      0.00000000	      0.04090145	      1.38711848	      0.07807115	    -23.81054786	      4.85337932	     18.70891369	     58.65901852	     -2.83066583	     -7.43179390	     44.88191285	     11.95850556	     11.64110302	     17.55913700	     77.13500000
     25.59000000	      7.51793478	   -174.92896465	      0.00000000	      0.04093353	      1.38707867	      0.07798264	    -23.78970130	      4.86668941	     18.68578146	     58.64939443	     -2.85347012	     -7.44008068	     44.86741126	     11.96919640	     11.66999373	     17.53891827	     77.12285857
     25.60000000	      7.51381573	   -174.94172820	      0.00000000	      0.04094687	      1.38707472	      0.07789849	    -23.74219402	      4.85264939	     18.66967555	     58.62023137	     -2.86238516	     -7.45658677	     44.85170803	     11.98433850	     11.72275255	     17.51861613	     77.14040793
     25.61000000	      7.49465421	   -174.92430234	      0.00000000	      0.04096226	      1.38704188	      0.07781432	    -23.72804133	      4.85783484	     18.64403825	     58.60249595	     -2.88791938	     -7.46664097	     44.83489626	     12.00344939	     11.75979072	     17.48842317	     77.14201007
     25.62000000	      7.48482570	   -174.91234203	      0.00000000	      0.04098581	      1.38701454	      0.07774447	    -23.71263801	      4.85746797	     18.62283090	     58.59122110	     -2.90742102	     -7.47802819	     44.82267860	     12.02700800	     11.80309699	     17.45473822	     77.14651132
     25.63000000	      7.48720981	   -174.91227005	      0.00000000	      0.04099978	      1.38698988	      0.07768002	    -23.69160089	      4.84839021	     18.60735945	     58.57720330	     -2.92099691	     -7.48588281	     44.81438127	     12.05622114	     11.86093634	     17.41224245	     77.16747713
     25.64000000	      7.47338534	   -174.88413468	      0.00000000	      0.04103127	      1.38695792	      0.07762433	    -23.68955812	      4.84912306	     18.57775653	     58.56174492	     -2.94833793	     -7.50602408	     44.79660479	     12.09461478	     11.88894600	     17.37139431	     77.16430366
     25.65000000	      7.46209353	   -174.87544972	      0.00000000	      0.04105683	      1.38693734	      0.07754722	    -23.67049267	      4.84558232	     18.55347487	     58.54884925	     -2.96787772	     -7.52391694	     44.78815815	     12.13734536	     11.93642244	     17.31374377	     77.17769478
     25.66000000	      7.46216614	   -174.82242584	      0.00000000	      0.04110917	      1.38687227	      0.07747977	    -23.71617533	      4.85248415	     18.53266700	     58.55986671	     -2.98989701	     -7.53291767	     44.79290095	     12.19339044	     11.95297563	     17.26020805	     77.13843892
     25.67000000	      7.42592793	   -174.82844995	      0.00000000	      0.04110512	      1.38689619	      0.07739922	    -23.66535146	      4.83229383	     18.48679163	     58.52850751	     -3.02030609	     -7.57036453	     44.78795150	     12.24431405	     11.98073342	     17.17441941	     77.13002220
     25.68000000	      7.44983382	   -174.83790758	      0.00000000	      0.04112898	      1.38689416	      0.07729706	    -23.57098326	      4.79011625	     18.45014182	     58.39107962	     -3.01946947	     -7.63314306	     44.69671365	     12.31890489	     11.95345768	     17.18719772	     77.15150800
     25.69000000	      7.40943038	   -174.77864731	      0.00000000	      0.04117587	      1.38683668	      0.07724916	    -23.63930962	      4.82652676	     18.42210955	     58.49931218	     -3.07698009	     -7.61603316	     44.76149853	     12.39134000	     12.00808369	     17.01444812	     77.15108447
     25.70000000	      7.38688262	   -174.78807959	      0.00000000	      0.04118253	      1.38684478	      0.07715455	    -23.57171372	      4.80395287	     18.37624110	     58.41267162	     -3.10411946	     -7.65624740	     44.70956815	     12.46359781	     12.01103672	     16.92551500	     77.17260843
     25.71000000	      7.38737369	   -174.76875560	      0.00000000	      0.04117456	      1.38676569	      0.07717567	    -23.65216548	      4.80809911	     18.35417483	     58.44960284	     -3.13858798	     -7.64865929	     44.75787124	     12.58485921	     12.08853521	     16.81720823	     77.18702869
     25.72000000	      7.36826494	   -174.71839427	      0.00000000	      0.04120873	      1.38675738	      0.07709167	    -23.67930953	      4.79309257	     18.31745072	     58.44199173	     -3.16352522	     -7.68124715	     44.75726129	     12.69999808	     12.15113810	     16.69624049	     77.19598217
     25.73000000	      7.30729810	   -174.76068084	      0.00000000	      0.04122230	      1.38680641	      0.07691097	    -23.50990571	      4.77877853	     18.23766729	     58.31169392	     -3.22131057	     -7.73716130	     44.65240919	     12.81894776	     12.17516195	     16.54888144	     77.27048634
     25.74000000	      7.33369341	   -174.72645120	      0.00000000	      0.04120223	      1.38674329	      0.07696100	    -23.62636104	      4.75654592	     18.23248469	     58.39102800	     -3.24107232	     -7.72558236	     44.64942336	     12.97347433	     12.26947390	     16.42551737	     77.34342485
     25.75000000	      7.33362753	   -174.79166824	      0.00000000	      0.04122412	      1.38672673	      0.07667188	    -23.33678124	      4.73893262	     18.13724146	     58.05702949	     -3.29783375	     -7.80643667	     44.42457204	     13.16001856	     12.23787893	     16.36808311	     77.43814330
     25.76000000	      7.31333802	   -174.66636018	      0.00000000	      0.04125268	      1.38667363	      0.07686591	    -23.69382932	      4.73987252	     18.17553125	     58.41967685	     -3.31163518	     -7.74471530	     44.54058602	     13.27863568	     12.36818751	     16.15011562	     77.48606481
     25.77000000	      7.30133104	   -174.64843834	      0.00000000	      0.04128108	      1.38665716	      0.07679941	    -23.69665078	      4.71937229	     18.13795159	     58.42562841	     -3.34951462	     -7.76456070	     44.44705469	     13.45945247	     12.40346867	     15.99564862	     77.56319323
     25.78000000	      7.29282582	   -174.62216551	      0.00000000	      0.04129707	      1.38663603	      0.07673533	    -23.71185655	      4.70833639	     18.11166613	     58.43510464	     -3.38401650	     -7.76793278	     44.37635799	     13.63542452	     12.41891593	     15.83503728	     77.61193536
     25.79000000	      7.28470181	   -174.59606113	      0.00000000	      0.04131460	      1.38661866	      0.07670377	    -23.75788790	      4.68703007	     18.08586264	     58.47560944	     -3.41463253	     -7.77750164	     44.30402747	     13.84372642	     12.43169208	     15.67463944	     77.66846535
     25.80000000	      7.26826792	   -174.57586628	      0.00000000	      0.04133274	      1.38661304	      0.07662858	    -23.76839624	      4.67021512	     18.05704385	     58.49475619	     -3.44897894	     -7.78412845	     44.21856269	     14.05646331	     12.43195333	     15.49579123	     77.73109592
     25.81000000	      7.25431420	   -174.55676501	      0.00000000	      0.04133103	      1.38661964	      0.07658803	    -23.80334674	      4.64080545	     18.03230509	     58.50998329	     -3.47922864	     -7.78867516	     44.12158321	     14.28326709	     12.42647829	     15.32550479	     77.80966021
     25.82000000	      7.25317693	   -174.50765365	      0.00000000	      0.04137318	      1.38661150	      0.07653240	    -23.85620137	      4.61681040	     18.01994724	     58.56920972	     -3.50745082	     -7.79405713	     43.99515859	     14.53366577	     12.43345126	     15.15902526	     77.95324034
     25.83000000	      7.24047551	   -174.49269457	      0.00000000	      0.04138640	      1.38661723	      0.07648353	    -23.87238814	      4.59446496	     18.00726834	     58.60821259	     -3.54121229	     -7.79298631	     43.85380034	     14.79067048	     12.42024655	     14.99064759	     78.09923720
     25.84000000	      7.24465658	   -174.46183025	      0.00000000	      0.04140208	      1.38661582	      0.07644218	    -23.92145223	      4.56442105	     18.00619643	     58.67720110	     -3.57070784	     -7.78082916	     43.71049344	     15.06727707	     12.38162951	     14.80771399	     78.25628749
     25.85000000	      7.20550759	   -174.52392627	      0.00000000	      0.04138636	      1.38662614	      0.07629517	    -23.78040699	      4.57272926	     17.97447132	     58.64701952	     -3.62956107	     -7.76035549	     43.56565714	     15.34792231	     12.35066840	     14.58027450	     78.36045869
     25.86000000	      7.20089877	   -174.55140062	      0.00000000	      0.04136833	      1.38662228	      0.07623980	    -23.74155281	      4.55326142	     17.97182538	     58.63950942	     -3.65419344	     -7.74167290	     43.42184857	     15.64804599	     12.30844896	     14.42650774	     78.46341934
     25.87000000	      7.20285848	   -174.54130832	      0.00000000	      0.04135816	      1.38662139	      0.07621893	    -23.79659354	      4.52681765	     17.97730713	     58.75016191	     -3.67587473	     -7.71983394	     43.30028717	     15.99558402	     12.25585455	     14.24513466	     78.57559113
     25.88000000	      7.21022583	   -174.52001341	      0.00000000	      0.04136763	      1.38663221	      0.07618460	    -23.83984520	      4.49501137	     17.98948931	     58.83426162	     -3.68867387	     -7.69942355	     43.15732625	     16.34712228	     12.17596502	     14.07092375	     78.69122596
     25.89000000	      7.28115835	   -174.46777533	      0.00000000	      0.04138764	      1.38666186	      0.07612229	    -23.91531557	      4.43768981	     18.07150841	     58.84710408	     -3.63538279	     -7.63238306	     43.06772696	     16.61835508	     12.07545875	     13.89536591	     78.69225766
     25.90000000	      7.27524325	   -174.29014205	      0.00000000	      0.04151082	      1.38673628	      0.07623019	    -24.22371352	      4.34523022	     18.05047737	     59.20389123	     -3.61882655	     -7.72797317	     42.97894627	     17.11721786	     11.63316601	     13.76465499	     78.97976770
     25.91000000	      7.31017020	   -174.30678101	      0.00000000	      0.04147154	      1.38671948	      0.07616253	    -24.21444183	      4.34517745	     18.10533647	     59.22241191	     -3.61627305	     -7.62894256	     42.89768343	     17.45991628	     11.51121239	     13.55555491	     79.00277846
     25.92000000	      7.29800890	   -174.31344171	      0.00000000	      0.04145114	      1.38675159	      0.07612075	    -24.21651554	      4.31690073	     18.09084761	     59.18198749	     -3.48926777	     -7.88251347	     43.98363478	     17.99770232	      9.32021321	     13.41169315	     81.42502403
     25.93000000	      7.31079536	   -174.32003487	      0.00000000	      0.04143507	      1.38675751	      0.07609761	    -24.24061464	      4.30870274	     18.12628536	     59.27858615	     -3.48323374	     -7.83226931	     43.89433077	     18.43755288	      9.16553674	     13.22299779	     81.38648262
     25.94000000	      7.34107636	   -174.31385038	      0.00000000	      0.04140895	      1.38678079	      0.07604694	    -24.26819860	      4.28817788	     18.18709250	     59.34302734	     -3.45582259	     -7.76627500	     43.79306585	     18.86135362	      9.02024000	     13.05453693	     81.36381326
     25.95000000	      7.37300341	   -174.30820025	      0.00000000	      0.04139375	      1.38679131	      0.07601254	    -24.30082364	      4.26130438	     18.23774520	     59.43828504	     -3.43292129	     -7.71437378	     43.67782644	     19.34075001	      8.84866730	     12.88551608	     81.34652625
     25.96000000	      7.36999899	   -174.29116839	      0.00000000	      0.04143176	      1.38682730	      0.07601616	    -24.35106754	      4.22195913	     18.24842462	     59.62133828	     -3.41320314	     -7.74107095	     43.55234152	     19.91618667	      8.59279008	     12.74601700	     81.34926848
     25.97000000	      7.41610842	   -174.27411091	      0.00000000	      0.04141563	      1.38688314	      0.07595531	    -24.38669729	      4.17547080	     18.33673408	     59.68346154	     -3.35259480	     -7.67701239	     43.44492317	     20.37817069	      8.40159477	     12.61043432	     81.35092182
     25.98000000	      7.41880715	   -174.26315566	      0.00000000	      0.04142020	      1.38704033	      0.07594860	    -24.41587276	      4.08519049	     18.33631184	     59.50348862	     -2.99206617	     -8.31650792	     45.58234483	     21.18982379	      5.11982862	     12.47311508	     83.56290670
     25.99000000	      7.46210307	   -174.25461493	      0.00000000	      0.04137098	      1.38700717	      0.07588415	    -24.44151293	      4.10049354	     18.42761672	     59.55829646	     -2.95943163	     -8.19842595	     45.44914345	     21.69433731	      4.96964049	     12.31973809	     83.52377562
     26.00000000	      7.49645932	   -174.25256400	      0.00000000	      0.04135579	      1.38700148	      0.07585272	    -24.46763365	      4.09136403	     18.49760466	     59.67232550	     -2.92018749	     -8.13625425	     45.29286101	     22.26801286	      4.78246258	     12.18259682	     83.48635381
     26.01000000	      7.47930408	   -174.18623636	      0.00000000	      0.04147446	      1.38718352	      0.07582939	    -24.53342625	      3.97043056	     18.50832201	     59.89211821	     -2.82363150	     -8.29579029	     45.11855706	     22.95693833	      4.36959233	     12.15891958	     83.48868936
     26.02000000	      7.49888256	   -174.19166445	      0.00000000	      0.04141658	      1.38724223	      0.07577373	    -24.52972579	      3.95646497	     18.56337249	     59.72094772	     -2.54039076	     -8.66477645	     46.50179094	     23.71591499	      2.20719802	     11.99802849	     84.69379100
     26.03000000	      7.52404355	   -174.18890700	      0.00000000	      0.04140784	      1.38721570	      0.07571842	    -24.53319581	      3.97236503	     18.64776115	     59.83413988	     -2.48659199	     -8.59819779	     46.33028784	     24.31921402	      2.03655836	     11.88442244	     84.66036059
     26.04000000	      7.53473400	   -174.15056035	      0.00000000	      0.04147124	      1.38735485	      0.07566492	    -24.55518364	      3.87766447	     18.69836150	     59.98142983	     -2.38833305	     -8.67685647	     46.11377809	     25.00009356	      1.74493144	     11.84365936	     84.64745644
     26.05000000	      7.53708684	   -174.14580520	      0.00000000	      0.04150388	      1.38740320	      0.07563887	    -24.56640665	      3.85123294	     18.75678524	     60.11243897	     -2.32197877	     -8.68409180	     45.94556514	     25.67563971	      1.45591271	     11.75851081	     84.64997479
     26.06000000	      7.59970286	   -174.13394087	      0.00000000	      0.04148831	      1.38733210	      0.07555509	    -24.55980815	      3.88029324	     18.88555602	     60.18293658	     -2.23558544	     -8.58285868	     45.80524471	     26.27947629	      1.25886505	     11.67521742	     84.63521635
     26.07000000	      7.56364070	   -174.10472629	      0.00000000	      0.04158671	      1.38742277	      0.07546071	    -24.53768782	      3.83631715	     18.92763730	     60.33595372	     -2.14104769	     -8.67296504	     45.62189404	     26.99025241	      0.92396484	     11.62953280	     84.63762894
     26.08000000	      7.63641251	   -174.08936305	      0.00000000	      0.04161567	      1.38737881	      0.07536951	    -24.52327109	      3.85584183	     19.06531472	     60.38937982	     -2.04077037	     -8.57702854	     45.47908276	     27.60402460	      0.71300210	     11.55241227	     84.62240938
     26.09000000	      7.57447609	   -174.03844560	      0.00000000	      0.04175775	      1.38758800	      0.07524420	    -24.47065136	      3.73218315	     19.06556849	     60.53122838	     -1.89784627	     -8.83801324	     45.34367371	     28.41344948	      0.14860721	     11.58226841	     84.68816344
     26.10000000	      7.57969435	   -174.04550346	      0.00000000	      0.04177439	      1.38745871	      0.07516991	    -24.44281931	      3.82363706	     19.17596595	     60.60548128	     -1.82794740	     -8.74378994	     45.25316899	     29.05980341	     -0.10940149	     11.49173419	     84.69685317
     26.11000000	      7.57840175	   -174.03269555	      0.00000000	      0.04183176	      1.38743952	      0.07505701	    -24.38680717	      3.84890865	     19.27009912	     60.68145361	     -1.72856013	     -8.73497677	     45.11836109	     29.73543849	     -0.40687907	     11.42807249	     84.69689042
     26.12000000	      7.50543205	   -173.98966418	      0.00000000	      0.04194118	      1.38757383	      0.07487434	    -24.28398209	      3.80902525	     19.25828964	     60.59846491	     -1.50273649	     -9.16431627	     45.68683882	     30.64544187	     -1.76730015	     11.36794844	     85.15935430
     26.13000000	      7.55238849	   -173.98143336	      0.00000000	      0.04201077	      1.38748387	      0.07473422	    -24.21627675	      3.86201674	     19.43469112	     60.62886775	     -1.35407994	     -9.07401962	     45.57088612	     31.22075478	     -1.96774172	     11.32893697	     85.16004120
     26.14000000	      7.50956681	   -173.97503961	      0.00000000	      0.04211609	      1.38743780	      0.07458458	    -24.11608798	      3.90744267	     19.50152168	     60.70228743	     -1.26178631	     -9.10734525	     45.40383634	     31.93336189	     -2.27821007	     11.27894874	     85.15778963
     26.15000000	      7.51120663	   -173.99341606	      0.00000000	      0.04212419	      1.38752121	      0.07440719	    -23.95377557	      3.88244716	     19.58102258	     60.36521420	     -0.86196371	     -9.64960397	     46.61692123	     32.83801473	     -4.24400673	     11.17570838	     86.04790552
     26.16000000	      7.46096061	   -173.95821719	      0.00000000	      0.04224605	      1.38741121	      0.07422691	    -23.85722726	      3.98231628	     19.65774675	     60.43656148	     -0.78452281	     -9.63533307	     46.38548229	     33.52333291	     -4.47124424	     11.13509157	     86.02757890
     26.17000000	      7.37965787	   -173.91817451	      0.00000000	      0.04244617	      1.38761946	      0.07395568	    -23.67306318	      3.89520865	     19.69754237	     60.35072403	     -0.52437095	    -10.00870206	     46.58066441	     34.31112821	     -5.43646670	     11.15943568	     86.49265229
     26.18000000	      7.39561773	   -173.90271179	      0.00000000	      0.04249862	      1.38743344	      0.07384259	    -23.60409510	      4.02189074	     19.83912143	     60.40116607	     -0.42924964	     -9.89406344	     46.40072108	     34.92955400	     -5.60860356	     11.09195185	     86.46688947
     26.19000000	      7.33811895	   -173.88848545	      0.00000000	      0.04263728	      1.38740619	      0.07368316	    -23.47276485	      4.06954548	     19.89980583	     60.46735841	     -0.33948626	     -9.93343384	     46.14262480	     35.62749327	     -5.87253124	     11.05134936	     86.43317245
     26.20000000	      7.28590147	   -173.84825676	      0.00000000	      0.04281468	      1.38747026	      0.07345751	    -23.31417019	      4.06727943	     19.97946286	     60.51284579	     -0.18853316	    -10.04205185	     45.90493253	     36.29778526	     -6.17643926	     11.05051152	     86.41264860
     26.21000000	      7.27537118	   -173.83031688	      0.00000000	      0.04291277	      1.38740925	      0.07334197	    -23.21814249	      4.12560405	     20.09628392	     60.55314863	     -0.06376400	    -10.02932991	     45.72056296	     36.93876598	     -6.42072602	     11.01309513	     86.38770969
     26.22000000	      7.20557789	   -173.81191950	      0.00000000	      0.04302951	      1.38758544	      0.07310040	    -22.99946630	      4.08517718	     20.14285769	     60.25959460	      0.33258620	    -10.62536194	     46.56164383	     37.82594908	     -8.02935390	     10.95820514	     86.93992548
     26.23000000	      7.20773761	   -173.78721864	      0.00000000	      0.04310908	      1.38747291	      0.07299920	    -22.92512236	      4.17997932	     20.28426157	     60.31332046	      0.44430909	    -10.53917242	     46.33741299	     38.41422697	     -8.19082372	     10.89488351	     86.91979191
     26.24000000	      7.18624496	   -173.75721802	      0.00000000	      0.04322276	      1.38745555	      0.07287224	    -22.81548786	      4.22267886	     20.39152077	     60.38162918	      0.56707033	    -10.54070711	     46.06762897	     39.04061050	     -8.39810572	     10.85737767	     86.88891528
     26.25000000	      7.12536427	   -173.70499346	      0.00000000	      0.04344237	      1.38761240	      0.07267399	    -22.65417752	      4.17177142	     20.46176168	     60.45997745	      0.75368590	    -10.72675481	     45.79076635	     39.70450177	     -8.74957253	     10.89913872	     86.89838621
     26.26000000	      7.13713585	   -173.67685585	      0.00000000	      0.04350463	      1.38756822	      0.07261316	    -22.58935122	      4.24177564	     20.60828632	     60.50076611	      0.88048711	    -10.65613327	     45.60465587	     40.28426109	     -8.95166478	     10.81792514	     86.87720659
     26.27000000	      7.13093652	   -173.64496294	      0.00000000	      0.04360928	      1.38758284	      0.07252776	    -22.50199602	      4.27767748	     20.73775623	     60.55979088	      1.02672458	    -10.65405361	     45.38947281	     40.87748620	     -9.17780185	     10.77593128	     86.84476235
     26.28000000	      7.10752007	   -173.59343495	      0.00000000	      0.04376356	      1.38767917	      0.07238495	    -22.39169789	      4.26617039	     20.85112445	     60.62322196	      1.20126486	    -10.73415200	     45.16294059	     41.48082710	     -9.46592335	     10.75051119	     86.81232407
     26.29000000	      7.11944638	   -173.56712428	      0.00000000	      0.04383019	      1.38767796	      0.07234634	    -22.32727231	      4.30295165	     20.99183145	     60.68069050	      1.35316782	    -10.71920394	     44.97779220	     42.06599597	     -9.70101466	     10.70888350	     86.77930985
     26.30000000	      7.10020189	   -173.51618437	      0.00000000	      0.04399000	      1.38776763	      0.07221908	    -22.23437537	      4.29399769	     21.11096909	     60.74792078	      1.53238103	    -10.79592794	     44.77413201	     42.65765636	    -10.00068935	     10.67708325	     86.74429564
     26.31000000	      7.08738233	   -173.46972438	      0.00000000	      0.04412880	      1.38791102	      0.07215709	    -22.15333814	      4.25149705	     21.22341860	     60.78280608	      1.77017836	    -10.98775825	     44.73347567	     43.29526564	    -10.54511369	     10.68225292	     86.76644289
     26.32000000	      7.12392049	   -173.44488198	      0.00000000	      0.04414258	      1.38789469	      0.07214034	    -22.11684498	      4.31438166	     21.40408166	     60.80884035	      1.91691526	    -10.88295929	     44.58382578	     43.81160741	    -10.71849434	     10.59921419	     86.74592446
     26.33000000	      7.12086168	   -173.40711860	      0.00000000	      0.04426059	      1.38794121	      0.07207426	    -22.05194449	      4.33214730	     21.53541714	     60.88132641	      2.07701585	    -10.90059040	     44.37959771	     44.38329039	    -10.96364230	     10.55192106	     86.71319567
     26.34000000	      7.11044253	   -173.35136800	      0.00000000	      0.04440415	      1.38812923	      0.07201682	    -21.98606329	      4.26896593	     21.65473249	     60.94647336	      2.30507150	    -11.06114586	     44.25053908	     44.98032984	    -11.40758857	     10.56459677	     86.71641689
     26.35000000	      7.14661153	   -173.32813898	      0.00000000	      0.04442370	      1.38812283	      0.07202045	    -21.96185044	      4.32709129	     21.83361435	     60.97828671	      2.45134901	    -10.95848754	     44.09618388	     45.49009269	    -11.57699970	     10.48960618	     86.69359565
     26.36000000	      7.15309858	   -173.29079074	      0.00000000	      0.04451067	      1.38818191	      0.07199329	    -21.91761965	      4.34113508	     21.97060432	     61.05164548	      2.60785059	    -10.95785052	     43.88895856	     46.04745721	    -11.80501047	     10.44583152	     86.65783219
     26.37000000	      7.15792298	   -173.24382340	      0.00000000	      0.04462393	      1.38827984	      0.07194866	    -21.87582968	      4.32677364	     22.10544313	     61.12794116	      2.77886668	    -10.98721696	     43.67714980	     46.60318346	    -12.05783411	     10.41758892	     86.61975844
     26.38000000	      7.17209313	   -173.20888348	      0.00000000	      0.04470799	      1.38835235	      0.07193831	    -21.85094446	      4.33402216	     22.25827330	     61.18925458	      2.94429496	    -10.97031433	     43.49192223	     47.13148210	    -12.27885711	     10.38853087	     86.58446006
     26.39000000	      7.18134798	   -173.16600481	      0.00000000	      0.04481132	      1.38843834	      0.07190878	    -21.82284753	      4.32684211	     22.39772087	     61.25528381	      3.10654019	    -10.97461670	     43.28880898	     47.67652123	    -12.51962426	     10.35797857	     86.54398455
     26.40000000	      7.19443401	   -173.13534939	      0.00000000	      0.04488722	      1.38850731	      0.07190727	    -21.80571669	      4.34016922	     22.55388232	     61.30851196	      3.26535110	    -10.93911887	     43.10594310	     48.19007774	    -12.71954581	     10.33203771	     86.50628576
     26.41000000	      7.23700804	   -173.10566739	      0.00000000	      0.04496220	      1.38855846	      0.07187117	    -21.79332303	      4.36374440	     22.75989470	     61.31861863	      3.43852085	    -10.83045986	     42.94378743	     48.62887030	    -12.83941341	     10.29774556	     86.47425523
     26.42000000	      7.22231981	   -173.07903707	      0.00000000	      0.04502623	      1.38863023	      0.07191117	    -21.78115205	      4.37747604	     22.86226387	     61.40532984	      3.54937317	    -10.81741813	     42.70666109	     49.21103783	    -13.04823184	     10.26925166	     86.41560308
     26.43000000	      7.25179161	   -173.03939171	      0.00000000	      0.04513867	      1.38870232	      0.07183432	    -21.76363373	      4.39784675	     23.06960529	     61.41011151	      3.72988543	    -10.71994138	     42.53631940	     49.62391899	    -13.15625208	     10.23983655	     86.38160293
     26.44000000	      7.28369971	   -173.01955621	      0.00000000	      0.04521552	      1.38870626	      0.07183967	    -21.76225534	      4.43428434	     23.23975020	     61.44000972	      3.86773942	    -10.62003934	     42.34486831	     50.11693373	    -13.28400855	     10.20925336	     86.33691620
     26.45000000	      7.30262896	   -172.99611601	      0.00000000	      0.04529180	      1.38873715	      0.07184890	    -21.76086703	      4.46194489	     23.38856365	     61.47587502	      3.98872934	    -10.53308517	     42.13398291	     50.63156131	    -13.42187213	     10.18045369	     86.28531022
     26.46000000	      7.31106929	   -172.96945192	      0.00000000	      0.04537885	      1.38878520	      0.07184882	    -21.75818403	      4.48193936	     23.52929629	     61.51115099	      4.10547282	    -10.45511209	     41.91306822	     51.14603542	    -13.56002379	     10.15958112	     86.22982168
     26.47000000	      7.31574704	   -172.94110392	      0.00000000	      0.04547495	      1.38884382	      0.07184214	    -21.75496490	      4.49880577	     23.66835462	     61.54188693	      4.22061485	    -10.37794999	     41.68837208	     51.65442038	    -13.69373823	     10.14474896	     86.17232904
     26.48000000	      7.31891609	   -172.91274352	      0.00000000	      0.04557435	      1.38890463	      0.07183470	    -21.75298795	      4.51534051	     23.80591569	     61.56739610	      4.33165462	    -10.29671013	     41.46185857	     52.15905890	    -13.82270616	     10.13402705	     86.11289327
     26.49000000	      7.32065998	   -172.88459895	      0.00000000	      0.04567596	      1.38896503	      0.07182692	    -21.75236116	      4.53233574	     23.94184884	     61.58729317	      4.43748525	    -10.20967290	     41.23395799	     52.66022134	    -13.94697406	     10.12596650	     86.05151405
     26.50000000	      7.32095336	   -172.85626314	      0.00000000	      0.04577961	      1.38902478	      0.07181766	    -21.75240278	      4.55035669	     24.07701521	     61.60093517	      4.53882933	    -10.11643471	     41.00535242	     53.15568155	    -14.06625218	     10.12005357	     85.98834362
     26.51000000	      7.32023326	   -172.82811367	      0.00000000	      0.04588388	      1.38908466	      0.07180793	    -21.75306733	      4.56918310	     24.21188042	     61.60836407	      4.63596979	    -10.01655825	     40.77701118	     53.64443485	    -14.18065277	     10.11629425	     85.92330443
     26.52000000	      7.31833217	   -172.80008948	      0.00000000	      0.04598837	      1.38914423	      0.07179728	    -21.75395134	      4.58862882	     24.34685796	     61.60936072	      4.72924474	     -9.90984664	     40.54920327	     54.12529473	    -14.29064285	     10.11455505	     85.85629698
     26.53000000	      7.31609819	   -172.77210845	      0.00000000	      0.04609361	      1.38920355	      0.07178569	    -21.75476731	      4.60879153	     24.48298484	     61.60395643	      4.81986902	     -9.79639847	     40.32289494	     54.59647441	    -14.39644155	     10.11457510	     85.78738538
     26.54000000	      7.31308779	   -172.74446306	      0.00000000	      0.04619762	      1.38926414	      0.07177468	    -21.75594927	      4.62903295	     24.61985872	     61.59222993	      4.90724462	     -9.67597850	     40.09865096	     55.05792415	    -14.49885918	     10.11684018	     85.71631239
     26.55000000	      7.30969797	   -172.71669260	      0.00000000	      0.04630184	      1.38932517	      0.07176300	    -21.75712049	      4.64955507	     24.75816817	     61.57429751	      4.99239532	     -9.54906327	     39.87696592	     55.50820256	    -14.59829972	     10.12065410	     85.64311042
     26.56000000	      7.30593638	   -172.68913669	      0.00000000	      0.04640491	      1.38938888	      0.07175183	    -21.75882576	      4.66946618	     24.89792519	     61.55031152	      5.07523074	     -9.41548873	     39.65877664	     55.94683759	    -14.69515745	     10.12632734	     85.56791949
     26.57000000	      7.29417938	   -172.66390034	      0.00000000	      0.04649740	      1.38942389	      0.07176762	    -21.76235375	      4.69342580	     25.02732515	     61.52677413	      5.14386778	     -9.27739463	     39.43106150	     56.39351461	    -14.79500158	     10.14115211	     85.48143584
     26.58000000	      7.29306575	   -172.63133865	      0.00000000	      0.04658696	      1.38948118	      0.07175193	    -21.76036260	      4.71357909	     25.16065912	     61.49679372	      5.21332582	     -9.13330506	     39.20034699	     56.82721936	    -14.89316609	     10.15670579	     85.38801342
     26.59000000	      7.28727526	   -172.60328089	      0.00000000	      0.04668874	      1.38954875	      0.07174401	    -21.76214755	      4.73224104	     25.29873312	     61.46218145	      5.28469113	     -8.98338087	     38.98016516	     57.23679914	    -14.98523661	     10.17359947	     85.29330932
     26.60000000	      7.23651679	   -172.54461956	      0.00000000	      0.04689390	      1.38961959	      0.07173049	    -21.77404270	      4.75463247	     25.37506162	     61.68091882	      5.21216329	     -8.62596638	     38.20481815	     57.56333754	    -14.09180885	     10.20143137	     83.51352151
     26.61000000	      7.25573963	   -172.52146074	      0.00000000	      0.04698621	      1.38972861	      0.07170530	    -21.78512825	      4.74586223	     25.56897161	     61.61689502	      5.34222141	     -8.46964116	     38.08429570	     57.88446935	    -14.16144268	     10.18364786	     83.47702329
     26.62000000	      7.27280240	   -172.51006453	      0.00000000	      0.04704176	      1.38969743	      0.07179268	    -21.82264103	      4.79748874	     25.69541921	     61.55836637	      5.38243520	     -8.28826204	     37.92693559	     58.33122458	    -14.27355666	     10.19459423	     83.40360969
     26.63000000	      7.27032460	   -172.47075585	      0.00000000	      0.04714372	      1.38984902	      0.07171492	    -21.82376392	      4.78592954	     25.87136116	     61.48293608	      5.49230273	     -8.13393188	     37.78782523	     58.63365671	    -14.35109830	     10.17877314	     83.35738643
     26.64000000	      7.27573100	   -172.45469720	      0.00000000	      0.04720955	      1.38979569	      0.07180560	    -21.85930512	      4.85242832	     25.97413644	     61.42319695	      5.50130058	     -7.94533832	     37.59909551	     59.08221671	    -14.47859996	     10.21723568	     83.25508386
     26.65000000	      7.27578663	   -172.41603194	      0.00000000	      0.04732241	      1.38994927	      0.07173775	    -21.86016240	      4.82964397	     26.15113398	     61.34798044	      5.61065895	     -7.78838498	     37.45865967	     59.36224697	    -14.55343222	     10.20574868	     83.20355178
     26.66000000	      7.27432423	   -172.39325029	      0.00000000	      0.04738014	      1.38991847	      0.07180496	    -21.89952424	      4.90279486	     26.24342306	     61.29752214	      5.59998796	     -7.58520392	     37.24794187	     59.78674072	    -14.68376106	     10.25773377	     83.06887180
     26.67000000	      7.26538833	   -172.36432135	      0.00000000	      0.04748563	      1.39009608	      0.07173309	    -21.90536441	      4.87669719	     26.42047150	     61.23440957	      5.71381848	     -7.43546874	     37.12517314	     60.02997640	    -14.74341379	     10.24951306	     83.02148131
     26.68000000	      7.30425084	   -172.35150770	      0.00000000	      0.04753643	      1.39000354	      0.07186076	    -21.96449657	      4.94080307	     26.53152061	     61.19475327	      5.71524233	     -7.21555156	     36.93879636	     60.44611850	    -14.85014290	     10.29246590	     82.90227754
     26.69000000	      7.30323443	   -172.30858424	      0.00000000	      0.04761551	      1.39007572	      0.07184163	    -21.99885875	      4.96552267	     26.66073158	     61.14872480	      5.74440432	     -7.00883710	     36.73747611	     60.74819061	    -14.93351657	     10.32044673	     82.76509960
     26.70000000	      7.31560615	   -172.28439149	      0.00000000	      0.04768853	      1.39012951	      0.07185707	    -22.04200520	      4.98228354	     26.80395095	     61.11675311	      5.79461380	     -6.81022310	     36.57119991	     61.03398226	    -14.99120115	     10.34041452	     82.65069596
     26.71000000	      7.31581271	   -172.21637129	      0.00000000	      0.04782327	      1.39019009	      0.07182391	    -22.10172818	      5.01744058	     26.95730085	     61.14810316	      5.81373149	     -6.52455693	     36.23816067	     61.21557660	    -14.95904015	     10.39960116	     82.30785904
     26.72000000	      7.33859342	   -172.21834871	      0.00000000	      0.04785360	      1.39026072	      0.07188876	    -22.15459810	      5.01095251	     27.10171902	     61.11989439	      5.87501658	     -6.34330558	     36.13790534	     61.50900926	    -14.98423150	     10.38915566	     82.23977557
     26.73000000	      7.35578521	   -172.19324858	      0.00000000	      0.04790908	      1.39030306	      0.07192477	    -22.20931758	      5.02387662	     27.23352290	     61.08022392	      5.91735873	     -6.15509939	     36.01076559	     61.79891106	    -15.01067945	     10.38301962	     82.15958752
     26.74000000	      7.36666144	   -172.15948013	      0.00000000	      0.04795375	      1.39032682	      0.07195952	    -22.27693230	      5.05201758	     27.35594384	     61.05294880	      5.93949744	     -5.94833877	     35.85993451	     62.07973103	    -15.02388731	     10.38976367	     82.05386771
     26.75000000	      7.38383111	   -172.13029444	      0.00000000	      0.04800984	      1.39036889	      0.07199259	    -22.34235770	      5.06570478	     27.48938551	     61.03447788	      5.97600239	     -5.74390343	     35.70800518	     62.32987904	    -15.02650941	     10.39726516	     81.94904832
     26.76000000	      7.41252222	   -172.09500963	      0.00000000	      0.04805041	      1.39040234	      0.07203558	    -22.41392898	      5.07490983	     27.62331880	     61.02362379	      6.00663607	     -5.52705526	     35.54777732	     62.57665729	    -15.02112347	     10.40213555	     81.83852559
     26.77000000	      7.39550390	   -172.06937063	      0.00000000	      0.04811604	      1.39057405	      0.07196608	    -22.43099372	      5.03576042	     27.77166878	     60.98060180	      6.09783066	     -5.39382231	     35.45941212	     62.74413929	    -15.04199562	     10.38719659	     81.80437726
     26.78000000	      7.44500665	   -171.98417880	      0.00000000	      0.04821729	      1.39049607	      0.07210420	    -22.63238664	      5.10017529	     27.92539121	     61.31151306	      5.97330763	     -4.80517296	     34.72314497	     62.83523711	    -14.23621612	     10.43940702	     80.91454469
     26.79000000	      7.47028691	   -171.97706740	      0.00000000	      0.04822153	      1.39055133	      0.07216490	    -22.68599579	      5.09047558	     28.05159875	     61.27263183	      6.03656151	     -4.66494396	     34.67303772	     63.08680968	    -14.26725144	     10.41933152	     80.86302046
     26.80000000	      7.48967969	   -171.94650820	      0.00000000	      0.04824579	      1.39060185	      0.07220057	    -22.75209522	      5.08669104	     28.17082801	     61.23506892	      6.08532610	     -4.51276550	     34.60540954	     63.32513921	    -14.29746683	     10.40456857	     80.80455533
     26.81000000	      7.48204140	   -171.92024746	      0.00000000	      0.04829028	      1.39075540	      0.07214787	    -22.77254431	      5.04536981	     28.30530980	     61.19200631	      6.16898242	     -4.39374254	     34.54318685	     63.48916375	    -14.32644921	     10.38884798	     80.78044352
     26.82000000	      7.53403061	   -171.89955972	      0.00000000	      0.04830026	      1.39079959	      0.07221648	    -22.83387089	      5.02270986	     28.43259632	     61.16061475	      6.22766416	     -4.24313936	     34.47201164	     63.72184531	    -14.36281523	     10.38255861	     80.74630521
     26.83000000	      7.55622726	   -171.84490515	      0.00000000	      0.04829474	      1.39075297	      0.07234717	    -22.97904410	      5.06598130	     28.52686717	     61.17552273	      6.22793634	     -4.04915389	     34.36987260	     63.97328086	    -14.38605100	     10.38267042	     80.67759689
     26.84000000	      7.56726462	   -171.81244366	      0.00000000	      0.04833750	      1.39090016	      0.07231509	    -23.01006442	      5.01876263	     28.65890337	     61.14446922	      6.30745884	     -3.92639131	     34.29875903	     64.12080039	    -14.40754497	     10.37254370	     80.65244295
     26.85000000	      7.47638231	   -171.81423593	      0.00000000	      0.04838299	      1.39109220	      0.07226114	    -23.01456371	      5.01590099	     28.76576848	     61.12895931	      6.39484692	     -3.86805958	     34.26933676	     64.20625991	    -14.41894798	     10.37252308	     80.64769129
     26.86000000	      7.61776890	   -171.77451330	      0.00000000	      0.04836007	      1.39104313	      0.07239726	    -23.11316927	      4.95810496	     28.89900231	     61.11112453	      6.44070715	     -3.68094958	     34.17940359	     64.47769030	    -14.45806333	     10.36701426	     80.61170895
     26.87000000	      7.68256714	   -171.72650090	      0.00000000	      0.04833681	      1.39103464	      0.07257238	    -23.25964714	      4.96010830	     28.99826937	     61.14355094	      6.45926644	     -3.50824550	     34.08903610	     64.71287357	    -14.47651982	     10.36768622	     80.57242003
     26.88000000	      7.70409380	   -171.69552942	      0.00000000	      0.04835113	      1.39106001	      0.07269055	    -23.37178430	      4.97027330	     29.09889025	     61.26999728	      6.45919070	     -3.26657361	     33.86244826	     64.84669258	    -14.44484623	     10.37433864	     80.55795894
     26.89000000	      7.75106666	   -171.48711097	      0.00000000	      0.04847551	      1.39107023	      0.07280569	    -23.70372350	      4.96639924	     29.25272050	     61.61255496	      6.39644240	     -2.79041350	     33.24654194	     64.84627054	    -13.63895926	     10.41465415	     79.95872091
     26.90000000	      7.79158167	   -171.45055686	      0.00000000	      0.04847047	      1.39118607	      0.07292800	    -23.82045241	      4.90832800	     29.38986627	     61.72051908	      6.45736145	     -2.65805608	     33.13247940	     64.95202559	    -13.67821747	     10.40844660	     79.97437049
     26.91000000	      7.83243921	   -171.38727041	      0.00000000	      0.04847698	      1.39125833	      0.07302390	    -23.94229741	      4.86934483	     29.50793732	     61.77496688	      6.49748322	     -2.53532057	     33.03290966	     65.09249168	    -13.65971843	     10.40945077	     79.99169136
     26.92000000	      7.86739025	   -171.33154737	      0.00000000	      0.04847894	      1.39134667	      0.07313245	    -24.06233960	      4.82603527	     29.62020105	     61.83541336	      6.53579736	     -2.42669552	     32.94921525	     65.22980211	    -13.64242942	     10.40073323	     80.00083709
     26.93000000	      7.93057924	   -171.41741830	      0.00000000	      0.04838420	      1.39130599	      0.07325872	    -24.02139574	      4.83818498	     29.71673047	     61.86607479	      6.49393430	     -2.17630257	     32.78914826	     65.36182553	    -13.70688682	     10.44201738	     80.01720826
     26.94000000	      7.94904494	   -171.21117610	      0.00000000	      0.04846803	      1.39150515	      0.07334985	    -24.31680978	      4.73104212	     29.83788069	     61.97935474	      6.61567623	     -2.19804914	     32.77221021	     65.45953476	    -13.61930914	     10.39576448	     80.06012849
     26.95000000	      7.99094750	   -171.14922654	      0.00000000	      0.04847067	      1.39158306	      0.07344842	    -24.44044426	      4.68146236	     29.94056265	     62.05026742	      6.66026299	     -2.11098721	     32.69791537	     65.57174078	    -13.58248035	     10.38587139	     80.08720346
     26.96000000	      8.02006745	   -171.08997543	      0.00000000	      0.04845601	      1.39168640	      0.07356400	    -24.56309048	      4.62131372	     30.03068412	     62.13185124	      6.68180068	     -2.00407680	     32.60665671	     65.67564602	    -13.50742555	     10.37253651	     80.13351898
     26.97000000	      8.05559400	   -171.04799115	      0.00000000	      0.04843997	      1.39177738	      0.07364891	    -24.63677403	      4.55297646	     30.21717879	     62.18672897	      6.60647439	     -2.00114649	     32.53788575	     65.81965170	    -13.57508654	     10.38245028	     80.72396107
     26.98000000	      8.09500293	   -170.98215731	      0.00000000	      0.04842435	      1.39184152	      0.07374513	    -24.74945197	      4.50512431	     30.38706360	     62.21692376	      6.55260043	     -1.99877383	     32.52556964	     65.94135697	    -13.63209720	     10.37491364	     80.87431095
     26.99000000	      8.14161382	   -170.94834185	      0.00000000	      0.04844243	      1.39190191	      0.07387794	    -24.85851465	      4.42414719	     31.09473355	     62.52168726	      5.97960798	     -2.00891276	     32.13173833	     65.97569349	    -13.05031723	     10.34417296	     80.99219888
     27.00000000	      8.15408201	   -170.93988566	      0.00000000	      0.04839699	      1.39203834	      0.07389497	    -24.86564099	      4.34818586	     31.75091881	     62.52423997	      5.46473139	     -2.31669198	     32.18506921	     66.11014684	    -12.79409131	     10.25770665	     80.65556903
     27.01000000	      8.17118366	   -170.85876152	      0.00000000	      0.04839360	      1.39209375	      0.07398821	    -25.02299606	      4.33055388	     31.79871759	     62.47460535	      5.59676499	     -2.38545062	     32.39279790	     66.14321859	    -13.20847004	     10.27323569	     80.49873972
     27.02000000	      8.19194974	   -170.79622301	      0.00000000	      0.04840930	      1.39216157	      0.07407088	    -25.13247666	      4.27653335	     31.90022729	     62.60314435	      5.56159481	     -2.30350460	     32.25068399	     66.17468033	    -13.17278561	     10.27675228	     80.83477298
     27.03000000	      8.21419924	   -170.73626724	      0.00000000	      0.04840955	      1.39219509	      0.07413272	    -25.24990109	      4.25389061	     31.92526536	     62.67606698	      5.61525308	     -2.18284484	     32.18783945	     66.16086332	    -13.15639321	     10.28280648	     80.78928718
     27.04000000	      8.23753832	   -170.70032138	      0.00000000	      0.04841865	      1.39223536	      0.07419624	    -25.33464848	      4.21749192	     31.93375435	     62.75268709	      5.67991557	     -2.11203609	     32.12947962	     66.17112184	    -13.12145809	     10.29066207	     80.77742720
     27.05000000	      8.23352203	   -170.66811238	      0.00000000	      0.04841862	      1.39228655	      0.07419940	    -25.37138658	      4.18086842	     31.90563376	     62.76749798	      5.72910589	     -2.07664792	     32.12282812	     66.21367106	    -13.02529860	     10.25538369	     80.75200598
     27.06000000	      8.24130417	   -170.64716957	      0.00000000	      0.04842189	      1.39229869	      0.07421187	    -25.42021935	      4.16156204	     31.88356710	     62.80839913	      5.79781137	     -2.00502224	     32.09847408	     66.19904083	    -12.98286972	     10.24394395	     80.78232377
     27.07000000	      8.22766187	   -170.63921981	      0.00000000	      0.04842426	      1.39231802	      0.07417533	    -25.40594696	      4.13243029	     31.80779959	     62.77830840	      5.86356775	     -2.03383285	     32.14416533	     66.27317947	    -12.86357344	     10.20163563	     80.69935390
     27.08000000	      8.21868532	   -170.62647905	      0.00000000	      0.04841301	      1.39234045	      0.07415691	    -25.42563224	      4.10694560	     31.77556033	     62.76674316	      5.90734073	     -2.01268830	     32.18658001	     66.27758559	    -12.72501890	     10.15677913	     80.66519020
     27.09000000	      8.18322743	   -170.63599293	      0.00000000	      0.04841094	      1.39236068	      0.07408229	    -25.38221693	      4.09535518	     31.74441679	     62.72746416	      5.92901693	     -2.07332291	     32.24980814	     66.29077965	    -12.67129839	     10.12246305	     80.50265436
     27.10000000	      8.18265540	   -170.63800038	      0.00000000	      0.04844845	      1.39229739	      0.07403084	    -25.37809949	      4.12094437	     31.71644335	     62.75099954	      5.95150952	     -2.03703534	     32.21311675	     66.24286737	    -12.63897463	     10.13539863	     80.48980464
     27.11000000	      8.14604208	   -170.63329279	      0.00000000	      0.04844269	      1.39233805	      0.07393991	    -25.35368506	      4.07839713	     31.65733772	     62.71145590	      5.98409108	     -2.11538078	     32.30590636	     66.25777341	    -12.51789874	     10.09272845	     80.40957061
     27.12000000	      8.12023753	   -170.65062848	      0.00000000	      0.04844999	      1.39230662	      0.07385049	    -25.31274153	      4.08557378	     31.61172383	     62.70228827	      5.97443218	     -2.13116433	     32.32824211	     66.22107960	    -12.51676299	     10.08934431	     80.18173254
     27.13000000	      8.07565228	   -170.77403601	      0.00000000	      0.04837547	      1.39222045	      0.07367788	    -25.09879435	      4.12486991	     31.53759927	     62.52541562	      5.92404670	     -2.14727978	     32.45998998	     66.24463811	    -12.29335727	     10.01707345	     80.17718121
     27.14000000	      8.03104683	   -170.65125722	      0.00000000	      0.04853037	      1.39227697	      0.07361835	    -25.25547945	      4.10064463	     31.57162506	     62.83184699	      5.87301740	     -2.08744247	     32.13596831	     66.01862128	    -12.70554849	     10.20162764	     81.26120402
     27.15000000	      7.99957887	   -170.70838938	      0.00000000	      0.04848173	      1.39217264	      0.07347284	    -25.16486383	      4.14136181	     31.47668112	     62.50518218	      5.98044133	     -2.35889133	     32.67505247	     66.03337751	    -12.71456688	     10.07967145	     79.92162671
     27.16000000	      7.94790198	   -170.96058865	      0.00000000	      0.04833139	      1.39195706	      0.07334168	    -24.85283647	      4.27888272	     31.37173395	     62.45037134	      5.81891569	     -2.13508007	     32.58305858	     65.92626486	    -12.69681911	     10.10503912	     79.99558834
     27.17000000	      7.90669920	   -170.75058748	      0.00000000	      0.04852537	      1.39216193	      0.07317958	    -25.02335372	      4.11599757	     31.34682321	     62.63330370	      5.86709650	     -2.39494648	     32.49910074	     65.82868250	    -13.03108289	     10.26650218	     81.04854875
     27.18000000	      7.84735561	   -170.84967788	      0.00000000	      0.04849198	      1.39199048	      0.07295194	    -24.87957014	      4.21609831	     30.95237886	     62.35984059	      6.17680591	     -2.41141624	     32.89998320	     65.74846100	    -12.66006056	     10.06106805	     79.58653642
     27.19000000	      7.79138428	   -171.10585506	      0.00000000	      0.04835405	      1.39175270	      0.07281137	    -24.56747821	      4.35309786	     30.83562025	     62.30612567	      5.99663950	     -2.20891760	     32.82949051	     65.60639546	    -12.64909016	     10.09130976	     79.67119146
     27.20000000	      7.75248004	   -170.95735917	      0.00000000	      0.04852517	      1.39186285	      0.07261880	    -24.69142512	      4.23254128	     31.02775676	     62.43102007	      5.85471139	     -2.57047689	     32.87073612	     65.46901485	    -12.72895800	     10.11749808	     80.39579113
     27.21000000	      7.68714700	   -171.21158692	      0.00000000	      0.04837478	      1.39160934	      0.07244388	    -24.37999131	      4.38819829	     30.89256695	     62.34995779	      5.67510470	     -2.37660327	     32.83413122	     65.28930879	    -12.77144302	     10.16941308	     80.40197185
     27.22000000	      7.63736378	   -171.06355120	      0.00000000	      0.04850689	      1.39170922	      0.07220370	    -24.49651104	      4.30128747	     30.77829578	     62.19297891	      5.88562177	     -2.86683421	     33.36421547	     65.17498276	    -12.99220633	     10.09732056	     79.68176864
     27.23000000	      7.57995155	   -171.32788547	      0.00000000	      0.04835204	      1.39146387	      0.07202550	    -24.17912112	      4.43348758	     30.63602499	     62.14698312	      5.70120970	     -2.67588349	     33.30973342	     64.96600243	    -12.97850757	     10.13768410	     79.75858855
     27.24000000	      7.53551045	   -171.17423082	      0.00000000	      0.04851283	      1.39153987	      0.07181491	    -24.33606593	      4.34778406	     30.54408394	     62.24298175	      5.80332587	     -2.91694328	     33.43645205	     64.72992178	    -12.92627637	     10.12557612	     79.78489233
     27.25000000	      7.48054922	   -171.25367552	      0.00000000	      0.04847762	      1.39147445	      0.07158017	    -24.19378672	      4.35917063	     30.41677060	     62.07274166	      5.80341844	     -3.17307207	     33.79539678	     64.57972048	    -13.13584865	     10.11619152	     79.47564102
     27.26000000	      7.42539600	   -171.28033994	      0.00000000	      0.04846765	      1.39137386	      0.07142573	    -24.16728251	      4.37292694	     30.28545518	     62.11569916	      5.70310391	     -3.25570670	     33.87096695	     64.39666902	    -13.11493258	     10.12092874	     79.47722569
     27.27000000	      7.35947851	   -171.31535391	      0.00000000	      0.04846862	      1.39130827	      0.07122644	    -24.11137088	      4.38022884	     30.16075960	     62.14636505	      5.61804322	     -3.35406622	     33.95751838	     64.15721621	    -13.09491732	     10.12343913	     79.47816392
     27.28000000	      7.33574094	   -171.44048246	      0.00000000	      0.04843286	      1.39124757	      0.07099101	    -23.95185327	      4.37926667	     30.09050162	     62.11819936	      5.60020315	     -3.46437959	     34.13874571	     63.82482200	    -13.13485081	     10.12154902	     79.43836065
     27.29000000	      7.27334966	   -171.48811252	      0.00000000	      0.04839610	      1.39117946	      0.07071647	    -23.84443387	      4.40528322	     29.94713144	     61.87426993	      5.61464802	     -3.78143208	     34.65381833	     63.60593018	    -13.50558634	     10.11997474	     79.22262072
     27.30000000	      7.21552124	   -171.53686728	      0.00000000	      0.04835687	      1.39111654	      0.07052159	    -23.78154252	      4.39477734	     29.79794298	     61.93236849	      5.50015741	     -3.87171839	     34.75335534	     63.34572091	    -13.49207635	     10.07372296	     79.23356372
     27.31000000	      7.17590043	   -171.61606231	      0.00000000	      0.04831680	      1.39103621	      0.07034041	    -23.70223411	      4.39585543	     29.67423491	     61.96548328	      5.42619918	     -3.98487076	     34.90309237	     63.03133166	    -13.48286534	     10.07438835	     79.24447033
     27.32000000	      7.14224511	   -171.72770986	      0.00000000	      0.04820936	      1.39096836	      0.07016497	    -23.59866010	      4.39039670	     29.55166142	     61.91397015	      5.35371740	     -4.09792008	     35.19037426	     62.70084331	    -13.59215901	     10.04938807	     79.23888105
     27.33000000	      7.08712879	   -171.74975681	      0.00000000	      0.04819350	      1.39083149	      0.07001124	    -23.58377077	      4.41575292	     29.36345552	     61.96959236	      5.21696762	     -4.23065389	     35.30443428	     62.45191816	    -13.56900861	     10.06376231	     79.25299024
     27.34000000	      7.04580186	   -171.80762725	      0.00000000	      0.04815863	      1.39081342	      0.06976284	    -23.49421389	      4.38385892	     29.24306300	     61.97864560	      5.17038579	     -4.38948847	     35.51364846	     62.05230505	    -13.58862075	     10.04316438	     79.27561957
     27.35000000	      6.99655318	   -171.84523189	      0.00000000	      0.04810443	      1.39071250	      0.06963690	    -23.47308836	      4.38199312	     29.04839864	     62.02723064	      5.02119685	     -4.51319624	     35.65887304	     61.77278315	    -13.57451014	     10.04760661	     79.29234480
     27.36000000	      6.97897705	   -171.96018734	      0.00000000	      0.04793533	      1.39067269	      0.06943111	    -23.34584368	      4.35628311	     28.91108307	     61.71522731	      5.09183570	     -4.91858203	     36.46256216	     61.45138299	    -14.21939796	     10.02174834	     79.42453221
     27.37000000	      6.91149071	   -171.98015500	      0.00000000	      0.04792881	      1.39061238	      0.06917338	    -23.28726047	      4.35769425	     28.72865536	     61.78503866	      4.96976071	     -5.06260066	     36.58998820	     61.06602858	    -14.18291748	      9.96058897	     79.47644274
     27.38000000	      6.87170390	   -172.03321294	      0.00000000	      0.04786988	      1.39055322	      0.06900764	    -23.24235911	      4.33475131	     28.56511425	     61.84094671	      4.86361056	     -5.19752009	     36.77481996	     60.65570255	    -14.14098680	      9.94582380	     79.53914182
     27.39000000	      6.83845566	   -172.09185265	      0.00000000	      0.04778802	      1.39048569	      0.06886319	    -23.20443808	      4.31770263	     28.40032634	     61.88234047	      4.75468380	     -5.33050842	     36.99612815	     60.23680714	    -14.11098931	      9.92558838	     79.61568694
     27.40000000	      6.80533769	   -172.13861692	      0.00000000	      0.04771235	      1.39041180	      0.06870386	    -23.16633562	      4.30143339	     28.23003605	     61.91340462	      4.64561333	     -5.47591514	     37.22844695	     59.80495597	    -14.08461818	      9.90039728	     79.69929642
     27.41000000	      6.76542076	   -172.18099431	      0.00000000	      0.04760025	      1.39028774	      0.06863836	    -23.16298082	      4.29338462	     27.99550176	     61.97984474	      4.46079065	     -5.61577860	     37.40067619	     59.47090448	    -14.04270579	      9.91459260	     79.73927990
     27.42000000	      6.68889122	   -172.20810618	      0.00000000	      0.04753646	      1.39027728	      0.06845350	    -23.12437139	      4.26559424	     27.79635094	     62.02896892	      4.33125106	     -5.78546184	     37.60849397	     59.00057656	    -13.98278861	      9.89636336	     79.80227323
     27.43000000	      6.71874873	   -172.28899903	      0.00000000	      0.04742967	      1.39022545	      0.06829002	    -23.07902704	      4.23124421	     27.71985096	     62.00670224	      4.32243578	     -5.92265236	     38.01187834	     58.39856007	    -13.93817871	      9.81575392	     79.98094505
     27.44000000	      6.68264267	   -172.32508641	      0.00000000	      0.04730969	      1.39008026	      0.06827070	    -23.08413585	      4.23279955	     27.45762617	     62.06976840	      4.11130859	     -6.07247846	     38.18967219	     58.06289372	    -13.89464473	      9.83197194	     80.02734961
     27.45000000	      6.64680978	   -172.37096413	      0.00000000	      0.04721153	      1.39009364	      0.06806987	    -23.04374754	      4.20124060	     27.33528815	     62.03807579	      4.06794544	     -6.24295131	     38.58722795	     57.44081392	    -13.83852542	      9.76557404	     80.23484870
     27.46000000	      6.60367739	   -172.39009681	      0.00000000	      0.04712944	      1.39003448	      0.06791277	    -23.01567699	      4.18429685	     27.13279350	     62.04193003	      3.93962462	     -6.42323906	     38.86714035	     56.93858208	    -13.78894714	      9.73480657	     80.38010780
     27.47000000	      6.58745968	   -172.47913210	      0.00000000	      0.04691291	      1.38995614	      0.06781325	    -22.94848355	      4.19237929	     26.92486709	     61.69792179	      3.98605711	     -6.85898884	     39.86231762	     56.54631075	    -15.15597946	      9.76191978	     82.63484979
     27.48000000	      6.54479513	   -172.49493380	      0.00000000	      0.04684084	      1.38993144	      0.06768063	    -22.92656883	      4.15596402	     26.72179159	     61.75789537	      3.85341737	     -7.02695472	     40.06938655	     55.99562419	    -15.02277539	      9.76610057	     82.72486666
     27.49000000	      6.51762232	   -172.52166802	      0.00000000	      0.04673960	      1.38987733	      0.06759739	    -22.91586808	      4.12934491	     26.52970416	     61.80055200	      3.72182805	     -7.17523973	     40.31699790	     55.43467963	    -14.87075238	      9.76002946	     82.83586967
     27.50000000	      6.47132183	   -172.56743410	      0.00000000	      0.04660942	      1.38977525	      0.06764073	    -22.92513443	      4.11841559	     26.26636975	     61.86934294	      3.51810372	     -7.34032462	     40.52855803	     54.98601052	    -14.76447069	      9.79132100	     82.89880936
     27.51000000	      6.46711149	   -172.58033948	      0.00000000	      0.04654257	      1.38982854	      0.06742756	    -22.89473180	      4.07069083	     26.17061002	     61.84438157	      3.48731134	     -7.47700032	     40.88456444	     54.22470993	    -14.51685074	      9.75303725	     83.09341432
     27.52000000	      6.45806805	   -172.63628396	      0.00000000	      0.04636288	      1.38969232	      0.06743200	    -22.91350234	      4.10817123	     26.00747928	     61.81545991	      3.34982852	     -7.55392685	     41.26798718	     53.61088947	    -14.26548378	      9.71013513	     83.36422826
     27.53000000	      6.41417376	   -172.64548322	      0.00000000	      0.04627918	      1.38967534	      0.06735252	    -22.88815943	      4.07007815	     25.78456849	     61.82693694	      3.20093181	     -7.73755145	     41.51125756	     53.03768486	    -14.11087797	      9.72581096	     83.50538333
     27.54000000	      6.40258626	   -172.67237613	      0.00000000	      0.04616667	      1.38964249	      0.06729333	    -22.86949673	      4.03538626	     25.61577398	     61.81634748	      3.09635454	     -7.88987533	     41.82380059	     52.39147653	    -13.90151164	      9.73962296	     83.69966586
     27.55000000	      6.37810510	   -172.71665857	      0.00000000	      0.04603141	      1.38959385	      0.06729631	    -22.86857532	      4.01788947	     25.42660011	     61.80298612	      2.95991579	     -8.02560462	     42.15237162	     51.76179031	    -13.68440474	      9.75597725	     83.91053964
     27.56000000	      6.32991757	   -172.76685852	      0.00000000	      0.04586000	      1.38947620	      0.06741722	    -22.87618372	      4.01952534	     25.15254226	     61.85924732	      2.75121992	     -8.20517673	     42.38747403	     51.27513572	    -13.55338432	      9.81370853	     84.00248703
     27.57000000	      6.35582531	   -172.84322669	      0.00000000	      0.04567945	      1.38938294	      0.06731807	    -22.82020268	      4.04953156	     25.06441178	     61.67509498	      2.67745983	     -8.22497091	     42.87057876	     50.51133051	    -13.13971497	      9.76564695	     85.13073501
     27.58000000	      6.29402367	   -172.86238180	      0.00000000	      0.04555846	      1.38937641	      0.06738513	    -22.81578092	      4.00335510	     24.79588869	     61.72102494	      2.48946911	     -8.43164834	     43.07538128	     49.96671933	    -13.03709121	      9.83832271	     85.20327014
     27.59000000	      6.23285306	   -172.86443318	      0.00000000	      0.04553363	      1.38944296	      0.06732192	    -22.78461418	      3.95218106	     24.60783690	     61.72513000	      2.39707476	     -8.64792101	     43.34495131	     49.25087946	    -12.86044141	      9.92211910	     85.32240966
     27.60000000	      6.32051662	   -172.91647091	      0.00000000	      0.04530814	      1.38925610	      0.06732665	    -22.79747155	      4.01383693	     24.56641503	     61.53201320	      2.30927981	     -8.56210292	     43.84613408	     48.42348602	    -12.48546711	      9.85627435	     85.82767078
     27.61000000	      6.28410512	   -172.96321927	      0.00000000	      0.04523181	      1.38927552	      0.06737838	    -22.76406538	      3.95823576	     24.37490522	     61.53749591	      2.21528419	     -8.77875431	     44.11845242	     47.74518280	    -12.27921912	     10.00712642	     86.03209115
     27.62000000	      6.28726211	   -173.00005425	      0.00000000	      0.04514702	      1.38914249	      0.06737837	    -22.73040018	      4.00534499	     24.23542998	     61.46284296	      2.11730563	     -8.87830938	     44.46531824	     47.01810297	    -11.97652688	     10.05174924	     86.38383797
     27.63000000	      6.27182363	   -173.05838823	      0.00000000	      0.04489355	      1.38914962	      0.06742422	    -22.70317898	      3.95973810	     24.06411736	     61.31216455	      1.93644146	     -8.88308059	     44.76952905	     46.30306973	    -11.62346871	     10.07217105	     87.03196217
     27.64000000	      6.20655274	   -173.10127220	      0.00000000	      0.04484872	      1.38909720	      0.06757353	    -22.68692586	      3.95619373	     23.81138531	     61.37794719	      1.79438909	     -9.13934585	     44.98331792	     45.72187605	    -11.48041875	     10.23503969	     87.11511228
     27.65000000	      6.24214533	   -173.13510405	      0.00000000	      0.04473005	      1.38904852	      0.06754375	    -22.65421625	      3.94011837	     23.74219874	     61.22892248	      1.74057095	     -9.17379880	     45.34724319	     44.87052280	    -11.11150550	     10.31326005	     87.46958363
     27.66000000	      6.17324298	   -173.17420664	      0.00000000	      0.04463872	      1.38907632	      0.06768942	    -22.63960426	      3.90060409	     23.50470636	     61.23855100	      1.59658195	     -9.39574268	     45.57609806	     44.24827387	    -10.93137827	     10.46294278	     87.57334084
     27.67000000	      6.13234013	   -173.20243758	      0.00000000	      0.04454855	      1.38911279	      0.06776020	    -22.61817873	      3.84163619	     23.32053661	     61.19333962	      1.49390054	     -9.58382493	     45.83786169	     43.55351939	    -10.70413698	     10.61034276	     87.69574424
     27.68000000	      6.10936583	   -173.23287261	      0.00000000	      0.04446837	      1.38913364	      0.06782392	    -22.59432730	      3.80186246	     23.17107616	     61.11142645	      1.41280669	     -9.73957251	     46.13188405	     42.81312196	    -10.42606282	     10.75836573	     87.84333795
     27.69000000	      6.17441632	   -173.32215862	      0.00000000	      0.04422813	      1.38882683	      0.06783339	    -22.54485400	      3.95164147	     23.12546868	     60.81233828	      1.26228594	     -9.54984591	     46.53483186	     41.97657238	     -9.69887938	     10.72238686	     88.39358544
     27.70000000	      6.12693298	   -173.37460266	      0.00000000	      0.04412984	      1.38889811	      0.06801956	    -22.54335379	      3.85948892	     22.92103701	     60.79615700	      1.15544601	     -9.76919250	     46.74153342	     41.32962692	     -9.48183076	     10.95064629	     88.50428905
     27.71000000	      6.16759223	   -173.44541733	      0.00000000	      0.04396493	      1.38877249	      0.06809384	    -22.51570594	      3.89284294	     22.83627200	     60.62293152	      1.01605240	     -9.67628242	     46.92045547	     40.52503253	     -8.80010804	     11.07154658	     89.00981189
     27.72000000	      6.11100998	   -173.47000165	      0.00000000	      0.04390292	      1.38882592	      0.06822167	    -22.50917902	      3.82881003	     22.63441280	     60.60020676	      0.91261060	     -9.89573608	     47.10765164	     39.87192643	     -8.58737340	     11.26554576	     89.10769090
     27.73000000	      6.09573716	   -173.49000435	      0.00000000	      0.04383224	      1.38888372	      0.06829675	    -22.50093450	      3.76681090	     22.50874140	     60.49211904	      0.85606449	    -10.04384166	     47.34686141	     39.11655462	     -8.27540407	     11.47090279	     89.25000894
     27.74000000	      6.14930203	   -173.58264288	      0.00000000	      0.04359910	      1.38868109	      0.06842434	    -22.48911010	      3.85387521	     22.43386244	     60.27454314	      0.66949213	     -9.84995672	     47.50502048	     38.32411218	     -7.47434370	     11.53738071	     89.70068576
     27.75000000	      6.09675121	   -173.61718678	      0.00000000	      0.04354287	      1.38872112	      0.06857341	    -22.49245832	      3.79577335	     22.25175746	     60.24520264	      0.58607083	    -10.06286391	     47.67723903	     37.66727964	     -7.22790797	     11.77459861	     89.79705298
     27.76000000	      6.08832823	   -173.64102868	      0.00000000	      0.04346897	      1.38877211	      0.06866925	    -22.49644930	      3.73578084	     22.13426205	     60.12781638	      0.53176772	    -10.19675657	     47.88549161	     36.92924936	     -6.89119899	     11.99186607	     89.93040836
     27.77000000	      6.14189658	   -173.70285673	      0.00000000	      0.04334581	      1.38856247	      0.06888525	    -22.56514475	      3.79547110	     22.06536431	     60.38019326	      0.09558295	     -9.51243588	     46.61117808	     35.90655403	     -4.96724306	     12.26381948	     90.69904823
     27.78000000	      6.10175318	   -173.73646354	      0.00000000	      0.04327211	      1.38859945	      0.06903238	    -22.57264073	      3.74558488	     21.89436079	     60.30315498	      0.02436352	     -9.72532696	     46.81623241	     35.27854674	     -4.75641099	     12.47411992	     90.75248670
     27.79000000	      6.14817439	   -173.81362802	      0.00000000	      0.04307691	      1.38849861	      0.06913845	    -22.55989719	      3.77950833	     21.84077102	     60.01294078	     -0.04895036	     -9.68779237	     47.11330677	     34.51823255	     -4.11866383	     12.59907442	     90.91067387
     27.80000000	      6.10621595	   -173.85458519	      0.00000000	      0.04300562	      1.38853236	      0.06930667	    -22.57410714	      3.73120753	     21.67544101	     59.95297722	     -0.11588536	     -9.89475415	     47.28798779	     33.89703278	     -3.88740514	     12.81902884	     90.96851545
     27.81000000	      6.16470474	   -173.91361226	      0.00000000	      0.04282820	      1.38842632	      0.06937141	    -22.56777203	      3.76798424	     21.64797686	     59.68076722	     -0.19313235	     -9.79857714	     47.45374202	     33.09760506	     -3.12435337	     12.94439426	     91.15761355
     27.82000000	      6.16446631	   -173.91866936	      0.00000000	      0.04281376	      1.38845684	      0.06963544	    -22.68022594	      3.68330618	     21.52504752	     60.06819584	     -0.53017651	     -9.36363773	     45.93041043	     32.17518924	     -1.25140609	     13.33522984	     91.04943338
     27.83000000	      6.17725482	   -173.98450941	      0.00000000	      0.04269929	      1.38840748	      0.06976916	    -22.66798644	      3.68602684	     21.43531854	     59.85591452	     -0.55565658	     -9.48678554	     46.20518617	     31.50891501	     -0.89257128	     13.52796789	     91.13002552
     27.84000000	      6.18343753	   -174.05449931	      0.00000000	      0.04256181	      1.38836244	      0.06991668	    -22.66555152	      3.69011613	     21.34258379	     59.65604014	     -0.60079214	     -9.58087231	     46.44259078	     30.85058843	     -0.47844305	     13.69768348	     91.22551003
     27.85000000	      6.13535734	   -174.11628720	      0.00000000	      0.04246649	      1.38837364	      0.07012973	    -22.68495225	      3.67101990	     21.18733243	     59.57832244	     -0.66823270	     -9.76489161	     46.61047218	     30.27268142	     -0.24026393	     13.88441392	     91.28367216
     27.86000000	      6.14563147	   -174.14655994	      0.00000000	      0.04240894	      1.38842826	      0.07021540	    -22.68509343	      3.62473636	     21.13058195	     59.38705331	     -0.64820554	     -9.90129942	     46.81105294	     29.55788067	      0.11602375	     14.10337315	     91.37526243
     27.87000000	      6.15506151	   -174.20372864	      0.00000000	      0.04230130	      1.38838747	      0.07036345	    -22.68999857	      3.63069141	     21.05647193	     59.20922224	     -0.67259832	     -9.99596096	     47.00547170	     28.90005002	      0.49873476	     14.29271022	     91.47426928
     27.88000000	      6.22609235	   -174.26053748	      0.00000000	      0.04217693	      1.38814747	      0.07051596	    -22.73104860	      3.67567589	     21.01572685	     59.49000812	     -1.21791022	     -9.07870211	     44.41909574	     27.94882146	      4.07752224	     14.59156145	     91.14248791
     27.89000000	      6.22516783	   -174.32563026	      0.00000000	      0.04210016	      1.38818632	      0.07068992	    -22.72946724	      3.63568984	     20.93226496	     59.37008111	     -1.20484085	     -9.25520825	     44.58670974	     27.32304309	      4.30737478	     14.78250123	     91.19324941
     27.90000000	      6.23957609	   -174.38337013	      0.00000000	      0.04199152	      1.38816690	      0.07083921	    -22.73233892	      3.62871276	     20.87142530	     59.18055039	     -1.20032915	     -9.37035937	     44.77178654	     26.68100524	      4.62034413	     14.96548962	     91.26878161
     27.91000000	      6.27318902	   -174.47828351	      0.00000000	      0.04181066	      1.38804213	      0.07099833	    -22.71610370	      3.68331623	     20.83028122	     58.92047147	     -1.23378598	     -9.37896664	     44.95431603	     26.04266049	      5.11994969	     15.10058265	     91.38799934
     27.92000000	      6.28335998	   -174.54918220	      0.00000000	      0.04168469	      1.38801651	      0.07114668	    -22.70565067	      3.67724560	     20.76264601	     58.73019144	     -1.25122086	     -9.46727093	     45.04799153	     25.43512507	      5.56747684	     15.26299647	     91.48438699
     27.93000000	      6.29196304	   -174.60863360	      0.00000000	      0.04158172	      1.38797610	      0.07128543	    -22.69280525	      3.68556075	     20.70041911	     58.55386434	     -1.26402930	     -9.55289741	     45.11959963	     24.83206398	      6.01523151	     15.42783972	     91.57659352
     27.94000000	      6.30227987	   -174.67703516	      0.00000000	      0.04146642	      1.38793011	      0.07144844	    -22.68148865	      3.69959732	     20.64373838	     58.37110375	     -1.28444408	     -9.61478742	     45.16719839	     24.23138566	      6.49636559	     15.58753354	     91.67047584
     27.95000000	      6.32132965	   -174.72195032	      0.00000000	      0.04147462	      1.38775025	      0.07162920	    -22.69908223	      3.72278754	     20.59847562	     58.92357427	     -1.87837198	     -8.65577600	     41.37369047	     23.32879779	     10.62690271	     15.98258532	     91.37702417
     27.96000000	      6.33231560	   -174.77282933	      0.00000000	      0.04137362	      1.38773635	      0.07180994	    -22.71396447	      3.71152637	     20.53976552	     58.73648674	     -1.85190172	     -8.79934808	     41.52165906	     22.76829388	     10.89118316	     16.14053122	     91.40805831
     27.97000000	      6.29993416	   -174.81947334	      0.00000000	      0.04131626	      1.38768706	      0.07200327	    -22.71573839	      3.74228274	     20.44074580	     58.64167338	     -1.85595506	     -8.97443432	     41.64927741	     22.26542375	     11.10512552	     16.29987230	     91.44659844
     27.98000000	      6.30339625	   -174.86180890	      0.00000000	      0.04123262	      1.38769720	      0.07215390	    -22.71600470	      3.72813104	     20.39845176	     58.45256769	     -1.81277413	     -9.11389340	     41.78986462	     21.69170028	     11.37707303	     16.46009114	     91.49881213
     27.99000000	      6.38653780	   -174.99878115	      0.00000000	      0.04101006	      1.38745612	      0.07223318	    -22.60085238	      3.84856125	     20.39636629	     58.04523652	     -1.85785150	     -9.01645872	     41.89889222	     21.13848541	     12.17426377	     16.46035895	     91.59527982
     28.00000000	      6.34083144	   -175.04795531	      0.00000000	      0.04094263	      1.38745712	      0.07248188	    -22.62365710	      3.84482991	     20.29032751	     57.98353694	     -1.86190579	     -9.20277070	     41.96491288	     20.68113970	     12.36278267	     16.63803818	     91.61871734
     28.01000000	      6.38399239	   -175.06490320	      0.00000000	      0.04091604	      1.38748649	      0.07260361	    -22.61824272	      3.80574643	     20.27798738	     57.78001252	     -1.79114642	     -9.32736672	     42.03407694	     20.11695589	     12.66855601	     16.79110570	     91.65885340
     28.02000000	      6.37013380	   -175.11781509	      0.00000000	      0.04083301	      1.38743159	      0.07279966	    -22.61551396	      3.83532431	     20.21355284	     57.64350327	     -1.79111365	     -9.43800135	     42.12009080	     19.63272375	     12.94419244	     16.92722232	     91.69739774
     28.03000000	      6.44882654	   -175.17417202	      0.00000000	      0.04082908	      1.38726379	      0.07294920	    -22.57151673	      3.84412622	     20.26703834	     58.13304448	     -2.44642401	     -8.27089407	     36.77826038	     18.82279338	     18.89646826	     17.23990348	     90.35558069
     28.04000000	      6.43333808	   -175.22152061	      0.00000000	      0.04075318	      1.38722605	      0.07321449	    -22.59943230	      3.85454073	     20.18586204	     58.04299752	     -2.43538081	     -8.43339629	     36.86334885	     18.39936301	     19.03777919	     17.37457479	     90.38740277
     28.05000000	      6.47217128	   -175.24087577	      0.00000000	      0.04071501	      1.38723655	      0.07337646	    -22.59922783	      3.83505290	     20.17056056	     57.85107798	     -2.36212291	     -8.56616412	     36.96784319	     17.89743318	     19.24628666	     17.49136072	     90.43406168
     28.06000000	      6.50684555	   -175.28461426	      0.00000000	      0.04062691	      1.38720149	      0.07356370	    -22.58364301	      3.85008830	     20.14774419	     57.64433783	     -2.32155262	     -8.65964714	     37.08086602	     17.42381733	     19.49701205	     17.58165640	     90.48563184
     28.07000000	      6.52675280	   -175.33713763	      0.00000000	      0.04053926	      1.38715004	      0.07376498	    -22.56883317	      3.87265325	     20.10776443	     57.47351361	     -2.29924005	     -8.75700527	     37.17965158	     16.99323834	     19.73526171	     17.67010474	     90.52877458
     28.08000000	      6.56933785	   -175.38652207	      0.00000000	      0.04044434	      1.38711938	      0.07395409	    -22.54597377	      3.87896826	     20.08849632	     57.26904816	     -2.26273017	     -8.83643391	     37.26870785	     16.55434449	     20.00308771	     17.74538417	     90.56931694
     28.09000000	      6.62245428	   -175.45403004	      0.00000000	      0.04039182	      1.38698517	      0.07414765	    -22.49113713	      3.90086546	     20.08955955	     57.58572336	     -2.74685519	     -7.99044407	     32.67830131	     16.02083339	     25.03549708	     17.94814285	     89.44104625
     28.10000000	      6.64520234	   -175.48706247	      0.00000000	      0.04032344	      1.38696607	      0.07438324	    -22.51124586	      3.88694945	     20.04969480	     57.48395877	     -2.70249259	     -8.12547711	     32.74088895	     15.64522328	     25.15195939	     18.06245331	     89.46956945
     28.11000000	      6.68528111	   -175.51434420	      0.00000000	      0.04025353	      1.38696730	      0.07460416	    -22.51936137	      3.87316694	     20.02607634	     57.33130900	     -2.65272708	     -8.23580769	     32.80985942	     15.25094400	     25.29933299	     18.14445587	     89.50080094
     28.12000000	      6.78506770	   -175.56702240	      0.00000000	      0.04013658	      1.38677614	      0.07495488	    -22.54893251	      3.89497066	     19.90482944	     57.32814599	     -2.73577816	     -8.32809926	     32.82467945	     15.13790384	     25.32497557	     18.15629246	     89.50589593
     28.13000000	      6.78157843	   -175.59273560	      0.00000000	      0.04006171	      1.38693096	      0.07505185	    -22.51386719	      3.87068085	     19.98740504	     56.98458755	     -2.58690483	     -8.38679377	     32.94104739	     14.50277281	     25.63735027	     18.25627063	     89.54762722
     28.14000000	      6.87247985	   -175.63881780	      0.00000000	      0.03995061	      1.38675817	      0.07537710	    -22.53880523	      3.88929355	     19.87476074	     56.98366276	     -2.66557790	     -8.46997457	     32.95587092	     14.39884666	     25.66167721	     18.26884522	     89.55195872
     28.15000000	      6.87108294	   -175.67351112	      0.00000000	      0.03987398	      1.38685730	      0.07546041	    -22.48309255	      3.89266161	     19.94587404	     56.67498388	     -2.54932036	     -8.49771958	     33.02604612	     13.82202338	     25.99860373	     18.35112416	     89.55165315
     28.16000000	      6.91238179	   -175.74212423	      0.00000000	      0.03973895	      1.38679529	      0.07568740	    -22.45734930	      3.92017919	     19.88902288	     56.51846052	     -2.54466792	     -8.48536905	     32.97702385	     13.53341870	     26.41865991	     18.37245801	     89.37369186
     28.17000000	      6.95320418	   -175.76487825	      0.00000000	      0.03965973	      1.38678548	      0.07590542	    -22.46132677	      3.91494617	     19.83262368	     56.41293195	     -2.52064291	     -8.49490425	     32.80221072	     13.22805808	     26.76204691	     18.42426668	     89.15946766
     28.18000000	      7.00122592	   -175.75343378	      0.00000000	      0.03970491	      1.38679109	      0.07616109	    -22.49919736	      3.85161039	     20.01255049	     56.93550077	     -3.06269001	     -7.73807356	     26.88494889	     12.79918687	     32.45968791	     18.68994707	     88.00005840
     28.19000000	      7.04539487	   -175.80194839	      0.00000000	      0.03958787	      1.38676914	      0.07637549	    -22.48131919	      3.85464237	     19.96325064	     56.78790344	     -3.02195752	     -7.77398208	     26.95981524	     12.52529881	     32.56845270	     18.71895540	     87.94292060
     28.20000000	      7.10105967	   -175.83209627	      0.00000000	      0.03950778	      1.38676268	      0.07661257	    -22.49098483	      3.84481553	     19.93065469	     56.67038622	     -2.97680556	     -7.81184069	     26.99942556	     12.25269027	     32.65123997	     18.75844111	     87.86546497
     28.21000000	      7.13813627	   -175.87763178	      0.00000000	      0.03941143	      1.38677822	      0.07681532	    -22.46560025	      3.83189800	     19.88773643	     56.54015755	     -2.93772926	     -7.85212775	     27.02233049	     11.98941703	     32.73117305	     18.79422179	     87.77663348
     28.22000000	      7.18534528	   -175.85816769	      0.00000000	      0.03932994	      1.38675051	      0.07704730	    -22.53789457	      3.83133527	     19.85497113	     56.49171353	     -2.92074684	     -7.86589734	     27.00194425	     11.75270352	     32.80362419	     18.83335687	     87.65694554
     28.23000000	      7.23589043	   -175.85501255	      0.00000000	      0.03926314	      1.38674857	      0.07728287	    -22.58222339	      3.81199843	     19.81713795	     56.43955180	     -2.89532930	     -7.87951963	     26.89107980	     11.52411262	     32.92043233	     18.88141089	     87.46687017
     28.24000000	      7.34855442	   -175.87831619	      0.00000000	      0.03921317	      1.38674104	      0.07749720	    -22.59157440	      3.78317509	     19.85855271	     56.37597527	     -2.79976124	     -7.86958746	     26.92555949	     11.24031747	     33.07635291	     18.93057685	     87.37405723
     28.25000000	      7.38853018	   -175.90792594	      0.00000000	      0.03911122	      1.38675793	      0.07774405	    -22.62476284	      3.75940475	     19.82907675	     56.29574385	     -2.77946723	     -7.87595474	     26.88403233	     11.03016731	     33.15916134	     18.97868284	     87.24772554
     28.26000000	      7.37171838	   -175.90792239	      0.00000000	      0.03904152	      1.38675482	      0.07791957	    -22.62615628	      3.77447439	     19.73797580	     56.23403947	     -2.83755787	     -7.88036290	     26.70547152	     10.88817534	     33.25703765	     18.97999976	     87.02021622
     28.27000000	      7.42154965	   -175.91646622	      0.00000000	      0.03896896	      1.38672620	      0.07814144	    -22.65390137	      3.77245262	     19.72631133	     56.19219508	     -2.82841606	     -7.85623568	     26.64232069	     10.69649697	     33.40227703	     19.00677482	     86.86965832
     28.28000000	      7.46095119	   -175.92547172	      0.00000000	      0.03889911	      1.38675897	      0.07834264	    -22.67229588	      3.74394910	     19.71418910	     56.16075730	     -2.80794295	     -7.85279561	     26.52519511	     10.50889257	     33.54340485	     19.04668363	     86.68244805
     28.29000000	      7.51206108	   -175.96929095	      0.00000000	      0.03880884	      1.38677404	      0.07849724	    -22.62757354	      3.71868251	     19.70108656	     56.07489428	     -2.78840040	     -7.84991829	     26.48198998	     10.35310415	     33.65283364	     19.09116950	     86.56525719
     28.30000000	      7.55558215	   -175.97611892	      0.00000000	      0.03874923	      1.38677764	      0.07869003	    -22.64216024	      3.69983175	     19.68946647	     56.04339778	     -2.77666426	     -7.83707009	     26.42581007	     10.20399859	     33.74505275	     19.12758590	     86.43582360
     28.31000000	      7.53632291	   -176.06623483	      0.00000000	      0.03866688	      1.38688372	      0.07881776	    -22.48226555	      3.65940150	     19.61887891	     55.87703854	     -2.77746630	     -7.90664678	     26.39385906	     10.10634029	     33.79020154	     19.17461857	     86.36288143
     28.32000000	      7.63882832	   -176.02243247	      0.00000000	      0.03860490	      1.38681417	      0.07905364	    -22.62360812	      3.64616998	     19.67298773	     55.95893769	     -2.74056437	     -7.82002905	     26.38219051	      9.94140249	     33.88527711	     19.20967134	     86.23043181
     28.33000000	      7.67850458	   -176.01946215	      0.00000000	      0.03863463	      1.38686725	      0.07916072	    -22.57917831	      3.61132291	     19.66648759	     55.94529101	     -2.70806087	     -7.83134073	     26.36376039	      9.81472318	     33.96009863	     19.19825711	     86.12404087
     28.34000000	      7.71342484	   -175.98361331	      0.00000000	      0.03852603	      1.38679191	      0.07941722	    -22.71176805	      3.61727845	     19.64795898	     56.00467618	     -2.73364768	     -7.76627584	     26.27582991	      9.74427705	     34.02936449	     19.28808719	     85.93090599
