simulation
nRows=100
nColumns=15
endheader
time  TH_x TH_y TH_z SC_y  SC_z  SC_x  AC_y  AC_z  AC_x  GH_y  GH_z  GH_yy  EL_x  PS_y
0.000000  0.000000  0.000000  0.000000  -21.320395  3.575747  -7.544838  59.021727  17.297573  3.398888  37.920817  20.635442  -9.430949  50.725791  72.906177
0.108081  0.000000  0.000000  0.000000  -21.527610  3.159830  -10.586095  60.359529  18.529134  3.767185  40.814635  17.334906  -5.815047  52.334199  71.212233
0.216162  0.000000  0.000000  0.000000  -21.616618  2.958197  -11.840033  60.857163  19.019933  3.884730  41.433980  15.992956  -5.004321  53.303296  70.363798
0.324242  0.000000  0.000000  0.000000  -21.605975  2.932410  -11.574477  60.665429  18.837630  3.834028  40.203954  16.279782  -6.538708  53.729762  70.208912
0.432323  0.000000  0.000000  0.000000  -21.514236  3.044032  -10.120487  59.927716  18.136529  3.644482  37.549659  17.865573  -9.958148  53.710277  70.595619
0.540404  0.000000  0.000000  0.000000  -21.359957  3.254626  -7.831976  58.784793  17.104578  3.321915  33.896194  20.420518  -14.802577  53.341522  71.371957
0.648485  0.000000  0.000000  0.000000  -21.161694  3.525756  -5.066458  57.376921  15.933297  2.879609  29.668662  23.614807  -20.611935  52.720177  72.385970
0.756566  0.000000  0.000000  0.000000  -20.938002  3.818983  -2.158453  55.847787  14.784581  2.349869  25.292163  27.118628  -26.926161  51.942923  73.485698
0.864646  0.000000  0.000000  0.000000  -20.707437  4.095870  0.592818  54.345865  13.773747  1.786617  21.191800  30.602171  -33.285192  51.106439  74.519183
0.972727  0.000000  0.000000  0.000000  -20.488555  4.317981  2.914185  53.022065  12.975167  1.267147  17.792673  33.735625  -39.228966  50.307406  75.334466
1.080808  0.000000  0.000000  0.000000  -20.299911  4.446877  4.567390  52.030116  12.418576  0.874062  15.519883  36.189179  -44.297423  49.642504  75.779588
1.188889  0.000000  0.000000  0.000000  -20.158460  4.447599  5.349904  51.514955  12.110640  0.684369  14.771353  37.658658  -48.053804  49.202129  75.716778
1.296970  0.000000  0.000000  0.000000  -20.055081  4.341799  5.374894  51.471339  12.020436  0.701009  15.502374  38.257391  -50.440859  48.974345  75.239306
1.405051  0.000000  0.000000  0.000000  -19.959440  4.197186  5.000286  51.771567  12.104457  0.861823  17.308126  38.438376  -51.710095  48.863956  74.628413
1.513131  0.000000  0.000000  0.000000  -19.840586  4.082811  4.588053  52.284088  12.325849  1.096462  19.773333  38.664472  -52.121984  48.773351  74.170795
1.621212  0.000000  0.000000  0.000000  -19.667567  4.067720  4.496565  52.876693  12.647734  1.340978  22.482721  39.398538  -51.936999  48.604918  74.153151
1.729293  0.000000  0.000000  0.000000  -19.410100  4.220044  5.095295  53.422337  13.015449  1.530943  25.024604  41.096076  -51.412233  48.261988  74.859753
1.837374  0.000000  0.000000  0.000000  -19.069405  4.564505  6.502506  53.861588  13.391294  1.644360  27.156958  43.864994  -50.645259  47.692428  76.460267
1.945455  0.000000  0.000000  0.000000  -18.691182  5.064537  8.488805  54.227312  13.761402  1.704294  28.877299  47.322422  -49.508409  46.906982  78.962548
2.053535  0.000000  0.000000  0.000000  -18.324492  5.678945  10.785932  54.554848  14.125743  1.741483  30.201240  51.048422  -47.857006  45.921146  82.362229
2.161616  0.000000  0.000000  0.000000  -18.018397  6.366536  13.136308  54.876151  14.476021  1.779228  31.144390  54.623057  -45.546372  44.750415  86.654941
2.269697  0.000000  0.000000  0.000000  -17.821893  7.086121  15.278670  55.216799  14.806862  1.843434  31.722416  57.626779  -42.432108  43.410320  91.836013
2.377778  0.000000  0.000000  0.000000  -17.759931  7.799392  17.029712  55.593890  15.118894  1.945005  31.972094  59.792121  -38.478701  41.930778  97.781838
2.485859  0.000000  0.000000  0.000000  -17.797010  8.475268  18.378469  56.011306  15.447624  2.069970  31.983269  61.233854  -33.924319  40.377858  104.069880
2.593939  0.000000  0.000000  0.000000  -17.888284  9.083788  19.339820  56.472461  15.835135  2.200108  31.853989  62.125853  -29.049443  38.823220  110.231385
2.702020  0.000000  0.000000  0.000000  -17.988908  9.594993  19.941412  56.983978  16.313511  2.308736  31.682301  62.641990  -24.134554  37.338524  115.797599
2.810101  0.000000  0.000000  0.000000  -18.054035  9.978919  20.196568  57.550910  16.927512  2.376090  31.566255  62.956139  -19.460133  35.995428  120.299766
2.918182  0.000000  0.000000  0.000000  -18.048746  10.212529  20.143722  58.163508  17.685398  2.380159  31.585965  63.203877  -15.345975  34.868262  123.334551
3.026263  0.000000  0.000000  0.000000  -17.984635  10.305213  19.886046  58.733974  18.464226  2.326630  31.737526  63.341354  -12.296068  34.043856  124.805132
3.134343  0.000000  0.000000  0.000000  -17.886904  10.275854  19.549352  59.153525  19.096426  2.232933  31.992447  63.272217  -10.868301  33.612701  124.704382
3.242424  0.000000  0.000000  0.000000  -17.780758  10.143334  19.247934  59.312636  19.421263  2.128322  32.322232  62.900103  -11.620570  33.665287  123.025183
3.350505  0.000000  0.000000  0.000000  -17.691404  9.926536  19.091772  59.101741  19.281103  2.044872  32.698387  62.128651  -15.110771  34.292105  119.760420
3.458586  0.000000  0.000000  0.000000  -17.642860  9.641074  19.172893  58.432492  18.545721  2.001168  33.089154  60.877394  -21.764226  35.547656  114.933973
3.566667  0.000000  0.000000  0.000000  -17.648370  9.272841  19.387572  57.402182  17.336596  1.973284  33.433080  59.210449  -30.800303  37.159072  108.851706
3.674747  0.000000  0.000000  0.000000  -17.715422  8.791860  19.514476  56.204894  15.915397  1.934268  33.652866  57.269107  -40.794639  38.678736  101.970003
3.782828  0.000000  0.000000  0.000000  -17.851452  8.168006  19.338151  55.039099  14.529551  1.872419  33.671064  55.195387  -50.316831  39.657390  94.746659
3.890909  0.000000  0.000000  0.000000  -18.063895  7.371156  18.627373  54.106087  13.428752  1.803715  33.410225  53.131306  -57.936477  39.645778  87.639470
3.998990  0.000000  0.000000  0.000000  -18.359119  6.375154  17.161160  53.603256  12.850674  1.752257  32.799165  51.214632  -62.283604  38.225278  81.098412
4.107071  0.000000  0.000000  0.000000  -18.721765  5.234785  14.991579  53.554810  12.825734  1.730818  31.894430  49.496522  -63.220352  35.601902  75.414078
4.215152  0.000000  0.000000  0.000000  -19.116180  4.080401  12.440562  53.820012  13.180143  1.730071  30.871821  47.947270  -61.759205  32.564841  70.728249
4.323232  0.000000  0.000000  0.000000  -19.505937  3.045252  9.843393  54.249507  13.726534  1.741609  29.911708  46.534071  -58.956706  29.925622  67.177009
4.431313  0.000000  0.000000  0.000000  -19.854610  2.262582  7.544162  54.696596  14.258620  1.768054  29.194459  45.224119  -55.869393  28.495769  64.896440
4.539394  0.000000  0.000000  0.000000  -20.125899  1.864276  5.877144  55.017666  14.564877  1.835251  28.899514  43.985702  -53.546121  29.077163  64.019560
4.647475  0.000000  0.000000  0.000000  -20.292420  1.889012  4.991198  55.158640  14.550695  1.950662  29.142946  42.861573  -52.510457  31.812529  64.469879
4.755556  0.000000  0.000000  0.000000  -20.341261  2.224055  4.687543  55.201159  14.363776  2.096045  29.937881  42.015467  -52.432618  35.773763  65.830557
4.863636  0.000000  0.000000  0.000000  -20.260838  2.742797  4.746191  55.241039  14.169295  2.237957  31.288013  41.622202  -52.904634  39.934654  67.653571
4.971717  0.000000  0.000000  0.000000  -20.039566  3.318629  4.928953  55.372934  14.148441  2.351597  33.197038  41.856596  -53.518540  43.268989  69.490897
5.079798  0.000000  0.000000  0.000000  -19.665877  3.824978  5.002389  55.693217  14.479079  2.407830  35.668579  42.893363  -53.866485  44.750949  70.894657
5.187879  0.000000  0.000000  0.000000  -19.146538  4.174867  4.811806  56.248603  15.252885  2.383573  38.624973  44.786613  -53.676772  43.807213  71.585220
5.295960  0.000000  0.000000  0.000000  -18.541968  4.397185  4.437901  56.943437  16.298950  2.282861  41.750711  47.237564  -53.076084  41.188463  71.775243
5.404040  0.000000  0.000000  0.000000  -17.922347  4.541899  3.982524  57.654630  17.413299  2.133511  44.687012  49.883235  -52.263586  37.886267  71.766946
5.512121  0.000000  0.000000  0.000000  -17.357852  4.658976  3.550170  58.261603  18.385287  1.971239  47.075094  52.360643  -51.438439  34.892192  71.862553
5.620202  0.000000  0.000000  0.000000  -16.918665  4.798383  3.238463  58.643838  19.006484  1.844043  48.556174  54.306803  -50.799808  33.197805  72.364284
5.728283  0.000000  0.000000  0.000000  -16.664818  5.001083  3.124005  58.702895  19.126634  1.806669  48.850090  55.428216  -50.520377  33.643234  73.532183
5.836364  0.000000  0.000000  0.000000  -16.600577  5.258540  3.305317  58.485411  18.805403  1.854500  48.108797  55.813280  -50.627284  36.236223  75.394476
5.944444  0.000000  0.000000  0.000000  -16.711150  5.545300  3.880788  58.085342  18.183199  1.961432  46.631935  55.680914  -51.097927  40.700040  77.900157
6.052525  0.000000  0.000000  0.000000  -16.981727  5.835898  4.953996  57.596493  17.398315  2.095132  44.719271  55.250151  -51.909662  46.757703  80.998152
6.160606  0.000000  0.000000  0.000000  -17.397498  6.104864  6.620057  57.111793  16.596712  2.228846  42.670571  54.740021  -53.039844  54.132235  84.637389
6.268687  0.000000  0.000000  0.000000  -17.941724  6.328035  8.944560  56.721245  15.921733  2.346338  40.769857  54.354879  -54.459617  62.533214  88.754756
6.376768  0.000000  0.000000  0.000000  -18.576601  6.495458  11.767613  56.458858  15.425007  2.444927  39.129272  54.138851  -56.072362  71.523533  93.155730
6.484848  0.000000  0.000000  0.000000  -19.251361  6.605929  14.789272  56.320571  15.101336  2.532264  37.755161  54.037437  -57.739744  80.575787  97.564903
6.592929  0.000000  0.000000  0.000000  -19.915044  6.658373  17.717260  56.298508  14.934242  2.613794  36.652323  53.994691  -59.322815  89.161252  101.705679
6.701010  0.000000  0.000000  0.000000  -20.516691  6.651713  20.258972  56.377873  14.907097  2.695950  35.825554  53.954671  -60.682632  96.751202  105.301467
6.809091  0.000000  0.000000  0.000000  -21.006588  6.585338  22.144474  56.539244  14.991983  2.775164  35.279241  53.862898  -61.685039  102.829153  108.082650
6.917172  0.000000  0.000000  0.000000  -21.367535  6.470710  23.304458  56.753383  15.157512  2.848210  35.007075  53.703202  -62.320986  107.198276  109.961826
7.025253  0.000000  0.000000  0.000000  -21.617153  6.332232  23.886581  56.986363  15.366236  2.911286  34.991289  53.500438  -62.715421  110.004111  111.046761
7.133333  0.000000  0.000000  0.000000  -21.774773  6.194938  24.048884  57.206605  15.581134  2.959658  35.213553  53.281472  -62.999860  111.408993  111.454790
7.241414  0.000000  0.000000  0.000000  -21.859725  6.083863  23.946188  57.383735  15.767423  2.990957  35.655538  53.073174  -63.305824  111.575257  111.303250
7.349495  0.000000  0.000000  0.000000  -21.891241  6.023904  23.734836  57.488701  15.887754  3.002850  36.298852  52.902315  -63.763963  110.664505  110.708980
7.457576  0.000000  0.000000  0.000000  -21.878092  6.025157  23.491984  57.509811  15.927016  2.995175  37.118484  52.785513  -64.412417  108.760402  109.735782
7.565657  0.000000  0.000000  0.000000  -21.809452  6.069990  23.146920  57.467516  15.912523  2.969716  38.077020  52.720362  -65.116015  105.800603  108.348102
7.673737  0.000000  0.000000  0.000000  -21.672339  6.137724  22.616761  57.386617  15.872842  2.926085  39.135684  52.702364  -65.720537  101.706711  106.499463
7.781818  0.000000  0.000000  0.000000  -21.453773  6.207679  21.813461  57.291550  15.840843  2.866790  40.255697  52.727022  -66.071760  96.400331  104.143388
7.889899  0.000000  0.000000  0.000000  -21.140774  6.259178  20.651299  57.207805  15.847616  2.792700  41.398284  52.789837  -66.015470  89.803083  101.233409
7.997980  0.000000  0.000000  0.000000  -20.730760  6.273676  19.083162  57.161583  15.921024  2.707397  42.529851  52.884423  -65.443110  81.974943  97.785141
8.106061  0.000000  0.000000  0.000000  -20.256688  6.239933  17.195762  57.178907  16.075194  2.624734  43.634518  52.997928  -64.402166  73.448690  94.026367
8.214141  0.000000  0.000000  0.000000  -19.759097  6.148266  15.109976  57.285535  16.317725  2.555912  44.700183  53.116126  -62.973426  64.858013  90.230152
8.322222  0.000000  0.000000  0.000000  -19.278529  5.988992  12.940743  57.504719  16.662369  2.513570  45.714747  53.224789  -61.237679  56.836602  86.669562
8.430303  0.000000  0.000000  0.000000  -18.855523  5.752428  10.806455  57.858573  17.120624  2.506927  46.666109  53.309688  -59.275712  50.018145  83.617661
8.538384  0.000000  0.000000  0.000000  -18.526267  5.436614  8.817862  58.352646  17.695147  2.540615  47.534102  53.351143  -57.194450  44.939610  81.304758
8.646465  0.000000  0.000000  0.000000  -18.298797  5.089536  7.063030  58.898023  18.306886  2.583472  48.246402  53.294208  -55.269858  41.512420  79.684623
8.754545  0.000000  0.000000  0.000000  -18.169947  4.779054  5.606354  59.366333  18.851929  2.608453  48.709926  53.069906  -53.845155  39.399107  78.601002
8.862626  0.000000  0.000000  0.000000  -18.136525  4.573079  4.533494  59.633059  19.203539  2.587491  48.831543  52.609224  -53.263735  38.261569  77.897357
8.970707  0.000000  0.000000  0.000000  -18.195337  4.539520  3.919279  59.572247  19.242969  2.501776  48.518118  51.843150  -53.868989  37.761701  77.417153
9.078788  0.000000  0.000000  0.000000  -18.342269  4.738185  3.819723  59.070820  18.870150  2.331028  47.682897  50.702513  -55.941836  37.581083  77.013143
9.186869  0.000000  0.000000  0.000000  -18.561034  5.121622  4.122684  58.187409  18.130317  2.086646  46.323592  49.116033  -58.936040  37.661874  76.661081
9.294949  0.000000  0.000000  0.000000  -18.826720  5.566404  4.578156  57.097445  17.185027  1.822850  44.497733  47.010940  -61.719535  38.130795  76.423838
9.403030  0.000000  0.000000  0.000000  -19.114233  5.947501  4.961976  55.982191  16.168587  1.595358  42.264119  44.314435  -63.147853  39.118471  76.366127
9.511111  0.000000  0.000000  0.000000  -19.398481  6.139879  5.071683  55.025698  15.189348  1.468374  39.681547  40.953714  -62.076526  40.755530  76.552663
9.619192  0.000000  0.000000  0.000000  -19.654714  6.021339  4.723162  54.411980  14.336905  1.510698  36.811355  36.861200  -57.390999  43.166859  77.046248
9.727273  0.000000  0.000000  0.000000  -19.870097  5.567213  3.864999  54.211226  13.668692  1.746298  33.802315  32.149267  -49.006982  46.279747  77.843850
9.835354  0.000000  0.000000  0.000000  -20.046431  4.872720  2.628966  54.354338  13.191527  2.119617  30.910673  27.151468  -38.106534  49.778598  78.861513
9.943434  0.000000  0.000000  0.000000  -20.186418  4.040438  1.142831  54.759525  12.924899  2.571230  28.399275  22.214941  -25.949472  53.332904  80.010313
10.051515  0.000000  0.000000  0.000000  -20.292758  3.172945  -0.463511  55.342302  12.886571  3.038716  26.530967  17.686822  -13.795613  56.612157  81.201327
10.159596  0.000000  0.000000  0.000000  -20.368155  2.372821  -2.050305  56.016386  13.083488  3.457700  25.568593  13.914250  -2.904776  59.285847  82.345631
10.267677  0.000000  0.000000  0.000000  -20.415308  1.742643  -3.469434  56.694312  13.511325  3.766822  25.774998  11.244360  5.463222  61.023467  83.354301
10.375758  0.000000  0.000000  0.000000  -20.436920  1.384991  -4.543749  57.291669  14.136763  3.898230  27.413029  10.024289  10.048564  61.494507  84.138413
10.483838  0.000000  0.000000  0.000000  -20.435692  1.402443  -5.101111  57.724587  14.926798  3.796272  30.745529  10.601175  9.591431  60.368460  84.609044
10.591919  0.000000  0.000000  0.000000  -20.414325  1.897578  -4.950056  57.915147  15.830840  3.399399  36.035345  13.322154  2.832007  57.314817  84.677269
10.700000  0.000000  0.000000  0.000000  -20.375521  2.972975  -3.916725  57.788639  16.815698  2.652413  43.545322  18.534364  -11.489526  52.003068  84.254164
