Simulation
nRows=101
nColumns=15
endheader
time  TH_x TH_y TH_z SC_y  SC_z  SC_x  AC_y  AC_z  AC_x  GH_y  GH_z  GH_yy  EL_x  PS_y
0.0  0.000000  0.000000  0.000000  -45.322594574977394  7.321895392946768  15.921828233243529  58.49006574000066  6.265551920733644  7.531668869064269  65.8044534875532  52.31698089506363  -67.34507613281428  23.37417664084501  120.000000
0.04499999999999999  0.000000  0.000000  0.000000  -45.30305146856904  8.656600180577346  15.64226477967096  58.22670991481557  8.170292071173177  9.39790604094553  65.2813106882004  54.43412421097044  -67.51818057161863  23.646978866042474  120.000000
0.08999999999999998  0.000000  0.000000  0.000000  -45.2723932383635  9.64212360452373  14.926658722582594  57.92145686388631  9.669948529545232  10.92516157189989  64.9821182800822  55.93526814808763  -67.81385964725305  23.773111146565547  120.000000
0.13499999999999998  0.000000  0.000000  0.000000  -45.20416798349734  10.230582720336075  13.919223928951475  57.61034381088911  10.85963593673831  12.12046782954418  64.85636411629835  56.888643538781956  -68.18897659673323  23.810154750906346  120.000000
0.17999999999999997  0.000000  0.000000  0.000000  -45.095616299542655  10.490469378107237  12.73285434682238  57.35271825540932  11.846257785406365  12.966239793525293  64.86211346785655  57.38258267985524  -68.61073104247497  23.819576309768575  120.000000
0.22499999999999995  0.000000  0.000000  0.000000  -44.97103298621294  10.471344147546194  11.457197034739398  57.14746349944278  12.684886637680494  13.526054209570209  64.97303074392912  57.50518009019058  -69.06320454682077  23.845045092723474  120.000000
0.26999999999999996  0.000000  0.000000  0.000000  -44.845608963181  10.239481486780301  10.154591857913202  56.98570383844813  13.417892867144111  13.861085405230043  65.14594154738715  57.34729462329954  -69.53507293776585  23.90801283099063  120.000000
0.31499999999999995  0.000000  0.000000  0.000000  -44.73146967031878  9.868876907215213  8.86445904251755  56.866476558914655  14.06621480567542  14.038198871005834  65.35319882301006  56.99407460413157  -70.01790418267923  24.0107932821924  120.000000
0.35999999999999993  0.000000  0.000000  0.000000  -44.62301106055484  9.413905125065318  7.604049934271002  56.78556643124059  14.63058859600324  14.123236836704798  65.57336138569345  56.51439383685346  -70.50327025098564  24.14536178109227  120.000000
0.4049999999999999  0.000000  0.000000  0.000000  -44.51090311918961  8.92739950679749  6.379507064478666  56.74613174044735  15.106554651110555  14.166972493978042  65.79535400663868  55.96039009679714  -70.97795599374805  24.296432549335258  120.000000
0.4499999999999999  0.000000  0.000000  0.000000  -44.37998395574527  8.443738614197626  5.188763918684252  56.74765780428451  15.483561236385308  14.211412615591708  66.01722282493054  55.36449624125343  -71.42547176574767  24.452487955495556  120.000000
0.4949999999999999  0.000000  0.000000  0.000000  -44.21738645434834  7.988231760583356  4.027731340062787  56.790306441116684  15.75408290477433  14.284233109140885  66.24452296860996  54.74392183970987  -71.82707201384052  24.604635854893665  120.000000
0.5399999999999999  0.000000  0.000000  0.000000  -44.012853499551724  7.5745854966570825  2.8917792094855064  56.87123489620876  15.913535406230547  14.402961921858576  66.48810479055706  54.10383414026672  -72.16450757606299  24.75327667008813  120.000000
0.5849999999999999  0.000000  0.000000  0.000000  -43.762199226884626  7.207956501146091  1.7785304829789064  56.98720744928903  15.962352574066898  14.575961965331054  66.7626181348261  53.44329361959106  -72.42290754768905  24.90332434443613  120.000000
0.6299999999999999  0.000000  0.000000  0.000000  -43.465891345933564  6.887604804283797  0.6879007138935661  57.1340321112251  15.90491778022512  14.804830404790772  67.08344699650787  52.759439936520614  -72.59261943713626  25.065810715649004  120.000000
0.6749999999999998  0.000000  0.000000  0.000000  -43.13026260566828  6.608361428501689  -0.3765353178760161  57.30837342741052  15.74956258973723  15.086060449622254  67.46501234143156  52.05168970776155  -72.67051497510066  25.250820106471668  120.000000
0.7199999999999999  0.000000  0.000000  0.000000  -42.76548418982117  6.363437738463908  -1.4082281937259897  57.507299040533574  15.507229614080318  15.412430698270693  67.91798390204983  51.32380711666537  -72.6599175204429  25.467105474005443  120.000000
0.7649999999999999  0.000000  0.000000  0.000000  -42.3859778764463  6.144700603849046  -2.3972078264208996  57.729007316934585  15.191516725098436  15.77409263398808  68.4481928155027  50.58510330017179  -72.569969141746  25.71647244110282  120.000000
0.8099999999999998  0.000000  0.000000  0.000000  -42.00802651750527  5.945037345438299  -3.3314070087213907  57.9719192109842  14.81772485025975  16.15929181211814  69.05482244807082  49.84988357835831  -72.4139676215664  25.995466890465924  120.000000
0.8549999999999999  0.000000  0.000000  0.000000  -41.64939423214284  5.757996602640986  -4.197177914253764  58.2344307068904  14.403044074429095  16.555166060916804  69.73021277095678  49.1361805829979  -72.20764694868808  26.29396760118691  120.000000
0.8999999999999998  0.000000  0.000000  0.000000  -41.326761757484746  5.578999894968206  -4.981178744261136  58.51310606160464  13.964983658416283  16.949179113064908  70.46003107659469  48.46306882428528  -71.96736585064171  26.5997757821102  120.000000
0.9449999999999998  0.000000  0.000000  0.000000  -41.05391855836202  5.404781507964799  -5.671837025169392  58.80390552077294  13.521182298310228  17.329387261749854  71.22548750698668  47.848725633661935  -71.70922377713751  26.899954664045513  120.000000
0.9899999999999998  0.000000  0.000000  0.000000  -40.83867416400848  5.234152914510439  -6.261147723514717  59.10209180060191  13.087886362704756  17.684944287271712  72.00437053897595  47.308238025656166  -71.44812261102409  27.185338311599775  120.000000
1.0349999999999997  0.000000  0.000000  0.000000  -40.684021197304915  5.068534410600959  -6.744752324453451  59.40166372773658  12.680381673169183  18.006310251216544  72.77102803739999  46.85193287133984  -71.19601021762152  27.45041255180978  120.000000
1.0799999999999998  0.000000  0.000000  0.000000  -40.58785086291654  4.911401388604176  -7.122964541259992  59.69409953687122  12.311095155030118  18.286986277726207  73.49782921578799  46.483581953414756  -70.9617503701498  27.694880200818833  120.000000
1.1249999999999998  0.000000  0.000000  0.000000  -40.543620715209165  4.766712159006555  -7.401207218760541  59.9702944263455  11.989462427826266  18.52331907330037  74.15795519349106  46.200382735596776  -70.75169411736137  27.921675194674066  120.000000
1.1699999999999997  0.000000  0.000000  0.000000  -40.541554719293124  4.639344305245156  -7.5905205949145245  60.2215151833492  11.72059962563806  18.71489723191958  74.72833697463052  45.993469239703764  -70.5711923077453  28.137154753333657  120.000000
1.2149999999999999  0.000000  0.000000  0.000000  -40.56944038876627  4.532830878819912  -7.706336278149112  60.44101575526754  11.506129040196603  18.86358410040668  75.1912211124961  45.84923746440069  -70.42518594690061  28.348378545593736  120.000000
1.2599999999999998  0.000000  0.000000  0.000000  -40.61394763380087  4.449430820486832  -7.766781561728001  60.62319780738106  11.34466318642675  18.973571637245655  75.53476649558247  45.751051997499744  -70.31866690981184  28.56230199852658  120.000000
1.3049999999999997  0.000000  0.000000  0.000000  -40.66206361991073  4.389425336027161  -7.790305836394903  60.76357931384102  11.234087464601291  19.049962590691703  75.7522982596159  45.68190518358387  -70.25581672004428  28.782535855160624  120.000000
1.3499999999999996  0.000000  0.000000  0.000000  -40.70194808248351  4.3519130400060995  -7.79426693382418  60.85787828187627  11.172402140866495  19.097707832857733  75.84206998868608  45.6276052014006  -70.2399706337114  29.007339804222944  120.000000
1.3949999999999998  0.000000  0.000000  0.000000  -40.72461012698757  4.335741356387852  -7.792583673744939  60.902030728534484  11.159738216380045  19.119924068113555  75.80640075204293  45.57990706846074  -70.27224517083027  29.225375205320976  120.000000
1.4399999999999997  0.000000  0.000000  0.000000  -40.725161473008086  4.34093493059604  -7.793882324789455  60.891043514647635  11.199191664880018  19.11753279380263  75.6511238392482  45.53862488566444  -70.35063065258981  29.413275149406616  120.000000
1.4849999999999997  0.000000  0.000000  0.000000  -40.70404493854098  4.36958926878445  -7.799279299636303  60.81967484763617  11.297986962945236  19.088949026515778  75.38476560999878  45.51239382769897  -70.46830818833375  29.534001659584376  120.000000
1.5299999999999998  0.000000  0.000000  0.000000  -40.66686453374181  4.425900742086708  -7.80220660606655  60.683039196043495  11.46618837336768  19.030867457438088  75.01826289840831  45.51787004706828  -70.61349081299115  29.540570472630765  120.000000
1.5749999999999997  0.000000  0.000000  0.000000  -40.624075727721454  4.515186854064676  -7.788880900018774  60.47854052184457  11.714797376172987  18.93940664880472  74.56461039571751  45.576928474687215  -70.7694078997409  29.383269370390607  120.000000
1.6199999999999997  0.000000  0.000000  0.000000  -40.59007618975928  4.642267947971499  -7.74052808768605  60.206560434769756  12.051987508181146  18.812189098376304  74.03904461985407  45.712372730828406  -70.91585839867935  29.021549950242377  120.000000
1.6649999999999996  0.000000  0.000000  0.000000  -40.58178319703467  4.8098922737737055  -7.635431217765795  59.87217953472613  12.480422837672167  18.64985696597163  73.45943028091027  45.94285691168927  -71.03065886662012  28.435344666596176  120.000000
1.7099999999999997  0.000000  0.000000  0.000000  -40.61583229961788  5.017432962512424  -7.452016966325714  59.486516536235555  12.994636737430891  18.456717985722623  72.84706165790634  46.27887635228909  -71.09234762320622  27.634059689714096  120.000000
1.7549999999999997  0.000000  0.000000  0.000000  -40.70567732409742  5.260590634818778  -7.1709061244300285  59.06758208287294  13.580683100424775  18.2401778820366  72.22579968466893  46.72031395779268  -71.08198017611575  26.658135433698924  120.000000
1.7999999999999996  0.000000  0.000000  0.000000  -40.859800322564396  5.532002029388746  -6.777258716929361  58.63744064894634  14.21654854400501  18.010425264857453  71.61948827491241  47.25620919156212  -70.9851753387654  25.57394958833473  120.000000
1.8449999999999998  0.000000  0.000000  0.000000  -41.08061436236499  5.822865687167275  -6.262815764629297  58.21937381804842  14.875020608947876  17.778787238316628  71.04822352319283  47.86659757249043  -70.7934232926236  24.4623910194479  120.000000
1.8899999999999997  0.000000  0.000000  0.000000  -41.36388481062774  6.125058746495135  -5.628718362441302  57.83591037559762  15.526058344583891  17.55547900462221  70.52682691176828  48.52656710945261  -70.50681248391494  23.406239796277074  120.000000
1.9349999999999996  0.000000  0.000000  0.000000  -41.69793222526227  6.4300480024343045  -4.887458651157442  57.50706910641853  16.13924984217409  17.348232165932952  70.0652991659506  49.20946397919823  -70.13615182060234  22.4782038459978  120.000000
1.9799999999999995  0.000000  0.000000  0.000000  -42.06568477618491  6.72871575338049  -4.063490680498925  57.24659136343199  16.686096109046538  17.162574020212727  69.66916882563221  49.88928069878707  -69.70316250720896  21.733358444301658  120.000000
2.0249999999999995  0.000000  0.000000  0.000000  -42.44703977432202  7.011766557055293  -3.1918282224915253  57.060587199068856  17.14338954950464  17.001307127497743  69.33882369964519  50.54271473379422  -69.23767368787752  21.20553326617252  120.000000
2.0699999999999994  0.000000  0.000000  0.000000  -42.81990319516172  7.26989587235687  -2.315167496079817  56.94815697601981  17.495790386169126  16.86396932117423  69.07073166209278  51.15071885218555  -68.77378214100688  20.90716098664573  120.000000
2.1149999999999998  0.000000  0.000000  0.000000  -43.162451926624996  7.494128244824721  -1.4790957993368465  56.90272249462158  17.737451219180016  16.747033364206427  68.85888721149784  51.69904242285008  -68.34445636952118  20.82991178867791  120.000000
2.1599999999999997  0.000000  0.000000  0.000000  -43.45522982127863  7.676382381643907  -0.7264700944023998  56.912761059155116  17.87214892696555  16.644840401636387  68.69614913261317  52.17851073891884  -67.97610541416337  20.94607860112619  120.000000
2.2049999999999996  0.000000  0.000000  0.000000  -43.68371535336775  7.810393344775152  -0.09162013526272897  56.963053027075716  17.912340197273025  16.55066179031405  68.57476348574058  52.585071883550334  -67.68362619692101  21.210743763836295  120.000000
2.2499999999999996  0.000000  0.000000  0.000000  -43.84005747193897  7.89314583472248  0.40434272781412767  57.03547581663248  17.87695424643275  16.45790909511537  68.48650048259852  52.91978691660712  -67.4674484492122  21.566671586728294  120.000000
2.2949999999999995  0.000000  0.000000  0.000000  -43.92418190375622  7.926217513974652  0.7569997739784304  57.11030045522154  17.78881137204786  16.36118782805764  68.42218865486596  53.188389303608744  -67.31231066876998  21.951539694425453  120.000000
2.3399999999999994  0.000000  0.000000  0.000000  -43.9434102227546  7.9176518941657745  0.9803192578404154  57.167349847316295  17.67194095626786  16.257062820795415  68.37161688097507  53.40057080256384  -67.18835177636964  22.30737071934602  120.000000
2.3849999999999993  0.000000  0.000000  0.000000  -43.911332633410474  7.883253972266826  1.106988757578372  57.18771705756411  17.54936123758211  16.144643227057145  68.32391720925611  53.56880376113033  -67.05365972664488  22.589124451387985  120.000000
2.4299999999999997  0.000000  0.000000  0.000000  -43.84568711360524  7.847553025001612  1.1868510096261453  57.15522363882362  17.440789095353246  16.026028809220517  68.26902678836991  53.707245549578474  -66.85879248275448  22.77087420504195  120.000000
2.4749999999999996  0.000000  0.000000  0.000000  -43.766326877868934  7.843064297385218  1.283804515261844  57.05833748573913  17.360399096558385  15.906633203014316  68.19969308710519  53.8308864182691  -66.5524140901126  22.846948477620234  120.000000
2.5199999999999996  0.000000  0.000000  0.000000  -43.69319438685869  7.908050780867028  1.4707907777148916  56.89148697428826  17.313916132615386  15.795488343144614  68.11377329566693  53.955367050020364  -66.08840650062159  22.828710190822527  120.000000
2.5649999999999995  0.000000  0.000000  0.000000  -43.64527310167102  8.082080130201867  1.823759609208514  56.65653116272006  17.296010315262098  15.705197647231195  68.0159141887754  54.097120247659205  -65.43292841423727  22.73775300876186  120.000000
2.6099999999999994  0.000000  0.000000  0.000000  -43.6400550758997  8.400708393869591  2.4149427795980287  56.36323899526145  17.28810473446068  15.651615141201818  67.91828490763177  54.273756533952444  -64.57102694762774  22.598580818336202  120.000000
2.6549999999999994  0.000000  0.000000  0.000000  -43.69360164553564  8.8905253432059  3.306912359610807  56.029982118216786  17.258970507031385  15.652129153583669  67.83972602666566  54.50401344418154  -63.510433822987466  22.432295502234854  120.000000
2.6999999999999993  0.000000  0.000000  0.000000  -43.82066274856459  9.56492746380537  4.547714700279415  55.682837809237085  17.167067087672464  15.72403985689871  67.80402251514784  54.8070695522962  -62.282525543277714  22.253179995710152  120.000000
2.7449999999999997  0.000000  0.000000  0.000000  -44.03468234026783  10.421412329764458  6.168232817331009  55.35404211665438  16.965838900645938  15.882418429126268  67.83721226019412  55.200590428970216  -60.938778400377835  22.06775976947308  120.000000
2.7899999999999996  0.000000  0.000000  0.000000  -44.34729901642454  11.442493559387355  8.18098971530147  55.07953471776369  16.610296582316863  16.137294435324154  67.96345782650407  55.69910126220768  -59.544087111942055  21.876081498469  120.000000
2.8349999999999995  0.000000  0.000000  0.000000  -44.76666532702474  12.596975023373854  10.580284749365456  54.89580833731097  16.06282645601604  16.491895841500654  68.20115755881478  56.31195236263256  -58.167654953717864  21.67366726750029  120.000000
2.8799999999999994  0.000000  0.000000  0.000000  -45.295450742866024  13.842664194340763  13.342780431506474  54.83670136559303  15.29673959421418  16.941550150340674  68.56022383880203  57.04248706650351  -56.8742377778254  21.453937072170717  120.000000
2.9249999999999994  0.000000  0.000000  0.000000  -45.929315903771254  15.130436692200789  16.429407583932026  54.93031214892497  14.297930579873222  17.472167956731564  69.03987217330881  57.88742727102993  -55.71565704333624  21.20949792254817  120.000000
2.9699999999999993  0.000000  0.000000  0.000000  -46.65671005311612  16.40863813126489  19.78789333252378  55.19570063022537  13.063996510437482  18.058508564946266  69.62865332679499  58.836850061328555  -54.725008494183555  20.93291175965433  120.000000
3.0149999999999992  0.000000  0.000000  0.000000  -47.46015462756409  17.62750217259657  23.356263466064412  55.6391560130895  11.60117820799756  18.66278053589397  70.3068161813686  59.87366744259558  -53.913283291470634  20.61619772981516  120.000000
3.0599999999999996  0.000000  0.000000  0.000000  -48.31821612504954  18.744781509811954  27.067055278364784  56.250227727021496  9.920172902587254  19.23310022658087  71.05053350476406  60.97315491161501  -53.26948872995718  20.25006482809916  120.000000
3.1049999999999995  0.000000  0.000000  0.000000  -49.208278985870216  19.72824749814457  30.852999879643225  56.9970004410784  8.030441765765847  19.707030111030438  71.83664408503394  62.10257042380759  -52.76332469426135  19.823116749913215  120.000000
3.1499999999999995  0.000000  0.000000  0.000000  -50.104331093365865  20.562434945296523  34.654888244884624  57.8233725554877  5.944473906903792  20.025150682140712  72.64344350210376  63.22565705638819  -52.34959957113193  19.322515843707034  120.000000
3.1949999999999994  0.000000  0.000000  0.000000  -50.97390664076412  21.242990528986144  38.41908232052802  58.66117407511392  3.695641054524992  20.151144029543204  73.45217723055106  64.31277484387262  -51.97707178254383  18.740752074518536  120.000000
3.2399999999999993  0.000000  0.000000  0.000000  -51.77781367960343  21.775321232628027  42.082362795157884  59.44365353703223  1.3479559634228437  20.081143829882038  74.24523628528887  65.33752477022601  -51.597168677968355  18.0791764890217  120.000000
3.2849999999999993  0.000000  0.000000  0.000000  -52.476942887137774  22.17666238744261  45.56521918609243  60.11296013100879  -1.0136043378856248  19.833446043209086  75.0016613998215  66.2660858864727  -51.17464461599857  17.345363122932092  120.000000
3.329999999999999  0.000000  0.000000  0.000000  -53.04317311183475  22.46390146107766  48.776729566236796  60.62899802145534  -3.2964281383445346  19.433097307994167  75.6992008583575  67.06099709848424  -50.69986943664785  16.55968480179777  120.000000
3.3749999999999996  0.000000  0.000000  0.000000  -53.46065311794385  22.65048915705158  51.62296827702057  60.973320265051065  -5.410270294525315  18.907059501888252  76.31505228219058  67.68689696407337  -50.195494257033566  15.757220458754702  120.000000
3.4199999999999995  0.000000  0.000000  0.000000  -53.721593394070524  22.749459387958527  54.0138385797971  61.14696246022311  -7.272807785490081  18.283317007609487  76.82741325393323  68.11451873404033  -49.71626686607208  14.986513730018123  120.000000
3.4649999999999994  0.000000  0.000000  0.000000  -53.82536751895486  22.77266949967448  55.868724959763796  61.16680804534474  -8.815457463158523  17.594181668268597  77.21901719084563  68.32140735988213  -49.34190242192224  14.30317085352869  120.000000
3.5099999999999993  0.000000  0.000000  0.000000  -53.77661361841528  22.730977132838774  57.12108292226881  61.05950326360122  -9.983669240144739  16.873534481605684  77.47905316185162  68.29424056630423  -49.16545976118301  13.763759627482374  120.000000
3.5549999999999993  0.000000  0.000000  0.000000  -53.58254936338859  22.629594695409423  57.72065329927426  60.857487338602944  -10.73756602816705  16.153183545815224  77.60434505890409  68.03033189476015  -49.27987476407768  13.417025517280168  120.000000
3.599999999999999  0.000000  0.000000  0.000000  -53.245868185425536  22.466838887904995  57.631852155919695  60.59123284598975  -11.053627525584439  15.458643686658982  77.59935761606746  67.5389901528033  -49.76556422846402  13.298260757091473  120.000000
3.644999999999999  0.000000  0.000000  0.000000  -52.76852829553627  22.23149975615896  56.83763138787378  60.28525819859688  -10.923571087258555  14.805905376347498  77.47470721287115  66.84239499134443  -50.67720339979924  13.424126273311824  120.000000
3.6899999999999995  0.000000  0.000000  0.000000  -52.15703685918465  21.90897398446174  55.34293771000652  59.951666198542014  -10.354025574967592  14.200717097687209  77.24547127619147  65.97355737552132  -52.033609506099765  13.79320993623401  120.000000
3.7349999999999994  0.000000  0.000000  0.000000  -51.43259281982863  21.48753607883933  53.181167151791485  59.591427694191964  -9.364726818871757  13.641494254866622  76.92950605627493  64.97244509707743  -53.81045253991495  14.385068723540286  120.000000
3.7799999999999994  0.000000  0.000000  0.000000  -50.62904711761572  20.95930618010612  50.4108527859211  59.195639214103764  -7.993551932628484  13.125502824506999  76.54562547729938  63.87976683994867  -55.94180660588815  15.163546642195264  120.000000
3.8249999999999993  0.000000  0.000000  0.000000  -49.78942351344823  20.321059205796786  47.116837507535315  58.75695843147344  -6.29626841584341  12.65861888799535  76.11252170641218  62.734128845746206  -58.324846706623546  16.077153760206027  120.000000
3.869999999999999  0.000000  0.000000  0.000000  -48.95005748822962  19.57189296856475  43.408002138535466  58.28491626173287  -4.342198388152269  12.260073008993203  75.64954272549024  61.5735614749804  -60.83230475001721  17.068206800166852  120.000000
3.914999999999999  0.000000  0.000000  0.000000  -48.14008521962628  18.713691309526215  39.41465672540642  57.80924646732619  -2.2129534611442163  11.960308389750077  75.17401763784572  60.430986414502684  -63.32378280805602  18.07378299249316  120.000000
3.959999999999999  0.000000  0.000000  0.000000  -47.39020409357646  17.762231988951807  35.282951273735776  57.36796954438861  -0.001871712649178655  11.78934504451778  74.69784045971289  59.330731385914206  -65.66042726498826  19.030981889104968  120.000000
4.004999999999999  0.000000  0.000000  0.000000  -46.726648122157826  16.748216681948563  31.166375092678965  56.99939800929429  2.1973116766206138  11.76915915498846  74.22625134597402  58.29390511061711  -67.72072342670855  19.882992205509147  120.000000
4.049999999999999  0.000000  0.000000  0.000000  -46.16869752042857  15.719682843808682  27.211449615309565  56.734696712455445  4.303696178854096  11.912363155602735  73.76162387881043  57.341185984301646  -69.41485369620113  20.589890489801206  120.000000
4.094999999999999  0.000000  0.000000  0.000000  -45.723921295224095  14.72843457784089  23.539795759774176  56.59392919821151  6.259570056575956  12.216737621903098  73.30810234463043  56.48878045732303  -70.69420045496746  21.131923697321554  120.000000
4.139999999999999  0.000000  0.000000  0.000000  -45.39111821549396  13.819177266207863  20.236027667024054  56.5825919528841  8.0314645318179  12.663271808462879  72.87838163283722  55.739186835411964  -71.55475243103245  21.51157760509095  120.000000
4.185  0.000000  0.000000  0.000000  -45.16221833816873  13.019422479305028  17.34475374855698  56.69452475230322  9.609757170753994  13.213194593354306  72.49595922708413  55.07377435485448  -72.03178487250612  21.745630561276535  120.000000
4.2299999999999995  0.000000  0.000000  0.000000  -45.02100173115245  12.326517768056142  14.868683009301833  56.907506765521745  10.997157717167704  13.816765761228952  72.1953270508048  54.44379065059173  -72.19075479965163  21.858947336547363  120.000000
4.2749999999999995  0.000000  0.000000  0.000000  -44.952236270593275  11.720439132509277  12.77365684371901  57.196741470721875  12.207282991639417  14.40900599155725  72.01766547029563  53.77339037752998  -72.11216961836317  21.874423619321146  120.000000
4.319999999999999  0.000000  0.000000  0.000000  -44.92739230832821  11.149251790513372  10.983133867431246  57.526225185717784  13.2456169608513  14.922601139998259  72.00153762926924  52.9576831259056  -71.8840381174691  21.80470783076253  120.000000
4.364999999999999  0.000000  0.000000  0.000000  -44.93333111027828  10.551477583254671  9.385328427907305  57.86760573130028  14.099800529176939  15.291238988585162  72.1909404021737  51.8800831314357  -71.59502421675718  21.650827051141793  120.000000
4.409999999999999  0.000000  0.000000  0.000000  -44.94234722511884  9.863554461101836  7.8371845173671675  58.1967675041932  14.742590818955083  15.44783344032176  72.61068771043819  50.42937307887447  -71.33179104363991  21.39704411170977  120.000000
4.454999999999999  0.000000  0.000000  0.000000  -44.95529475575385  8.982007230766396  6.178416659033251  58.479210293562474  15.091656917390118  15.391262194414676  73.3184219188415  48.51123749348352  -71.19713897857355  21.02321386242997  120.000000
4.499999999999999  0.000000  0.000000  0.000000  -44.980718324060575  7.889775577300687  4.2411317172197425  58.74096338062265  15.082913877974164  15.082060622697378  74.37491246365686  46.07899888275605  -71.29113214000601  20.50972430705679  120.000000
