Simulation
nRows=101
nColumns=15
endheader
time  TH_x TH_y TH_z SC_y  SC_z  SC_x  AC_y  AC_z  AC_x  GH_y  GH_z  GH_yy  EL_x  PS_y
0.0  0.000000  0.000000  0.000000  -29.201051654267562  2.591432063812013  -7.242850689289198  55.16643459525195  10.578687650703543  -1.0319767960545456  32.72600258416633  15.988818616054571  8.225119376396453  27.177578317990807  0.000000
0.038999999999999986  0.000000  0.000000  0.000000  -28.634659018248623  2.895323442836464  -7.250772978662057  54.77848183759762  10.433574702457744  -1.0173654328481907  32.810243817383686  16.352112092812433  7.857096862259553  26.749178839132583  0.000000
0.07799999999999997  0.000000  0.000000  0.000000  -28.109275508584858  3.120289469380197  -7.339290977060003  54.39799210817005  10.25993113995594  -1.0204083188576296  32.82130376279448  16.639483389578118  7.584003003517199  26.315354398259682  0.000000
0.11699999999999997  0.000000  0.000000  0.000000  -27.647120100822463  3.2545635078646873  -7.4975966024978  54.06321401392724  10.109818058617266  -1.0217265979529653  32.90023118718275  16.911279177913695  7.240006926817757  25.902552134451113  0.000000
0.15599999999999994  0.000000  0.000000  0.000000  -27.265766810788325  3.294583985315113  -7.691959533652511  53.81591565035264  10.02111165825389  -1.015983466783051  33.202101997658644  17.243837830962505  6.618027529866853  25.53084111626758  0.000000
0.19499999999999992  0.000000  0.000000  0.000000  -26.985206381214137  3.25736753616789  -7.868737273238323  53.68658489003202  10.006480450436607  -1.0031785513194198  33.86498509743876  17.712193672364027  5.527758517637118  25.21941539223773  0.000000
0.23399999999999993  0.000000  0.000000  0.000000  -26.80741421593033  3.170733453087954  -7.975011844225437  53.68209765642895  10.062718578621613  -0.9920856528050983  34.980225103449975  18.377041901744928  3.8237989049113095  24.98073795218676  0.000000
0.2729999999999999  0.000000  0.000000  0.000000  -26.722389989436827  3.065474903116645  -7.965720961568165  53.79496002877278  10.174302952120204  -0.9943179707616135  36.54997876411164  19.282374749638038  1.4620196760580868  24.81704066060855  0.000000
0.3119999999999999  0.000000  0.000000  0.000000  -26.699423433890374  2.970212229199161  -7.808733667957681  54.004638340365624  10.31842804788828  -1.0216334127411502  38.482283055491415  20.450778988935557  -1.4973186545000718  24.72345349978815  0.000000
0.35099999999999987  0.000000  0.000000  0.000000  -26.694290896451335  2.9064941095278396  -7.48394451884439  54.28916656728379  10.471074698541834  -1.0830221100140371  40.60536521493514  21.881890192964317  -4.893618104598999  24.690589613638842  0.000000
0.38999999999999985  0.000000  0.000000  0.000000  -26.655563112503074  2.8904905323868304  -6.981718372805795  54.62472201297526  10.611064246825316  -1.1830608340014739  42.72393587549712  23.550694697534517  -8.523688052909057  24.712099262178615  0.000000
0.4289999999999998  0.000000  0.000000  0.000000  -26.538255546476726  2.9334032403147026  -6.299348374774823  54.990435063266084  10.723067012948642  -1.322819401021071  44.67074504411773  25.4119136577619  -12.192831489264503  24.78217554451137  0.000000
0.46799999999999986  0.000000  0.000000  0.000000  -26.311817614510915  3.041920344807189  -5.439046635748508  55.3663666468186  10.797940954973182  -1.5012452571084747  46.34192373725786  27.408167348506876  -15.758684265002385  24.889432900054146  0.000000
0.5069999999999998  0.000000  0.000000  0.000000  -25.966307934027853  3.2199244034070666  -4.406642764261677  55.7347511713798  10.831216335640674  -1.7155910027478245  47.7025444437542  29.48043581974438  -19.14478010147111  25.015008361285687  0.000000
0.5459999999999998  0.000000  0.000000  0.000000  -25.514081126368392  3.4704541533105506  -3.2102914848792374  56.07860628052292  10.819336319873141  -1.960993052211356  48.77524471333076  31.57671265382701  -22.336510641623754  25.13783001947746  0.000000
0.5849999999999997  0.000000  0.000000  0.000000  -24.98665646621011  3.794997334258903  -1.8608228718976445  56.383085319814754  10.758319057188421  -2.231072502521223  49.61827579716519  33.65778355601208  -25.36482906456847  25.239393382930313  0.000000
0.6239999999999998  0.000000  0.000000  0.000000  -24.42675212294732  4.191779464187255  -0.372843320466395  56.63722834323259  10.645184684878378  -2.5175921734277082  50.301535392588356  35.69824221632423  -28.280637325059654  25.306267012534374  0.000000
0.6629999999999998  0.000000  0.000000  0.000000  -23.876468891933072  4.655426486868815  1.2350780866220894  56.83674138799925  10.48044043810271  -2.8094800990520397  50.88428823725903  37.68324221295854  -31.125045351713936  25.33051988424601  0.000000
0.7019999999999997  0.000000  0.000000  0.000000  -23.367333909806117  5.1775752354353655  2.9419469651358128  56.985602948144596  10.2699623161233  -3.0918152851037575  51.40063593481045  39.602560755631885  -33.90314103465098  25.308496410818332  0.000000
0.7409999999999998  0.000000  0.000000  0.000000  -22.915611213257197  5.748122744381712  4.72562582613576  57.094791995340074  10.024862080466049  -3.3458371896761965  51.85520038515909  41.44525993810664  -36.57438665876307  25.240586634710862  0.000000
0.7799999999999997  0.000000  0.000000  0.000000  -22.52587972547031  6.356133402982979  6.562660372169131  57.17874132631139  9.759403850655834  -3.5502803897102257  52.23088635280914  43.19737554074168  -39.06441724282259  25.131624868866243  0.000000
0.8189999999999997  0.000000  0.000000  0.000000  -22.198502153204597  6.990712727643825  8.42591252899108  57.25071803827508  9.48793457115882  -3.6831953794586036  52.50215782712086  44.84337942468119  -41.29201981565297  24.992666077582207  0.000000
0.8579999999999997  0.000000  0.000000  0.000000  -21.936915828688555  7.6416753917140925  10.282507285464122  57.320202499144884  9.22283936980613  -3.724275196266023  52.647826943129985  46.369844267793205  -43.19585978273747  24.841097383604033  0.000000
0.8969999999999997  0.000000  0.000000  0.000000  -21.750316819785656  8.300273389897619  12.094176193622992  57.3926660232797  8.974452301831153  -3.6568876541882025  52.65737331881521  47.76892697858639  -44.74836567845832  24.698478048649278  0.000000
0.9359999999999997  0.000000  0.000000  0.000000  -21.652316830555698  8.959391373903586  13.821024323311281  57.471480995462784  8.752852203657167  -3.470038163273092  52.532381580735304  49.040151715539224  -45.95576246790643  24.58463406753354  0.000000
0.9749999999999996  0.000000  0.000000  0.000000  -21.65717984503627  9.613212779876454  15.426798240363746  57.5598052059279  8.569412440508307  -3.159333565121797  52.28482965379765  50.19069799398047  -46.850533699012004  24.51110493523229  0.000000
1.0139999999999996  0.000000  0.000000  0.000000  -21.775986602718163  10.256619433928163  16.883533560179217  57.661093843250065  8.437234533125778  -2.72720656109649  51.93517908787125  51.23374299630142  -47.48295442382613  24.47732403869751  0.000000
1.0529999999999997  0.000000  0.000000  0.000000  -22.01401505376833  10.88530009552514  18.173816675570848  57.77783281685001  8.369732077544201  -2.18171149583158  51.5102829768172  52.185410318990904  -47.91330451467995  24.472257694547302  0.000000
1.0919999999999996  0.000000  0.000000  0.000000  -22.36992223957097  11.496199588933232  19.290988860392897  57.909977694711884  8.378228917102582  -1.534863190627409  51.04050842791862  53.060885571196614  -48.20416494488225  24.479806669433223  0.000000
1.1309999999999996  0.000000  0.000000  0.000000  -22.836500036585768  12.088218049970699  20.238110376918947  58.054179111944165  8.469748547321236  -0.8008474136122178  50.55629096143457  53.871693344626436  -48.41192297268241  24.484113346235112  0.000000
1.1699999999999995  0.000000  0.000000  0.000000  -23.401703098804937  12.662064943417114  21.026225325621326  58.20494132274936  8.645624434848257  0.005589260388088496  50.083157472756604  54.62487876164816  -48.57822371960817  24.47188393155678  0.000000
1.2089999999999996  0.000000  0.000000  0.000000  -24.049425511707167  13.21897431179678  21.672573552176512  58.35649692256444  8.901581005491247  0.8701741989759462  49.638049398413806  55.32419765553493  -48.72369683056848  24.431449775345307  0.000000
1.2479999999999996  0.000000  0.000000  0.000000  -24.760278309428863  13.759370005275146  22.1985187373067  58.50451948321904  9.22878781955302  1.7793201625852595  49.2271775316719  55.97180847396401  -48.84567603203981  24.351568735233904  0.000000
1.2869999999999995  0.000000  0.000000  0.000000  -25.512838324265196  14.281812685860322  22.62716852458986  58.64665126658717  9.61528567876613  2.7192800279668186  48.8473205173752  56.569751521320285  -48.92313311721313  24.22215496758693  0.000000
1.3259999999999996  0.000000  0.000000  0.000000  -26.284742900845675  14.782469294775808  22.980394631788954  58.781813721696665  10.04692769043443  3.6746474600977166  48.489744306789  57.12030839225814  -48.93001429393188  24.03765253153896  0.000000
1.3649999999999995  0.000000  0.000000  0.000000  -27.05372196001723  15.255155630842014  23.27588418629341  58.90944483210255  10.507725895682373  4.626782238933716  48.145438609646206  57.62583220558666  -48.85167108453467  23.801566621424143  0.000000
1.4039999999999995  0.000000  0.000000  0.000000  -27.798033600364953  15.691774759551159  23.524986218853826  59.028840682263585  10.980502578641516  5.553369489971671  47.80952083615234  58.087764201962564  -48.6961366104525  23.52884246766153  0.000000
1.4429999999999994  0.000000  0.000000  0.000000  -28.496355473124865  16.08338091199431  23.73261989020433  59.13903733695093  11.448031894113031  6.429651314139527  47.48349097331766  58.50582927382544  -48.493061146984445  23.242604005607067  0.000000
1.4819999999999995  0.000000  0.000000  0.000000  -29.12780776973074  16.421563484176687  23.89920302468909  59.23899663978896  11.894238813919877  7.231150359075229  47.17514667292599  58.877395383011574  -48.28177926326118  22.966040853508  0.000000
1.5209999999999995  0.000000  0.000000  0.000000  -29.672532229936774  16.699815367835072  24.023167294828358  59.32786341434245  12.305145186673544  7.936508076225729  46.89730714941586  59.19774499017795  -48.09645450718686  22.71387211528424  0.000000
1.5599999999999994  0.000000  0.000000  0.000000  -30.112996491007173  16.91447571832267  24.10257719843095  59.40492023350627  12.669122034845543  8.529262505530806  46.665378517106234  59.46041198955514  -47.95619193712462  22.48919307013406  0.000000
1.5989999999999995  0.000000  0.000000  0.000000  -30.436195592754476  17.064837338190788  24.13563113197283  59.46911620269612  12.976682161738465  8.997491195768305  46.49482322864678  59.65765915816748  -47.86312742744007  22.2878030601453  0.000000
1.6379999999999995  0.000000  0.000000  0.000000  -30.63613752305667  17.152929215851508  24.120474387775676  59.51820183108161  13.219962830695174  9.332217198261896  46.39799490274084  59.78051722250464  -47.80500422664581  22.1067766736682  0.000000
1.6769999999999994  0.000000  0.000000  0.000000  -30.71541032134594  17.182966210392852  24.0551159408991  59.548254773612754  13.392440137494013  9.525918932168954  46.381339965488685  59.8190871555809  -47.75892702699856  21.95112028343211  0.000000
1.7159999999999993  0.000000  0.000000  0.000000  -30.684421077128896  17.160144552129825  23.93789913655587  59.554039000177355  13.489060132061509  9.57215064633656  46.44359936664323  59.762990555207104  -47.69530326594917  21.83409628404485  0.000000
1.7549999999999994  0.000000  0.000000  0.000000  -30.558236902924367  17.0890311896098  23.76835252876901  59.53043558591458  13.506881441722529  9.466336066451454  46.575770745593275  59.602444460536965  -47.58221184802722  21.77145717658217  0.000000
1.7939999999999994  0.000000  0.000000  0.000000  -30.352349709687154  16.972003637549058  23.54802435466091  59.47382545836506  13.445849292803448  9.20700252549805  46.763293839025295  59.32909382420063  -47.390730944989976  21.774100487898348  0.000000
1.8329999999999993  0.000000  0.000000  0.000000  -30.07925378880061  16.808672930544926  23.280651819154563  59.38321370325738  13.309008623917325  8.7968539668952  46.990204992981575  58.93688860680895  -47.10129273544951  21.84372463504386  0.000000
1.8719999999999994  0.000000  0.000000  0.000000  -29.746719278199706  16.59650114820993  22.971392921096697  59.26057260046314  13.101817770830213  8.243190214021071  47.24414491666837  58.42267744105933  -46.710744210720456  21.972792535358806  0.000000
1.9109999999999994  0.000000  0.000000  0.000000  -29.357871776761677  16.332019356451784  22.62544983323243  59.11089980393231  12.830953437506935  7.557568531162373  47.520273890358695  57.786908808573166  -46.23798082259496  22.14721406707881  0.000000
1.9499999999999993  0.000000  0.000000  0.000000  -28.91296296453378  16.012040641699627  22.246651848478542  58.94158139484424  12.503093109967017  6.7549628388540945  47.821821880077714  57.03415640656661  -45.72272828110243  22.349320143975778  0.000000
1.9889999999999992  0.000000  0.000000  0.000000  -28.4123064896714  15.634805968858743  21.83697078638403  58.760667250905726  12.124331995112545  5.852599937331507  48.15665606671284  56.173201247978184  -45.21300977155562  22.560594778905447  0.000000
2.027999999999999  0.000000  0.000000  0.000000  -27.85971899455728  15.200860620541633  21.396783339589845  58.57461433094936  11.700497750144317  4.868846268852358  48.53111190228844  55.21646689500951  -44.74400440396695  22.764052387752436  0.000000
2.0669999999999993  0.000000  0.000000  0.000000  -27.2643677350817  14.71321735119717  20.92475183681144  58.387079956098916  11.238314698292044  3.822904266199  48.94349919133157  54.17930051468713  -44.31970856076003  22.94580213181544  0.000000
2.1059999999999994  0.000000  0.000000  0.000000  -26.640208264577332  14.176599058641491  20.417586356454088  58.19950177227999  10.746166009687993  2.7348226929677364  49.37997674676606  53.07884097257886  -43.909108748900934  23.095607523322748  0.000000
2.144999999999999  0.000000  0.000000  0.000000  -26.005231838358313  13.596227546396202  19.869319444147273  58.01400677241588  10.234155107171974  1.6252568084155308  49.8157153746575  51.93340861554433  -43.46082209364411  23.20767006601578  0.000000
2.1839999999999993  0.000000  0.000000  0.000000  -25.380517353480165  12.975770523878499  19.27009512787291  57.83548663331291  9.71329354088927  0.5154258607384148  50.220449421359426  50.76161141691192  -42.92597253323984  23.282469546342984  0.000000
2.2229999999999994  0.000000  0.000000  0.000000  -24.789139197921152  12.31656561493356  18.60562183871005  57.671449984992606  9.194393695390094  -0.572672973071353  50.564626657465865  49.58107091992469  -42.274005363952746  23.327621021295545  0.000000
2.261999999999999  0.000000  0.000000  0.000000  -24.255004379380356  11.619198614732166  17.858166421716028  57.529225491440464  8.687819065474157  -1.6157990060412846  50.82292946067751  48.40558275187535  -41.49181769314766  23.357407042478282  0.000000
2.3009999999999993  0.000000  0.000000  0.000000  -23.800171678554893  10.885833690259005  17.008927726067878  57.412012452215635  8.204308214117221  -2.589536327349641  50.974240476886045  47.241734923117804  -40.56916262919945  23.39099250048437  0.000000
2.339999999999999  0.000000  0.000000  0.000000  -23.440887520299697  10.122415770507885  16.0411300959441  57.315978284146816  7.755780789478247  -3.468912052422641  50.99881284880832  46.08620645865497  -39.48256059342835  23.44939923008964  0.000000
2.378999999999999  0.000000  0.000000  0.000000  -23.184735495109  9.339297791567203  14.942859793416108  57.230600395179074  7.3553494237126555  -4.230553757432933  50.87498165864829  44.92638296188933  -38.18958634894538  23.552881250821844  0.000000
2.4179999999999993  0.000000  0.000000  0.000000  -23.030987903285364  8.549828464235931  13.70914480196843  57.14175377087702  7.016223651865905  -4.855485483908248  50.57786405316016  43.74418272469566  -36.63723675200922  23.719191908699063  0.000000
2.456999999999999  0.000000  0.000000  0.000000  -22.973777741346037  7.767938997747554  12.342660537596338  57.036176557172915  6.749669293965519  -5.331715173992087  50.08042114171777  42.52255755146758  -34.777984708765445  23.962178126417022  0.000000
2.495999999999999  0.000000  0.000000  0.000000  -23.006067678496734  7.005930050827682  10.853557159997976  56.90465205960176  6.563293853624218  -5.655001829721704  49.35699270385976  41.250682669332946  -32.584337798138094  24.29009836513173  0.000000
2.5349999999999993  0.000000  0.000000  0.000000  -23.122018321089605  6.273519964173328  9.258330741032314  56.743622932495256  6.459815742155797  -5.8281641348637905  48.38774694694391  39.926963948137846  -30.056522695239366  24.70281083081002  0.000000
2.573999999999999  0.000000  0.000000  0.000000  -23.31739855642316  5.577809655134816  7.578560878078849  56.55482476512123  6.436784372535684  -5.8592720819573385  47.16424945691779  38.5583156305129  -27.224292455066262  25.18824179755968  0.000000
2.612999999999999  0.000000  0.000000  0.000000  -23.588798246677527  4.9237911569351285  5.8393768770179495  56.343870230816755  6.487038216022891  -5.760417599301627  45.69476639572916  37.15733859298053  -24.145320316932132  25.720194939356574  0.000000
2.6519999999999992  0.000000  0.000000  0.000000  -23.932750700051344  4.315135644422778  4.068395038867401  56.11739319708356  6.600185351777434  -5.547234222463985  44.00788027238619  35.7373652342191  -20.89990959271678  26.26045866777997  0.000000
2.690999999999999  0.000000  0.000000  0.000000  -24.344502060935408  3.7553471966197076  2.294964342110951  55.87979058530326  6.765048769005495  -5.2395005419951675  42.1520405765277  34.30733891513689  -17.58145732372339  26.76578150640734  0.000000
2.729999999999999  0.000000  0.000000  0.000000  -24.81635819984181  3.248808171438779  0.5499755960939922  55.63059204009927  6.972152366397123  -4.861473195600848  40.190728004618485  32.867911668000474  -14.284067417514139  27.196604609862344  0.000000
2.768999999999999  0.000000  0.000000  0.000000  -25.335933056484784  2.801007331897589  -1.1345727347036179  55.36438354027162  7.215316211866196  -4.441396929113115  38.19459781433872  31.410744881327513  -11.092243968279924  27.52370141106389  0.000000
2.807999999999999  0.000000  0.000000  0.000000  -25.885204570374192  2.4178794043861016  -2.726405263989984  55.07310039092695  7.491406334816684  -4.009163008543637  36.232656675861655  29.920868868831136  -8.074650265056864  27.730728602499394  0.000000
2.846999999999999  0.000000  0.000000  0.000000  -26.440996479741745  2.104604774639302  -4.194471103383216  54.75016070478871  7.798597278089922  -3.59303400297817  34.36398348595165  28.381531590623098  -5.281975179794411  27.813399587011055  0.000000
2.885999999999999  0.000000  0.000000  0.000000  -26.976670012498705  1.8649576146968534  -5.510498900762257  54.39368606578594  8.133259642986124  -3.215894188662607  32.629020869658525  26.779859765791844  -2.743395603318765  27.7781813580833  0.000000
2.924999999999999  0.000000  0.000000  0.000000  -27.46539020929381  1.7008579458244346  -6.650503011285644  54.008930448732706  8.487057119154006  -2.893455112003417  31.041902782185673  25.11244686380795  -0.46322319505762244  27.64140509432377  0.000000
2.963999999999999  0.000000  0.000000  0.000000  -27.885562908181104  1.6109922577614164  -7.5965518496327755  53.60862447291137  8.845005504169055  -2.6339120574675157  29.58510357689358  23.3901042792911  1.5807012507171674  27.42798632559771  0.000000
3.002999999999999  0.000000  0.000000  0.000000  -28.224853927934287  1.5902385182275796  -8.338530554684285  53.212382709459796  9.186907004894561  -2.4390635067920234  28.21208612957035  21.638549018863728  3.4321245968597744  27.16924001312284  0.000000
3.041999999999999  0.000000  0.000000  0.000000  -28.481322964932517  1.6287438817876931  -8.876245806827166  52.8440656413539  9.491427421573853  -2.3056034340147877  26.860720454658754  19.895251090815492  5.142022800491591  26.89674584484639  0.000000
3.080999999999999  0.000000  0.000000  0.000000  -28.663937703488248  1.7117981596911354  -9.221238336509277  52.527110114547526  9.741325488252954  -2.2255899012717695  25.481867952813374  18.20302505148869  6.739899733065906  26.63379157876234  0.000000
3.1199999999999988  0.000000  0.000000  0.000000  -28.791087420390483  1.8235464447035128  -9.39484963413904  52.27923114986095  9.925617990071206  -2.1884727378397133  24.07287774795339  16.60306786208834  8.204210181806692  26.392062992887503  0.000000
3.158999999999999  0.000000  0.000000  0.000000  -28.886692416833714  1.9510106617476441  -9.422472380809873  52.10791574834432  10.0399810895581  -2.184767918741889  22.70027865904402  15.128006101715263  9.445228456638404  26.174845566070335  0.000000
3.197999999999999  0.000000  0.000000  0.000000  -28.974622822581612  2.0850465975882013  -9.330811857438482  52.00921365670359  10.08848588856846  -2.2075101608286523  21.493184157767086  13.798424280470595  10.316083348622069  25.98316255353183  0.000000
3.2369999999999988  0.000000  0.000000  0.000000  -29.07217147604405  2.21925935515373  -9.146789505596555  51.97163141934461  10.083304201824733  -2.2517699783960934  20.605061127429952  12.62395276550036  10.65449865282905  25.821030405208727  0.000000
3.275999999999999  0.000000  0.000000  0.000000  -29.18509085392518  2.3481033516703405  -8.896798924434885  51.982081033516344  10.041227446081983  -2.312563448642992  20.160239484451658  11.6073651075826  10.338430951378909  25.695484594016758  0.000000
3.3149999999999986  0.000000  0.000000  0.000000  -29.308248795027016  2.4658712036631467  -8.606473030257476  52.03091470965187  9.979502434850387  -2.382908311490076  20.21827358998338  10.74893811879372  9.321937559674224  25.61358853837863  0.000000
3.3539999999999988  0.000000  0.000000  0.000000  -29.43152303528613  2.5668978246683483  -8.299378635226656  52.11285748638754  9.9120437279954  -2.4541341065448417  20.771006419832673  10.04871113791533  7.636623231115172  25.580423651041176  0.000000
3.392999999999999  0.000000  0.000000  0.000000  -29.546868724261785  2.6471728931142184  -7.996192609496063  52.2249488556411  9.848075160196323  -2.5171394684714525  21.766166538340812  9.50609492279437  5.367388898161241  25.598742567350914  0.000000
3.4319999999999986  0.000000  0.000000  0.000000  -29.65217622299306  2.7066568943062075  -7.713556489776353  52.362628088061065  9.792127825927627  -2.5638950404032395  23.130492391425904  9.118095276030028  2.629924846271158  25.67204962546398  0.000000
3.4709999999999988  0.000000  0.000000  0.000000  -29.749686186907173  2.7485903966891163  -7.461528955347064  52.5188451227016  9.745010445074099  -2.5902556054454564  24.775502628256305  8.877443924846716  -0.4336538307739432  25.80221470475168  0.000000
3.509999999999999  0.000000  0.000000  0.000000  -29.839952054387908  2.776813747846109  -7.244353089287726  52.6851603822952  9.707474700549216  -2.596621307493412  26.588903943223603  8.77137874543696  -3.646182867709936  25.984638169802825  0.000000
3.5489999999999986  0.000000  0.000000  0.000000  -29.917826005621656  2.795127279204284  -7.060911022449684  52.85487068266208  9.681700870304912  -2.585682046713629  28.42680695859673  8.780446174442467  -6.7890409217419485  26.207891701281472  0.000000
3.5879999999999987  0.000000  0.000000  0.000000  -29.971935428533573  2.8059551853729423  -6.90284455881368  53.0250083121278  9.669193218983546  -2.5630519964581735  30.135983008189022  8.878220949459067  -9.634185046048664  26.45436450493915  0.000000
3.626999999999999  0.000000  0.000000  0.000000  -29.99041941049534  2.8080905988379214  -6.7554831955698935  53.19679313391541  9.670562378794807  -2.5380797742801415  31.591137546912254  9.032374852609928  -11.99498571183554  26.702953006499826  0.000000
3.6659999999999986  0.000000  0.000000  0.000000  -29.96972349222475  2.796128748964433  -6.601795057864715  53.37179731833449  9.684686531004939  -2.525468756425194  32.74780917136893  9.208292655402495  -13.798621462096133  26.935660669270145  0.000000
3.7049999999999987  0.000000  0.000000  0.000000  -29.921241897612298  2.759586782769725  -6.427802208665834  53.5500354389517  9.709010987260452  -2.54341283870328  33.64200693559715  9.372959450091633  -15.09024713085572  27.141212196462845  0.000000
3.743999999999999  0.000000  0.000000  0.000000  -29.8661323640883  2.6858092285562254  -6.228111861542232  53.72666654667825  9.738319460109894  -2.6106791885459  34.37374513256675  9.495357376219506  -16.01401016080338  27.317141770652125  0.000000
3.7829999999999986  0.000000  0.000000  0.000000  -29.83328242719372  2.5610655580780475  -6.01043256756646  53.89232091506824  9.76346664310762  -2.741613446464771  35.05770769260362  9.548003962511173  -16.745264208045135  27.466375546745674  0.000000
3.8219999999999987  0.000000  0.000000  0.000000  -29.8363238524692  2.3727397500464393  -5.798462994553942  54.03218330098309  9.771124041097925  -2.9446039693655677  35.774750728655064  9.5024008296441  -17.42514598646439  27.58926157946018  0.000000
3.8609999999999984  0.000000  0.000000  0.000000  -29.888710374963335  2.1134412011501573  -5.628627959163899  54.1242617171642  9.741006263564904  -3.214112072428064  36.546257025230325  9.335434108210913  -18.12194076823241  27.683335610090673  0.000000
3.8999999999999986  0.000000  0.000000  0.000000  -29.976349689047534  1.7864738889347698  -5.539792790009101  54.151815522708176  9.65333380974315  -3.5381407744138516  37.280030232109134  9.028255806525204  -18.762395541651603  27.740737532117752  0.000000
