Simulation
nRows=101
nColumns=15
endheader
time  TH_x TH_y TH_z SC_y  SC_z  SC_x  AC_y  AC_z  AC_x  GH_y  GH_z  GH_yy  EL_x  PS_y
0.0  0.000000  0.000000  0.000000  -29.261415778383125  -0.24239170922224393  -2.8336886758099653  56.30306915532129  8.999245417494667  -5.538702837229316  31.717186591504074  16.157069022406365  8.628973129821441  27.10363141831036  0.000000
0.038999999999999986  0.000000  0.000000  0.000000  -28.843939402459828  0.045565033150776174  -2.995269634848239  55.95291743965797  9.045623906297282  -5.408575541571397  31.748628773364807  16.188827937361282  8.460722716374587  26.70078785136075  0.000000
0.07799999999999997  0.000000  0.000000  0.000000  -28.475225889593524  0.24711184156191332  -3.236898408506195  55.62336750774874  9.058885730296415  -5.28910015580072  31.653179792042554  16.1540156149096  8.430924834298965  26.287728367597634  0.000000
0.11699999999999997  0.000000  0.000000  0.000000  -28.164840721741285  0.35575408381565266  -3.5482905113435783  55.370714750910864  9.095737487805934  -5.1492686509996375  31.549922806602687  16.139735575328434  8.382736953104045  25.89312987200733  0.000000
0.15599999999999994  0.000000  0.000000  0.000000  -27.92255146915528  0.3773985482485436  -3.8962591975994156  55.23860438355571  9.186451538786898  -4.978037094223752  31.613312524392757  16.244063895037918  8.075249428400687  25.538666698486296  0.000000
0.19499999999999992  0.000000  0.000000  0.000000  -27.763228820194012  0.3382013344346073  -4.229977322547601  55.24478511526068  9.335234499408635  -4.775273261106827  32.032952955706506  16.55448153812774  7.265635854991898  25.24465099909044  0.000000
0.23399999999999993  0.000000  0.000000  0.000000  -27.68900946717042  0.27197373824490434  -4.5046698809571  55.376144663141694  9.535321302828754  -4.553572572673165  32.964705131696796  17.13514901497272  5.753658923618151  25.022902658903114  0.000000
0.2729999999999999  0.000000  0.000000  0.000000  -27.696541082052843  0.20830474010834082  -4.683908674663461  55.607145132170075  9.769756956589703  -4.3312099999619855  34.45234191177648  18.026778315756154  3.468889955642843  24.87123704100417  0.000000
0.3119999999999999  0.000000  0.000000  0.000000  -27.764712035826122  0.17008030180444264  -4.74191395239135  55.906832916147586  10.015576444232392  -4.126290223238844  36.40516461531101  19.242810587713524  0.48561655191650094  24.781316294101217  0.000000
0.35099999999999987  0.000000  0.000000  0.000000  -27.8580317456962  0.1688779956675019  -4.660972506171404  56.252273191787154  10.25034053274838  -3.9537991518727567  38.614558074572855  20.76930198236484  -2.9857982173209314  24.74347710816939  0.000000
0.38999999999999985  0.000000  0.000000  0.000000  -27.929921365625116  0.20589193831196806  -4.431742231366991  56.62623308611692  10.459568889060442  -3.825550251977122  40.83281493013298  22.56520835867392  -6.680902161882703  24.7528666926718  0.000000
0.4289999999999998  0.000000  0.000000  0.000000  -27.93783963840673  0.27669148636611945  -4.050864353891051  57.01892224947585  10.639554004594146  -3.749479989512911  42.85180946407423  24.568850590969486  -10.357434871254263  24.80928513908634  0.000000
0.46799999999999986  0.000000  0.000000  0.000000  -27.8530992869494  0.37584226266977194  -3.516827765147274  57.42355198491166  10.792485018178395  -3.730446255991196  44.554330422226755  26.709787400165254  -13.855395811043383  24.907614272939163  0.000000
0.5069999999999998  0.000000  0.000000  0.000000  -27.666110101293828  0.49934091151993193  -2.8261800099762344  57.835346297517  10.921354955379657  -3.772436391234472  45.91682168096172  28.921065055720913  -17.107991913935876  25.030339429665908  0.000000
0.5459999999999998  0.000000  0.000000  0.000000  -27.387234381234503  0.6473178643821925  -1.9729724195823248  58.24579189062372  11.025799838533322  -3.8790623597130343  46.98818069148578  31.147276168525032  -20.12867543797485  25.153440417027443  0.000000
0.5849999999999997  0.000000  0.000000  0.000000  -27.045883854157193  0.8237527704425984  -0.9519475336459159  58.64075632536188  11.100991188016737  -4.053355618462992  47.86073904788606  33.349103234446154  -22.989832842622175  25.255142889916048  0.000000
0.6239999999999998  0.000000  0.000000  0.000000  -26.683873788452207  1.0336454793116956  0.23736539518419497  59.00248904406954  11.139191183118319  -4.295912347580338  48.63825303907171  35.50397075372942  -25.78894588205363  25.32115463378166  0.000000
0.6629999999999998  0.000000  0.000000  0.000000  -26.34096983143233  1.2803422985814845  1.5887586890256467  59.315828101671976  11.13335932645518  -4.602373592674265  49.40421637696302  37.601990663019166  -28.606511643912054  25.34411705106438  0.000000
0.7019999999999997  0.000000  0.000000  0.000000  -26.04191376102664  1.5643108608297616  3.091186352410311  59.57491098998246  11.080249762851244  -4.961455379705078  50.197858540768486  39.63889158875177  -31.464656561592104  25.32063461564276  0.000000
0.7409999999999998  0.000000  0.000000  0.000000  -25.790214733148044  1.883204545071843  4.731097574883947  59.78553767160675  10.981449919471125  -5.355083801427462  51.00685538735547  41.60873730863905  -34.310659937486314  25.25026914340787  0.000000
0.7799999999999997  0.000000  0.000000  0.000000  -25.57315974742851  2.2315780553085274  6.492129311605893  59.961749880881754  10.842029487280207  -5.760010620049667  51.78102389027756  43.49944792037586  -37.03581096683185  25.136116577263174  0.000000
0.8189999999999997  0.000000  0.000000  0.000000  -25.374661195825823  2.602433972778814  8.350346848129801  60.118813979048035  10.667499897775167  -6.1493096916368835  52.457762817515984  45.293781302059394  -39.51984461544519  24.98826318636705  0.000000
0.8579999999999997  0.000000  0.000000  0.000000  -25.18786108533525  2.9893586599909496  10.26913194040657  60.26769279654677  10.46269276506976  -6.493548448682024  52.98452130203748  46.97335611516637  -41.67189191908962  24.82594038221019  0.000000
0.8969999999999997  0.000000  0.000000  0.000000  -25.019554903507597  3.388605803754696  12.19809453995075  60.414096181606546  10.233178865449796  -6.762120380710709  53.32771040732945  48.52353490358383  -43.447436794766205  24.675025848785175  0.000000
0.9359999999999997  0.000000  0.000000  0.000000  -24.88768461322738  3.799675307398231  14.078612704322335  60.56198857614735  9.988067922385257  -6.925332484994422  53.47154958283873  49.93674191024114  -44.84249408049884  24.55966926049929  0.000000
0.9749999999999996  0.000000  0.000000  0.000000  -24.814713473028352  4.224394010445598  15.852684118170847  60.71753196468303  9.741332975320672  -6.957123650275121  53.41389898158355  51.21504811548725  -45.88085204927869  24.492288635499683  0.000000
1.0139999999999996  0.000000  0.000000  0.000000  -24.820210327935218  4.664713127586815  17.472073994129016  60.8891591724572  9.51159710278886  -6.839061361733353  53.16577984111132  52.369895826600455  -46.60613385553011  24.46847386153713  0.000000
1.0529999999999997  0.000000  0.000000  0.000000  -24.915867018166836  5.120014042289909  18.905163384387954  61.08213315291932  9.321641071155824  -6.565424659105785  52.75627618055197  53.417935139088634  -47.079370181326176  24.47231421736179  0.000000
1.0919999999999996  0.000000  0.000000  0.000000  -25.104205442526005  5.586703574684831  20.1396342600393  61.292821641951335  9.195018524437192  -6.145612005305746  52.233314362475426  54.37478001214153  -47.37361935355936  24.48580496705632  0.000000
1.1309999999999996  0.000000  0.000000  0.000000  -25.379212898763896  6.060043518631705  21.180915517580612  61.509224757364294  9.15052636782613  -5.601781857648729  51.653046145361444  55.25029156392871  -47.56167172396743  24.493730333552623  0.000000
1.1699999999999995  0.000000  0.000000  0.000000  -25.73014658862756  6.537110912439821  22.047341588427727  61.717154344131615  9.195544059915528  -4.960876575292856  51.063673665961225  56.04868693330543  -47.700952498023  24.484469194876503  0.000000
1.2089999999999996  0.000000  0.000000  0.000000  -26.145643549470748  7.016934738208996  22.764367356641635  61.90731814321638  9.324393652745933  -4.246869191412631  50.49596914993746  56.77264095276971  -47.82188195384236  24.44837654453371  0.000000
1.2479999999999996  0.000000  0.000000  0.000000  -26.611994418950232  7.497565502835071  23.360099729542583  62.077631665200855  9.52395548033302  -3.4789954249248423  49.96162853151187  57.42625866700221  -47.922044478956465  24.374649785068513  0.000000
1.2869999999999995  0.000000  0.000000  0.000000  -27.111385787203854  7.97447198199583  23.862972608101675  62.231410756532036  9.778634658683067  -2.673323603675652  49.456949970745185  58.01597446535916  -47.97041711679253  24.250277877939315  0.000000
1.3259999999999996  0.000000  0.000000  0.000000  -27.623769876108373  8.439893145795066  24.29898489227398  62.37412230452732  10.072560753581682  -1.8462470767410066  48.97039127619514  58.55001408693046  -47.92636139109134  24.0648994643393  0.000000
1.3649999999999995  0.000000  0.000000  0.000000  -28.130273571605898  8.883361463957186  24.688021627527668  62.51034013115668  10.389755862254693  -1.0175365418213296  48.491538500789076  59.03701208165976  -47.76579306509145  23.819392884903586  0.000000
1.4039999999999995  0.000000  0.000000  0.000000  -28.615825984024376  9.293091473406124  25.0411533418469  62.64238659030783  10.713967237724686  -0.211343227205524  48.01760151421714  59.483878253743626  -47.499898614512595  23.531566090092532  0.000000
1.4429999999999994  0.000000  0.000000  0.000000  -29.068981769219864  9.657415747644869  25.361022785251865  62.770611960618815  11.029479803519992  0.545491957272408  47.555681584753636  59.89387862054599  -47.17351207703923  23.23240486867751  0.000000
1.4819999999999995  0.000000  0.000000  0.000000  -29.479873990728247  9.966777346092822  25.64520646486621  62.89419040930885  11.322289074435243  1.2274980963445765  47.12130804100697  60.2654016152619  -46.8452104240123  22.953195004727615  0.000000
1.5209999999999995  0.000000  0.000000  0.000000  -29.8382809586414  10.215357746764026  25.889883922050668  63.01173567094652  11.581603326346219  1.814826511633824  46.73564444578437  60.59228255232576  -46.564019681049174  22.71151937095326  0.000000
1.5599999999999994  0.000000  0.000000  0.000000  -30.13340579195226  10.402029589859756  26.091423347692896  63.121140458825884  11.800182924213921  2.295622269907515  46.42131478982906  60.86512468325565  -46.356159322878106  22.50533266580184  0.000000
1.5989999999999995  0.000000  0.000000  0.000000  -30.35578605197627  10.53022627037091  26.246351744246127  63.21840226186993  11.973303615257182  2.6641841267576214  46.19769002715792  61.07260086181678  -46.2250380263771  22.319785654359634  0.000000
1.6379999999999995  0.000000  0.000000  0.000000  -30.50050903720917  10.605903964942073  26.35070413332901  63.29514668978212  12.0981924692803  2.916810610346804  46.07894863802419  61.20154140701575  -46.158279941411756  22.142476302933108  0.000000
1.6769999999999994  0.000000  0.000000  0.000000  -30.57028429234475  10.636093832938046  26.398735822762482  63.3415378133198  12.172900543441209  3.0495748189951604  46.07168422109619  61.23965925017667  -46.13243238388226  21.976605287201668  0.000000
1.7159999999999993  0.000000  0.000000  0.000000  -30.574962357251007  10.627133063632787  26.383425873571458  63.350938450747535  12.195788781841557  3.0585493120185445  46.172287252858844  61.17745601186384  -46.1151693411768  21.84207229638246  0.000000
1.7549999999999994  0.000000  0.000000  0.000000  -30.526638239181583  10.581729726871982  26.298532846491458  63.32002728702047  12.167201896567672  2.940519556820073  46.36755702268784  61.007981480546704  -46.06838325036369  21.764181254442263  0.000000
1.7939999999999994  0.000000  0.000000  0.000000  -30.43455390523279  10.498077521375125  26.140528891604692  63.24896983946464  12.089854121703317  2.6939719607384047  46.635302567841165  60.72664285185743  -45.952223187414994  21.76023890668614  0.000000
1.8329999999999993  0.000000  0.000000  0.000000  -30.30324772488819  10.37092161444617  25.91001315342131  63.14156901666076  11.967746066905974  2.3205932097797004  46.948698117057546  60.330663815030626  -45.73255933512504  21.832642748858255  0.000000
1.8719999999999994  0.000000  0.000000  0.000000  -30.133309678210765  10.194551761140753  25.61136606591589  63.00293701266321  11.804831637667276  1.8258507047255677  47.284257806689816  59.817805194570454  -45.39268384307705  21.970294409799667  0.000000
1.9109999999999994  0.000000  0.000000  0.000000  -29.92255130285609  9.965408233321902  25.25131222719338  62.83649857681183  11.604584364170796  1.2186411695875328  47.63067783403479  59.18517899232238  -44.94683973436844  22.15400124282513  0.000000
1.9499999999999993  0.000000  0.000000  0.000000  -29.66714854122131  9.682203869971318  24.83700613711672  62.643936383401964  11.36985194819436  0.5113594652438812  47.993692187078274  58.430520174375275  -44.44479846890234  22.3620556967048  0.000000
1.9889999999999992  0.000000  0.000000  0.000000  -29.364927682305037  9.346438106254674  24.374196868766152  62.430990015812355  11.101414600783524  -0.27949603927594285  48.38930238405527  57.557081688761784  -43.95428824830527  22.57542588122419  0.000000
2.027999999999999  0.000000  0.000000  0.000000  -29.01817515951434  8.961108550671923  23.8666598588096  62.206721121946934  10.799426729884553  -1.134292672333418  48.831187441952174  56.57463052101125  -43.526828043386594  22.77928172812004  0.000000
2.0669999999999993  0.000000  0.000000  0.000000  -28.63272265458962  8.530084739173597  23.316265629717787  61.97612386451957  10.467688635319893  -2.0334388806566692  49.3187765608825  55.497032858121706  -43.16690345237531  22.961156099134627  0.000000
2.1059999999999994  0.000000  0.000000  0.000000  -28.21633991918074  8.059360410281661  22.72342560574753  61.73823454445949  10.114253618617834  -2.9589959644350277  49.831850511887424  54.34038714120252  -42.82612445344931  23.110077339151445  0.000000
2.144999999999999  0.000000  0.000000  0.000000  -27.777438911390895  7.555289466244709  22.084682836571776  61.48995172179012  9.750271868982281  -3.8937597977143  50.336747271869605  53.12276895442692  -42.42953077856401  23.218385223951653  0.000000
2.1839999999999993  0.000000  0.000000  0.000000  -27.326524086458228  7.023835542472869  21.389212721777785  61.23065691354815  9.387939396427488  -4.817954762094401  50.797694746523575  51.86397965168435  -41.91454656913118  23.28576969862309  0.000000
2.2229999999999994  0.000000  0.000000  0.000000  -26.88201288794571  6.471063975372032  20.61764015078731  60.96700436098779  9.03703202242664  -5.7052952599771425  51.183220225330345  50.58563612582617  -41.25344060211693  23.32211514130291  0.000000
2.261999999999999  0.000000  0.000000  0.000000  -26.472992062122906  5.903817932721571  19.742464315740186  60.71324161432245  8.703047743371439  -6.520346897619916  51.463164708994285  49.30883554460803  -40.445446767613355  23.345315736128704  0.000000
2.3009999999999993  0.000000  0.000000  0.000000  -26.132282225483088  5.331531946824574  18.7326004964384  60.485054399810856  8.38968568034546  -7.22110670422939  51.602809419562185  48.0471299019968  -39.48768962533594  23.375099718475237  0.000000
2.339999999999999  0.000000  0.000000  0.000000  -25.883707957376867  4.765556372343153  17.562534430576648  60.289683594491684  8.10445646220315  -7.769008154223208  51.56550329863721  46.79877366793107  -38.35217575540872  23.429687704247623  0.000000
2.378999999999999  0.000000  0.000000  0.000000  -25.73375932863116  4.216118314104068  16.221273011175178  60.11954254982118  7.860913629272536  -8.139921060647595  51.32210505775409  45.54634974709417  -36.98601348687556  23.52687402364895  0.000000
2.4179999999999993  0.000000  0.000000  0.000000  -25.67225812721643  3.6904198349802955  14.715746617523017  59.955082550377576  7.674997071013143  -8.329102215951139  50.854276849686116  44.26471844286888  -35.32906211633622  23.684058776353417  0.000000
2.456999999999999  0.000000  0.000000  0.000000  -25.681192750867357  3.1930951217070884  13.067884185271307  59.77524305832415  7.557908201103649  -8.348925451612782  50.14838705448948  42.932974691105585  -33.33460872383281  23.91646246823432  0.000000
2.495999999999999  0.000000  0.000000  0.000000  -25.744683952671714  2.726428680926678  11.309454334146473  59.56438666038637  7.51279515057022  -8.222320271498804  49.19281796461356  41.54141707324063  -30.984457530984972  24.235598727228513  0.000000
2.5349999999999993  0.000000  0.000000  0.000000  -25.852056274512414  2.29053404756365  9.477216795860098  59.31566146293822  7.535514096251421  -7.976563779335993  47.978062833413595  40.092393946298145  -28.2926314018896  24.645794134640578  0.000000
2.573999999999999  0.000000  0.000000  0.000000  -25.995911351017767  1.8843884715387373  7.609397864903815  59.03047253478314  7.616712698706188  -7.638067378920689  46.50152050501895  38.596647301321326  -25.30312615110935  25.138387215002517  0.000000
2.612999999999999  0.000000  0.000000  0.000000  -26.169485843208147  1.5066464886752529  5.742940492315164  58.71706434541113  7.7440164270938325  -7.2304393686267625  44.77422298639779  37.06867653204674  -22.087231840478914  25.686927954274  0.000000
2.6519999999999992  0.000000  0.000000  0.000000  -26.366172007917857  1.156167239499829  3.9123761307692466  58.38635578602378  7.903846253206988  -6.7750366462842635  42.82696796348969  35.52170373265857  -18.737711554625086  26.248692364018684  0.000000
2.690999999999999  0.000000  0.000000  0.000000  -26.580837500079046  0.8330605158831359  2.1495674764795165  58.04702119529443  8.084161904401446  -6.29354337145045  40.71252656474278  33.963461145547846  -15.357816099343607  26.774297367892768  0.000000
2.729999999999999  0.000000  0.000000  0.000000  -26.811080943511897  0.5398047006937127  0.48428989723571  57.70067014932019  8.276309484802377  -5.80998744288299  38.502693065479896  32.394369450622115  -12.046004812368022  27.219926284746276  0.000000
2.768999999999999  0.000000  0.000000  0.000000  -27.05733393221946  0.2813314771359996  -1.0553068098574725  57.34100745262182  8.4751627101192  -5.351629750195139  36.281786954061864  30.809114678160014  -8.885409450910771  27.555361130574042  0.000000
2.807999999999999  0.000000  0.000000  0.000000  -27.321187991494945  0.06382266050070219  -2.442770989302809  56.95630744650646  8.677236843073292  -4.947169044130416  34.13767003694325  29.200025053422294  -5.939621581615238  27.765459256500733  0.000000
2.846999999999999  0.000000  0.000000  0.000000  -27.60291287719038  -0.1070746913815117  -3.6543958014376416  56.5350989483287  8.878345685230318  -4.623300910092676  32.15245941651654  27.560462832336867  -3.255908776013038  27.847104214831987  0.000000
2.885999999999999  0.000000  0.000000  0.000000  -27.89902081690582  -0.2280792823965279  -4.670752881085926  56.071521158559946  9.071492445923264  -4.400740210701672  30.39046511348976  25.888290570333268  -0.8648285022743136  27.806130555360205  0.000000
2.924999999999999  0.000000  0.000000  0.000000  -28.199292029340253  -0.29978048938218144  -5.478194036250834  55.569258270454895  9.247301487067768  -4.291515388148151  28.882461873189115  24.187577908325046  1.2277079940789952  27.65727153031076  0.000000
2.963999999999999  0.000000  0.000000  0.000000  -28.487053383856264  -0.32780655912798823  -6.070632478421865  55.042829849096364  9.395252127976981  -4.29772280195821  27.60843566435495  22.470298280980924  3.0521644305505626  27.4263217935934  0.000000
3.002999999999999  0.000000  0.000000  0.000000  -28.745070366317965  -0.32233981983178384  -6.452427506334958  54.51780266915815  9.505903324750097  -4.4107465050145755  26.49298920692209  20.757153360089625  4.67487529939743  27.14958830112044  0.000000
3.041999999999999  0.000000  0.000000  0.000000  -28.960482766366418  -0.2966228803112794  -6.6395646215408  54.02760334479828  9.5719457707682  -4.611353908508402  25.42008418930807  19.07659200540072  6.183757038763814  26.865911713176427  0.000000
3.080999999999999  0.000000  0.000000  0.000000  -29.128001280508347  -0.2642790399977345  -6.6562680572837545  53.60708629669234  9.587572150138133  -4.87327129043612  24.278158722719276  17.461144082849977  7.64879820933602  26.603405066610165  0.000000
3.1199999999999988  0.000000  0.000000  0.000000  -29.252937772302186  -0.23396867226615137  -6.531283284240999  53.28230514646916  9.548638358142073  -5.167513831422579  23.023474242328145  15.942523375937377  9.067946293846274  26.372277876942906  0.000000
3.158999999999999  0.000000  0.000000  0.000000  -29.350321991397546  -0.2055200215380101  -6.2935002796879465  53.0614675764213  9.454316208669464  -5.468472457241477  21.725520919430682  14.545912695675762  10.332092949940927  26.169777118035093  0.000000
3.197999999999999  0.000000  0.000000  0.000000  -29.43937201701339  -0.17197583869431532  -5.970109657969287  52.933664198400294  9.310439619199894  -5.758280323711586  20.555495610513454  13.286564722303256  11.242683108823813  25.990636930028604  0.000000
3.2369999999999988  0.000000  0.000000  0.000000  -29.534721616618896  -0.1255275544296638  -5.587725792429755  52.87699211295368  9.131602296033096  -6.0267193193868245  19.71648847488198  12.171153229927652  11.583932602106898  25.836334412622605  0.000000
3.275999999999999  0.000000  0.000000  0.000000  -29.638491413486648  -0.0631403994235377  -5.17342507831606  52.870895169682925  8.93772645446191  -6.266562415362111  19.34909153273345  11.202784089076824  11.217226053790903  25.715060797706645  0.000000
3.3149999999999986  0.000000  0.000000  0.000000  -29.740878558928504  0.010649134870002144  -4.754891966662928  52.9049451986705  8.748808065595913  -6.469166934403456  19.477415116967325  10.385077886915427  10.132417494607505  25.635178290173403  0.000000
3.3539999999999988  0.000000  0.000000  0.000000  -29.828847307915687  0.0854091198569458  -4.358621437167358  52.978998217825975  8.580416892303072  -6.624237935399931  20.019053733751385  9.722385894807497  8.434825723229519  25.601196969849894  0.000000
3.392999999999999  0.000000  0.000000  0.000000  -29.89599947671701  0.14997472715986515  -4.009024341793945  53.09571871656493  8.443272099711724  -6.721908314700328  20.849749377349756  9.216377066052356  6.280623601507248  25.61448743169007  0.000000
3.4319999999999986  0.000000  0.000000  0.000000  -29.947099149589008  0.19762576980863375  -3.7269970054173744  53.25281360786793  8.343904873559566  -6.7555449932001865  21.867007012502444  8.86326619152423  3.8151948096091113  25.678779902696114  0.000000
3.4709999999999988  0.000000  0.000000  0.000000  -29.994514215898512  0.22785839249165635  -3.525409429602113  53.44086093461734  8.28421445990361  -6.725225013976491  23.01502081837282  8.652819790327767  1.1525280304012921  25.798723742353296  0.000000
3.509999999999999  0.000000  0.000000  0.000000  -30.048626378638154  0.24443406982906607  -3.408533489059706  53.64491696749046  8.264438226446392  -6.637720626414988  24.263836891972854  8.568924975300671  -1.602250096772346  25.974133617847176  0.000000
3.5489999999999986  0.000000  0.000000  0.000000  -30.11013165868631  0.2538381247236829  -3.37189685030807  53.85087244536272  8.284086113907696  -6.501953202454917  25.561411285126244  8.590493817379176  -4.306257657497105  26.196127267071365  0.000000
3.5879999999999987  0.000000  0.000000  0.000000  -30.167314958420146  0.26305429506477807  -3.400433005889755  54.050475486723265  8.340032190531963  -6.328649810566717  26.822845041246307  8.692695980594182  -6.780565934896354  26.446247947565713  0.000000
3.626999999999999  0.000000  0.000000  0.000000  -30.20298223192118  0.2767102276080985  -3.4697337553963155  54.242950232620956  8.427241226600998  -6.130484057495236  27.948994792002626  8.847364248694678  -8.848083677749731  26.700813907901274  0.000000
3.6659999999999986  0.000000  0.000000  0.000000  -30.20783165979863  0.29553718253619193  -3.5506738175608143  54.43049613187438  8.538695567818225  -5.924849275796078  28.893644795094897  9.02538895596053  -10.428722874702338  26.939750056421385  0.000000
3.7049999999999987  0.000000  0.000000  0.000000  -30.1907835227446  0.31361259901993943  -3.6166068020146294  54.6156285007037  8.667024204160413  -5.732710535988363  29.676634314057768  9.198897229357359  -11.559791597476119  27.1512666912387  0.000000
3.743999999999999  0.000000  0.000000  0.000000  -30.173156554312158  0.3196975995748984  -3.6504256471220073  54.79742693049519  8.803703996318385  -5.576765861575517  30.37266453970651  9.33960380169658  -12.378316563794865  27.332310494815708  0.000000
3.7829999999999986  0.000000  0.000000  0.000000  -30.188678281663066  0.29833458622342013  -3.6496989996729687  54.96969110655969  8.93670534547028  -5.476721443938007  31.05996938865781  9.419547552497749  -13.04262375522624  27.485357037684373  0.000000
3.8219999999999987  0.000000  0.000000  0.000000  -30.255812775102612  0.23338258057382472  -3.63186169111662  55.11646430724798  9.049816271651776  -5.448066836971595  31.7736054696722  9.404821681542968  -13.66235990154785  27.60911048391008  0.000000
3.8609999999999984  0.000000  0.000000  0.000000  -30.39339189367676  0.1103757568254479  -3.6363669478530607  55.20885241496857  9.120645609653508  -5.492727148735729  32.48559259443564  9.264573944579  -14.262995460260695  27.697739300180196  0.000000
3.8999999999999986  0.000000  0.000000  0.000000  -30.586948709262618  -0.07070598915741519  -3.7128958458139794  55.21833400425857  9.126099607324404  -5.601154029777421  33.04057578096705  8.96989793013169  -14.703113741931631  27.742427968822195  0.000000
