Simulation
nRows=101
nColumns=15
endheader
time  TH_x TH_y TH_z SC_y  SC_z  SC_x  AC_y  AC_z  AC_x  GH_y  GH_z  GH_yy  EL_x  PS_y
0.0  0.000000  0.000000  0.000000  -29.721029988400016  -0.9504839260182514  -2.8322116344017156  57.781594857455474  7.753352109794943  -5.1101516920020975  29.52264283587208  15.11905757712823  11.417708047555312  27.3076818235465  0.000000
0.038999999999999986  0.000000  0.000000  0.000000  -29.40508613192137  -0.5719325011680974  -1.901089075163839  57.12151230322339  7.403523493816809  -5.8365956631243305  30.16439219961096  15.337160417296907  10.457759923205254  26.890400822612595  0.000000
0.07799999999999997  0.000000  0.000000  0.000000  -29.123913520361146  -0.2848898034958093  -1.0471918509740525  56.5039332326482  6.966896961950889  -6.568968767864089  30.856850987200243  15.495041955061785  9.475104255736865  26.430769895967764  0.000000
0.11699999999999997  0.000000  0.000000  0.000000  -28.892029876667532  -0.09070198934866243  -0.2748157177670838  56.00305269291916  6.468399484741065  -7.247580396926055  31.63932013128552  15.673071300711737  8.398708783278357  25.956372665809976  0.000000
0.15599999999999994  0.000000  0.000000  0.000000  -28.709150649752775  -0.0009695783863647269  0.40885656018230615  55.67603742098728  5.94661784277945  -7.8318923263034135  32.54277727958498  15.958852977679582  7.14009229776003  25.494165846980238  0.000000
0.19499999999999992  0.000000  0.000000  0.000000  -28.57859998859778  -0.010283663148384758  1.0001881120902207  55.544730774268274  5.444918885525969  -8.292818730381985  33.602254324585516  16.432155648774604  5.629769188847221  25.090702711445996  0.000000
0.23399999999999993  0.000000  0.000000  0.000000  -28.49573752134336  -0.10027141318306286  1.4924678495338524  55.5988307300938  5.005753338216543  -8.616476703996533  34.83799319223649  17.155462640032738  3.8131297860934676  24.78359294929858  0.000000
0.2729999999999999  0.000000  0.000000  0.000000  -28.459351336957045  -0.2464374931871351  1.8836977553019085  55.809959088270105  4.665630962112816  -8.804368906479144  36.252034570134754  18.170314974693326  1.6617277358290825  24.587119621777717  0.000000
0.3119999999999999  0.000000  0.000000  0.000000  -28.457978570755948  -0.4176324194163688  2.1837458133481125  56.138076499670596  4.447368186199603  -8.87040195835289  37.82000532327128  19.488027647210508  -0.8282953715808937  24.49479359486124  0.000000
0.35099999999999987  0.000000  0.000000  0.000000  -28.47012128104535  -0.5806703998037688  2.4212307999748095  56.540943793908085  4.362446470156644  -8.841453637243257  39.49922865312314  21.08697552521889  -3.6254121709500273  24.488804609400617  0.000000
0.38999999999999985  0.000000  0.000000  0.000000  -28.46427960657809  -0.7034200489672994  2.642202865426064  56.97699424700168  4.410361128518819  -8.753679940068402  41.23496542531544  22.917653018545355  -6.667820130940769  24.55197776401504  0.000000
0.4289999999999998  0.000000  0.000000  0.000000  -28.411237391347797  -0.7616605187086729  2.9029499630695534  57.41388732323524  4.57878720618964  -8.64662069938891  42.97156482037033  24.916875989312096  -9.873551108910318  24.666437837644736  0.000000
0.46799999999999986  0.000000  0.000000  0.000000  -28.294055840909262  -0.7428426550935929  3.259188341280667  57.8299359796451  4.841094048406673  -8.55630981396499  44.658777568922595  27.023901338917767  -13.160941953872534  24.81387392283842  0.000000
0.5069999999999998  0.000000  0.000000  0.000000  -28.111171521184794  -0.6486630395582094  3.7572506011694857  58.21506546221579  5.158940653733161  -8.512724805156987  46.25651962349068  29.190715850462883  -16.464624857987797  24.970499386621157  0.000000
0.5459999999999998  0.000000  0.000000  0.000000  -27.873051151650543  -0.49226981930663677  4.426779030162134  58.56501463850569  5.492027050171277  -8.538222575701752  47.73867593994943  31.383760644999644  -19.740552821150025  25.11172009604165  0.000000
0.5849999999999997  0.000000  0.000000  0.000000  -27.598801227512357  -0.2894330332077315  5.279128576528056  58.87742692937888  5.80541218547439  -8.645159574017029  49.094870192560855  33.581003817556116  -22.962852642895843  25.221820014254412  0.000000
0.6239999999999998  0.000000  0.000000  0.000000  -27.31086599246251  -0.054192617211355175  6.3103031995257854  59.15023968626547  6.074251236120209  -8.835349799429077  50.32761222962283  35.767580362958824  -26.115957552235805  25.29346317030583  0.000000
0.6629999999999998  0.000000  0.000000  0.000000  -27.027614244489545  0.20397085256430703  7.505027461179121  59.38298613935463  6.286247760953336  -9.100482371824764  51.44429220501245  37.93071219898392  -29.185435841023846  25.324526625613988  0.000000
0.7019999999999997  0.000000  0.000000  0.000000  -26.75998595963892  0.4820667874093511  8.842453238951459  59.577826077604364  6.440620237739578  -9.422207104909067  52.45047880186309  40.05455643590019  -32.14668686508758  25.31627807780194  0.000000
0.7409999999999998  0.000000  0.000000  0.000000  -26.51025264830105  0.7822227433893298  10.298889817362861  59.740163374354  6.544781935155669  -9.773457376530356  53.343365021293  42.11841126769013  -34.959855316729744  25.271336089529346  0.000000
0.7799999999999997  0.000000  0.000000  0.000000  -26.276895692209024  1.108564436300721  11.847952577724257  59.879445686843106  6.610280066184406  -10.120140163682342  54.109686235053175  44.097843712266176  -37.57164556224189  25.193213314678307  0.000000
0.8189999999999997  0.000000  0.000000  0.000000  -26.061962159875527  1.4646037112827297  13.456705561923648  60.00861691214319  6.648077962781512  -10.422660759183305  54.72710438748422  45.96979773109576  -39.92563571452863  25.087721719114906  0.000000
0.8579999999999997  0.000000  0.000000  0.000000  -25.876927422801074  1.8515799208228993  15.081884293243514  60.144057019028764  6.666608432339465  -10.637732946073626  55.168704528015766  47.71722039550147  -41.97552405271944  24.964017534514824  0.000000
0.8969999999999997  0.000000  0.000000  0.000000  -25.742224767300325  2.2690309737893912  16.668240916652742  60.30351032916701  6.672782958230491  -10.721842769151454  55.40963065154579  49.333095859616975  -43.695962268232655  24.834704997186865  0.000000
0.9359999999999997  0.000000  0.000000  0.000000  -25.678785050854952  2.7156989100192477  18.153497182619287  60.50141528865981  6.678057503911725  -10.637829079844606  55.43649305812978  50.819069062235286  -45.08605441454316  24.714657516804987  0.000000
0.9749999999999996  0.000000  0.000000  0.000000  -25.698073536044372  3.1866400498564915  19.479849385608922  60.739463875590715  6.705948565936312  -10.36730845577639  55.26058299232864  52.18206969479  -46.16637912013398  24.621021177533304  0.000000
1.0139999999999996  0.000000  0.000000  0.000000  -25.798812406103355  3.6724447372995472  20.608048287446508  61.002736704440096  6.789401963391981  -9.91757672142181  54.9197043736935  53.42964342939306  -46.972309022043106  24.567313251132365  0.000000
1.0529999999999997  0.000000  0.000000  0.000000  -25.969531410387635  4.164154361892704  21.527123207842298  61.268805162650175  6.9578799215433  -9.31746697589165  54.4607973006083  54.5656646512955  -47.548292210363925  24.552606402632403  0.000000
1.0919999999999996  0.000000  0.000000  0.000000  -26.198252131895508  4.65652051127861  22.251814619555024  61.51909867332316  7.224396923146315  -8.602822537597664  53.92331967991044  55.59095481644094  -47.9435720805663  24.561749721120734  0.000000
1.1309999999999996  0.000000  0.000000  0.000000  -26.479767714536614  5.147398877182274  22.81072941895326  61.74513235861964  7.583657612862004  -7.803425563107123  53.33512274099812  56.50718997639744  -48.205964937003756  24.57490101640667  0.000000
1.1699999999999995  0.000000  0.000000  0.000000  -26.81213669622652  5.635975282472721  23.236102097015255  61.946412726691314  8.02090694605662  -6.940895620170109  52.717186319976705  57.31870208533934  -48.37424078641344  24.574330943587892  0.000000
1.2089999999999996  0.000000  0.000000  0.000000  -27.19119150679908  6.121392115068625  23.558065283675713  62.12608408076121  8.519583755118175  -6.030528521394285  52.086943206854556  58.03218813319613  -48.47269534690696  24.54572389123471  0.000000
1.2479999999999996  0.000000  0.000000  0.000000  -27.60779585910824  6.601972929196513  23.80194116841102  62.28843661949735  9.064423909676183  -5.083962728633571  51.458543966361795  58.656551126749406  -48.510447006338715  24.477166505078245  0.000000
1.2869999999999995  0.000000  0.000000  0.000000  -28.047886863321544  7.074411688240789  23.987579549906737  62.43719259672434  9.641598646066905  -4.111918798354489  50.842797103622274  59.20236863884454  -48.48517684020597  24.359168272840414  0.000000
1.3259999999999996  0.000000  0.000000  0.000000  -28.494976655145376  7.533167340651165  24.129445186949937  62.57522943842289  10.237878826388762  -3.1272968129622902  50.24754540886915  59.68126229940116  -48.39135580437697  24.186729850441825  0.000000
1.3649999999999995  0.000000  0.000000  0.000000  -28.93369286908226  7.970624977802234  24.23716388536069  62.70416951798313  10.839712825427643  -2.1472684935264867  49.67938647364986  60.104556122256504  -48.22947212176744  23.962587102865026  0.000000
1.4039999999999995  0.000000  0.000000  0.000000  -29.352346804611333  8.37723683414576  24.315854114624578  62.82477268776751  11.433210976377834  -1.1940770123601614  49.14516408717117  60.48187640265046  -48.01239840424684  23.699052785687435  0.000000
1.4429999999999994  0.000000  0.000000  0.000000  -29.743549739824612  8.742649383666633  24.367315471751628  62.936866061030585  12.004905685799326  -0.293197565936808  48.65342314762027  60.819382985981214  -47.76481342780671  23.415831010146263  0.000000
1.4819999999999995  0.000000  0.000000  0.000000  -30.102031177025825  9.057869852977959  24.392178477545347  63.039986293045146  12.542051239553068  0.5298457655036923  48.21400391874784  61.118809811254984  -47.516567415569895  23.133641483762492  0.000000
1.5209999999999995  0.000000  0.000000  0.000000  -30.421390291713646  9.316703282906143  24.39181246634379  63.133166995405915  13.03237372908507  1.2529952414985686  47.83779628855727  61.37720756562749  -47.29369738618497  22.867814833984525  0.000000
1.5599999999999994  0.000000  0.000000  0.000000  -30.692979313845527  9.516784056592822  24.368652841724924  63.21506219480388  13.463702718278538  1.8594418384191225  47.535882357519384  61.58813091884471  -47.11149219679354  22.6257996323053  0.000000
1.5989999999999995  0.000000  0.000000  0.000000  -30.90718129512014  9.659538728841136  24.32563348664894  63.28316237667706  13.824310036595367  2.337572686021061  47.31855787422481  61.74271534032705  -46.972009002782244  22.40953040863014  0.000000
1.6379999999999995  0.000000  0.000000  0.000000  -31.056458203915803  9.748931880031236  24.265119015337838  63.33371290383019  14.103486327043614  2.679160658644614  47.19348707190159  61.8309599326204  -46.86554190033621  22.220579017185116  0.000000
1.6769999999999994  0.000000  0.000000  0.000000  -31.13852837843607  9.78987628211144  24.188052428314677  63.36173515731533  14.292167488084319  2.877493211179144  47.16473317645589  61.842851068819705  -46.773974177469064  22.064708112444958  0.000000
1.7159999999999993  0.000000  0.000000  0.000000  -31.156845660001146  9.786617623260154  24.09369002345709  63.36196109727243  14.383864304224103  2.9264181901358155  47.231791941066035  61.7692411696132  -46.67461472370732  21.952332405151225  0.000000
1.7549999999999994  0.000000  0.000000  0.000000  -31.118594180398908  9.741237401639335  23.980300232212116  63.33030111293187  14.375191892515081  2.8209542242236174  47.3893865308361  61.60250015263648  -46.54417815932627  21.894796727338516  0.000000
1.7939999999999994  0.000000  0.000000  0.000000  -31.03167157851463  9.65270591546622  23.846328798781997  63.26557982077261  14.266215977161627  2.5586713961619303  47.62790585715494  61.33675073258636  -46.36273371498627  21.899341240529786  0.000000
1.8329999999999993  0.000000  0.000000  0.000000  -30.902583967653012  9.517321590060334  23.69157153341275  63.169929611971696  14.060288803232973  2.1414017111849737  47.93529972279993  60.96758522159304  -46.11747003977971  21.96586153060863  0.000000
1.8719999999999994  0.000000  0.000000  0.000000  -30.73610926200892  9.330465770495532  23.51765316143845  63.04825729718267  13.763513505797802  1.5766379804510613  48.299387897912005  60.49150696037362  -45.806132094285246  22.08681670999182  0.000000
1.9109999999999994  0.000000  0.000000  0.000000  -30.53554401713209  9.089126704501194  23.327682255088792  62.906420777260784  13.383960965906105  0.8781595709166276  48.710002548097705  59.905408199720384  -45.438472944029364  22.24918057016989  0.000000
1.9499999999999993  0.000000  0.000000  0.000000  -30.3030416733283  8.793638760655762  23.125175451404825  62.74942551732645  12.930663934963732  0.06507817725489616  49.160110944689684  59.20665695666108  -45.034176117433816  22.43735519722863  0.000000
1.9889999999999992  0.000000  0.000000  0.000000  -30.03996585161703  8.447325664643731  22.91177749334839  62.58034645879663  12.413081716980537  -0.8405109826686462  49.64483325260785  58.394846039136425  -44.61569454428612  22.635469102741908  0.000000
2.027999999999999  0.000000  0.000000  0.000000  -29.747191427215732  8.055633603380333  22.686073434120303  62.39986914867357  11.841043604665444  -1.8160282564235102  50.1583211976852  57.47338589946619  -44.19819678957036  22.82827931208905  0.000000
2.0669999999999993  0.000000  0.000000  0.000000  -29.425650981064557  7.624646600678293  22.44402043965855  62.20682930079785  11.22415404132275  -2.841023417696241  50.69022662304954  56.450812526999236  -43.7809868998055  23.00179601083822  0.000000
2.1059999999999994  0.000000  0.000000  0.000000  -29.077011874142094  7.1595365166672895  22.179508228210498  61.99896282893503  10.571734503974982  -3.898237978315715  51.22447890959498  55.340267277887406  -43.34569498771186  23.14478915226411  0.000000
2.144999999999999  0.000000  0.000000  0.000000  -28.70451968915609  6.664330080513841  21.88471622481827  61.773672479056465  9.893348084956799  -4.972902828125933  51.740278108157675  54.15731194453209  -42.861273391454176  23.251212293789724  0.000000
2.1839999999999993  0.000000  0.000000  0.000000  -28.314470208148762  6.142004247802981  21.54989239050821  61.529544030062034  9.19932303931944  -6.050550577945375  52.21429438306596  52.91753823345484  -42.29265354538901  23.3229990212996  0.000000
2.2229999999999994  0.000000  0.000000  0.000000  -27.91708621158388  5.595192479113186  21.161990211127776  61.268228279611655  8.500771531526008  -7.113690119278967  52.62161915262425  51.635388800771665  -41.60674487442813  23.37116067853731  0.000000
2.261999999999999  0.000000  0.000000  0.000000  -27.527640252277372  5.02734325407862  20.70251822544846  60.99613427687491  7.808424420278155  -8.137611721726984  52.934200388700106  50.32448585015305  -40.772799523847965  23.414017390553646  0.000000
2.3009999999999993  0.000000  0.000000  0.000000  -27.16829571175038  4.445077176204345  20.145276447864614  60.72561098049003  7.130507820097785  -9.085729848061069  53.11562288971367  48.997967396858925  -39.75931051199158  23.471605151321906  0.000000
2.339999999999999  0.000000  0.000000  0.000000  -26.864027114427504  3.8594349467346807  19.459399746188183  60.470844774286356  6.474816431390006  -9.912545916164987  53.11915968429977  47.66424347457983  -38.530460012676805  23.55966741929995  0.000000
2.378999999999999  0.000000  0.000000  0.000000  -26.634136368200405  3.283991924265557  18.619176322872804  60.240624796640475  5.852914084571054  -10.57678383345561  52.89575961844168  46.32185928270276  -37.0480250470011  23.688888741556532  0.000000
2.4179999999999993  0.000000  0.000000  0.000000  -26.48802592846062  2.731259539162159  17.613527394442876  60.03340040343699  5.279128237297447  -11.052619007132165  52.406346126840454  44.960036683484056  -35.277204477248944  23.8694034605923  0.000000
2.456999999999999  0.000000  0.000000  0.000000  -26.424205877436865  2.209423536552538  16.449946334242185  59.83593002985903  4.76940801862469  -11.33731917653026  51.63260767892686  43.56509768450874  -33.19472407797321  24.113340286960717  0.000000
2.495999999999999  0.000000  0.000000  0.000000  -26.43360167365516  1.724008069681388  15.152306528328584  59.63080047976792  4.33726561752905  -11.447660431064872  50.575241617657255  42.126286182576365  -30.796125881723196  24.429903814336267  0.000000
2.5349999999999993  0.000000  0.000000  0.000000  -26.505181553264123  1.2796096749213124  13.75457444572368  59.404407634349994  3.9884086865354043  -11.410402430872265  49.24715721436152  40.63987146997241  -28.100897017641895  24.819624797998515  0.000000
2.573999999999999  0.000000  0.000000  0.000000  -26.6282920527385  0.8784103228198686  12.294612669349055  59.149864762358305  3.7212540923652915  -11.256295513422467  47.67115160326371  39.10930831917451  -25.153342097503653  25.271483976500743  0.000000
2.612999999999999  0.000000  0.000000  0.000000  -26.792449423923372  0.51977920001393  10.809284325514502  58.86727335655706  3.5285557294641334  -11.015615726418604  45.87813345811748  37.542522635382205  -22.019110971120625  25.761814382291977  0.000000
2.6519999999999992  0.000000  0.000000  0.000000  -26.987876031458484  0.20050158608511862  9.331647839977437  58.56127443275926  3.3996250355525404  -10.716338598649859  43.90708906488674  35.94862430736946  -18.778413492762333  26.25687506705069  0.000000
2.690999999999999  0.000000  0.000000  0.000000  -27.206654530546885  -0.08338439210053541  7.890910647416229  58.23766626215177  3.323075596051281  -10.38406469003627  41.80566516085338  34.33402822212841  -15.51583134259249  26.719389241089196  0.000000
2.729999999999999  0.000000  0.000000  0.000000  -27.443105826235527  -0.3343823348444938  6.514083406755924  57.90024812998233  3.288729937831772  -10.043083372603133  39.62978421446873  32.70065445320935  -12.309839524287963  27.115688801572414  0.000000
2.768999999999999  0.000000  0.000000  0.000000  -27.693163818332852  -0.5524137454645907  5.227998028739114  57.5504025701867  3.2885582339099866  -9.716729261926348  37.440861295920165  31.045717563767766  -9.22535537183505  27.421033271865152  0.000000
2.807999999999999  0.000000  0.000000  0.000000  -27.953227878334157  -0.7346418731425344  4.060619612330336  57.187859830572755  3.3154446802666526  -9.427091350600827  35.30055785330398  29.363629152611036  -6.310719260255155  27.622491390106163  0.000000
2.846999999999999  0.000000  0.000000  0.000000  -28.219421092961596  -0.877024959840099  3.040066093564646  56.81405960199467  3.361243553510166  -9.193986136530151  33.263359206804424  27.64935260986052  -3.6002087942700496  27.71641835217694  0.000000
2.885999999999999  0.000000  0.000000  0.000000  -28.48643637811977  -0.9764843047215399  2.191330822363296  56.433708828276735  3.4160156308468888  -9.033129843139498  31.36997137986378  25.90206057069548  -1.1174929665215565  27.705501014188624  0.000000
2.924999999999999  0.000000  0.000000  0.000000  -28.74648671046196  -1.0316418715073317  1.534905714146042  56.052526065700434  3.468081635158745  -8.955821461648977  29.644588592840133  24.126300678804476  1.1238530905173452  27.599174315100235  0.000000
2.963999999999999  0.000000  0.000000  0.000000  -28.989061384683964  -1.0414178414915136  1.0849064009294862  55.67339990728444  3.5055749871450717  -8.970558489736973  28.095783105276944  22.33220252522026  3.120424545207524  27.415452704748056  0.000000
3.002999999999999  0.000000  0.000000  0.000000  -29.202035375502216  -1.0042787699874662  0.8451877418581646  55.29572783917573  3.5196272530176946  -9.082540192478774  26.719514147617826  20.5352413617762  4.875632124871713  27.18130922796658  0.000000
3.041999999999999  0.000000  0.000000  0.000000  -29.37436505464625  -0.9212738043872473  0.8063034540178895  54.919387930838724  3.5046527705339705  -9.289719700917841  25.504081687281413  18.75819700651274  6.391329607020383  26.92599751619777  0.000000
3.080999999999999  0.000000  0.000000  0.000000  -29.501539336763273  -0.8003267597720046  0.9453533669361865  54.55318032260321  3.455473896032034  -9.577950590160885  24.43514805275606  17.033637157931274  7.657000821622606  26.670641056123575  0.000000
3.1199999999999988  0.000000  0.000000  0.000000  -29.59094818581242  -0.6569334358826456  1.2290252640413455  54.218963602475725  3.365500060575739  -9.92017807795705  23.501386922834833  15.403409620460073  8.645733252472361  26.42416788629235  0.000000
3.158999999999999  0.000000  0.000000  0.000000  -29.659905576080376  -0.5102776371797846  1.6179188624603447  53.94528279610618  3.229931086751303  -10.281585992546221  22.69815959124153  13.911980245450286  9.321629342751185  26.18923615225584  0.000000
3.197999999999999  0.000000  0.000000  0.000000  -29.726778964409238  -0.37695724761743393  2.0704012415056505  53.754154455309376  3.0519622514064073  -10.627907056506  22.027600877768066  12.59597407455466  9.65321287235837  25.972327735326502  0.000000
3.2369999999999988  0.000000  0.000000  0.000000  -29.80168695997157  -0.2664071060845305  2.5439614547790814  53.651855987868394  2.84654970571088  -10.93165704849884  21.49445368750839  11.477105459902509  9.623875250487634  25.78837674345344  0.000000
3.275999999999999  0.000000  0.000000  0.000000  -29.882855105959248  -0.18090399851178363  2.9967740220387746  53.629565478222446  2.6385948444905054  -11.173472570981957  21.101382200307942  10.56082202385016  9.235455060295253  25.655240230760786  0.000000
3.3149999999999986  0.000000  0.000000  0.000000  -29.962038597347405  -0.11970610631796734  3.389846621263975  53.672941920987775  2.4560390247919752  -11.339484332758353  20.845965541552324  9.84160112928289  8.505371160437269  25.58454358420155  0.000000
3.3539999999999988  0.000000  0.000000  0.000000  -30.03348895687395  -0.0829196042329071  3.69141018253971  53.77124771928566  2.321272238675758  -11.41891344206228  20.72180966271675  9.309467139632016  7.462423121034739  25.575991494088992  0.000000
3.392999999999999  0.000000  0.000000  0.000000  -30.097489999534485  -0.07174246803711147  3.882696024868604  53.91833263362961  2.24561276384105  -11.40675994564771  20.722046232763365  8.952452056130232  6.1446134121786775  25.620726493273256  0.000000
3.4319999999999986  0.000000  0.000000  0.000000  -30.158123037377198  -0.08553281699339092  3.958458568088513  54.10719561004268  2.2316890612451927  -11.306570554878297  20.843694131353896  8.75497116751783  4.599097383300595  25.709574467528252  0.000000
3.4709999999999988  0.000000  0.000000  0.000000  -30.21917169694209  -0.1185069411737926  3.925489986192157  54.325158556285075  2.2770343527919477  -11.130224090315771  21.090690400572196  8.695465055186897  2.882413666083843  25.83789828148109  0.000000
3.509999999999999  0.000000  0.000000  0.000000  -30.2819276472766  -0.1601429612531819  3.800955994958131  54.554560349166096  2.3763318396983135  -10.896337931502373  21.474412664102882  8.74647291158386  1.0581098790294992  26.004195031231937  0.000000
3.5489999999999986  0.000000  0.000000  0.000000  -30.344709323187146  -0.19800776490423416  3.6093439929722586  54.77731150413738  2.5227494740440854  -10.626128642918394  22.01085295894623  8.876543914356011  -0.8087399388525826  26.204308821010624  0.000000
3.5879999999999987  0.000000  0.000000  0.000000  -30.403552499337003  -0.2205108915122542  3.379651155653031  54.97919519488412  2.7078699531218775  -10.340165887935221  22.71529091681822  9.052597975501186  -2.659635306903777  26.43086831939009  0.000000
3.626999999999999  0.000000  0.000000  0.000000  -30.45357435477254  -0.2205087599862599  3.141998634711093  55.15292066234926  2.9226400114132156  -10.05742460098682  23.598006700875302  9.242177140025928  -4.448586410390523  26.67234567666154  0.000000
3.6659999999999986  0.000000  0.000000  0.000000  -30.491184932265966  -0.19914139829917218  2.92077933767762  55.29852964057645  3.1585102613606906  -9.793672360480542  24.657341854258927  9.41564587867968  -6.150632569840936  26.914176240225924  0.000000
3.7049999999999987  0.000000  0.000000  0.000000  -30.51847833549087  -0.16741731753299735  2.7280999698008173  55.42340335071896  3.4084862484361746  -9.55938785148077  25.879561909935475  9.548920254816249  -7.761366288462959  27.141268292746684  0.000000
3.743999999999999  0.000000  0.000000  0.000000  -30.540122546653798  -0.1435488077412276  2.561145256648752  55.53928131493056  3.6629279723869175  -9.35795158523508  27.23872161768893  9.622912001224122  -9.295567674154428  27.33963848616369  0.000000
3.7829999999999986  0.000000  0.000000  0.000000  -30.567570715998126  -0.1516791279183122  2.4025459661482578  55.657744220376216  3.9078380246596196  -9.187881202976362  28.702978179596563  9.624937282861334  -10.777029812637911  27.497565980098624  0.000000
3.8219999999999987  0.000000  0.000000  0.000000  -30.60349725617167  -0.21399721788980516  2.224667111198276  55.78277722317746  4.123649855320473  -9.046357039210484  30.24029165866698  9.542382438274867  -12.228952175954408  27.605017856722835  0.000000
3.8609999999999984  0.000000  0.000000  0.000000  -30.657509184634918  -0.34653598242737077  1.9958444012553525  55.90547705694166  4.286685155545471  -8.928616893990975  31.822679607720943  9.36604672075212  -13.667599976237343  27.661802935445696  0.000000
3.8999999999999986  0.000000  0.000000  0.000000  -30.717108372707905  -0.5517221888150411  1.6917410705359393  56.00784613547126  4.378566124666842  -8.835594553794126  33.435116869777296  9.082988867516015  -15.092213158161723  27.674736580321955  0.000000
