Simulation
nRows=101
nColumns=15
endheader
time  TH_x TH_y TH_z SC_y  SC_z  SC_x  AC_y  AC_z  AC_x  GH_y  GH_z  GH_yy  EL_x  PS_y
0.0  0.000000  0.000000  0.000000  -29.178736135073848  -0.8696520285160071  -1.984668380667706  56.33615299373779  8.613546224199652  -6.616476521925322  31.840726501502726  16.201673742057352  8.525002705562699  27.09623829132712  0.000000
0.038999999999999986  0.000000  0.000000  0.000000  -28.902742448551848  -0.676206496166668  -2.1505603556520927  56.03839191487848  8.702742381955158  -6.535215155830601  31.87254539644841  16.266106860405866  8.437461892049678  26.696222345291144  0.000000
0.07799999999999997  0.000000  0.000000  0.000000  -28.659268333747658  -0.5611311058364121  -2.397834542797665  55.753835552652355  8.753682370734788  -6.460513148559966  31.78190570153505  16.25996309192701  8.475819266554  26.285523712530228  0.000000
0.11699999999999997  0.000000  0.000000  0.000000  -28.44253129225715  -0.5212565912962577  -2.7163057772767965  55.53290301189718  8.821068429034973  -6.3575777515350165  31.682881892673525  16.268470978817053  8.482387483438565  25.892781649789224  0.000000
0.15599999999999994  0.000000  0.000000  0.000000  -28.25416742938256  -0.5456537317088341  -3.0748585581614005  55.415533802620395  8.934460508341033  -6.212025643007455  31.745775930980166  16.388462991551833  8.21610423667383  25.53974543551169  0.000000
0.19499999999999992  0.000000  0.000000  0.000000  -28.110579148035438  -0.6098775343717875  -3.422715673128495  55.42125415535973  9.096766466262293  -6.024011209214591  32.158542373347466  16.708622824514197  7.432985912385227  25.246098712973982  0.000000
0.23399999999999993  0.000000  0.000000  0.000000  -28.022961741101177  -0.6865516531884944  -3.712283532603664  55.542863938008516  9.301144682080315  -5.809670362552888  33.07417140982032  17.29529695554819  5.9388150650952305  25.02375017862896  0.000000
0.2729999999999999  0.000000  0.000000  0.000000  -28.000740773167475  -0.75466633652812  -3.9056512944014075  55.76106405034426  9.533516560968334  -5.59166210019275  34.536460076823516  18.1916575474123  3.6694229540215084  24.870808859903878  0.000000
0.3119999999999999  0.000000  0.000000  0.000000  -28.03706766336409  -0.7990807919152899  -3.9772501966255773  56.05049173831084  9.774700570250458  -5.391423156980074  36.45719445443166  19.413534708406814  0.7050806933432673  24.779741886158003  0.000000
0.35099999999999987  0.000000  0.000000  0.000000  -28.10838156874565  -0.8139722620922869  -3.909837677771535  56.391821389433645  10.004575786015202  -5.226777972144793  38.63279559607054  20.948794031676375  -2.74041413091687  24.74093104781125  0.000000
0.38999999999999985  0.000000  0.000000  0.000000  -28.176416476596614  -0.801509983742619  -3.6956792643309253  56.76963357878798  10.210980099638359  -5.110981350714019  40.82189379639742  22.757195883826792  -6.401336384194446  24.749076417401024  0.000000
0.4289999999999998  0.000000  0.000000  0.000000  -28.204351945230364  -0.7669868255495529  -3.3340486871141315  57.174492692252365  10.392181080070026  -5.051740791607363  42.82397736759815  24.777824406941907  -10.037926283870183  24.804486897254172  0.000000
0.46799999999999986  0.000000  0.000000  0.000000  -28.166293128159584  -0.7156253626489891  -2.826460733050398  57.599678243933944  10.551945813659646  -5.052708945854598  44.52808417760165  26.94141149609684  -13.493425885592359  24.902201751854008  0.000000
0.5069999999999998  0.000000  0.000000  0.000000  -28.05129822584018  -0.6513208602951468  -2.172376202722445  58.040383247843025  10.694859901407925  -5.116800841341849  45.91350798999652  29.182124666037033  -16.7027367155646  25.024948321465462  0.000000
0.5459999999999998  0.000000  0.000000  0.000000  -27.865974835540676  -0.5736611010790666  -1.3675916796701217  58.487812242727976  10.821375161790092  -5.247239766071175  47.03008932569502  31.44565067474943  -19.681639781245252  25.148798881724854  0.000000
0.5849999999999997  0.000000  0.000000  0.000000  -27.635532638627268  -0.4779423609047712  -0.40674621823514473  58.92763639743213  10.927064132406043  -5.4476812969650235  47.96908675939863  33.6934712071484  -22.504522358262363  25.25177421872525  0.000000
0.6239999999999998  0.000000  0.000000  0.000000  -27.397788437451133  -0.3580012012448735  0.7125564096369141  59.34135480476036  11.004404486132026  -5.720249867907914  48.831870768163576  35.903252673258166  -25.27092626632852  25.31924872673921  0.000000
0.6629999999999998  0.000000  0.000000  0.000000  -27.190085459406333  -0.20854281510812986  1.9876831291653725  59.71275858122065  11.045580857353649  -6.062408140181964  49.69948974133783  38.06522334131601  -28.064155216997644  25.343430026117574  0.000000
0.7019999999999997  0.000000  0.000000  0.000000  -27.03363994287993  -0.026595804661214348  3.4122082796176065  60.03400036347524  11.045130689862406  -6.465024731723575  50.60893736559765  40.17500569276145  -30.909387788643183  25.321014335533203  0.000000
0.7409999999999998  0.000000  0.000000  0.000000  -26.924981723545947  0.1871637553590607  4.97735573539182  60.308651132004854  11.001316297073982  -6.912538711940647  51.545810391050786  42.22611923740553  -33.75704860263858  25.250957180558327  0.000000
0.7799999999999997  0.000000  0.000000  0.000000  -26.84231534598763  0.4289134476023663  6.669996267815213  60.548345393236445  10.915664075097084  -7.383621126518619  52.457453688346895  44.20578245232102  -36.50079905966349  25.136221464729736  0.000000
0.8189999999999997  0.000000  0.000000  0.000000  -26.76145156289099  0.6935202889697867  8.46762714524087  60.76672112633359  10.79118027000832  -7.85147186545311  53.27588507956608  46.09507909740713  -39.01958845071022  24.987908953340913  0.000000
0.8579999999999997  0.000000  0.000000  0.000000  -26.670696710140714  0.9759534107803987  10.332624897401503  60.97546053068228  10.6309870378395  -8.284250586918192  53.93861989609796  47.87389099549114  -41.21775058734447  24.825532550915668  0.000000
0.8969999999999997  0.000000  0.000000  0.000000  -26.57488953380286  1.2735174464607772  12.21108977562995  61.18453002577365  10.439109430046924  -8.645174882063234  54.39539137865447  49.52517344090989  -43.040357157895464  24.674322139798264  0.000000
0.9359999999999997  0.000000  0.000000  0.000000  -26.49291108498683  1.5868097430865913  14.038808741726033  61.40460343490307  10.223460418049084  -8.89541174004198  54.61111181374206  51.03894974572171  -44.47140916968486  24.556953853408242  0.000000
0.9749999999999996  0.000000  0.000000  0.000000  -26.449034605059  1.92105489902317  15.751803116587096  61.64806803023593  9.994026215581625  -8.997426258860065  54.56524771658503  52.41541358641927  -45.523124604574626  24.485195813119713  0.000000
1.0139999999999996  0.000000  0.000000  0.000000  -26.459519184027982  2.2785653397735985  17.301400737610777  61.92133986105569  9.768835586459195  -8.930438018954264  54.26920206199442  53.662663613937525  -46.23833655338805  24.457450004736984  0.000000
1.0529999999999997  0.000000  0.000000  0.000000  -26.52625811989898  2.6535076546314387  18.66263825402399  62.215237010842976  9.576298973397375  -8.70092385996163  53.77647563565895  54.79368752646647  -46.68944841818782  24.46225579044433  0.000000
1.0919999999999996  0.000000  0.000000  0.000000  -26.64296080885059  3.039074525469188  19.83426434759969  62.51210750782983  9.441627147334069  -8.334445798548378  53.15597451304947  55.82098233905252  -46.95731109861317  24.48145579182651  0.000000
1.1309999999999996  0.000000  0.000000  0.000000  -26.803913360818104  3.430936262366966  20.833747088873935  62.79317493562332  9.379383106035572  -7.865255229714955  52.47255910991416  56.752611360494186  -47.116435721709415  24.49579884038192  0.000000
1.1699999999999995  0.000000  0.000000  0.000000  -27.008186619518945  3.8283142372224845  21.68626028943732  63.04556718845742  9.389379975039773  -7.323058632498466  51.77499280783498  57.59411773540823  -47.223001715159455  24.49079945426698  0.000000
1.2089999999999996  0.000000  0.000000  0.000000  -27.256629742365096  4.2324020153002335  22.41729104310296  63.266242148015586  9.460508155752592  -6.726943526276773  51.09316280349331  58.351472724065765  -47.30585301432375  24.456139580903507  0.000000
1.2479999999999996  0.000000  0.000000  0.000000  -27.544555592455268  4.642124713756992  23.051632249044893  63.45903386670523  9.580092091291245  -6.089927227872049  50.441123801847546  59.03183072509081  -47.36233649275265  24.38204474112186  0.000000
1.2869999999999995  0.000000  0.000000  0.000000  -27.86006008247976  5.0526725056151225  23.61375887856591  63.63204806814538  9.736164721953225  -5.4228223788469165  49.81835199774214  59.64414498167747  -47.36134620247509  24.257002431447358  0.000000
1.3259999999999996  0.000000  0.000000  0.000000  -28.18705666953019  5.455270404870046  24.126155914179815  63.79421994493009  9.917115193521862  -4.738355443342257  49.216313800288994  60.199094642652355  -47.26260840291246  24.071807753064075  0.000000
1.3649999999999995  0.000000  0.000000  0.000000  -28.50965489029024  5.838153530095787  24.605365878991297  63.95271617250828  10.110466073683847  -4.053793289246871  48.62660489157377  60.70775621909173  -47.0424628194922  23.827833179236748  0.000000
1.4039999999999995  0.000000  0.000000  0.000000  -28.815990454312356  6.18836973192217  25.058138712063116  64.11114186066804  10.302819083293755  -3.391356044916194  48.048446189965844  61.179242746181714  -46.71361039610307  23.542771476602038  0.000000
1.4429999999999994  0.000000  0.000000  0.000000  -29.098627901384113  6.494201230126492  25.481108078211467  64.26878958870982  10.481866700917951  -2.7764268320647765  47.49064598238218  61.61779710649783  -46.32347479906108  23.246876526736575  0.000000
1.4819999999999995  0.000000  0.000000  0.000000  -29.35236992653767  6.747280081235759  25.86547219419223  64.4201557076392  10.639101046182379  -2.233136205467385  46.971051532721596  62.02007492923289  -45.93493681990462  22.969848049866698  0.000000
1.5209999999999995  0.000000  0.000000  0.000000  -29.572484122272193  6.944430631204618  26.201969500724996  64.55901025609167  10.769748999742509  -1.778274131129858  46.51287405471828  62.37697173524387  -45.601769200439065  22.72749359729195  0.000000
1.5599999999999994  0.000000  0.000000  0.000000  -29.754159096715608  7.088089587404561  26.483858528229856  64.68177836848146  10.87166457295449  -1.4179677501619774  46.1402216170586  62.67590130998483  -45.35412672948  22.51709526840547  0.000000
1.5989999999999995  0.000000  0.000000  0.000000  -29.893403418402038  7.184485021207758  26.70740794588905  64.78475205708318  10.945255023543188  -1.1507878500387387  45.87608826103109  62.901866936640836  -45.19882823087446  22.32464382430724  0.000000
1.6379999999999995  0.000000  0.000000  0.000000  -29.990138342240616  7.242194749252388  26.869536562998395  64.86243488366149  10.991797337805586  -0.972941073978421  45.73783541098952  63.039553118584195  -45.12506795232629  22.139798609883364  0.000000
1.6769999999999994  0.000000  0.000000  0.000000  -30.0506027086751  7.270216782105724  26.96560080718761  64.908044954567  11.012388062040024  -0.881897153046467  45.73362187150069  63.075256925208144  -45.109312272973774  21.967605617484068  0.000000
1.7159999999999993  0.000000  0.000000  0.000000  -30.085429491272237  7.2754731525632  26.988813355621446  64.91461939290436  11.008023027583215  -0.8781619953103733  45.86003746043044  62.99852083795842  -45.11814055260666  21.828568556523237  0.000000
1.7549999999999994  0.000000  0.000000  0.000000  -30.104697208018138  7.2602690153840275  26.931840077931092  64.87775160254951  10.980002296568308  -0.964818371986729  46.10086118970512  62.80340267214905  -45.11059819599362  21.747977273829953  0.000000
1.7939999999999994  0.000000  0.000000  0.000000  -30.112559060362127  7.220367830528945  26.78929414757898  64.79757115074771  10.930227428886095  -1.146174649603298  46.428623323582094  62.488570820229356  -45.04244291740161  21.74310429901096  0.000000
1.8329999999999993  0.000000  0.000000  0.000000  -30.105469155071955  7.146043072848944  26.55997868909242  64.67895262556841  10.860681547000265  -1.4258753411029559  46.810406662174294  62.05574521827894  -44.874179585022  21.81662039001687  0.000000
1.8719999999999994  0.000000  0.000000  0.000000  -30.074522487461522  7.026531619186363  26.246911440603533  64.52872679543252  10.772500689074047  -1.8045933255495437  47.21776782716752  61.50715928715158  -44.583948653518284  21.957902689796757  0.000000
1.9109999999999994  0.000000  0.000000  0.000000  -30.009456982671182  6.855240315300502  25.855675128035212  64.35224974667602  10.665120128484133  -2.278140645387169  47.63664646566221  60.84355523354017  -44.18251227019389  22.14824725187837  0.000000
1.9499999999999993  0.000000  0.000000  0.000000  -29.90239298569917  6.632609230412214  25.39156410845599  64.15092812443933  10.536390826853419  -2.8366911819460765  48.07115286651078  60.06424198401875  -43.71815247378567  22.365610548489123  0.000000
1.9889999999999992  0.000000  0.000000  0.000000  -29.74903261742173  6.364510380257679  24.85874137439516  63.92186392981485  10.384513525827824  -3.4666769425976067  48.538126165149194  59.16863131300938  -43.260457656165904  22.588049701590766  0.000000
2.027999999999999  0.000000  0.000000  0.000000  -29.548939977507583  6.058222825068264  24.260697190701492  63.661410867214926  10.210012074150889  -4.152321337746558  49.05463259689451  58.15955686458986  -42.86489343398628  22.796525369051906  0.000000
2.0669999999999993  0.000000  0.000000  0.000000  -29.306281772828587  5.720033834758075  23.601377218401694  63.37210836860022  10.013612837125583  -4.875615331261618  49.62180598860791  57.04736823476204  -42.538084167132936  22.977590929409505  0.000000
2.1059999999999994  0.000000  0.000000  0.000000  -29.028099136253896  5.3534116959707365  22.88743980552244  63.0615191036102  9.79634640586438  -5.6185395247513465  50.2180907076321  55.84822173587865  -42.231286343245245  23.1220666688242  0.000000
2.144999999999999  0.000000  0.000000  0.000000  -28.721411919827407  4.959668295123345  22.127338066479176  62.73586882443896  9.563391261604108  -6.36653852269039  50.80624652379039  54.57980869848776  -41.868245422900415  23.223479666731183  0.000000
2.1839999999999993  0.000000  0.000000  0.000000  -28.394891868078517  4.539705347134733  21.327114025565518  62.40002974683972  9.322234559083315  -7.107840393403919  51.34673595808059  53.26035586814732  -41.38568046893777  23.281707018430282  0.000000
2.2229999999999994  0.000000  0.000000  0.000000  -28.061611843901353  4.09503687895726  20.482257132933434  62.05974626976641  9.080932695257438  -7.82788994097003  51.809376838053225  51.90923464609449  -40.75843275127242  23.30794950926514  0.000000
2.261999999999999  0.000000  0.000000  0.000000  -27.741314383797725  3.6306260036263924  19.572992538003955  61.722841134707735  8.846326001777538  -8.501532219851626  52.17331526395628  50.54561957232797  -39.992246963750745  23.324632691625567  0.000000
2.3009999999999993  0.000000  0.000000  0.000000  -27.46108128444951  3.157843941844578  18.565194212686112  61.40274526864686  8.618198787023507  -9.085720998298576  52.40727215614656  49.18581967467434  -39.08718512913672  23.35606638175436  0.000000
2.339999999999999  0.000000  0.000000  0.000000  -27.243172450748986  2.69323296051096  17.420328350128788  61.11198811600984  8.395295042601793  -9.52899366145052  52.45793230389688  47.8343155142188  -38.0056842822264  23.41935857193253  0.000000
2.378999999999999  0.000000  0.000000  0.000000  -27.093811381110285  2.2526900004016914  16.112105053061352  60.85351735081915  8.186173104328926  -9.793486776835671  52.26535335857567  46.477871144150406  -36.676963108153046  23.524988482157493  0.000000
2.4179999999999993  0.000000  0.000000  0.000000  -27.006743506010523  1.8450830146953536  14.635790377022767  60.616804999791015  8.007003937611806  -9.865269566582315  51.786117886177315  45.09337943710924  -35.02660474016117  23.68499900248817  0.000000
2.456999999999999  0.000000  0.000000  0.000000  -26.96957492641193  1.4699210771731526  13.009593561997363  60.37938002359016  7.877917640187946  -9.759815671377655  51.010119012762296  43.661820666087074  -33.01022307078007  23.915871417115966  0.000000
2.495999999999999  0.000000  0.000000  0.000000  -26.971924290876814  1.1227859609342825  11.268512732209883  60.12090308769493  7.812962013440108  -9.51021142156749  49.94648018124295  42.175312687664615  -30.621251736315127  24.232074603199504  0.000000
2.5349999999999993  0.000000  0.000000  0.000000  -27.01033724452257  0.8001408062203431  9.453543796891973  59.83091408015623  7.812630820949271  -9.150995631581093  48.60785471142332  40.63995160040373  -27.885770864752583  24.639534300440182  0.000000
2.573999999999999  0.000000  0.000000  0.000000  -27.08381056653715  0.49964231425359523  7.606067933522025  59.508354990268565  7.869339188887715  -8.712731277601476  47.01100826129635  39.0692636909607  -24.859193770715017  25.130487921716174  0.000000
2.612999999999999  0.000000  0.000000  0.000000  -27.188112944675968  0.22093136931395496  5.76473981332894  59.158823618985224  7.970608521831126  -8.2200814800364  45.1784233872954  37.478185415147344  -21.619382866429838  25.67891477050889  0.000000
2.6519999999999992  0.000000  0.000000  0.000000  -27.314895024604237  -0.03521066802773125  3.9646142131722897  58.79094648478946  8.102421473547953  -7.694138593305277  43.145216224769946  35.878284130292045  -18.262736344629843  26.241936810380814  0.000000
2.690999999999999  0.000000  0.000000  0.000000  -27.45431958577007  -0.2675528939610114  2.237682846334642  58.41165573215363  8.252437318987752  -7.155879048007991  40.963183952035855  34.27438395940642  -14.893091048575055  26.769450396472294  0.000000
2.729999999999999  0.000000  0.000000  0.000000  -27.59977341192521  -0.47337858197171884  0.6139668576157425  58.022512316453586  8.411851452437352  -6.628771607212921  38.70127417982676  32.66399390055989  -11.60833886249976  27.21674911566087  0.000000
2.768999999999999  0.000000  0.000000  0.000000  -27.75060220354255  -0.6481908223769932  -0.8774911584757134  57.61848986865015  8.575904717715721  -6.139459755562924  36.44129898101453  31.038951999801196  -8.489969583423052  27.553446095415918  0.000000
2.807999999999999  0.000000  0.000000  0.000000  -27.911113062117938  -0.7867515947095504  -2.2097569750921826  57.19003876763517  8.741626172178146  -5.716121437453059  34.2705702645295  29.390098618235545  -5.601078735349561  27.764491209531393  0.000000
2.846999999999999  0.000000  0.000000  0.000000  -28.08667894771002  -0.8846624981796105  -3.35901168870868  56.72763641145228  8.905106126904176  -5.385019787472383  32.2722050566175  27.710685380468817  -2.9880796843320754  27.846683544435432  0.000000
2.885999999999999  0.000000  0.000000  0.000000  -28.278110691804926  -0.9399806936509381  -4.305800480839214  56.22642588556692  9.058919257546357  -5.16734845609855  30.51121602513178  25.999539353669267  -0.678570977812523  27.80572171221642  0.000000
2.924999999999999  0.000000  0.000000  0.000000  -28.479045066837898  -0.954355020267334  -5.0362017218989985  55.69006433671873  9.192548131032392  -5.076107165330014  29.019298791187516  24.262112757641354  1.3247244359778285  27.65660186355775  0.000000
2.963999999999999  0.000000  0.000000  0.000000  -28.676787646778074  -0.9345716740336805  -5.545108770482369  55.13294607651165  9.294157863653005  -5.114252184271055  27.779158038481157  22.513024804037496  3.052658587628652  27.425348543557842  0.000000
3.002999999999999  0.000000  0.000000  0.000000  -28.856633405545285  -0.8928638815618017  -5.837439640836338  54.580679823454574  9.352917490246414  -5.27382385185139  26.717177264209333  20.775208813440415  4.57217203370817  27.14811972267578  0.000000
3.041999999999999  0.000000  0.000000  0.000000  -29.007465140539903  -0.8439920982836823  -5.928731970719746  54.06706450713579  9.359945280089294  -5.536355428145129  25.718495751077583  19.07831487111938  5.970645150173915  26.86390067918126  0.000000
3.080999999999999  0.000000  0.000000  0.000000  -29.124829809711365  -0.800735484368166  -5.843644641802454  53.627326972861184  9.309253653599043  -5.8743110869471185  24.670959590826524  17.454243101810906  7.316965825282725  26.601356888920517  0.000000
3.1199999999999988  0.000000  0.000000  0.000000  -29.21150759323524  -0.7692942357431063  -5.611583097024235  53.287260278397575  9.19699115070658  -6.255880326985218  23.52647210171967  15.932786278284627  8.609865692187247  26.371170381354585  0.000000
3.158999999999999  0.000000  0.000000  0.000000  -29.276698025870108  -0.7460633388304747  -5.262338004551546  53.05467679135605  9.022652986912588  -6.6512783630232155  22.346906349835393  14.536885294324264  9.742639023709186  26.16935747221017  0.000000
3.197999999999999  0.000000  0.000000  0.000000  -29.33220018345343  -0.7198863913723096  -4.825152933770145  52.91728129202088  8.79333371595819  -7.03719270168036  21.295517595083613  13.27964513798033  10.519616507038492  25.989882419968808  0.000000
3.2369999999999988  0.000000  0.000000  0.000000  -29.387041543888827  -0.6787405542083452  -4.3292713833361525  52.85169591958133  8.525334046047485  -7.398136745867736  20.570513935250794  12.166507851576716  10.726545200283299  25.834661944556327  0.000000
3.275999999999999  0.000000  0.000000  0.000000  -29.44173509493125  -0.6174716988192209  -3.804405081452677  52.83590931038951  8.24108785884031  -7.723484917590239  20.313842740501915  11.20011779548401  10.222590704480709  25.712405447268402  0.000000
3.3149999999999986  0.000000  0.000000  0.000000  -29.48890134949287  -0.5414404845235158  -3.280474540598603  52.858247550732045  7.964069263001939  -8.00458798115006  20.557252381746725  10.384148437141494  8.99188675355834  25.63206748286666  0.000000
3.3539999999999988  0.000000  0.000000  0.000000  -29.52018783566328  -0.4638180959963298  -2.786453403542283  52.917235959266456  7.713871584887945  -8.23254638061329  21.228327524688456  9.72311415083728  7.13369666134424  25.598257203269856  0.000000
3.392999999999999  0.000000  0.000000  0.000000  -29.533105815391398  -0.39992237464912633  -2.349121414131743  53.015543699187546  7.504947354888755  -8.399490513883272  22.20420361852377  9.21940238679651  4.806437735770547  25.612252610059922  0.000000
3.4319999999999986  0.000000  0.000000  0.000000  -29.53500475149312  -0.35971184912251525  -1.9898390669321302  53.152615412346584  7.345316135345415  -8.500008535411233  23.36697524939358  8.870053170200567  2.172895523201527  25.677292061893883  0.000000
3.4709999999999988  0.000000  0.000000  0.000000  -29.540171348092375  -0.3448177467432077  -1.7219569084885646  53.32107114652945  7.237485068604834  -8.534026447860239  24.638233355999777  8.665765804103314  -0.6303726988964878  25.798221692127026  0.000000
3.509999999999999  0.000000  0.000000  0.000000  -29.559774901144166  -0.35197016317999874  -1.5499471269645988  53.50826559831484  7.1816035555848785  -8.50779367652177  25.967158897193244  8.591139037641938  -3.4783118145060183  25.97482665188846  0.000000
3.5489999999999986  0.000000  0.000000  0.000000  -29.594493980926874  -0.3744541607286142  -1.4685341081148873  53.70246548099949  7.175869035244252  -8.429809911454075  27.291989003611977  8.62500727900593  -6.2197483139918734  26.197391646312184  0.000000
3.5879999999999987  0.000000  0.000000  0.000000  -29.632584417528555  -0.40304387414179443  -1.4617843067101768  53.89630234801597  7.215791668247406  -8.309389519999945  28.532457667500452  8.741140784485573  -8.681130270138004  26.447630540436894  0.000000
3.626999999999999  0.000000  0.000000  0.000000  -29.656167376869334  -0.42879322390378266  -1.504644847675217  54.08850233184276  7.29432505228662  -8.15648048724081  29.603906087300434  8.90925425008872  -10.700946393856436  26.70222909122385  0.000000
3.6659999999999986  0.000000  0.000000  0.000000  -29.653680708344343  -0.4454253016653931  -1.567628673728751  54.279567849703184  7.401824331941919  -7.9851751765483225  30.476808967868063  9.098391400438702  -12.21684949628503  26.941204187171028  0.000000
3.7049999999999987  0.000000  0.000000  0.000000  -29.629255955575623  -0.45282772946330785  -1.6240001184039596  54.46917410689486  7.527505796485693  -7.813249794711427  31.184271243318495  9.279498532833344  -13.281627963886068  27.152571844554966  0.000000
3.743999999999999  0.000000  0.000000  0.000000  -29.598611361598007  -0.45662100270971834  -1.6563378975764926  54.65307710940349  7.6589903036454565  -7.660867121668248  31.809649441823293  9.424246457760658  -14.04320410959385  27.333059925595148  0.000000
3.7829999999999986  0.000000  0.000000  0.000000  -29.58952229287062  -0.46814444813361905  -1.6613357623615803  54.82242237208459  7.7807510689601775  -7.5468830335722865  32.43671549048461  9.505431407865286  -14.667545551914094  27.485288804076298  0.000000
3.8219999999999987  0.000000  0.000000  0.000000  -29.61904976076412  -0.5032769694555865  -1.6545343426954717  54.96035661354153  7.874806452214198  -7.488482845576633  33.10748793923661  9.491203365323237  -15.272122322031802  27.60793663753367  0.000000
3.8609999999999984  0.000000  0.000000  0.000000  -29.70781529883743  -0.5800016680459785  -1.6726205389641313  55.039027076760284  7.919749012150369  -7.491877588921802  33.80106031737172  9.352410356627088  -15.887969990714344  27.696105142819835  0.000000
3.8999999999999986  0.000000  0.000000  0.000000  -29.848874408639297  -0.7060916140228419  -1.7627353551061389  55.03293634433563  7.89535085048065  -7.553101283253771  34.37984380525389  9.061668557398905  -16.388947568377123  27.742179541312517  0.000000
