Simulation
nRows=101
nColumns=15
endheader
time  TH_x TH_y TH_z SC_y  SC_z  SC_x  AC_y  AC_z  AC_x  GH_y  GH_z  GH_yy  EL_x  PS_y
0.0  0.000000  0.000000  0.000000  -29.219724466784452  -0.5664448350831748  -2.3914233677649315  56.32072463791421  8.79816808078213  -6.097049943341672  31.78619151815031  16.180274984526168  8.567022108810304  27.10026015999142  0.000000
0.038999999999999986  0.000000  0.000000  0.000000  -28.85360523523284  -0.3178242083638545  -2.55200948549199  55.99022184033805  8.861254072543817  -5.990266633693563  31.81903899448299  16.225502065130964  8.427523027266904  26.698628095344873  0.000000
0.07799999999999997  0.000000  0.000000  0.000000  -28.53124930134724  -0.1526761281151082  -2.7932238123874478  55.67738299859428  8.889199494514534  -5.892731021251808  31.726390732002127  16.202273112061757  8.422386475622273  26.286588954048813  0.000000
0.11699999999999997  0.000000  0.000000  0.000000  -28.25659850240516  -0.07374373272442787  -3.105086838342214  55.43651034659643  8.938228489788509  -5.771610010772  31.625681567247923  16.19724387823609  8.394385464583728  25.89288221268834  0.000000
0.15599999999999994  0.000000  0.000000  0.000000  -28.03590606973029  -0.07301768303138997  -3.4557705236102296  55.30993326781295  9.038331199687972  -5.613994174532435  31.689422649536155  16.308239174185328  8.102805732030687  25.53909840012813  0.000000
0.19499999999999992  0.000000  0.000000  0.000000  -27.884036959373883  -0.12468972422925963  -3.7944278844631563  55.31610173371568  9.192582166817154  -5.419578424981609  32.106152646568134  16.62335469476884  7.304532551920357  25.24523706905672  0.000000
0.23399999999999993  0.000000  0.000000  0.000000  -27.805964707008254  -0.19698621030777544  -4.07469224306405  55.44404432978171  9.393743018439212  -5.202389279894259  33.0305255651724  17.207432783937566  5.801560824015157  25.02325984652696  0.000000
0.2729999999999999  0.000000  0.000000  0.000000  -27.802824969027526  -0.26343486284318657  -4.259694222055037  55.670379126988514  9.626518877016386  -4.982262422768567  34.5064407070671  18.10183159355209  3.525614129372325  24.87119193060095  0.000000
0.3119999999999999  0.000000  0.000000  0.000000  -27.8589282819889  -0.30416934152308894  -4.324167860621682  55.9662472532414  9.87009627059171  -4.778395728277927  36.4443589087788  19.320782216302803  0.5529275886978781  24.781004116009065  0.000000
0.35099999999999987  0.000000  0.000000  0.000000  -27.943607608100386  -0.3100792092132352  -4.250641705308155  56.310276268403726  10.103096734405941  -4.606901556204047  38.637657112532445  20.85104279070164  -2.904931970893066  24.742954345989656  0.000000
0.38999999999999985  0.000000  0.000000  0.000000  -28.013833081791002  -0.2816088028071957  -4.030171631432289  56.6862267873669  10.311846149429085  -4.480434734350511  40.8411667235304  22.6519389971081  -6.583084190701967  24.751915981924174  0.000000
0.4289999999999998  0.000000  0.000000  0.000000  -28.02964988711086  -0.2238479962322312  -3.660051116609062  57.08468385846487  10.49332832273161  -4.407232975134758  42.84986160256358  24.66208218949012  -10.240260848726532  24.80782506729967  0.000000
0.46799999999999986  0.000000  0.000000  0.000000  -27.963738166998496  -0.1424187267931129  -3.1397390100438125  57.4989542912383  10.650534639630132  -4.392049975286341  44.549103101124274  26.81141497038254  -13.71768841525328  24.90550146447122  0.000000
0.5069999999999998  0.000000  0.000000  0.000000  -27.806467024605244  -0.041150817020084086  -2.466896548828444  57.92407884029524  10.787227743314746  -4.438524138267372  45.91689479532182  29.033326825189253  -16.949393923271884  25.02769827968486  0.000000
0.5459999999999998  0.000000  0.000000  0.000000  -27.567151133813105  0.0805259203410269  -1.6364846938636328  58.35126622879194  10.903285228761103  -4.549943331946863  47.003456786493324  31.272987543253016  -19.950401728458534  25.150749319742335  0.000000
0.5849999999999997  0.000000  0.000000  0.000000  -27.273011204612118  0.2265135210063856  -0.6434927708744362  58.76630052561849  10.993864348705241  -4.729544588098786  47.90135670300708  33.49171059210015  -22.79443299886724  25.25264165102887  0.000000
0.6239999999999998  0.000000  0.000000  0.000000  -26.96362502748831  0.401938989140946  0.512996488010619  59.15108593842797  11.051310384912716  -4.978437031054779  48.713738442850534  35.66725024734355  -25.57991991849566  25.318914371002645  0.000000
0.6629999999999998  0.000000  0.000000  0.000000  -26.677938245815263  0.6113841225094732  1.827901786368702  59.489963816921765  11.068407007277097  -5.29268569676626  49.5231565070061  37.78982008194615  -28.388273314077672  25.342519039490742  0.000000
0.7019999999999997  0.000000  0.000000  0.000000  -26.4394718305503  0.8564011898795891  3.291947498949822  59.77639354016585  11.041340744112937  -5.661807319400605  50.36731009386914  39.855043564383514  -31.24253950638397  25.320079557407432  0.000000
0.7409999999999998  0.000000  0.000000  0.000000  -26.24876996358603  1.1350994580151097  4.893845408896632  60.015600282395525  10.970645056958517  -6.068877935926304  51.23172888540449  41.856571853823496  -34.090622627112324  25.250481413662026  0.000000
0.7799999999999997  0.000000  0.000000  0.000000  -26.08970595565749  1.4425710147741895  6.619525495802029  60.221026369281496  10.859659256633378  -6.491708834685858  52.0641847381464  43.78174157243598  -36.8244041832806  25.13661042375408  0.000000
0.8189999999999997  0.000000  0.000000  0.000000  -25.943219560113732  1.77242509063269  8.446782916620192  60.407448836170104  10.712094467269777  -6.9039235885512955  52.7997245655627  45.61248544583796  -39.323594210809844  24.98878762734827  0.000000
0.8579999999999997  0.000000  0.000000  0.000000  -25.80006122493078  2.118786758754297  10.339604682715619  60.585662425368184  10.531398503299219  -7.27583587544937  53.38239028308837  47.329465758050155  -41.49595993658184  24.826329464179963  0.000000
0.8969999999999997  0.000000  0.000000  0.000000  -25.66571582185253  2.4784431593533243  12.2468503487162  60.76199364745768  10.321994737337658  -7.575193416789761  53.773414646774974  48.91694477310142  -43.293674078659755  24.675120528735988  0.000000
0.9359999999999997  0.000000  0.000000  0.000000  -25.55768716553445  2.8516850339563637  14.107723616241698  60.941705155056496  10.092050765775884  -7.769172053874554  53.950808991453144  50.36635101737663  -44.708532539084274  24.559012140017135  0.000000
0.9749999999999996  0.000000  0.000000  0.000000  -25.4982796282283  3.241436591363143  15.8612854717606  61.13272093256714  9.854558027555633  -7.827590515463216  53.905677069892754  51.67909670868073  -45.75966647071903  24.490083413943264  0.000000
1.0139999999999996  0.000000  0.000000  0.000000  -25.506200914810222  3.6504491824942558  17.457523870387114  61.343489034673766  9.628692733935189  -7.729589126941985  53.64697121243278  52.86568158878201  -46.48866927872493  24.46456022555934  0.000000
1.0529999999999997  0.000000  0.000000  0.000000  -25.590782699239416  4.077137915684268  18.86554052451507  61.57606460300312  9.438921560894098  -7.471214143210942  53.208896532096105  53.941852633230674  -46.958360886844005  24.468045534481398  0.000000
1.0919999999999996  0.000000  0.000000  0.000000  -25.75164590130592  4.51568120270737  20.07627366522086  61.82215029526845  9.309925558613896  -7.067121860968368  52.64700323223422  54.92227199537389  -47.24450681736135  24.4831269577438  0.000000
1.1309999999999996  0.000000  0.000000  0.000000  -25.981711546349917  4.960350410404347  21.100128146839925  62.066065088330426  9.260132803297829  -6.5455836102126295  52.02278617211266  55.81586946127577  -47.421293235646566  24.493544771287652  0.000000
1.1699999999999995  0.000000  0.000000  0.000000  -26.272901319687477  5.408528772500295  21.95941196923326  62.29325800891815  9.293648156190747  -5.936535865406074  51.3855565428955  56.62714465935881  -47.54564823219231  24.486228723052687  0.000000
1.2089999999999996  0.000000  0.000000  0.000000  -26.618307055713082  5.8598715183152175  22.680374023564053  62.49653624991011  9.401656929080156  -5.263520302592985  50.76622771408337  57.36023079541682  -47.64772227588768  24.450998422064792  0.000000
1.2479999999999996  0.000000  0.000000  0.000000  -27.007959720508133  6.312955708216154  23.289901110858466  62.67602554857675  9.57051223496108  -4.543819909966997  50.17774216479588  58.02063871359049  -47.72524305062778  24.3773508631507  0.000000
1.2869999999999995  0.000000  0.000000  0.000000  -27.427013419854507  6.763292571296035  23.814985018205128  62.83722856517857  9.785730483244704  -3.791388507598706  49.617687204138925  58.61604547338918  -47.74751214087375  24.25267891055476  0.000000
1.3259999999999996  0.000000  0.000000  0.000000  -27.85791407997448  7.2028108391654815  24.280799916732143  62.98737362177838  10.033065215410799  -3.0210759538901084  49.07580282835079  59.155796333636374  -47.67436576619587  24.066955173218982  0.000000
1.3649999999999995  0.000000  0.000000  0.000000  -28.283886306587537  7.62074740370436  24.706668292069725  63.13232790623408  10.297766927079378  -2.2515300099905704  48.54285027591825  59.649571263849126  -47.48223201742778  23.821308440236102  0.000000
1.4039999999999995  0.000000  0.000000  0.000000  -28.691478513863316  8.005100552696517  25.102550162196096  63.27493373572805  10.564567905741741  -1.5060076390629953  48.01780970414639  60.10512647205996  -47.18332199041493  23.533801419509373  0.000000
1.4429999999999994  0.000000  0.000000  0.000000  -29.07062665105727  8.344313830144214  25.46886795869076  63.415271438992285  10.819268344603072  -0.8102700860472485  47.51011715066479  60.52601298598947  -46.823932376909916  23.23581774856601  0.000000
1.4819999999999995  0.000000  0.000000  0.000000  -29.41319582661899  8.629435242314525  25.799985677866847  63.55175494880528  11.050416105794978  -0.188055168908328  47.03734316399786  60.910185173450564  -46.46465121018881  22.95876130503436  0.000000
1.5209999999999995  0.000000  0.000000  0.000000  -29.71149848518731  8.856063650322852  26.088825557991594  63.681898114979504  11.250230094110167  0.34320832820287656  46.62075247996319  61.2502487692247  -46.1564118505097  22.719284635616336  0.000000
1.5599999999999994  0.000000  0.000000  0.000000  -29.957583860656282  9.02484991991416  26.330246634483412  63.80116482271868  11.414099549762161  0.7736173900435898  46.281806556069625  61.534350218081705  -45.92733073991647  22.513648391317346  0.000000
1.5989999999999995  0.000000  0.000000  0.000000  -30.144270567845854  9.140248289777857  26.52100009723103  63.902912131363564  11.539657110563079  1.0989868499075608  46.04005646490669  61.74848346922496  -45.782643488636  22.325867471167406  0.000000
1.6379999999999995  0.000000  0.000000  0.000000  -30.268391457775632  9.209242717593238  26.656713046722  63.98003959124626  11.625925472789657  1.318432509349785  45.91037638236475  61.87905649348596  -45.71073687009479  22.144291299792773  0.000000
1.6769999999999994  0.000000  0.000000  0.000000  -30.333700458603673  9.239356833102462  26.730873418560122  64.02577785453364  11.67242580317924  1.4313539490061225  45.90054488494015  61.91427630452451  -45.68787439078518  21.97397646362192  0.000000
1.7159999999999993  0.000000  0.000000  0.000000  -30.349995907865626  9.236674083393241  26.735938000138024  64.03373643547275  11.679131432793799  1.4354740439580334  46.00882926331748  61.84464316113117  -45.681382199251246  21.836150470702524  0.000000
1.7549999999999994  0.000000  0.000000  0.000000  -30.32861659714262  9.203539300107874  26.665182954722834  63.99993481806479  11.64725552550542  1.3275469613903264  46.22180320092903  61.663837875109316  -45.651880560306275  21.7565882984947  0.000000
1.7939999999999994  0.000000  0.000000  0.000000  -30.277334841404784  9.137054872291815  26.514850347058584  63.924736504308214  11.57962965749691  1.105119059106632  46.51515815694222  61.36870594304137  -45.55766742644693  21.75238698236012  0.000000
1.8329999999999993  0.000000  0.000000  0.000000  -30.19801901735932  9.030161752149544  26.285127056922832  63.81270576549932  11.479976403975234  0.7682507004965856  46.85919253658014  60.95832993360382  -45.362267653519794  21.825695400375064  0.000000
1.8719999999999994  0.000000  0.000000  0.000000  -30.08788844043877  8.875314637493123  25.980126782522536  63.67010064322151  11.350826526538343  0.320378674033769  47.22799917655859  60.43232206669426  -45.04682162543786  21.965447082918573  0.000000
1.9109999999999994  0.000000  0.000000  0.000000  -29.941673501833804  8.668558499626569  25.606254950012435  63.5013748164471  11.192458710650197  -0.23128576463604242  47.60853577320792  59.78953030616599  -44.623976417501716  22.15247190967869  0.000000
1.9499999999999993  0.000000  0.000000  0.000000  -29.752839323158685  8.410224337444594  25.169576341383163  63.306554670587516  11.00490403196998  -0.8763808679390424  48.0054029802163  59.02776499830133  -44.14272948014125  22.36448800780618  0.000000
1.9889999999999992  0.000000  0.000000  0.000000  -29.516520238252756  8.103503433646447  24.674324286244634  63.08453329299177  10.788569134624362  -1.6010230397067442  48.4363735635146  58.147350430615774  -43.672267520053836  22.58093184587905  0.000000
2.027999999999999  0.000000  0.000000  0.000000  -29.233102789088978  7.752594678709434  24.12300308855235  62.839805613747174  10.54358414501494  -2.3871402870182408  48.91656339225585  57.15582303305071  -43.26534189495284  22.78577701463766  0.000000
2.0669999999999993  0.000000  0.000000  0.000000  -28.908354925623307  7.36171715784088  23.519852102054347  62.58005909641905  10.270744923217041  -3.2147629158049784  49.4446889338471  56.06675220396296  -42.92610856873936  22.966809643763444  0.000000
2.1059999999999994  0.000000  0.000000  0.000000  -28.550502176348267  6.934216969610446  22.87117277325614  62.309759859992255  9.974456337634233  -4.066686416033586  49.99900891277112  54.896512583200675  -42.605231640746595  23.113697174831447  0.000000
2.144999999999999  0.000000  0.000000  0.000000  -28.167859902057774  6.473625906902675  22.180266250075  62.02977222887642  9.663786685912847  -4.927986170953392  50.543099065252306  53.66275804421723  -42.22644343762837  23.219125008681626  0.000000
2.1839999999999993  0.000000  0.000000  0.000000  -27.769899021887685  5.984046491269329  21.44316406004142  61.740437674772565  9.350084262085094  -5.782790795280915  51.03962261482917  52.38406840504717  -41.72676635219588  23.28290248928865  0.000000
2.2229999999999994  0.000000  0.000000  0.000000  -27.371672717343035  5.469780817153944  20.644655859676245  61.44626169200812  9.043962376127066  -6.609759953203249  51.459077126500254  51.080712385766226  -41.08038535462188  23.315809935721944  0.000000
2.261999999999999  0.000000  0.000000  0.000000  -26.998026708419964  4.9381379327919515  19.757341127130758  61.1585329926562  8.750916828715791  -7.3753599179871046  51.7748162179784  49.77328862491282  -40.289153381410806  23.337390731458203  0.000000
2.3009999999999993  0.000000  0.000000  0.000000  -26.67983011088764  4.400436151285647  18.746859967735478  60.8922494415332  8.472461664825195  -8.035246667901573  51.952502471911934  48.47685404446011  -39.35071627357912  23.36874231250146  0.000000
2.339999999999999  0.000000  0.000000  0.000000  -26.44127337768008  3.8709193766943435  17.582282464512325  60.6573666204336  8.212906950077768  -8.545006958927024  51.94783374120481  47.191847708236466  -38.23275083993329  23.42695121212574  0.000000
2.378999999999999  0.000000  0.000000  0.000000  -26.2904587162176  3.362679887573933  16.246904972722078  60.451621798888446  7.9832042932803455  -8.874045562586648  51.71763455964244  45.90253563592306  -36.87445171471162  23.526525189556608  0.000000
2.4179999999999993  0.000000  0.000000  0.000000  -26.21969390198904  2.882800786681167  14.744741778959838  60.257325101240596  7.800779618625173  -9.01574272040722  51.2378108780868  44.58449075503762  -35.212686992846365  23.68407963261265  0.000000
2.456999999999999  0.000000  0.000000  0.000000  -26.21247967896829  2.4334576652362294  13.09819616739611  60.05224306229406  7.681178641336683  -8.985434981284417  50.49938855420748  43.216920147390184  -33.20379910100417  23.91583245145144  0.000000
2.495999999999999  0.000000  0.000000  0.000000  -26.253406192406285  2.014216124403854  11.34090556054406  59.81939329591318  7.630150608318991  -8.809728237689761  49.49804047513368  41.791049519889945  -30.83385023518789  24.233668210789638  0.000000
2.5349999999999993  0.000000  0.000000  0.000000  -26.333727727793608  1.623665974842662  9.511379943529574  59.550671511442175  7.644830440683017  -8.51885389139119  48.23321685748568  40.310687119233805  -28.122349323523217  24.642561056970052  0.000000
2.573999999999999  0.000000  0.000000  0.000000  -26.44879515140657  1.2607323699171673  7.649085415230848  59.24671655424987  7.716170460904427  -8.14068138519715  46.70902525540644  38.78753273143373  -25.11704299862614  25.134658210761852  0.000000
2.612999999999999  0.000000  0.000000  0.000000  -26.59307949354209  0.9242570385963065  5.791724524946241  58.91487001813378  7.831711294238051  -7.699566836679661  44.94033254241871  37.23628955244193  -21.891609142190696  25.683531439705906  0.000000
2.6519999999999992  0.000000  0.000000  0.000000  -26.759445455835376  0.6133781880601326  3.9741012307681154  58.56540289402976  7.977978184793093  -7.217047177983937  42.95920301517218  35.6695070066781  -18.53993555744956  26.246091936687918  0.000000
2.690999999999999  0.000000  0.000000  0.000000  -26.94132046895762  0.32837189181371285  2.2279703795294905  58.20648194620516  8.143092907716966  -6.7147144041074105  40.81818465981721  34.09396770136039  -15.16555882835343  26.77256960537319  0.000000
2.729999999999999  0.000000  0.000000  0.000000  -27.134850768661014  0.07156744840336593  0.5829723544642068  57.83978678431296  8.31897144181112  -6.21641408391227  38.58814853865372  32.50883014530904  -11.866642844247892  27.21887199837034  0.000000
2.768999999999999  0.000000  0.000000  0.000000  -27.33991601883761  -0.15239810258742256  -0.9329031265216372  57.45948451467705  8.501018650947238  -5.7490976882247775  36.35262681725866  30.907684470875875  -8.725752416756048  27.554795785885048  0.000000
2.807999999999999  0.000000  0.000000  0.000000  -27.5592623521842  -0.33788152010938377  -2.293302092831126  57.054774599473554  8.685903730135315  -5.341197790336125  34.19955641957307  29.282403039368987  -5.806696277486854  27.76519168549676  0.000000
2.846999999999999  0.000000  0.000000  0.000000  -27.795066479024175  -0.47980634349667556  -3.4744252647081186  56.61489148709704  8.869162572760954  -5.019412395492037  32.211496856777174  27.626505223715867  -3.1561379820508346  27.84694446001486  0.000000
2.885999999999999  0.000000  0.000000  0.000000  -28.045545829943684  -0.575410443408618  -4.456549823349544  56.13436622076065  9.043430038239759  -4.804824941978625  30.452980142276324  25.938188995466728  -0.803030565248808  27.80588065082616  0.000000
2.924999999999999  0.000000  0.000000  0.000000  -28.30241320575349  -0.6257380431567501  -5.2256828305688225  55.61685218136766  9.198623622438065  -4.710091434399321  28.955447241738607  24.222265041037858  1.2477218139147501  27.656875553341905  0.000000
2.963999999999999  0.000000  0.000000  0.000000  -28.55097247588007  -0.6368240286837324  -5.775890081525742  55.076912254928985  9.323675374679345  -4.737793921086381  27.700273660980958  22.491806146041565  3.0266277603029548  27.42585049016196  0.000000
3.002999999999999  0.000000  0.000000  0.000000  -28.775039705134677  -0.6196753819111656  -6.111881888471889  54.54004741631621  9.408671581387091  -4.879526033075029  26.613109286003994  20.76849314779628  4.600029912350165  27.149027738785303  0.000000
3.041999999999999  0.000000  0.000000  0.000000  -28.962355035892504  -0.5881185135456719  -6.249456921724631  54.039830538407884  9.44551305239612  -5.11631513095265  25.57854947428686  19.081291962129978  6.055446727136274  26.86515754928468  0.000000
3.080999999999999  0.000000  0.000000  0.000000  -29.10785279341129  -0.555165669776493  -6.212967949350053  53.611120011953375  9.428090673074413  -5.421217748953732  24.485065026010616  17.462333509390184  7.462190334952738  26.602635078072666  0.000000
3.1199999999999988  0.000000  0.000000  0.000000  -29.215796392919742  -0.5282281182418498  -6.031585474859873  53.279814170516175  9.352392738820095  -5.763866490766568  23.287242636712428  15.942398822349782  8.8184222345119  26.371868409342866  0.000000
3.158999999999999  0.000000  0.000000  0.000000  -29.298935556095614  -0.5056860947754139  -5.734803944855074  53.05387112533738  9.217928229283777  -6.116627160946203  22.05146048882884  14.545615683146252  10.016058083659791  26.16952291478736  0.000000
3.197999999999999  0.000000  0.000000  0.000000  -29.37375139043928  -0.4788295368224185  -5.351116458631667  52.921880995172714  9.031353497922833  -6.459001103329083  20.9455822607972  13.286493909633599  10.857710162150411  25.99007612837644  0.000000
3.2369999999999988  0.000000  0.000000  0.000000  -29.452781617871164  -0.4380654240384637  -4.908723645991911  52.86145070270191  8.80829603005652  -6.778042011152699  20.170413162554304  12.17140191985322  11.128521791596652  25.83524063604028  0.000000
3.275999999999999  0.000000  0.000000  0.000000  -29.537306468557038  -0.3794798128468031  -4.436262536202811  52.85160810883721  8.5699440946002  -7.064654772089424  19.865889019053483  11.203509820569304  10.689874531789169  25.713536774336546  0.000000
3.3149999999999986  0.000000  0.000000  0.000000  -29.617959734271047  -0.30780493431018663  -3.9627746041191756  52.88144255026273  8.337873033320761  -7.309673490137999  20.057538297392306  10.38646952441409  9.53077535730542  25.633532575217643  0.000000
3.3539999999999988  0.000000  0.000000  0.000000  -29.682857453418997  -0.23462190939866526  -3.516620549880243  52.9501945036217  8.129640629771625  -7.502821555423215  20.66485742302748  9.724697639585568  7.755703243042929  25.599673905459298  0.000000
3.392999999999999  0.000000  0.000000  0.000000  -29.727067193633008  -0.17265199554645952  -3.123398046179569  53.060358084120104  7.957466454504954  -7.634794744082888  21.562681157101693  9.220106772683115  5.522881958236002  25.613268269895322  0.000000
3.4319999999999986  0.000000  0.000000  0.000000  -29.756656250257322  -0.12937241200064276  -2.804411090498622  53.20994448778282  7.828713144871569  -7.699345529007597  22.642212180705602  8.869209538383165  2.985030106255456  25.678093592433136  0.000000
3.4709999999999988  0.000000  0.000000  0.000000  -29.785027952681812  -0.10583165483338002  -2.5732512495325746  53.39020172740876  7.746177854799092  -7.696265807938861  23.83752551578811  8.662104237896905  0.26649972232429464  25.798753690199597  0.000000
3.509999999999999  0.000000  0.000000  0.000000  -29.82313195882619  -0.09884175638125123  -2.4340549341856157  53.58749468336827  7.709943752047849  -7.632583184341194  25.11155455939398  8.583076114419343  -2.520818858606631  25.974638036747066  0.000000
3.5489999999999986  0.000000  0.000000  0.000000  -29.871866533855094  -0.1017838319768868  -2.381598862365163  53.788636497448636  7.718835014733453  -7.517368357856453  26.410180182327398  8.610813712568701  -5.232231024701949  26.196778490026595  0.000000
3.5879999999999987  0.000000  0.000000  0.000000  -29.919490955469886  -0.10678311331028921  -2.40000600719709  53.9857425557815  7.768959449258298  -7.361130357816938  27.651504345501113  8.719728610218542  -7.69197889655459  26.446898641977064  0.000000
3.626999999999999  0.000000  0.000000  0.000000  -29.948414379881275  -0.10757827607360726  -2.463972773675627  54.17784041031901  7.854207799633662  -7.175928518724686  28.743464345943046  8.880594284159406  -9.73037620628776  26.701436480393436  0.000000
3.6659999999999986  0.000000  0.000000  0.000000  -29.94841654651933  -0.10126214895817266  -2.543729754489377  54.366586362915484  7.9662889081706645  -6.9782039414022785  29.64735302547796  9.063499938007823  -11.275200956648709  26.940394994874914  0.000000
3.7049999999999987  0.000000  0.000000  0.000000  -29.926748500394805  -0.09148043712760628  -2.612241462858748  54.55348817316876  8.09631199587397  -6.787901922321255  30.388864564958972  9.240147682400895  -12.370284985288796  27.1518522653223  0.000000
3.743999999999999  0.000000  0.000000  0.000000  -29.903061600315457  -0.08754205217251865  -2.6519854300823122  54.736539952602385  8.234007311444543  -6.626953224968985  31.04572311916486  9.382440100911806  -13.15634252378004  27.332657181110363  0.000000
3.7829999999999986  0.000000  0.000000  0.000000  -29.909325240093246  -0.10344352742085013  -2.65993014854112  54.908744860678134  8.36576377365366  -6.514969262811862  31.698382296968145  9.46292960789933  -13.794462849429767  27.485355050600944  0.000000
3.8219999999999987  0.000000  0.000000  0.000000  -29.963901119358223  -0.15540690608984245  -2.652763421881893  55.05388625842469  8.474574807050642  -6.468261762346744  32.38402031755452  9.448641621329736  -14.396675228876003  27.60862293868237  0.000000
3.8609999999999984  0.000000  0.000000  0.000000  -30.086430283624626  -0.25951260141437166  -2.6687516013653534  55.14309670052212  8.538199759856724  -6.490646611883952  33.07638837784504  9.309232823553575  -14.989717974251013  27.696877218800157  0.000000
3.8999999999999986  0.000000  0.000000  0.000000  -30.264858980121467  -0.41847446504209224  -2.756669273111301  55.14857547343662  8.534403568919421  -6.574891518530422  33.62765678669227  9.016037573281457  -15.43904165998108  27.741831210601973  0.000000
