Simulation
nRows=101
nColumns=15
endheader
time  TH_x TH_y TH_z SC_y  SC_z  SC_x  AC_y  AC_z  AC_x  GH_y  GH_z  GH_yy  EL_x  PS_y
0.0  0.000000  0.000000  0.000000  -29.747400149594984  1.3995353056864752  -5.215588318047352  56.5508926778344  10.273264265048004  -2.411932314618863  30.782800774827535  16.02007368346522  9.478935451272362  27.104794174920503  0.000000
0.038999999999999986  0.000000  0.000000  0.000000  -29.282137937728695  1.8320109057937928  -5.4569966201636175  56.149375693005126  10.307418642520604  -2.1356331112472002  30.801719402781345  15.92038977503952  9.324220823340786  26.70083860452868  0.000000
0.07799999999999997  0.000000  0.000000  0.000000  -28.871570780990716  2.1643093170571177  -5.772336632061819  55.79136950615555  10.316253656019027  -1.8721975671262892  30.67401527471387  15.772771208399128  9.324112615646438  26.286070711631915  0.000000
0.11699999999999997  0.000000  0.000000  0.000000  -28.537481980228034  2.379792236812726  -6.145402243108258  55.53979912273682  10.355108027881545  -1.598702545337192  30.50685832491651  15.668606760667796  9.331818152468065  25.890623098876922  0.000000
0.15599999999999994  0.000000  0.000000  0.000000  -28.296334600057254  2.479507138796443  -6.5372878906817835  55.43687145612461  10.453698109858566  -1.3126444041935756  30.489223555675146  15.707779182824268  9.092250798225228  25.537772709156183  0.000000
0.19499999999999992  0.000000  0.000000  0.000000  -28.161310024333297  2.4909913247527564  -6.8975682285683835  55.490755157942864  10.6180135264123  -1.0190684653329827  30.8399849623371  15.975714940631141  8.33847645322988  25.247669728211573  0.000000
0.23399999999999993  0.000000  0.000000  0.000000  -28.128187265001177  2.453672560124397  -7.183951714677876  55.67451014024583  10.839602007911251  -0.7333844455034377  31.74895216691931  16.532266128703558  6.840317218482716  25.031140257271314  0.000000
0.2729999999999999  0.000000  0.000000  0.000000  -28.185541200981977  2.404695637778007  -7.36271161110781  55.950806433422535  11.097639254944658  -0.4730221206170647  33.2808569889213  17.412733726214316  4.50877756953816  24.883890618724603  0.000000
0.3119999999999999  0.000000  0.000000  0.000000  -28.303034745508803  2.374469000068365  -7.410801332667045  56.28093582135547  11.364345795577515  -0.2519302283250957  35.34292237176187  18.625717624562196  1.4183602108290871  24.79654704403274  0.000000
0.35099999999999987  0.000000  0.000000  0.000000  -28.435694023765585  2.379727324994254  -7.3115804811271925  56.63969189629843  11.612591301832348  -0.0803731621597711  37.70062078548068  20.153592751517554  -2.2003270685093144  24.758109832498967  0.000000
0.38999999999999985  0.000000  0.000000  0.000000  -28.527974249894744  2.424040518126981  -7.056862869531354  57.01068152037446  11.825647227972876  0.0346412351749008  40.06836291349492  21.952120155411105  -6.052275806498337  24.76397698403384  0.000000
0.4289999999999998  0.000000  0.000000  0.000000  -28.531683812523823  2.503977490580605  -6.644114225102065  57.38693099803515  11.999405121653956  0.08926100217011367  42.20603661914166  23.957077583605486  -9.870330518761529  24.816882739266443  0.000000
0.46799999999999986  0.000000  0.000000  0.000000  -28.415161959569954  2.6139429907656493  -6.071708288150476  57.76505335502159  12.136253803229476  0.08156386565832151  43.978637677993476  26.09632122454915  -13.480807062954904  24.913617078756655  0.000000
0.5069999999999998  0.000000  0.000000  0.000000  -28.16698301538246  2.7496073100150626  -5.3352471206594805  58.14287165292442  12.239755388207445  0.008822740656202664  45.3589895837594  28.301947816871813  -16.814381656332166  25.037034871522533  0.000000
0.5459999999999998  0.000000  0.000000  0.000000  -27.79707857458311  2.9116414876450403  -4.426660888096235  58.51246209991694  12.309236586345623  -0.13242524674598574  46.40298733030571  30.517974949148655  -19.890438654035165  25.16203615369991  0.000000
0.5849999999999997  0.000000  0.000000  0.000000  -27.33582275687141  3.105183581948829  -3.337936548755886  58.85814226668173  12.339017007972139  -0.3464298042509418  47.21506536010107  32.70438122003253  -22.79207545140265  25.265360911031088  0.000000
0.6239999999999998  0.000000  0.000000  0.000000  -26.828014236767366  3.336978329294712  -2.0660868374305985  59.15849995091998  12.320420859728829  -0.6353859656131717  47.91273973669669  34.837247794298015  -25.62911912475146  25.332088368026515  0.000000
0.6629999999999998  0.000000  0.000000  0.000000  -26.318497808184176  3.612255935551197  -0.616026178174752  59.394462511129774  12.245618857355199  -0.9962435584193152  48.591572301868325  36.90573141374608  -28.492716992969868  25.354957543386185  0.000000
0.7019999999999997  0.000000  0.000000  0.000000  -25.837217138236305  3.9320302419889273  1.0009503345976771  59.55803871775111  12.111557404310483  -1.4183399496576743  49.29787257642441  38.905490923950104  -31.408561191104763  25.33060262954194  0.000000
0.7409999999999998  0.000000  0.000000  0.000000  -25.391665580969388  4.292491317326966  2.7692672614326583  59.65591875505134  11.921373186272932  -1.8832193690993189  50.01994591295306  40.83166088299553  -34.31761474917396  25.258189597005124  0.000000
0.7799999999999997  0.000000  0.000000  0.000000  -24.973308725919694  4.685642856450307  4.6688442626757585  59.7057010105742  11.682734857438566  -2.3659541901935657  50.70451902694108  42.67398017110324  -37.09806165782112  25.140709383860493  0.000000
0.8189999999999997  0.000000  0.000000  0.000000  -24.571354725643328  5.101836663760511  6.670802542088535  59.727342982574825  11.404172619188895  -2.8369072114223726  51.2861829738586  44.41711718678978  -39.61671736451534  24.988677141947168  0.000000
0.8579999999999997  0.000000  0.000000  0.000000  -24.18559405999758  5.532691009703158  8.73355444773596  59.736179896686764  11.09330019878606  -3.2637722242717846  51.71389658074228  46.04425187900553  -41.776810113912795  24.822051129845253  0.000000
0.8969999999999997  0.000000  0.000000  0.000000  -23.830600400984594  5.97337760786896  10.803479378981697  59.74111588297443  10.758122461116567  -3.6141383593606426  51.961608659092725  47.54174657654727  -43.536965404692616  24.668176265256093  0.000000
0.9359999999999997  0.000000  0.000000  0.000000  -23.53269118591124  6.422530911542311  12.821867653270916  59.748100936850896  10.41067902349208  -3.8587435091409685  52.026795416233206  48.90254291033972  -44.90328419099982  24.552971759360315  0.000000
0.9749999999999996  0.000000  0.000000  0.000000  -23.322643531629126  6.880182097310694  14.733811599069451  59.7648505849209  10.069096683411514  -3.9741791215127416  51.92284607642753  50.129099107033504  -45.91183450945814  24.489843553366686  0.000000
1.0139999999999996  0.000000  0.000000  0.000000  -23.22849866127765  7.345776319745258  16.49541795345152  59.80244683207601  9.756603899252095  -3.944747647088718  51.67358263983839  51.23357319310151  -46.61692943979358  24.473421832563627  0.000000
1.0529999999999997  0.000000  0.000000  0.000000  -23.27076799573306  7.818422598647376  18.076598548930665  59.87235463921548  9.497381126254721  -3.762469094856478  51.31042540357556  52.234567406314106  -47.084800641437845  24.483977309313392  0.000000
1.0919999999999996  0.000000  0.000000  0.000000  -23.45976960128722  8.298155583696222  19.461052872124203  59.98045952785152  9.312886539166072  -3.4274552216082506  50.87199623116373  53.15029802312212  -47.388824681312244  24.499002801658236  0.000000
1.1309999999999996  0.000000  0.000000  0.000000  -23.795013379332037  8.786805174964904  20.644978311907483  60.122519320262924  9.21954748174664  -2.947602468395589  50.402717289758  53.9926831951567  -47.60193426871621  24.502693822353482  0.000000
1.1699999999999995  0.000000  0.000000  0.000000  -24.265723669594557  9.287260752376936  21.635313108248187  60.28565052294546  9.226820259841016  -2.3373323727769786  49.94515709954844  54.766092631901046  -47.784903632236954  24.487349552565924  0.000000
1.2089999999999996  0.000000  0.000000  0.000000  -24.85183989006698  9.80092991153258  22.448596235970726  60.453903076772775  9.336811103650973  -1.6153996151160188  49.53039476756908  55.470322044063735  -47.972891777439436  24.447653531586013  0.000000
1.2479999999999996  0.000000  0.000000  0.000000  -25.525924187426973  10.326204080692058  23.109115557001612  60.615398583630714  9.543832009654372  -0.8018732828058956  49.16864521988198  56.105566590554346  -48.16428170200002  24.37419358348626  0.000000
1.2869999999999995  0.000000  0.000000  0.000000  -26.256583655419814  10.857426887755977  23.646227544579478  60.765476959177164  9.835671329043969  0.08316286978972816  48.84948104010045  56.67541356205597  -48.32262270966301  24.25245787209458  0.000000
1.3259999999999996  0.000000  0.000000  0.000000  -27.01189951583913  11.384609430929217  24.089665126556934  60.90463029779231  10.195712849090096  1.017922647424846  48.55113480545022  57.18665024687591  -48.397618379598455  24.069233528249246  0.000000
1.3649999999999995  0.000000  0.000000  0.000000  -27.762817318479996  11.895096107862392  24.46385036013262  61.034936080704064  10.603711578978038  1.976811861988934  48.252552801712724  57.647401259717384  -48.35557178848416  23.822943785348123  0.000000
1.4039999999999995  0.000000  0.000000  0.000000  -28.4850814115378  12.375117233259173  24.783721774229644  61.15718849326312  11.037012123036822  2.9290636030939377  47.942927034622095  58.06438205785923  -48.20228420212888  23.53110550581237  0.000000
1.4429999999999994  0.000000  0.000000  0.000000  -29.15900294195669  12.811181704305438  25.05467146612544  61.270341814449296  11.47265296440893  3.8403145529902485  47.62466760023277  58.44094679973331  -47.98147134192003  23.22683544932921  0.000000
1.4819999999999995  0.000000  0.000000  0.000000  -29.767828171523174  13.191657636198638  25.276373334247072  61.37250700865961  11.890198697010458  4.677019029147643  47.310975840627265  58.7762503023007  -47.75188117489963  22.94418443786488  0.000000
1.5209999999999995  0.000000  0.000000  0.000000  -30.29570030819362  13.507780901432286  25.447554000011888  61.46240381640636  12.273516027107902  5.4114917965973355  47.02148736701121  59.066167240509266  -47.5603847208478  22.70183245776972  0.000000
1.5599999999999994  0.000000  0.000000  0.000000  -30.726808157131412  13.754202161401967  25.568424598371394  61.540028622594434  12.610653296862356  6.024532568604808  46.77799689139277  59.30483065235353  -47.428079360867116  22.496636615338936  0.000000
1.5989999999999995  0.000000  0.000000  0.000000  -31.04707069621524  13.929181990581323  25.640237621684268  61.60576748198355  12.892396160067282  6.5043410923623854  46.601033613725406  59.48563463354574  -47.35240857915985  22.312172262470913  0.000000
1.6379999999999995  0.000000  0.000000  0.000000  -31.248028151741803  14.034326533817095  25.663379742711633  61.658191357811674  13.11085807359532  6.842546973896224  46.50669517001125  59.60093327963045  -47.31640769136296  22.135978072916757  0.000000
1.6769999999999994  0.000000  0.000000  0.000000  -31.33056024019728  14.074318108687848  25.635681105121563  61.69246118604327  13.258997197393995  7.031330782880483  46.50349986426161  59.641694061349504  -47.295115589581734  21.97242858779345  0.000000
1.7159999999999993  0.000000  0.000000  0.000000  -31.304334434682318  14.055498838988557  25.55273963596292  61.700703683804086  13.331141673357639  7.0627638985083925  46.589214074105016  59.59764322491018  -47.25814486401587  21.84212126396552  0.000000
1.7549999999999994  0.000000  0.000000  0.000000  -31.183497235612645  13.9829567124098  25.410354550307495  61.67505987617326  13.324207743185456  6.930775569154754  46.749947062605884  59.458509372037526  -47.17097397742851  21.769708684815313  0.000000
1.7939999999999994  0.000000  0.000000  0.000000  -30.98175450454154  13.85844940393882  25.207048000639546  61.6120280006714  13.238588635684339  6.633741445548556  46.96149097848061  59.215897739430964  -46.997106292327246  21.770513193623852  0.000000
1.8329999999999993  0.000000  0.000000  0.000000  -30.709590278500404  13.680177666087612  24.946098299465778  61.51352037933456  13.078212954166137  6.1758623307682345  47.19514134366388  58.86320666731852  -46.70409346139892  21.844538383721506  0.000000
1.8719999999999994  0.000000  0.000000  0.000000  -30.374393940126506  13.444363989302802  24.635183749015813  61.383173777376875  12.850155078486688  5.567241083128983  47.42942048495525  58.394162736152325  -46.27665091751575  21.979277179636306  0.000000
1.9109999999999994  0.000000  0.000000  0.000000  -29.981568788663388  13.148251832823062  24.283190890345303  61.226247334015284  12.563290104297506  4.8235288239879495  47.659024408636704  57.80397059188119  -45.73216401185604  22.15684943415488  0.000000
1.9499999999999993  0.000000  0.000000  0.000000  -29.535792766915055  12.792061310689599  23.897062203408577  61.050671849548415  12.225894785948471  3.9656511161631673  47.8966123689564  57.09107885778546  -45.12685822494019  22.359079163832675  0.000000
1.9889999999999992  0.000000  0.000000  0.000000  -29.04231389294327  12.378792863004813  23.479700408887357  60.86476819294516  11.845397688744656  3.0178566433793224  48.16656340343358  56.258287424267614  -44.53962354220843  22.56933131945142  0.000000
2.027999999999999  0.000000  0.000000  0.000000  -28.508503126331238  11.913822127706313  23.029520641540383  60.67398900115098  11.429687086228503  2.005315069543806  48.49038473273684  55.31314982510153  -44.03332397935496  22.77301371680669  0.000000
2.0669999999999993  0.000000  0.000000  0.000000  -27.94509137392367  11.405090409238946  22.541089091065757  60.47978674029098  10.988569680042893  0.9532338143711536  48.872029836947476  54.26839548877941  -43.61691540897887  22.957383028198766  0.000000
2.1059999999999994  0.000000  0.000000  0.000000  -27.3655107877555  10.862116604403393  22.005267234732656  60.281576438511294  10.534457431977492  -0.11255795639983432  49.29162282337082  53.1414905165818  -43.236924364836604  23.11139214860155  0.000000
2.144999999999999  0.000000  0.000000  0.000000  -26.785824689746942  10.294263137005796  21.408116817177735  60.082240245381094  10.080632120274021  -1.1638833237890736  49.70966024281631  51.954450818960325  -42.80588200821548  23.22661950451289  0.000000
2.1839999999999993  0.000000  0.000000  0.000000  -26.22723697326748  9.709216596639003  20.729910446554733  59.892050257747776  9.63860667553844  -2.1690007537492284  50.07858978945748  50.73246423066616  -42.24700653116385  23.300565038555057  0.000000
2.2229999999999994  0.000000  0.000000  0.000000  -25.7183254473322  9.111970997971826  19.945654690137655  59.72785186449247  9.217600994798568  -3.093972063262495  50.354992870013916  49.5009175967279  -41.52425795595646  23.339885271186503  0.000000
2.261999999999999  0.000000  0.000000  0.000000  -25.29187364001636  8.505171702015726  19.028229864048544  59.605621129597445  8.82705008388234  -3.9057589727796036  50.50798391435231  48.279397284993294  -40.63977365429369  23.360228750133725  0.000000
2.3009999999999993  0.000000  0.000000  0.000000  -24.976058540852005  7.890949125228599  17.95412562928825  59.531098864130016  8.479540119440154  -4.576433537695984  50.52181785122282  47.07534440149157  -39.605810796335845  23.383028483480228  0.000000
2.339999999999999  0.000000  0.000000  0.000000  -24.785552343350453  7.2737362404873735  16.708773594489926  59.49485325682057  8.190323892872593  -5.08557079525218  50.39012115417553  45.88101983497723  -38.412688300395985  23.431161993739178  0.000000
2.378999999999999  0.000000  0.000000  0.000000  -24.716825278522705  6.662419199341889  15.289535764471658  59.47511781232905  7.973637991230454  -5.422426333388267  50.104976279530575  44.676999237777586  -37.016195959188565  23.525185771657412  0.000000
2.4179999999999993  0.000000  0.000000  0.000000  -24.75117845594066  6.068514060996455  13.706686661448193  59.44513168476441  7.838752329283083  -5.587339006397074  49.649905517578425  43.43952223688367  -35.35188175081208  23.681828753898483  0.000000
2.456999999999999  0.000000  0.000000  0.000000  -24.863800096048948  5.501846152357109  11.981556604450526  59.38152333165863  7.787434727043712  -5.591863725168944  48.99934468282887  42.15013707457663  -33.36249480622715  23.914546627530555  0.000000
2.495999999999999  0.000000  0.000000  0.000000  -25.032331892138647  4.967852926310916  10.14400970522249  59.26898606839373  7.8147502678243335  -5.456007705392584  48.12387594976824  40.80057727061668  -31.018984105725796  24.23381557802976  0.000000
2.5349999999999993  0.000000  0.000000  0.000000  -25.24035876298297  4.467777051259747  8.229586229390762  59.10242947216398  7.911311434274145  -5.2042883701790705  46.99628111541968  39.39319241486279  -28.326674084490087  24.644268812200984  0.000000
2.573999999999999  0.000000  0.000000  0.000000  -25.47670943922039  4.000291280309952  6.276939578526415  58.886392702401004  8.065098944881058  -4.861134883786315  45.59898645515617  37.9375343433996  -25.323161271957666  25.13830480187492  0.000000
2.612999999999999  0.000000  0.000000  0.000000  -25.733633719626955  3.563063182093824  4.3247860072818405  58.633378455760855  8.262732494981877  -4.4486141902441165  43.93225072193321  36.446587220906146  -22.075847135210143  25.689765516634964  0.000000
2.6519999999999992  0.000000  0.000000  0.000000  -26.006404755157764  3.154084762999318  2.409568491091799  58.35908793798172  8.490545386044072  -3.9864150321675615  42.020874205898835  34.93246903131106  -18.676489916404172  26.255068857765604  0.000000
2.690999999999999  0.000000  0.000000  0.000000  -26.293916621991137  2.7732571671208013  0.5641938204803022  58.07607503679823  8.736618852326462  -3.494356767105273  39.91626065639771  33.40286259203256  -15.229575047861228  26.783361678570444  0.000000
2.729999999999999  0.000000  0.000000  0.000000  -26.598108321845825  2.4238756320095387  -1.1816920860398448  57.78740933051892  8.992357268671405  -2.9948301308500103  37.692199837059476  31.859245799790788  -11.835079311862264  27.229843540339516  0.000000
2.768999999999999  0.000000  0.000000  0.000000  -26.92207088726611  2.1129421748896884  -2.8009500578044424  57.485098868483654  9.252896761633757  -2.5138675175619225  35.43704063407243  30.29771038190039  -8.576177335925953  27.564656355304635  0.000000
2.807999999999999  0.000000  0.000000  0.000000  -27.268526831629263  1.8491995211855874  -4.269140707296649  57.15365375380843  9.51498502699523  -2.0792183461252596  33.24489880529198  28.71243407650781  -5.5181193945774  27.773764150686567  0.000000
2.846999999999999  0.000000  0.000000  0.000000  -27.638107185936693  1.6404945848867525  -5.56534605262585  56.77741432567556  9.774617560373807  -1.716406806555501  31.206693894366794  27.09860819685766  -2.7136393234686422  27.854673873507068  0.000000
2.885999999999999  0.000000  0.000000  0.000000  -28.026351696171993  1.4916642252586343  -6.673206811497353  56.34729516293677  10.025345652659581  -1.4445245647438194  29.39601299337369  25.454883935552136  -0.2008852771754323  27.812873663697932  0.000000
2.924999999999999  0.000000  0.000000  0.000000  -28.420348516863065  1.402811458579592  -7.581969709361449  55.86543862655999  10.259283067631195  -1.273437491948971  27.849238887036826  23.784295782463424  2.0080027875505997  27.66194451157712  0.000000
2.963999999999999  0.000000  0.000000  0.000000  -28.799477739837716  1.3686437028209166  -8.287972545510325  55.34693284707947  10.468287065767742  -1.2027608953569822  26.542983010404726  22.096449647527045  3.9440796550751696  27.427226810967436  0.000000
3.002999999999999  0.000000  0.000000  0.000000  -29.14250638674767  1.37892362660095  -8.79773844843855  54.82014552657797  10.646300147970235  -1.2211164911640995  25.38632403047226  20.409419852656903  5.684291416480641  27.146641611549775  0.000000
3.041999999999999  0.000000  0.000000  0.000000  -29.433108830025876  1.4186893651631227  -9.129569328672517  54.32338878039939  10.789923027407932  -1.3068234713551559  24.23706376787431  18.750536849566302  7.336511642992336  26.86108114701926  0.000000
3.080999999999999  0.000000  0.000000  0.000000  -29.664062681045806  1.4714264553810903  -9.30897842733515  53.89694392640235  10.896267520940551  -1.4326591555541044  22.95624711270105  17.15306169792127  8.993609373270933  26.599765239626944  0.000000
3.1199999999999988  0.000000  0.000000  0.000000  -29.841943618369797  1.5258047498399687  -9.363752448076529  53.57070354408815  10.96215686845962  -1.5715854911887288  21.48589090650113  15.650310820217134  10.666819516183333  26.372316593012847  0.000000
3.158999999999999  0.000000  0.000000  0.000000  -29.986516745573564  1.5800206811159576  -9.319550669289548  53.353606535725135  10.985874843721414  -1.7034634208353798  19.905354826939543  14.268548664002056  12.24034180806734  26.17343536617088  0.000000
3.197999999999999  0.000000  0.000000  0.000000  -30.123461518913285  1.6401126249565647  -9.19863671739297  53.232548535859614  10.970540921949635  -1.818100646841657  18.418136176995375  13.022582946565127  13.489747482545814  25.996123157627853  0.000000
3.2369999999999988  0.000000  0.000000  0.000000  -30.273028778385303  1.7136347538417493  -9.020594928711992  53.18261738535747  10.925931948403175  -1.9130791520368025  17.264716213030784  11.917616179318589  14.1682911523081  25.842487315597097  0.000000
3.275999999999999  0.000000  0.000000  0.000000  -30.439567827230096  1.8031323710915743  -8.804397679679264  53.182239239879344  10.866671136522228  -1.98752413356774  16.606975450693433  10.95572687351177  14.119338478894415  25.721902061132543  0.000000
3.3149999999999986  0.000000  0.000000  0.000000  -30.610996749494067  1.903167267946266  -8.571531114369932  53.222862174282135  10.808644510891709  -2.0362986357013138  16.46363882125452  10.141073078338207  13.337468051122528  25.642919948786606  0.000000
3.3539999999999988  0.000000  0.000000  0.000000  -30.769539551961287  2.002272121090692  -8.344984539759  53.30772742354877  10.764385323111433  -2.050318627747854  16.733922444864135  9.479483798061871  11.942348783468473  25.609366939131412  0.000000
3.392999999999999  0.000000  0.000000  0.000000  -30.904447534657  2.0885298667715553  -8.146882909074513  53.44295577948794  10.741732847953664  -2.020188846101977  17.281173461853772  8.973599803804827  10.0971707129834  25.621597011234652  0.000000
3.4319999999999986  0.000000  0.000000  0.000000  -31.018032940694443  2.155332577897227  -7.996583503069619  53.62719000234811  10.7454105314532  -1.9398471614642256  18.01002987719974  8.618567884911355  7.937008798195761  25.682879824973245  0.000000
3.4709999999999988  0.000000  0.000000  0.000000  -31.12281278514441  2.2039418794850665  -7.907538235183684  53.84818717526471  10.777153894152422  -1.8086874592019968  18.891862813351935  8.401424985381677  5.548676723238794  25.79921932340655  0.000000
3.509999999999999  0.000000  0.000000  0.000000  -31.230864717579845  2.240659746468888  -7.886189575762363  54.08632452798641  10.83701126800626  -1.631566239864448  19.929667442775067  8.303707783410017  3.0073219312853228  25.97230015422889  0.000000
3.5489999999999986  0.000000  0.000000  0.000000  -31.344115006675185  2.2735546159031816  -7.930363434297966  54.323096683894406  10.923323815215142  -1.416084763128773  21.094290776936756  8.304420487216326  0.4382779399848441  26.193628705858607  0.000000
3.5879999999999987  0.000000  0.000000  0.000000  -31.45098153260265  2.3098276947717666  -8.027093724454252  54.54689472604669  11.031439886402833  -1.172903759107312  22.309121463001848  8.381984632451456  -1.9820064798310841  26.44387361211804  0.000000
3.626999999999999  0.000000  0.000000  0.000000  -31.532999452290404  2.3523180194103155  -8.152953952331254  54.75506169680549  11.155689810317575  -0.9163980303744894  23.464648802745877  8.513788919018875  -4.060582145897665  26.698260797564338  0.000000
3.6659999999999986  0.000000  0.000000  0.000000  -31.579333949329843  2.398270989867726  -8.27845775003899  54.94885006189164  11.290535629403237  -0.6669997725821178  24.497830834824875  8.675739542482452  -5.69867998167566  26.93655480382421  0.000000
3.7049999999999987  0.000000  0.000000  0.000000  -31.598872334740825  2.437130696626933  -8.376514860407287  55.13139777134357  11.433653338338376  -0.4488307927932376  25.414214408382524  8.8428927871434  -6.92234013193271  27.14780526371633  0.000000
3.743999999999999  0.000000  0.000000  0.000000  -31.61383843760903  2.4530362972079733  -8.429309991894575  55.3036645901837  11.583623695479218  -0.2869765561660442  26.275150353608304  8.986754187783779  -7.861530928668846  27.33018756554211  0.000000
3.7829999999999986  0.000000  0.000000  0.000000  -31.65978677935586  2.4267821879817735  -8.434240811372858  55.462534303516485  11.73592287639551  -0.2016056467911171  27.143683165463557  9.076698912680884  -8.665641805838384  27.486540558149287  0.000000
3.8219999999999987  0.000000  0.000000  0.000000  -31.754950669441175  2.340358373117535  -8.410439377636665  55.59530206714188  11.88004786460772  -0.20607278337401608  28.033271276957244  9.074964836610599  -9.427491899190578  27.614807180271704  0.000000
3.8609999999999984  0.000000  0.000000  0.000000  -31.919635222137973  2.1822546753911785  -8.401171562712086  55.675856560037914  11.994685891434939  -0.2961566726801683  28.89598961459942  8.949022894695387  -10.155168077303026  27.708142744410857  0.000000
3.8999999999999986  0.000000  0.000000  0.000000  -32.13442690345301  1.9590571026489023  -8.459468257804689  55.67668953291499  12.053700396981318  -0.4549260273875948  29.531810176579256  8.670678994376848  -10.659436969876808  27.756000147919398  0.000000
