Simulation
nRows=101
nColumns=15
endheader
time  TH_x TH_y TH_z SC_y  SC_z  SC_x  AC_y  AC_z  AC_x  GH_y  GH_z  GH_yy  EL_x  PS_y
0.0  0.000000  0.000000  0.000000  -29.094739518138713  -0.03492981953551674  -2.9984466226481565  55.84510889501552  8.806737214327748  -5.570416030075433  32.48894851564047  16.181434174336207  8.130686203734086  27.123538440844282  0.000000
0.038999999999999986  0.000000  0.000000  0.000000  -28.64640064582775  0.2369037539540238  -3.113751771753477  55.50168545499775  8.803280454904064  -5.482927457802309  32.514667868802356  16.370333386913263  7.9152022775013995  26.713181846684144  0.000000
0.07799999999999997  0.000000  0.000000  0.000000  -28.24434121659429  0.42802083486603515  -3.3124528191212206  55.16571648553265  8.767132308704236  -5.408472239145157  32.44302085676959  16.483285234350262  7.8159541213936405  26.295081654430774  0.000000
0.11699999999999997  0.000000  0.000000  0.000000  -27.89986472671134  0.5321410095827859  -3.586247874081527  54.88605903334985  8.754813199520791  -5.318279910950744  32.404807091674854  16.597319875150607  7.670968820767907  25.896180588070056  0.000000
0.15599999999999994  0.000000  0.000000  0.000000  -27.62525784246443  0.5528930114762334  -3.903456073741416  54.70741951371709  8.799857881219234  -5.200860895850722  32.56267157312392  16.802254175879312  7.256610389300788  25.53672674827085  0.000000
0.19499999999999992  0.000000  0.000000  0.000000  -27.437903624722704  0.5130955865750318  -4.2145684249691255  54.65532304939818  8.910639527103852  -5.052066835758713  33.07553052308467  17.181269504851972  6.359715858339563  25.236557217440428  0.000000
0.23399999999999993  0.000000  0.000000  0.000000  -27.341065451380445  0.4436909210457222  -4.47191635402197  54.72848645036083  9.080872462097684  -4.880502826389203  34.06397562288212  17.79889736162877  4.809261281950921  25.007355156387735  0.000000
0.2729999999999999  0.000000  0.000000  0.000000  -27.33010045103993  0.37390690350539  -4.6338391816480975  54.911439338251995  9.292835840886921  -4.702301512744096  35.551404278100556  18.69904862029998  2.5472507239606723  24.849773196249377  0.000000
0.3119999999999999  0.000000  0.000000  0.000000  -27.381162084295134  0.326147182335242  -4.670712547532627  55.17869262118033  9.524306794885462  -4.53553779114573  37.449616156864614  19.90050970191633  -0.360997362935933  24.756049899362743  0.000000
0.35099999999999987  0.000000  0.000000  0.000000  -27.45677109144563  0.3142966543760717  -4.562888704891853  55.50711009016391  9.753266035867892  -4.395390048869077  39.57432909140606  21.39579210215443  -3.7329984573840918  24.718471613994524  0.000000
0.38999999999999985  0.000000  0.000000  0.000000  -27.510379268867815  0.34442421546356605  -4.298191358665462  55.87564618778517  9.962223428915943  -4.294681478196371  41.711096127005355  23.151142018629866  -7.338405556824867  24.733569633174138  0.000000
0.4289999999999998  0.000000  0.000000  0.000000  -27.499100369894684  0.4144951268521413  -3.8706137953614177  56.26906967030002  10.143049007364725  -4.244318496397568  43.67629636379205  25.1122786746037  -10.960235317234568  24.795728385107513  0.000000
0.46799999999999986  0.000000  0.000000  0.000000  -27.393518833344668  0.5212414414307106  -3.2780250005518483  56.673911985883  10.294461843714478  -4.251785926289768  45.36182042605021  27.21376135753256  -14.446833831630832  24.896896134389173  0.000000
0.5069999999999998  0.000000  0.000000  0.000000  -27.18437062354805  0.6631221599312469  -2.518372098391375  57.079045724453316  10.416378911512103  -4.321653196684673  46.741559606129  29.390891599488487  -17.727776305262  25.020701702336932  0.000000
0.5459999999999998  0.000000  0.000000  0.000000  -26.883358151544865  0.839539254438239  -1.589543533241601  57.47315153010321  10.50678976731422  -4.4568847776864144  47.85267497680186  31.589485928765203  -20.80533937494249  25.143937312553135  0.000000
0.5849999999999997  0.000000  0.000000  0.000000  -26.520922093564106  1.0518388856604695  -0.4913419227124039  57.843815474746556  10.560851256486972  -4.658311268547112  48.76963757455249  33.77045513558206  -23.73277868088908  25.24555006825562  0.000000
0.6239999999999998  0.000000  0.000000  0.000000  -26.13864708739282  1.3018945716248995  0.771453055848538  58.178019898623674  10.572327182955068  -4.922862148533657  49.57740536487376  35.91021348517976  -26.584989252432663  25.311562404204825  0.000000
0.6629999999999998  0.000000  0.000000  0.000000  -25.776257481824317  1.5902177551463865  2.1877353856074664  58.46677016532062  10.536766292086313  -5.242212680580092  50.344645296891656  37.997112544622986  -29.423107235040597  25.334552664030852  0.000000
0.7019999999999997  0.000000  0.000000  0.000000  -25.459421462846382  1.9154491492503856  3.741860885835344  58.70905754089609  10.453976310802707  -5.601367071657886  51.1043938664912  40.0243856422144  -32.26026744321664  25.311261530146975  0.000000
0.7409999999999998  0.000000  0.000000  0.000000  -25.194188364616753  2.2745103908801316  5.415559815858523  58.91283008516255  10.328622986692583  -5.978986598036927  51.84807453251517  41.9834665347917  -35.04852908633767  25.24168416488813  0.000000
0.7799999999999997  0.000000  0.000000  0.000000  -24.972113252628873  2.6629528003193292  7.187782575240539  59.091778423384774  10.168521916269928  -6.348708802432151  52.53638920367804  43.860436719662886  -37.694048998036926  25.12967890302922  0.000000
0.8189999999999997  0.000000  0.000000  0.000000  -24.781326605212488  3.075754188870191  9.031144107093528  59.259873984489836  9.981950287772392  -6.680958054270193  53.11819091479096  45.63729863049335  -40.09238824546857  24.985778726758404  0.000000
0.8579999999999997  0.000000  0.000000  0.000000  -24.617466506748553  3.5084576155345855  10.908197086839486  59.42744825017787  9.776256928912613  -6.944868214499749  53.54836151575092  47.29625236891023  -42.162537196638034  24.828134361056765  0.000000
0.8969999999999997  0.000000  0.000000  0.000000  -24.487155606963054  3.958190728571766  12.770944550305643  59.60051576565208  9.558476985704662  -7.110486948810838  53.79594106936529  48.824271281278584  -43.862843188701866  24.680262069740557  0.000000
0.9359999999999997  0.000000  0.000000  0.000000  -24.405389457346484  4.423613321875483  14.565662926691989  59.7827242650603  9.337876911061523  -7.151863389567205  53.846989770447664  50.21603239485155  -45.19022036189595  24.564033050672933  0.000000
0.9749999999999996  0.000000  0.000000  0.000000  -24.38920101899342  4.904278704667845  16.240615249274807  59.9772840482437  9.127568171819249  -7.050096705772354  53.7036932786408  51.47558872383397  -46.17103310089129  24.491759417675713  0.000000
1.0139999999999996  0.000000  0.000000  0.000000  -24.451228382404675  5.3985649296214255  17.75492293052675  60.18601595129885  8.945668640354686  -6.797541058784823  53.38566845871353  52.61457189184793  -46.85385066285159  24.462148213560205  0.000000
1.0529999999999997  0.000000  0.000000  0.000000  -24.596528595585045  5.902281241627117  19.084475340738045  60.40617511359027  8.813569435812964  -6.400351930839417  52.930336348944735  53.64856001755014  -47.3033978045596  24.46305394105746  0.000000
1.0919999999999996  0.000000  0.000000  0.000000  -24.82292424860447  6.409894927716733  20.223085242185107  60.62999677513277  8.750801004515681  -5.876525770991497  52.38516313198205  54.59213325377818  -47.590240192211965  24.477323591023524  0.000000
1.1309999999999996  0.000000  0.000000  0.000000  -25.12361033851882  6.91671721608176  21.180050482385283  60.84664290658538  8.77011942301765  -5.2508591443653385  51.7976718556389  55.455519615366995  -47.77939565318634  24.488071559896433  0.000000
1.1699999999999995  0.000000  0.000000  0.000000  -25.49036173217739  7.4203086761866  21.974767437576848  61.04708217240223  8.873279927148477  -4.547824866466133  51.20497454010585  56.245139541739334  -47.918956142565186  24.481378131597484  0.000000
1.2089999999999996  0.000000  0.000000  0.000000  -25.91420480834229  7.919826279535072  22.631671791398706  61.22745056713948  9.052078175034838  -3.787218095436832  50.629742303027264  56.96585420661233  -48.03242167210824  24.44564079430882  0.000000
1.2479999999999996  0.000000  0.000000  0.000000  -26.383287059941473  8.413794049772877  23.17702033845505  61.38873165295459  9.293318083589028  -2.984734936160297  50.08111928319542  57.62248069848076  -48.11599782317595  24.369618982737926  0.000000
1.2869999999999995  0.000000  0.000000  0.000000  -26.882103111196926  8.89873298215928  23.636529587357604  61.53482376450179  9.58243559503637  -2.1540493316217173  49.55770705413263  58.22064442550931  -48.14360120974384  24.242116693727763  0.000000
1.3259999999999996  0.000000  0.000000  0.000000  -27.393074719193553  9.368643325452018  24.032840912384877  61.670001463936536  9.905055096280124  -1.309742493231979  49.05292266694049  58.7666636346778  -48.083222432427256  24.055827335310042  0.000000
1.3649999999999995  0.000000  0.000000  0.000000  -27.899289445297732  9.815101734484102  24.382783854631594  61.79752682319702  10.246837940244829  -0.46952263015844103  48.560630896849794  59.266965979230996  -47.91756475251126  23.813488493787236  0.000000
1.4039999999999995  0.000000  0.000000  0.000000  -28.38619207672085  10.228275225501969  24.695911424365207  61.9189179905713  10.593186766196066  0.3449411112148203  48.07984683058879  59.726433691872856  -47.65871087445029  23.53174172659898  0.000000
1.4429999999999994  0.000000  0.000000  0.000000  -28.84160872081168  10.597917147452632  24.97506509970452  62.03426455859142  10.929746284580645  1.1091281890357358  47.6172510398764  60.14704139831393  -47.34665308117225  23.237804705817606  0.000000
1.4819999999999995  0.000000  0.000000  0.000000  -29.254436858824167  10.91497754855556  25.21816024649783  62.142716469263995  11.244039407771556  1.7994421527033297  47.186690241224554  60.52683057536188  -47.03344796260449  22.95909491403373  0.000000
1.5209999999999995  0.000000  0.000000  0.000000  -29.613505145817214  11.173628171378514  25.421407125767125  62.24286042963734  11.526492476549631  2.3972668298730246  46.806990859460896  60.859990857952376  -46.76365551373879  22.711778284669627  0.000000
1.5599999999999994  0.000000  0.000000  0.000000  -29.90785330237192  11.371795956763  25.581796520189624  62.33311123148835  11.770129440113486  2.8905967744098464  46.498637796041486  61.137736401024036  -46.56228130852531  22.496373073191577  0.000000
1.5989999999999995  0.000000  0.000000  0.000000  -30.128625538003746  11.510775547231207  25.697300926218755  62.41136979512542  11.969775925808834  3.272782238169664  46.28052995734852  61.349501148937215  -46.43351272292658  22.3036297810043  0.000000
1.6379999999999995  0.000000  0.000000  0.000000  -30.271966406446115  11.594571874032797  25.76561262034144  62.47404213954  12.121003238995355  3.539710074203472  46.16631966063011  61.48365186816732  -46.36511197558837  22.126252559706373  0.000000
1.6769999999999994  0.000000  0.000000  0.000000  -30.34097565466243  11.628811157000765  25.783122228308372  62.51536139949681  12.219794143633667  3.687036692997245  46.16118242747247  61.52813665049635  -46.33295278549502  21.968034362634224  0.000000
1.7159999999999993  0.000000  0.000000  0.000000  -30.344805770263363  11.619049709032392  25.745289486618557  62.527458796188576  12.263221687181398  3.709473827881817  46.260813328974116  61.470928313607004  -46.304979970566315  21.844336476769474  0.000000
1.7549999999999994  0.000000  0.000000  0.000000  -30.295045130759185  11.568608509578253  25.6477818127906  62.5040679236645  12.250084539535528  3.602151342834935  46.45139447379041  61.30223148020765  -46.24464595237045  21.774700438954316  0.000000
1.7939999999999994  0.000000  0.000000  0.000000  -30.201873238178884  11.477626194266232  25.488119432032097  62.44380262373058  12.181024174303742  3.36290290189028  46.71138882363699  61.01570425412522  -46.115485112606024  21.773214563561893  0.000000
1.8329999999999993  0.000000  0.000000  0.000000  -30.071045169555873  11.342923260769078  25.26680899388034  62.348673076525216  12.058862971820476  2.9930176423019716  47.016803008855995  60.607584261687876  -45.88853269703505  21.84232662579713  0.000000
1.8719999999999994  0.000000  0.000000  0.000000  -29.903062592897673  11.159399656165407  24.98729252257116  62.22096641673665  11.888285718719033  2.4973273956512787  47.348706054480566  60.07529131725761  -45.55231019049342  21.973020514096312  0.000000
1.9109999999999994  0.000000  0.000000  0.000000  -29.694947384624292  10.922640651576714  24.65460286384083  62.06445327162456  11.674251731195394  1.884974602017512  47.699160431396145  59.418670335561565  -45.12212100989371  22.149434269076075  0.000000
1.9499999999999993  0.000000  0.000000  0.000000  -29.442546336015557  10.62992203591099  24.273705492869293  61.88656162119544  11.420426333756376  1.1697960035311534  48.071496698213444  58.64160193480321  -44.640598374614335  22.35323401424011  0.000000
1.9889999999999992  0.000000  0.000000  0.000000  -29.1430059666394  10.280988549687171  23.84892060930484  61.69567982671311  11.12918877699783  0.36880506237353744  48.47634169849265  57.7519447696199  -44.163741212496475  22.566097808587426  0.000000
2.027999999999999  0.000000  0.000000  0.000000  -28.79697919537897  9.878086345581847  23.383093067611494  61.49745559648283  10.802797014890603  -0.5004383857936677  48.922551111193194  56.76113520461455  -43.7338386025984  22.771164964343242  0.000000
2.0669999999999993  0.000000  0.000000  0.000000  -28.409376191404586  9.426079688471123  22.8763708526862  61.2928274791012  10.445210434604853  -1.4204732981762505  49.4077233873651  55.683538558923175  -43.354745441331204  22.95397925422672  0.000000
2.1059999999999994  0.000000  0.000000  0.000000  -27.987997528140106  8.932356112399969  22.32643308560903  61.07799036528076  10.063521510822978  -2.373899618886353  49.91497563851084  54.53488260643401  -42.9876230738456  23.10312776956966  0.000000
2.144999999999999  0.000000  0.000000  0.000000  -27.542039826277616  8.404442951620506  21.72845908349606  60.848118221812605  9.667739920784356  -3.343397482128008  50.4167725597913  53.33176329856599  -42.5712134458157  23.211592230060713  0.000000
2.1839999999999993  0.000000  0.000000  0.000000  -27.083243473191896  7.848208126531845  21.07360576884155  60.60168786646461  9.269188980340779  -4.310371659676422  50.88293219690541  52.09168913881667  -42.05252939925047  23.27959615388357  0.000000
2.2229999999999994  0.000000  0.000000  0.000000  -26.629225743565595  7.26823620907372  20.347446235099426  60.343781120970576  8.877881443446205  -5.25240842259771  51.28580379468226  50.83312454979809  -41.40516470544096  23.31679765978862  0.000000
2.261999999999999  0.000000  0.000000  0.000000  -26.204812988211028  6.669100719946887  19.529460162093347  60.085708419609425  8.50066220837632  -6.140575268633647  51.59931543132868  49.573493780134726  -40.624212867070774  23.34075841328664  0.000000
2.3009999999999993  0.000000  0.000000  0.000000  -25.83797831313248  6.057576491298297  18.594915230597522  59.840712059642996  8.142274808723041  -6.938985297201862  51.79340543770393  48.3242391061281  -39.70301804526114  23.371921005760242  0.000000
2.339999999999999  0.000000  0.000000  0.000000  -25.55132148227098  5.4437703770910035  17.520806039660766  59.6169494839511  7.809199810434648  -7.609954808899365  51.83176135863493  47.08455021478011  -38.611903630660194  23.42946398238084  0.000000
2.378999999999999  0.000000  0.000000  0.000000  -25.355150077477305  4.839127147600613  16.29320263987726  59.412594027842175  7.5127290347490625  -8.123428786464613  51.67740921211469  45.84005724483837  -37.296841508549925  23.530757409666204  0.000000
2.4179999999999993  0.000000  0.000000  0.000000  -25.246988301355728  4.25397867169505  14.911339887283638  59.21638292509474  7.267478756549692  -8.463383823722323  51.29956437626096  44.568471557368845  -35.69599371841638  23.692200701227915  0.000000
2.456999999999999  0.000000  0.000000  0.000000  -25.216378195652428  3.6961493378321917  13.3873476039607  59.013374017663594  7.086613344325601  -8.629748649132308  50.67556534782108  43.24967747640001  -33.76093041059923  23.928582631164264  0.000000
2.495999999999999  0.000000  0.000000  0.000000  -25.251198859877462  3.1704351724176183  11.743759378073719  58.79076400383881  6.977839881793748  -8.63529847364945  49.790269234737025  41.872674412750065  -31.471126062219504  24.25071960736369  0.000000
2.5349999999999993  0.000000  0.000000  0.000000  -25.341270498161155  2.678963148249881  10.009943155712504  58.54159093800723  6.941637105768339  -8.50070312669023  48.63561823140168  40.43817789826929  -28.83855168083513  24.66155536769222  0.000000
2.573999999999999  0.000000  0.000000  0.000000  -25.478751998814204  2.2217621115086  8.219290954580456  58.26518584945356  6.972097522924846  -8.249795068577138  47.21367884978364  38.95606731164207  -25.906259871815205  25.151296279882374  0.000000
2.612999999999999  0.000000  0.000000  0.000000  -25.65681425949973  1.797838794697149  6.406717577653328  57.966257080291086  7.058797051589977  -7.907136894653118  45.541077555959326  37.44101994905854  -22.744759216027585  25.693707641722508  0.000000
2.6519999999999992  0.000000  0.000000  0.000000  -25.869336457480838  1.405868765867443  4.607186461527383  57.65180919684414  7.1891073517855215  -7.497465152680817  43.65330996177322  35.90702459445777  -19.445557961896505  26.24796202587793  0.000000
2.690999999999999  0.000000  0.000000  0.000000  -26.111296583679746  1.0452045414875613  2.8548300566600897  57.32715740222021  7.35093785455766  -7.046806262120505  41.605747452524575  34.36270921021862  -16.11052822333263  26.76701726495193  0.000000
2.729999999999999  0.000000  0.000000  0.000000  -26.378863931315728  0.7171315519294705  1.1829393788845204  56.992346502787264  7.5347321787534725  -6.583452318046703  39.470134843056215  32.808811641919235  -12.838185990819847  27.20830137332151  0.000000
2.768999999999999  0.000000  0.000000  0.000000  -26.66877524432023  0.4251732473947879  -0.37610858081821746  56.64156415202224  7.734150872562951  -6.138086853296147  37.32774227786734  31.238974216608533  -9.713064396020826  27.541442214323776  0.000000
2.807999999999999  0.000000  0.000000  0.000000  -26.97669102637896  0.1742681766962783  -1.7914843632168256  56.265254914304904  7.944711031580211  -5.741768146271174  35.26071182532666  29.642972737477653  -6.800890149883112  27.750585348681597  0.000000
2.846999999999999  0.000000  0.000000  0.000000  -27.296432174092015  -0.030974451161229027  -3.035203344836756  55.85489092618205  8.161425471482405  -5.422668665037872  33.34388703661334  28.011249644159566  -4.1502851243316545  27.832524446333466  0.000000
2.885999999999999  0.000000  0.000000  0.000000  -27.61828455885498  -0.18814825737545426  -4.083721668303788  55.40726982989046  8.37666588789603  -5.202703508244992  31.633902293488312  26.339245696296043  -1.790900157225544  27.793685323891467  0.000000
2.924999999999999  0.000000  0.000000  0.000000  -27.928349532425752  -0.2980189073310137  -4.9188676386062475  54.92737550100795  8.579571588827713  -5.095637483147891  30.15593647193832  24.62962515148609  0.2734030773129744  27.649697411769306  0.000000
2.963999999999999  0.000000  0.000000  0.000000  -28.212313347728124  -0.36415543680756113  -5.529977417240313  54.42959740870164  8.756155480824438  -5.106040700911155  28.893418242676255  22.894870926049794  2.0694634590517644  27.42652726313972  0.000000
3.002999999999999  0.000000  0.000000  0.000000  -28.458038333474885  -0.3936312990061957  -5.915894709935203  53.937359246899085  8.891811686277707  -5.2287940527156325  27.785419020789504  21.156999210676226  3.653558789455974  27.158571648544306  0.000000
3.041999999999999  0.000000  0.000000  0.000000  -28.657847928330526  -0.3974435834937223  -6.0868698167138  53.48043724945629  8.97381996872312  -5.449054637881834  26.740295591707554  19.446201398933667  5.096669066877374  26.880866621182516  0.000000
3.080999999999999  0.000000  0.000000  0.000000  -28.811838310159402  -0.3874293331923575  -6.0639261382982275  53.09010852237766  8.99225256321188  -5.743773150830055  25.672337983324777  17.797201876852178  6.45019538820387  26.61879017454868  0.000000
3.1199999999999988  0.000000  0.000000  0.000000  -28.9281196057796  -0.3720250262053307  -5.874685542355081  52.790268028162274  8.94046384175157  -6.085946391684438  24.54736120349918  16.243494271664687  7.708263741979923  26.382741261629214  0.000000
3.158999999999999  0.000000  0.000000  0.000000  -29.021616216123995  -0.3530444587109084  -5.550337613477635  52.590094535953696  8.817737862076712  -6.449207505644355  23.418760079126354  14.812011404650324  8.779549308265041  26.172249992713216  0.000000
3.197999999999999  0.000000  0.000000  0.000000  -29.109559259001657  -0.32656741972003606  -5.123962044547667  52.4816933492872  8.6322525470555  -6.811203813905242  22.423392078171492  13.520273165089499  9.498638334370533  25.985554492144757  0.000000
3.2369999999999988  0.000000  0.000000  0.000000  -29.20366373308164  -0.28763719107641694  -4.629407422501683  52.44615376184259  8.401559739067196  -7.155691743059027  21.73186283905308  12.377349079189575  9.680316246802777  25.825983025306883  0.000000
3.275999999999999  0.000000  0.000000  0.000000  -29.30464869961238  -0.23479378776637957  -4.1008173890318895  52.463345244760944  8.149049385018635  -7.470434298411363  21.475953013054156  11.387526803655332  9.193088011907308  25.701524598928135  0.000000
3.3149999999999986  0.000000  0.000000  0.000000  -29.40328500646549  -0.1718640986620282  -3.5715232165047994  52.518975570396904  7.898513918572584  -7.744760342501849  21.70391981738313  10.55368569981517  8.003132186401217  25.620257235993844  0.000000
3.3539999999999988  0.000000  0.000000  0.000000  -29.487735867243913  -0.10674946818791192  -3.0723934903379884  52.606066380130095  7.669397787890792  -7.968260642700685  22.377542343578604  9.878362949585613  6.1741298320383935  25.587027249010067  0.000000
3.392999999999999  0.000000  0.000000  0.000000  -29.55166501938395  -0.047917720046373576  -2.630853071714085  52.721759822453755  7.475649797931378  -8.131225754944538  23.409662128589087  9.362359538878994  3.8283303098642127  25.60355425692359  0.000000
3.4319999999999986  0.000000  0.000000  0.000000  -29.598170844439597  0.0005242296848288883  -2.2687048490599597  52.862801862032995  7.325117485095742  -8.225205317427191  24.698476554371894  9.002362657465676  1.1123961286163657  25.67330578893657  0.000000
3.4709999999999988  0.000000  0.000000  0.000000  -29.63799199245771  0.03995083240612402  -1.9984946551012184  53.023456329869866  7.219786489561347  -8.24640309083458  26.150634614254702  8.789483881518732  -1.8238375726971987  25.799760782001748  0.000000
3.509999999999999  0.000000  0.000000  0.000000  -29.68033073752664  0.07382052870965791  -1.8242055391714131  53.19552852508355  7.160194440352613  -8.197739482803904  27.680345992455052  8.708922620132864  -4.824674295181323  25.980169394607536  0.000000
3.5489999999999986  0.000000  0.000000  0.000000  -29.72539640352449  0.10638248675995549  -1.7413542576622207  53.37210977119393  7.146628316513554  -8.08566998261272  29.183501420328017  8.739238226941106  -7.702803437837312  26.203948343604154  0.000000
3.5879999999999987  0.000000  0.000000  0.000000  -29.76308521739385  0.1417309736968239  -1.735066795793989  53.550156017386385  7.177067691697653  -7.92021357028485  30.54854953003478  8.853018265422056  -10.261364157512576  26.45310678509461  0.000000
3.626999999999999  0.000000  0.000000  0.000000  -29.779376314718327  0.18142150667509813  -1.7818672686081063  53.73116089578045  7.247739009904552  -7.714714060625378  31.678882019235825  9.018342692055228  -12.332919019607331  26.705337282713675  0.000000
3.6659999999999986  0.000000  0.000000  0.000000  -29.76785146487593  0.22333390602988432  -1.8544244555443508  53.9172430547776  7.352744538288773  -7.488048831721297  32.545835721289684  9.202587252456233  -13.856542226309266  26.94165704393697  0.000000
3.7049999999999987  0.000000  0.000000  0.000000  -29.738526017182814  0.25980868379114386  -1.9281855272164656  54.10898446116455  7.484562901765264  -7.262849318221241  33.19048749334997  9.375458928540494  -14.885845328162754  27.150424038968083  0.000000
3.743999999999999  0.000000  0.000000  0.000000  -29.712186211276634  0.27930353576033007  -1.9880339201929784  54.30225688120943  7.633048610763858  -7.063362700716457  33.70895828013848  9.508093413988078  -15.570074253630363  27.32856519649372  0.000000
3.7829999999999986  0.000000  0.000000  0.000000  -29.719886428633778  0.2671628707038763  -2.0325041453295167  54.48716228038541  7.783423232368958  -6.910801081635376  34.20202427357504  9.573613296747475  -16.08092839861074  27.478567326916796  0.000000
3.8219999999999987  0.000000  0.000000  0.000000  -29.776868977235004  0.20842309099311165  -2.078031428906907  54.64544224806844  7.917167346994937  -6.821893352344805  34.72790936143322  9.540795459842847  -16.54472244410514  27.59974436680183  0.000000
3.8609999999999984  0.000000  0.000000  0.000000  -29.89856302940334  0.09068254568699577  -2.15916960448037  54.74875467020253  8.010739381824713  -6.799995463808322  35.28065850802403  9.381876709302338  -17.006447213845778  27.687801188220256  0.000000
3.8999999999999986  0.000000  0.000000  0.000000  -30.070740019172185  -0.08592360540074744  -2.318342156005841  54.77234761102657  8.041982581153896  -6.837908358216644  35.73220887288529  9.071456594692746  -17.355105091051993  27.734728107498675  0.000000
