Simulation
nRows=101
nColumns=15
endheader
time  TH_x TH_y TH_z SC_y  SC_z  SC_x  AC_y  AC_z  AC_x  GH_y  GH_z  GH_yy  EL_x  PS_y
0.0  0.000000  0.000000  0.000000  -28.882621156423628  0.1818288645763585  -3.3410205359330534  55.27266178725342  8.659908606512268  -5.562393132323866  33.36323196805452  16.18642213500259  7.606153200710618  27.15962200044732  0.000000
0.038999999999999986  0.000000  0.000000  0.000000  -28.40438848305585  0.4114861092856542  -3.3709083327778337  54.93250142895413  8.577666225216996  -5.572951223662919  33.42026090326298  16.58856793217294  7.3248393396240825  26.737243962745747  0.000000
0.07799999999999997  0.000000  0.000000  0.000000  -27.99243285678016  0.5706133416231239  -3.499105090676767  54.56797764727891  8.467917892292046  -5.593652761836718  33.42647825406976  16.90959550633367  7.110499529855941  26.310143076815226  0.000000
0.11699999999999997  0.000000  0.000000  0.000000  -27.617951620786815  0.6464515784980538  -3.697790279852496  54.261123405111064  8.383041905804854  -5.606679991426399  33.473683770631474  17.206961631440453  6.861353084740409  25.901958624203147  0.000000
0.15599999999999994  0.000000  0.000000  0.000000  -27.324254878595045  0.6463000764421811  -3.9562658183503863  54.013279361581525  8.358039246633906  -5.591587193026241  33.75091450261981  17.56447720615843  6.315935047636622  25.53291656364071  0.000000
0.19499999999999992  0.000000  0.000000  0.000000  -27.106221916872368  0.5884115448000127  -4.211596650496046  53.90020790297513  8.405326283819457  -5.544194065980237  34.36409420464278  18.0558820390697  5.3276751888607095  25.222360532017287  0.000000
0.23399999999999993  0.000000  0.000000  0.000000  -26.986104904744607  0.5027552978016678  -4.423691066390016  53.88791833776988  8.51631908761112  -5.466424848789825  35.41563020185106  18.7441195102459  3.7293278587481975  24.98233053741431  0.000000
0.2729999999999999  0.000000  0.000000  0.000000  -26.94034718365772  0.4173463242220582  -4.538505796701126  54.01658349272087  8.68206343056545  -5.372288245262969  36.90432790254603  19.67203292643211  1.4905692375823492  24.81543733017523  0.000000
0.3119999999999999  0.000000  0.000000  0.000000  -26.96276140221608  0.3561699185406261  -4.528905701477792  54.222316176764856  8.874507786262743  -5.276036291416754  38.7500743443408  20.864539221654553  -1.3429287894788715  24.71840221847821  0.000000
0.35099999999999987  0.000000  0.000000  0.000000  -26.99655511637242  0.3341141378507081  -4.364039910375101  54.53121025125457  9.080512685037586  -5.196260570592914  40.79512773472541  22.318812936591776  -4.616019040354847  24.68093563312713  0.000000
0.38999999999999985  0.000000  0.000000  0.000000  -27.01815074269618  0.35982179637100936  -4.035892564226336  54.873858672032554  9.273640620052568  -5.143862433068127  42.85403168057866  24.013147523506483  -8.131786121089968  24.700441475748633  0.000000
0.4289999999999998  0.000000  0.000000  0.000000  -26.9648571391163  0.436939318624711  -3.530748278126726  55.27751415576563  9.449491353141145  -5.133652285194521  44.77235750578555  25.90051261101977  -11.705612529959726  24.768803119921763  0.000000
0.46799999999999986  0.000000  0.000000  0.000000  -26.832839445947286  0.5628528739634149  -2.8512797425036798  55.675629445092184  9.59306452601923  -5.171355843343379  46.447193641409676  27.92750857130071  -15.189924772321623  24.875028958243103  0.000000
0.5069999999999998  0.000000  0.000000  0.000000  -26.59029982162669  0.7366953964514589  -1.9951469599698703  56.100241568554644  9.70996623084924  -5.266404911936686  47.84763739787357  30.034300960283012  -18.515392544608275  24.999678738474266  0.000000
0.5459999999999998  0.000000  0.000000  0.000000  -26.272428603418902  0.9573002539117563  -0.9698183436517774  56.484434401362556  9.786460448971775  -5.416134439568361  48.99559593051412  32.17199164732825  -21.66052145807969  25.122992167746148  0.000000
0.5849999999999997  0.000000  0.000000  0.000000  -25.88893333967852  1.2239779481368502  0.21934590774733642  56.86656243674151  9.828109976194655  -5.6233019965954  49.94773215976779  34.30177865291909  -24.66171399008344  25.225053245803277  0.000000
0.6239999999999998  0.000000  0.000000  0.000000  -25.498182101914303  1.5362264664046155  1.558358135083361  57.18159343118994  9.818673122858275  -5.876175003113406  50.77071536954049  36.40046853683462  -27.56534318144738  25.293405296949345  0.000000
0.6629999999999998  0.000000  0.000000  0.000000  -25.120438902320206  1.8890624496994306  3.0308225805911895  57.479595698442445  9.767560578636765  -6.1695858048661645  51.51803586367677  38.455108807610046  -30.415610062242436  25.31777852099792  0.000000
0.7019999999999997  0.000000  0.000000  0.000000  -24.799721392817087  2.2804690286699048  4.616915362922447  57.711105749392964  9.666153099832039  -6.477692337715066  52.21563601496682  40.45401120820823  -33.21176293503773  25.296777479074184  0.000000
0.7409999999999998  0.000000  0.000000  0.000000  -24.52482102308845  2.704905778370488  6.292786761121354  57.935996786800715  9.531545069546688  -6.786477004971815  52.861158534373224  42.389150483441036  -35.918009338619214  25.229607275353768  0.000000
0.7799999999999997  0.000000  0.000000  0.000000  -24.314635851028665  3.159490746136161  8.038512038953687  58.122555235022084  9.365011762648912  -7.056577257099964  53.42214838272434  44.23834579609042  -38.44882107379962  25.121149907536864  0.000000
0.8189999999999997  0.000000  0.000000  0.000000  -24.138144101109177  3.6387935397527595  9.82026224756292  58.32699309801482  9.18578727233446  -7.272261093073725  53.866852327849884  45.990576687629506  -40.729504089339216  24.982687401978225  0.000000
0.8579999999999997  0.000000  0.000000  0.000000  -24.015715242584566  4.142084988613701  11.612175181630546  58.51677433954604  8.994058592831605  -7.39001371118226  54.15576970774393  47.61748384793643  -42.68487419057968  24.830410765436692  0.000000
0.8969999999999997  0.000000  0.000000  0.000000  -23.928676005154017  4.661498027125231  13.359179645719962  58.737337552094296  8.808780306953048  -7.400741328970101  54.27473652692419  49.1203874925299  -44.290926357993335  24.686770690068794  0.000000
0.9359999999999997  0.000000  0.000000  0.000000  -23.909306815835524  5.199710857975216  15.03265915321144  58.94901933947286  8.628902238859334  -7.270850506710243  54.21188046069575  50.48046631814163  -45.54304476885665  24.57118951100823  0.000000
0.9749999999999996  0.000000  0.000000  0.000000  -23.944494645594236  5.746556879804285  16.57161328394377  59.19175485089503  8.477965225043329  -7.006325688636113  53.97941785381682  51.71798979606839  -46.47256956820518  24.496234978298563  0.000000
1.0139999999999996  0.000000  0.000000  0.000000  -24.064236257161223  6.302213642785649  17.966847926123837  59.41820537560152  8.364788620827563  -6.59986329176347  53.60419534020578  52.82868470676607  -47.12999889807735  24.46316183928057  0.000000
1.0529999999999997  0.000000  0.000000  0.000000  -24.24805266800464  6.856367783753267  19.17797440422574  59.6704735702297  8.30908208305754  -6.071173163976638  53.11071857223861  53.84287829174596  -47.56884926794975  24.460237169637164  0.000000
1.0919999999999996  0.000000  0.000000  0.000000  -24.514151219357757  7.406175279467814  20.22556568522352  59.88873436057518  8.324602254501132  -5.439515223169111  52.55302762188164  54.76171145774218  -47.86057481465062  24.47295863067862  0.000000
1.1309999999999996  0.000000  0.000000  0.000000  -24.835450740349696  7.943656990544987  21.098237414012395  60.11804862339053  8.418275151087181  -4.730808125888844  51.95482188736918  55.60814846490957  -48.052306299388725  24.482526756371872  0.000000
1.1699999999999995  0.000000  0.000000  0.000000  -25.226914315593348  8.47268419702292  21.833150896070332  60.30210327304639  8.581961650980364  -3.9621780731233205  51.35343100591413  56.38307197764953  -48.1891526338722  24.474821164900305  0.000000
1.2089999999999996  0.000000  0.000000  0.000000  -25.65814272158057  8.986822043379858  22.432785012776023  60.49063883482215  8.81312601604189  -3.1544699985364755  50.76249413732208  57.10022033745517  -48.28855758887213  24.43732586467625  0.000000
1.2479999999999996  0.000000  0.000000  0.000000  -26.14029033166349  9.49288788137364  22.938361160919285  60.63500149253362  9.091687049045257  -2.3156248074452077  50.19446945693352  57.75825986410091  -48.34714639185401  24.35852596188867  0.000000
1.2869999999999995  0.000000  0.000000  0.000000  -26.635782205099094  9.980123793174258  23.355607010694033  60.78824593681698  9.414384227887089  -1.4630679147817438  49.649377972511246  58.36664147021615  -48.34919191780072  24.229183062855096  0.000000
1.3259999999999996  0.000000  0.000000  0.000000  -27.15257412687593  10.453232758902553  23.721644744887012  60.903733379231724  9.760062751513008  -0.6039488989370934  49.12601609501978  58.92360467056735  -48.26747716986215  24.04380233561342  0.000000
1.3649999999999995  0.000000  0.000000  0.000000  -27.656867590451025  10.89868720397545  24.029109092696004  61.03863934568438  10.124440803037631  0.24709215932987347  48.61710894139602  59.441215165901305  -48.09488856571371  23.807487381319138  0.000000
1.4039999999999995  0.000000  0.000000  0.000000  -28.157743981523815  11.319384683692702  24.305650991922978  61.14128776505296  10.482298258844004  1.0707553489617496  48.12560787175757  59.91976454252395  -47.841786884185424  23.533927478760276  0.000000
1.4429999999999994  0.000000  0.000000  0.000000  -28.608729709453232  11.683846009948875  24.549402969110464  61.25984667827498  10.842431766868103  1.8361454696869544  47.657465164345794  60.34679318072523  -47.544348173993036  23.243153928204507  0.000000
1.4819999999999995  0.000000  0.000000  0.000000  -29.019538373760614  11.994354209178148  24.78151550176754  61.33238185598714  11.177075696444007  2.5141966405283136  47.241242135190255  60.72015764479702  -47.25180974515774  22.96162318980516  0.000000
1.5209999999999995  0.000000  0.000000  0.000000  -29.375811359942745  12.260238272800205  24.943803326753898  61.430304206328096  11.471817746960985  3.1162308753522523  46.87028705198627  61.066478867280885  -46.99737225562639  22.713553443681448  0.000000
1.5599999999999994  0.000000  0.000000  0.000000  -29.693538886914183  12.487447682066222  25.05266819616562  61.499389893422176  11.718363110918432  3.6307783601943444  46.57261081611607  61.36830506172787  -46.804614409300015  22.495462343283357  0.000000
1.5989999999999995  0.000000  0.000000  0.000000  -29.90697834219343  12.633339316131464  25.127236492686375  61.57729326153421  11.941885769774085  4.0265678429849965  46.360190492180635  61.58025510166229  -46.67712289490538  22.295283621350166  0.000000
1.6379999999999995  0.000000  0.000000  0.000000  -30.04077290324767  12.71153667995913  25.19277163839286  61.60567606991106  12.115936742086742  4.290794069488117  46.25360860792392  61.690445775181146  -46.60439770803833  22.10828242868943  0.000000
1.6769999999999994  0.000000  0.000000  0.000000  -30.099714023149197  12.746270622663788  25.187670630506066  61.65379225487816  12.230636889789412  4.447005721773586  46.238090701374595  61.72624778270651  -46.562881542367876  21.951317747222046  0.000000
1.7159999999999993  0.000000  0.000000  0.000000  -30.11493192999712  12.750442522972605  25.12704763446035  61.65323266317304  12.27973242301739  4.487795385084687  46.326565063171  61.66674163955919  -46.52028649863636  21.83717005560673  0.000000
1.7549999999999994  0.000000  0.000000  0.000000  -30.05654818135794  12.697098199690558  25.0082787874536  61.64914223471698  12.287349840091204  4.398816479523823  46.50298814394749  61.486988584814156  -46.44405190531807  21.773526084242842  0.000000
1.7939999999999994  0.000000  0.000000  0.000000  -29.960505442919974  12.598550523114872  24.856295078382953  61.583566700543926  12.229781078025795  4.168220213431804  46.75061476015571  61.18077189844978  -46.29947922389683  21.774006500107173  0.000000
1.8329999999999993  0.000000  0.000000  0.000000  -29.821247985612562  12.451125963117182  24.63945181734087  61.5155504917208  12.117531064223387  3.8047773166825936  47.04582564123612  60.762669037096266  -46.06585245917298  21.841827120527526  0.000000
1.8719999999999994  0.000000  0.000000  0.000000  -29.66598250305692  12.264006596906368  24.381248118011108  61.392562002306946  11.942043371071486  3.3152589896518494  47.37640492253915  60.22051023029715  -45.73472571158234  21.971876465789453  0.000000
1.9109999999999994  0.000000  0.000000  0.000000  -29.457401785986278  12.01618547258518  24.06856313305096  61.26617923126974  11.722542019580105  2.701458730263084  47.734891418024  59.561485273942885  -45.322562249791694  22.14629604822549  0.000000
1.9499999999999993  0.000000  0.000000  0.000000  -29.217069200211412  11.718057741182472  23.726512726746016  61.09348413480295  11.453457492869875  1.9828229195874922  48.12132142695826  58.774914560428506  -44.86442200680678  22.348741656425513  0.000000
1.9889999999999992  0.000000  0.000000  0.000000  -28.91428374895136  11.361157534570696  23.32563917175748  60.92653505901619  11.148249756320357  1.1724259959995673  48.545854842960516  57.88969184672942  -44.40879351387926  22.561420197333334  0.000000
2.027999999999999  0.000000  0.000000  0.000000  -28.573453284696953  10.957274461492876  22.887990312800603  60.72629625662552  10.801978251935274  0.29592782769731174  49.00710523701569  56.90059173686854  -43.983801289474265  22.768715363861816  0.000000
2.0669999999999993  0.000000  0.000000  0.000000  -28.172756202952485  10.498538868942209  22.393137605780346  60.53708254831191  10.433584356742438  -0.6355731741658909  49.51433401795144  55.83253928411204  -43.59960333165869  22.952665126067586  0.000000
2.1059999999999994  0.000000  0.000000  0.000000  -27.745345097193326  9.99682267924249  21.86053376451773  60.323522826803966  10.039241753450055  -1.5971275958420683  50.03406734962874  54.68703664649317  -43.216416061320395  23.101518664008964  0.000000
2.144999999999999  0.000000  0.000000  0.000000  -27.278112258646754  9.44873254321921  21.270097179209774  60.12553041308865  9.63896305899354  -2.5762861717975793  50.552744478077514  53.48691380352127  -42.78771580019742  23.19980995564037  0.000000
2.1839999999999993  0.000000  0.000000  0.000000  -26.81444119465024  8.86350865521348  20.638477737303138  59.90703672617492  9.21950213697218  -3.5607555076033544  51.01826152356505  52.24525170427607  -42.26072089574132  23.252195284852995  0.000000
2.2229999999999994  0.000000  0.000000  0.000000  -26.366453918239607  8.243716526867924  19.920805791087542  59.702954730512445  8.797600613535742  -4.531071342808671  51.41310500930809  50.998273402023884  -41.60646265695389  23.26008510782739  0.000000
2.261999999999999  0.000000  0.000000  0.000000  -25.940540805283174  7.607125762364611  19.12512187394114  59.38155623482395  8.376751133607915  -5.539676041351829  51.77961212630535  49.79087195089495  -40.847683448250706  23.291681575058234  0.000000
2.3009999999999993  0.000000  0.000000  0.000000  -25.54042283531614  6.962175353474259  18.23613227546796  58.97701122870947  7.966948136824298  -6.564843147237415  52.156728479338796  48.64520922610639  -40.00684554250325  23.388712580718618  0.000000
2.339999999999999  0.000000  0.000000  0.000000  -25.288389865930135  6.363969353596144  17.213999028573944  58.69512127486158  7.554082095458711  -7.300343927872479  52.28834498834924  47.42973326873575  -38.93212501823879  23.493438722388635  0.000000
2.378999999999999  0.000000  0.000000  0.000000  -25.113871444137946  5.813389656659727  15.953008102367113  58.55878953893642  7.171846197558741  -7.695022770785825  52.072227705855454  46.179658158676126  -37.54906468447184  23.638330004848235  0.000000
2.4179999999999993  0.000000  0.000000  0.000000  -24.972441931671444  5.3113038369017005  14.447381373314476  58.44121892848733  6.896060875572134  -7.805733897269889  51.53756168108383  44.91367202639719  -35.84161202876199  23.836053675757512  0.000000
2.456999999999999  0.000000  0.000000  0.000000  -24.81099763823395  4.864701783348921  12.7618166172556  58.375837002726264  6.745935962216574  -7.645513717634334  50.63465359900781  43.557257061018795  -33.76396829972871  24.089808818535502  0.000000
2.495999999999999  0.000000  0.000000  0.000000  -24.604645563621748  4.459904999584552  10.95113810109099  58.193032082066836  6.6599316396151  -7.379947170761522  49.44341425610249  42.24878515255113  -31.381159344951115  24.3720703397619  0.000000
2.5349999999999993  0.000000  0.000000  0.000000  -24.345171706963136  4.08346979960142  9.155136849368898  57.94232126209533  6.634895089707798  -7.081671105746229  48.00273419488384  40.90562109912566  -28.718309265669294  24.667115643081175  0.000000
2.573999999999999  0.000000  0.000000  0.000000  -24.063357447950384  3.7151869051841984  7.474517092905866  57.38264800345654  6.506858987039618  -7.028661967268779  46.54143714654164  39.75249096573665  -26.002139282815136  24.97319809443808  0.000000
2.612999999999999  0.000000  0.000000  0.000000  -23.84293998378126  3.3301401584459045  6.091120204943103  56.53726955803408  6.252309324710397  -7.334376287098383  45.26164994763008  38.67001119198337  -23.388229124210472  25.295090651996826  0.000000
2.6519999999999992  0.000000  0.000000  0.000000  -23.67144176266396  2.8511733143559708  5.096177261665148  55.1629802087878  5.967141555791655  -8.383786079792342  44.63156248599004  37.71638621994653  -21.265193709202332  25.74531737279004  0.000000
2.690999999999999  0.000000  0.000000  0.000000  -23.522029211545505  2.1974271780342036  4.716016766749706  53.27401089381415  5.745308097500262  -10.385183983144481  45.15471095670549  36.72509105067395  -20.05247078911904  26.392989956036004  0.000000
2.729999999999999  0.000000  0.000000  0.000000  -23.746502235267748  1.3825647392884912  5.25384888905755  52.448511688838344  5.745635575291854  -12.649575925749554  45.79685174955522  34.88241468860645  -18.77091119713938  27.035741173938572  0.000000
2.768999999999999  0.000000  0.000000  0.000000  -24.701120907022517  0.17277821852703995  6.223271020745893  53.51276155671501  5.825631890486364  -14.851667983509277  46.37781461839315  32.70685770310228  -17.669390822587744  27.621329017472686  0.000000
2.807999999999999  0.000000  0.000000  0.000000  -26.519481991951828  -1.1101241490823117  7.247613604356482  54.43644206033945  5.3569134867497175  -14.812321554772021  46.483358519705575  29.48180745568165  -15.817171584996037  28.52554379455858  0.000000
2.846999999999999  0.000000  0.000000  0.000000  -28.494319009871717  -1.4165259722603607  6.873972529318995  55.81367761225958  4.713101730952059  -12.931306113471067  46.69701136213412  26.03973811832709  -14.411406142462292  29.508831596567028  0.000000
2.885999999999999  0.000000  0.000000  0.000000  -30.48252343387791  -0.5969864866464637  4.657853317101415  57.498090458312205  4.634031461041196  -9.656935619160594  47.33193023839412  22.095203166895885  -13.705443646024339  30.535769099593825  0.000000
2.924999999999999  0.000000  0.000000  0.000000  -32.67863005986726  0.5391361474791597  1.0563416211296084  59.16851209177436  4.786802752679898  -4.82782239050332  44.63291078211738  16.995353045222313  -10.115367244760472  31.0610709297102  0.000000
2.963999999999999  0.000000  0.000000  0.000000  -34.842876906751954  1.4036908227725984  -4.1220286916707725  60.754767460804125  6.3002133313678215  -0.050413353227069004  34.668894337885725  11.563601724527883  -0.1261926911983567  30.51556714423684  0.000000
3.002999999999999  0.000000  0.000000  0.000000  -36.54052582866548  1.9442240144770453  -9.98231655637821  61.75861006469792  9.351025384311486  4.756487927781175  -6.882833116733512  7.294226965101009  41.29573381643742  28.68861574991727  0.000000
3.041999999999999  0.000000  0.000000  0.000000  -36.8506972601901  1.6651918431637243  -15.895481696880852  61.43230799549905  12.613028646099034  7.541916187543811  -52.819164632985775  11.110400832236344  86.31279675005591  24.96372254987682  0.000000
3.080999999999999  0.000000  0.000000  0.000000  -35.9395496685492  0.6687804284167044  -21.05435235171838  59.23346824788709  15.742489747820924  9.084198697645743  -65.60667925247623  19.201039377167927  97.74032307981655  20.082435511517463  0.000000
3.1199999999999988  0.000000  0.000000  0.000000  -32.536785192146866  1.9946191330303802  -28.340045645814715  54.38002397458215  17.670571089918457  12.507373165767861  -64.92631333765523  26.81347595181457  94.83487884175287  13.884753595805181  0.000000
3.158999999999999  0.000000  0.000000  0.000000  -27.701887913345438  6.456768528389044  -37.033802419697786  44.296742722710526  20.85298881836618  18.109658885073213  -62.04448372504258  28.38549154774084  87.63933837648871  8.779301483959223  0.000000
3.197999999999999  0.000000  0.000000  0.000000  -30.5006679605914  13.673772990802872  -40.292883373281285  36.06847603983306  26.4998364716819  24.701357916506606  -59.25011965588236  24.22109711568477  75.45136839601778  3.8731781487192944  0.000000
3.2369999999999988  0.000000  0.000000  0.000000  -35.352076083217334  20.771401470400736  -38.58038577444459  40.543409392265836  27.115381307941895  31.36655339260476  -38.92689137298157  27.80280896074699  29.186536648716366  -4.4507133110905714  0.000000
3.275999999999999  0.000000  0.000000  0.000000  -22.06545667937037  19.522127303816685  -45.25180693914246  43.66926143770609  25.750261581671722  33.1132469369367  -38.36192528785608  44.71144344985498  -14.356645093068128  -11.897321236597165  0.000000
3.3149999999999986  0.000000  0.000000  0.000000  0.39201754983911624  -10.630972514238866  -62.52328498192976  31.722564469673568  35.72828502310649  31.250679046729914  -62.743176985423396  64.89713770125769  -9.005510021106439  -7.208974367196836  0.000000
3.3539999999999988  0.000000  0.000000  0.000000  -5.08636325908596  -52.480489108253735  -85.09228045558163  43.219468182414495  25.259478501277258  19.707115161580546  -87.62388159180179  94.63162882516917  29.67144820733329  -14.009473233669592  0.000000
3.392999999999999  0.000000  0.000000  0.000000  -4.085636226946614  -59.7036500900221  -83.28569251043827  63.092332942035135  4.133726272455387  23.000253192734696  -103.14872329495887  94.08109082656408  73.57888619554359  -29.916329753175916  0.000000
3.4319999999999986  0.000000  0.000000  0.000000  10.819054317540585  -52.724145265256276  -64.98860546987002  41.98916938172042  24.164541276663556  26.180765994998467  -94.47749581662991  127.23054020634154  141.11323674650555  -19.04431248721233  0.000000
3.4709999999999988  0.000000  0.000000  0.000000  0.1818566811110997  -14.934468107137212  -69.34624730367251  34.05757340527369  45.4624796878482  15.00105725593081  -53.99243588291751  66.39231917583587  176.35267230617598  -3.647743577995235  0.000000
3.509999999999999  0.000000  0.000000  0.000000  -22.512066617976757  10.757334111227847  -73.49385519985456  20.052505166924583  26.545727407160804  64.45002078609484  -33.490701054703585  66.27112101617055  157.6863892590943  -0.371559252259626  0.000000
3.5489999999999986  0.000000  0.000000  0.000000  -56.0364157901841  24.561181342866586  -34.89597130112985  54.27097643317346  2.747459930769277  104.8854464933713  -98.64916440841019  nan  154.3391505156736  -2.397059613796378  0.000000
3.5879999999999987  0.000000  0.000000  0.000000  -6.71327289940768  42.67474750297734  -54.88633953016824  45.06826479582563  8.110872574933774  83.55726285246632  176.70303928790076  113.34269754565497  135.84511819503857  -1.1269201486828386  0.000000
3.626999999999999  0.000000  0.000000  0.000000  29.267611650149693  32.145186731728785  -80.87619286975459  13.109898641113253  28.832837223554932  106.66699314563263  158.19821233736963  93.00222119194397  -176.3587846841496  -3.186412732066405  0.000000
3.6659999999999986  0.000000  0.000000  0.000000  -19.1890607658753  13.958776116526323  -48.30369936582922  37.48838936398256  47.73363832595535  31.899095442536275  87.08017214692357  92.26197630326321  -110.46535035929617  -1.4589648560306763  0.000000
3.7049999999999987  0.000000  0.000000  0.000000  -12.562409301486428  -49.30835773398938  -55.833082743185095  57.93684801309388  15.337937014046936  3.4395963326459738  66.10591715044342  160.60830682994637  -58.85404188717859  8.52384449801684  0.000000
3.743999999999999  0.000000  0.000000  0.000000  3.248307786098923  -44.2701171820567  -56.22752109672386  60.56958371791692  7.070922886486995  34.03174128882721  33.52526937073879  133.616140317366  -27.996805030331597  -1.0868202592394642  0.000000
3.7829999999999986  0.000000  0.000000  0.000000  -10.079112533698343  -18.461798048482358  -82.8169941398182  56.042641403829705  34.62501980623494  40.66429705560302  -15.00102861147896  124.752819986028  -29.027172448528063  -12.278249710142521  0.000000
3.8219999999999987  0.000000  0.000000  0.000000  -21.610511832790184  -7.638543752669844  -79.84398384604127  23.06448772448713  38.64880852880418  51.660205506418  -45.54537786180082  78.4070093012078  -12.241917216250231  -6.326170204758133  0.000000
3.8609999999999984  0.000000  0.000000  0.000000  -35.13520282199914  -4.810353450900411  -93.77019084905658  2.0107062025386795  49.32757576682187  69.87955697255092  -100.128926506513  63.55349367898947  41.197524146861355  -3.037104867200468  0.000000
3.8999999999999986  0.000000  0.000000  0.000000  -40.79947658181939  -4.750240119215699  -83.4756373069616  3.4990621590838247  44.17685976819639  67.15716869072791  -144.89206111670308  80.83768735479939  93.21710723500387  -6.422137900029622  0.000000
