Simulation
nRows=77
nColumns=15
endheader
time  TH_x TH_y TH_z SC_y  SC_z  SC_x  AC_y  AC_z  AC_x  GH_y  GH_z  GH_yy  EL_x  PS_y
0.0  0.000000  0.000000  0.000000  -24.647120317904466  -1.3815026821107093  -4.58095399280935  55.635289113501  10.831663342771284  0.25663662271703636  -50.23132171483145  6.5873466881461376  108.44116168540336  14.847956607226905  120.000000
0.04078947368421054  0.000000  0.000000  0.000000  -23.72635623261887  -0.8862939965344895  -4.444645588967777  55.256788181193016  10.83358372820953  0.40420252635854104  -40.068462014611946  7.157548568785868  97.42104182066275  14.615994195376265  120.000000
0.08157894736842108  0.000000  0.000000  0.000000  -22.94748669122808  -0.5618781039335597  -4.427244758208691  54.89039309470464  10.823831695358782  0.4972753188738512  -31.905992590823395  8.012178644488616  88.43203677248314  14.385342623615141  120.000000
0.12236842105263163  0.000000  0.000000  0.000000  -22.258769276941802  -0.3706582957320078  -4.522458514378453  54.51275960567035  10.849418939777548  0.5596855367262539  -26.0724213042996  9.091914708928654  81.82100162938404  14.370863348578306  120.000000
0.16315789473684217  0.000000  0.000000  0.000000  -21.6073779292676  -0.24751527633513815  -4.7498945726035045  54.0888939126652  10.951881853134536  0.6336325730503677  -22.339254973435587  10.287855106362027  77.29881950519771  14.702960550497382  120.000000
0.2039473684210527  0.000000  0.000000  0.000000  -20.951440273285243  -0.14483146668434008  -5.1294820238406045  53.60281457306341  11.183637103909787  0.7627333109605325  -20.388535377586248  11.524931766868368  74.50989227267596  15.495099916310426  120.000000
0.24473684210526325  0.000000  0.000000  0.000000  -20.301637345307075  -0.035777060181961605  -5.678482824619559  53.03701306146705  11.580506023290921  0.9817859934635386  -19.816783839437992  12.76196479479988  73.00329521541802  16.825546071807754  120.000000
0.2855263157894738  0.000000  0.000000  0.000000  -19.699467738382683  0.09969390460150328  -6.39999401846964  52.38866104235198  12.153886681921394  1.3134239596444914  -20.269845566593578  13.987748720774073  72.39047199082985  18.738594860794223  120.000000
0.32631578947368434  0.000000  0.000000  0.000000  -19.187691777186053  0.27873379166167805  -7.272454396234064  51.665594024654766  12.887032096036345  1.7659181562394266  -21.49200189157087  15.21358505139959  72.41518380886026  21.245244327677977  120.000000
0.3671052631578949  0.000000  0.000000  0.000000  -18.798955822836906  0.5104724275847542  -8.261970303721457  50.883027978266014  13.742797013055004  2.335014443253714  -23.27070963871392  16.46067986273142  72.88975250167401  24.301074294175795  120.000000
0.4078947368421054  0.000000  0.000000  0.000000  -18.539756835977332  0.7929599774532458  -9.326846164317569  50.065450750552905  14.675903279491013  3.0077083570345193  -25.439743199154634  17.75163132546804  73.70293899983615  27.800590008069662  120.000000
0.44868421052631596  0.000000  0.000000  0.000000  -18.389024378678243  1.1182302750403925  -10.418237761868353  49.24341307586351  15.632205762507878  3.761305664575552  -27.84093465105758  19.107618488646487  74.76917042704012  31.592870201852808  120.000000
0.4894736842105265  0.000000  0.000000  0.000000  -18.319072644460086  1.4788947890604576  -11.483835077992442  48.44412182567016  16.56001724147491  4.566927574064438  -30.309548929370973  20.54107482519721  75.99364630340646  35.526009560490344  120.000000
0.530263157894737  0.000000  0.000000  0.000000  -18.30975552476175  1.8738377366634749  -12.472192094156059  47.68867085420153  17.415738474577832  5.392665199279614  -32.6973182697159  22.056910138849375  77.27453881750638  39.49135120419446  120.000000
0.5710526315789476  0.000000  0.000000  0.000000  -18.357328264979518  2.308617671849706  -13.336755887130618  46.98974364692786  18.164996750439336  6.207887534094165  -34.89066940287662  23.65162694359638  78.51403728958384  43.433228239635284  120.000000
0.6118421052631582  0.000000  0.000000  0.000000  -18.469801679698694  2.788679081227626  -14.040332950029669  46.352881533438044  18.784574512779066  6.98014059394282  -36.82115185280086  25.315352068799584  79.62779856088869  47.34173125704623  120.000000
0.6526315789473687  0.000000  0.000000  0.000000  -18.656685356201727  3.315267942689309  -14.555591121908234  45.78061775344392  19.259703615426606  7.679226253318663  -38.468589922930754  27.03839979750479  80.56228175134869  51.23140010128127  120.000000
0.6934210526315792  0.000000  0.000000  0.000000  -18.921706599419462  3.8838812121074078  -14.867452428420542  45.27728821294938  19.582427462950356  8.280459449241016  -39.847697498106676  28.81383915872531  81.29228063075136  55.11896969339026  120.000000
0.7342105263157898  0.000000  0.000000  0.000000  -19.259971368381567  4.483760860255503  -14.972746084194931  44.850872797661935  19.751624112919554  8.767015480180625  -40.99235465261021  30.63828150576912  81.81531233813419  59.009675941214155  120.000000
0.7750000000000004  0.000000  0.000000  0.000000  -19.657731405828038  5.100405211703115  -14.879543896524448  44.51019556621535  19.772526553157498  9.130829586710117  -41.941398784407966  32.5087670209097  82.14440383470911  62.892064492491606  120.000000
0.8157894736842108  0.000000  0.000000  0.000000  -20.097620417825382  5.7199408552484945  -14.603628592825212  44.26075487158157  19.65662346671455  9.373038668428974  -42.733243160520274  34.4165640894078  82.30424151938885  66.73979356133692  120.000000
0.8565789473684213  0.000000  0.000000  0.000000  -20.563438600445547  6.333612641477444  -14.166623741319924  44.098546322548906  19.419674508865054  9.502780940811814  -43.39787863814064  36.34014554458983  82.3244741900507  70.51336797950226  120.000000
0.8973684210526319  0.000000  0.000000  0.000000  -21.04227558955507  6.938586948824424  -13.591696665150032  44.01033590846381  19.079670511055724  9.533858423434491  -43.954494115786  38.244353871337914  82.23769591001984  74.16164349753019  120.000000
0.9381578947368425  0.000000  0.000000  0.000000  -21.524058174672803  7.536358887582328  -12.900232844705249  43.97656540836139  18.654053979046388  9.481219711912686  -44.41410499316915  40.0863527427453  82.07888680235487  77.62802202689176  120.000000
0.978947368421053  0.000000  0.000000  0.000000  -22.0006453909439  8.129550058257655  -12.11059670957168  43.97529773516242  18.159495283247782  9.357392568436106  -44.78472167984868  41.82347973217162  81.88327831844039  80.8608731883573  120.000000
1.0197368421052635  0.000000  0.000000  0.000000  -22.46441273363478  8.718960961342828  -11.239320711078838  43.985577163191486  17.61076323275145  9.17155093513446  -45.075960567711874  43.4227592069089  81.68410033733485  83.82322019380122  120.000000
1.060526315789474  0.000000  0.000000  0.000000  -22.90726565381436  9.302281027006405  -10.302596889791625  43.99029812987108  17.02094587530018  8.929429081967422  -45.301548643248566  44.864968238411365  81.50983007836726  86.49729207916714  120.000000
1.1013157894736847  0.000000  0.000000  0.000000  -23.320881348801272  9.873934731141826  -9.317208945587513  43.97795938924225  16.400764292020803  8.635074102777052  -45.478782500538955  46.14540954775108  81.38226537675145  88.8825496004041  120.000000
1.1421052631578952  0.000000  0.000000  0.000000  -23.697744196759068  10.426073613480195  -8.300352907964374  43.944285016340395  15.759690010487871  8.291850030365389  -45.62693433156143  47.26866123491692  81.31507991808141  90.98870743179391  120.000000
1.1828947368421057  0.000000  0.000000  0.000000  -24.032122941021967  10.949033182885403  -7.2691278013107  43.891921068702935  15.106087270797596  7.9043498831756445  -45.76406709088534  48.2451110908705  81.31341880470838  92.82882087398676  120.000000
1.2236842105263164  0.000000  0.000000  0.000000  -24.32060103224864  11.432474808093907  -6.240159824963318  43.82953099536834  14.448459822894199  7.478738594825466  -45.90498921702048  49.08610667696669  81.37388507539468  94.41467340599003  120.000000
1.2644736842105269  0.000000  0.000000  0.000000  -24.562306562822425  11.866352297169364  -5.229274451882702  43.76898590988902  13.79522690452502  7.023730952283238  -46.05945800808711  49.802804409311435  81.48601125282464  95.75591218926643  120.000000
1.3052631578947373  0.000000  0.000000  0.000000  -24.759044712605363  12.242160868850592  -4.251121668753223  43.723128962111986  13.155542831499872  6.5496333358097285  -46.23260581849594  50.404192327855945  81.63452731135199  96.86146810464203  120.000000
1.3460526315789478  0.000000  0.000000  0.000000  -24.91520483030697  12.553882133004965  -3.3187594737689463  43.70257329812207  12.538467260845515  6.068160872967151  -46.424908612913974  50.897824577158374  81.8022074352926  97.74187227413776  120.000000
1.3868421052631583  0.000000  0.000000  0.000000  -25.03732084972276  12.798888193363856  -2.443306698869572  43.71449329453435  11.952897956837397  5.590734039276698  -46.633606158242614  51.289238918667884  81.97240732642534  98.4108092398453  120.000000
1.427631578947369  0.000000  0.000000  0.000000  -25.13305400770899  12.978316734415756  -1.6338408675849043  43.76105620123342  11.405987321758824  5.128027648648011  -46.85264778374597  51.583501839816954  82.13097859492925  98.88568079466305  120.000000
1.4684210526315795  0.000000  0.000000  0.000000  -25.209860236476658  13.097224810725168  -0.8975451653188513  43.83984924009451  10.902696884413984  4.688557692001836  -47.07380184890353  51.785148603918934  82.26745042547778  99.18728887504629  120.000000
1.50921052631579  0.000000  0.000000  0.000000  -25.27375929499099  13.163999000233396  -0.2399127974097728  43.94359119409124  10.44485195045209  4.278615592850862  -47.286466743400936  51.8994954148437  82.37563012973195  99.33937300713843  120.000000
1.5500000000000007  0.000000  0.000000  0.000000  -25.3287415755083  13.189418924210239  0.3352820585925454  44.06191614525369  10.031840414923668  3.9016198280493866  -47.479463773492  51.93190782546763  82.45404634948011  99.36753919550831  120.000000
1.5907894736842112  0.000000  0.000000  0.000000  -25.37690379603487  13.184995482582957  0.8263564088581793  44.18301189194775  9.661013968431304  3.5589877604442934  -47.642384987511655  51.88797545448655  82.50623449969443  99.29725986771666  120.000000
1.6315789473684217  0.000000  0.000000  0.000000  -25.41901791285127  13.161291931937486  1.2341785860880543  44.29710801995454  9.329108899249803  3.2506394258449762  -47.768670882550104  51.771881626899706  82.54091485849028  99.15047963509751  120.000000
1.6723684210526322  0.000000  0.000000  0.000000  -25.455024286648726  13.126234826841348  1.5623121071156836  44.39864488226934  9.032843647903684  2.9764951216479787  -47.85712367887534  51.585903938548036  82.57161345646996  98.94180918434415  120.000000
1.7131578947368427  0.000000  0.000000  0.000000  -25.484059364432472  13.084059629234867  1.8163421695614483  44.48816647445498  8.769835181873544  2.7368789139440133  -47.91311113397343  51.32898416041578  82.61529384370907  98.67526819035588  120.000000
1.7539473684210534  0.000000  0.000000  0.000000  -25.503837993796257  13.034587744007109  2.0023363197828137  44.57145123177072  8.53866197823204  2.532879132856121  -47.9468058628178  50.99660007246248  82.68974787178396  98.34227639305804  120.000000
1.7947368421052639  0.000000  0.000000  0.000000  -25.509717782698424  12.973438238366525  2.124757064011605  44.65836673525944  8.338808920931877  2.3659024023038002  -47.97073819978294  50.57992865356039  82.81010423559196  97.91993460736742  120.000000
1.8355263157894743  0.000000  0.000000  0.000000  -25.49406127670001  12.892911408071052  2.1846215374941984  44.76036231161442  8.169846238364494  2.2377944831664873  -47.99568976966739  50.065926602210375  82.9854117024768  97.36989848914514  120.000000
1.876315789473685  0.000000  0.000000  0.000000  -25.446398116893782  12.783212060800881  2.1785081226711913  44.88851612888752  8.031315537882385  2.1503364145365778  -48.02792065120851  49.43776982920137  83.216384341927  96.63992490593166  120.000000
1.9171052631578955  0.000000  0.000000  0.000000  -25.354928923713754  12.633361243613962  2.098952252447316  45.05059000794883  7.923552663877315  2.104360564262229  -48.066909176463305  48.67699093577891  83.49520176039053  95.670318593092  120.000000
1.957894736842106  0.000000  0.000000  0.000000  -25.20902484143619  12.431943901079073  1.9360054117081444  45.24898102082088  7.849425500318848  2.0982392553926443  -48.10547890565878  47.766396021382384  83.8070429465561  94.4043418035286  120.000000
1.9986842105263165  0.000000  0.000000  0.000000  -25.002205669363466  12.167930196472486  1.6795030885849616  45.47909979225185  7.815723456794825  2.1269670538043743  -48.130533159482646  46.69282845325512  84.1325753467215  92.79839834893568  120.000000
2.039473684210527  0.000000  0.000000  0.000000  -24.734061388579153  11.831721525417423  1.3208438879118434  45.73050442695115  7.83312373158501  2.182523012159216  -48.12539755842393  45.448989997459556  84.44970988819357  90.82751489786979  120.000000
2.0802631578947377  0.000000  0.000000  0.000000  -24.410067366317996  11.417085409612334  0.8536578031512769  45.98950798540609  7.9140246996954255  2.256652670944969  -48.07252761838639  44.0342967272627  84.735007995638  88.48433892123703  120.000000
2.121052631578948  0.000000  0.000000  0.000000  -24.03924116890553  10.922748764714582  0.2733275129203587  46.24306340040903  8.06966213074433  2.3445635860335297  -47.95620153291757  42.455596437444825  84.96450137919297  85.77413071770141  120.000000
2.1618421052631587  0.000000  0.000000  0.000000  -23.631121025438613  10.35240351106094  -0.423679272069529  46.4819621578116  8.308396766555065  2.447458661393063  -47.76407983867162  40.72789135069988  85.11525203288454  82.70956548505333  120.000000
2.2026315789473694  0.000000  0.000000  0.000000  -23.194488220191335  9.714141368526032  -1.240220562896456  46.70151091900139  8.634943890800358  2.572809835250757  -47.48632056880192  38.87384037396016  85.16578885023954  79.30867851540765  120.000000
2.2434210526315796  0.000000  0.000000  0.000000  -22.73915682432297  9.020508845723608  -2.178287354448892  46.89957354641705  9.050141938537205  2.7323214940097786  -47.11065796153747  36.92114084468206  85.09486589219726  75.59635484643421  120.000000
2.2842105263157904  0.000000  0.000000  0.000000  -22.276925881639887  8.288247681711804  -3.2387143792926603  47.072179901499005  9.55092908222286  2.938246754324409  -46.60920117184301  34.9000714469255  84.87737169183357  71.60647657785154  120.000000
2.325000000000001  0.000000  0.000000  0.000000  -21.820126235357346  7.536253994010518  -4.419948327621415  47.211163985367804  10.130738084530927  3.19991855664585  -45.9293171692141  32.84421419233798  84.48300600255975  67.38437829058573  120.000000
2.3657894736842113  0.000000  0.000000  0.000000  -21.381479170331502  6.784025883519857  -5.716406118742197  47.30424950177596  10.779599613007532  3.5218078795248835  -44.99344636873976  30.79010108000883  83.87657962757822  62.98733016972045  120.000000
2.406578947368422  0.000000  0.000000  0.000000  -20.97282347111856  6.049699389580133  -7.116846441725991  47.3379991680696  11.485142515837866  3.9032687867841243  -43.71373105484249  28.776239263391393  83.02531894533469  58.48207485024292  120.000000
2.4473684210526327  0.000000  0.000000  0.000000  -20.60097220920655  5.347761749736141  -8.602640454688181  47.30398292188016  12.232808555686065  4.340536060410545  -42.017796717643606  26.844026450027815  81.91518005072423  53.93811837675949  120.000000
2.488157894736843  0.000000  0.000000  0.000000  -20.264224387202344  4.688778334605946  -10.145281682240057  47.20623465726949  13.004658038476284  4.828112337696243  -39.881348347519335  25.034904211225882  80.5729329394613  49.41880366469789  120.000000
2.5289473684210537  0.000000  0.000000  0.000000  -19.954938276732157  4.077730118991357  -11.706392238462715  47.062974615331186  13.780812812864477  5.357827067484869  -37.35493869955974  23.385070191597915  79.08298530243519  44.98075295722834  120.000000
2.569736842105264  0.000000  0.000000  0.000000  -19.666283723724256  3.5159252022739804  -13.242277341204483  46.90636121122802  14.542687020360862  5.920639789287467  -34.578400682561366  21.917551347642277  77.59537155636343  40.675775794606594  120.000000
2.6105263157894747  0.000000  0.000000  0.000000  -19.393160034369593  3.0066982993781717  -14.7079092374965  46.775446432108055  15.270449049324831  6.507680877734363  -31.770744754534817  20.634472131891293  76.31333857080486  36.55207126088443  120.000000
2.6513157894736854  0.000000  0.000000  0.000000  -19.136834045122203  2.557364580854485  -16.05828677007391  46.70411235655625  15.941113661520278  7.10391864328324  -29.180681047068656  19.511079079807725  75.44055137944709  32.66077319009799  120.000000
2.6921052631578957  0.000000  0.000000  0.000000  -18.914084091484728  2.178523155373842  -17.251216816111334  46.7142223138943  16.531767447585946  7.688319743348454  -27.02660788491229  18.500048995744834  75.11984529673867  29.061590464920698  120.000000
2.7328947368421064  0.000000  0.000000  0.000000  -18.750915387656384  1.8837709720289344  -18.252552155767866  46.81309263478294  17.021259986363212  8.239486627068878  -25.44846597861134  17.544941711305018  75.39934859705737  25.817020627503997  120.000000
2.7736842105263166  0.000000  0.000000  0.000000  -18.669454792055152  1.6828319709423232  -19.037675241807836  46.997561500135006  17.39135596406744  8.736396473975214  -24.49880879751299  16.594591739193877  76.24302363915155  22.977165807872456  120.000000
2.8144736842105273  0.000000  0.000000  0.000000  -18.678814170624584  1.5727698143014843  -19.59791901898213  47.252401410238946  17.634940081169404  9.160966323904148  -24.173243135209624  15.610374921947857  77.57104928041677  20.572620594971593  120.000000
2.855263157894738  0.000000  0.000000  0.000000  -18.773067723925738  1.5415912423695017  -19.94296472973503  47.553385559187376  17.758124853533396  9.503613866512634  -24.45553461411177  14.569591065775692  79.31754319916463  18.617564462751343  120.000000
2.8960526315789483  0.000000  0.000000  0.000000  -18.93651677148776  1.573770975473001  -20.09558461587441  47.87708330145796  17.776325439555414  9.760610158041132  -25.347402604127133  13.462824761091536  81.45634030932848  17.111229344424476  120.000000
2.936842105263159  0.000000  0.000000  0.000000  -19.156574040671558  1.6428517356120012  -20.086509715127427  48.20515950889982  17.718063487853495  9.925782537409656  -26.882438009933967  12.287066493263435  84.00156681045753  16.033750546093163  120.000000
2.9776315789473697  0.000000  0.000000  0.000000  -19.43351154391352  1.704266041757643  -19.94750946497856  48.53027877154566  17.6209578250195  9.985139921817359  -29.141442787632126  11.047875466386602  87.03241089502183  15.335123518477774  120.000000
3.01842105263158  0.000000  0.000000  0.000000  -19.760536229569766  1.7015632744479696  -19.715099831229267  48.85203519135112  17.52468480344057  9.923711512522605  -32.315954364717776  9.75503829331017  90.74589506266966  14.925092240258168  120.000000
3.0592105263157907  0.000000  0.000000  0.000000  -20.150082063531336  1.5726159912660533  -19.429246931617428  49.189424364871186  17.457156729886993  9.723808897154568  -36.675224747118136  8.426770868396776  95.42154010238964  14.66403125463988  120.000000
3.1000000000000014  0.000000  0.000000  0.000000  -20.6377551128353  1.271222990363908  -19.137115277636546  49.56225090622815  17.415857942015755  9.38985074789707  -42.58980452741509  7.087336565421455  101.44229231542973  14.363686101519964  120.000000
