Simulation
nRows=77
nColumns=15
endheader
time  TH_x TH_y TH_z SC_y  SC_z  SC_x  AC_y  AC_z  AC_x  GH_y  GH_z  GH_yy  EL_x  PS_y
0.0  0.000000  0.000000  0.000000  -29.66990752975666  0.42191263019617836  -0.02129248133795882  58.498016132160245  4.868309991026641  0.732220534307419  -43.30426827625644  8.306071251131875  103.19589810269049  14.704269372914753  120.000000
0.04078947368421054  0.000000  0.000000  0.000000  -28.82011037721139  1.2272962411472264  0.8164946349128784  57.83831910188999  4.49362884364561  0.6013263269034469  -37.68721630648538  8.52805778637579  96.74697823711628  14.620343950010662  120.000000
0.08157894736842108  0.000000  0.000000  0.000000  -28.221969325028294  1.7135493587214894  1.5513609778960566  57.32952342045721  4.100975193505697  0.3030837310639465  -31.90750274827407  8.949946986982216  90.23506334658397  14.407498878154904  120.000000
0.12236842105263163  0.000000  0.000000  0.000000  -27.760820561117423  2.0199640090734925  2.1909372996663175  56.90312647237407  3.7464756384337865  -0.05909361332279113  -26.89285148781327  9.618355135358508  84.65986952810235  14.403457866236701  120.000000
0.16315789473684217  0.000000  0.000000  0.000000  -27.372354496891855  2.214962967051309  2.7118806718647974  56.506857760755715  3.4642464533320565  -0.4414708236342762  -23.042923519114563  10.477649524261436  80.31277911334419  14.736796111136657  120.000000
0.2039473684210527  0.000000  0.000000  0.000000  -26.972421930774356  2.3439936391802827  3.092416270768134  56.10451641528027  3.301885464447875  -0.8098607522479211  -20.5676226032121  11.480081658019042  77.33395198615527  15.52553880199813  120.000000
0.24473684210526325  0.000000  0.000000  0.000000  -26.53770234470105  2.445045475646039  3.3092840043889247  55.66177114234478  3.2939102640575033  -1.1343176095650775  -19.36228615581791  12.577440514657981  75.51235296996951  16.854195168680523  120.000000
0.2855263157894738  0.000000  0.000000  0.000000  -26.076713754743484  2.542240475727741  3.338969425794185  55.16884112973845  3.4655400299876864  -1.3877766692356575  -19.219705457279364  13.74341545970484  74.56072803815006  18.764315632963225  120.000000
0.32631578947368434  0.000000  0.000000  0.000000  -25.605487486639504  2.642382319762454  3.173362053823233  54.618985623487326  3.8295433831718935  -1.5579822152386096  -19.942442819417845  14.973998781044696  74.24932124999555  21.268386877239635  120.000000
0.3671052631578949  0.000000  0.000000  0.000000  -25.1487084056087  2.7471478213937366  2.812314726360354  54.02200188511606  4.388172014896867  -1.6334108317670097  -21.338708661843352  16.269388407022703  74.41031973649889  24.318927487106997  120.000000
0.4078947368421054  0.000000  0.000000  0.000000  -24.72139801021803  2.85682409435274  2.2632549330621425  53.38846212395141  5.128458607336554  -1.5989628718521323  -23.233148100572528  17.63179863277221  74.93665610861748  27.81201274572676  120.000000
0.44868421052631596  0.000000  0.000000  0.000000  -24.331141097275847  2.9726313625465024  1.5404035196970587  52.73678098471752  6.0273438374222055  -1.4411694867764793  -25.443373043356825  19.05902438660079  75.73426338798338  31.601987233534423  120.000000
0.4894736842105265  0.000000  0.000000  0.000000  -23.982569468647455  3.095603439989977  0.6663926380740128  52.07953875945029  7.055476313032337  -1.1512137561101916  -27.791365166736533  20.54822410218523  76.71212042350551  35.540628764991546  120.000000
0.530263157894737  0.000000  0.000000  0.000000  -23.677954193501744  3.226223000980279  -0.32872816864230175  51.425907888372656  8.184202157530144  -0.7360474207608744  -30.116212946744167  22.095342134443673  77.7703813777251  39.512365386030794  120.000000
0.5710526315789476  0.000000  0.000000  0.000000  -23.41802710477733  3.3659704778028696  -1.4077519312622417  50.769530430019664  9.38312098431089  -0.21457857164238886  -32.29529894062485  23.697441949751383  78.81479915490571  43.454819755813205  120.000000
0.6118421052631582  0.000000  0.000000  0.000000  -23.20134697861298  3.518043683364667  -2.528880106177936  50.09977594676463  10.621669807716282  0.3832354649749453  -34.261354574113966  25.3501661308307  79.76608595167836  47.36018461320022  120.000000
0.6526315789473687  0.000000  0.000000  0.000000  -23.021622334298243  3.6865300156218375  -3.6475561472687548  49.40685313992664  11.863282622671738  1.029869224271691  -36.00287965922456  27.05523559513299  80.5818987496958  51.24938894838955  120.000000
0.6934210526315792  0.000000  0.000000  0.000000  -22.866011077650413  3.874308332716269  -4.7211644235850345  48.69365548981346  13.067056640174028  1.698372051769658  -37.546799713080205  28.816163415878172  81.24693884677804  55.14095823714623  120.000000
0.7342105263157898  0.000000  0.000000  0.000000  -22.7239804968619  4.083732152832278  -5.712019119963204  47.97199604725233  14.188434419470985  2.367590415987816  -38.92705884575037  30.640286426558646  81.76141468723523  59.03659821091209  120.000000
0.7750000000000004  0.000000  0.000000  0.000000  -22.589939369859188  4.322962730307877  -6.5903384281443875  47.2629082132644  15.180652175616649  3.0195529489133133  -40.175617996539664  32.53079130001426  82.12871644673433  62.91996301711927  120.000000
0.8157894736842108  0.000000  0.000000  0.000000  -22.47081178636107  4.605654601744943  -7.325818779606984  46.59121253265117  15.99796780340269  3.6395512727454844  -41.31069462728568  34.481345807629054  82.35789822531605  66.75950327979227  120.000000
0.8565789473684213  0.000000  0.000000  0.000000  -22.38343452924755  4.950816712626046  -7.890737685467427  45.98455123895604  16.60222740611827  4.214349965707113  -42.33125397758262  36.4685382240016  82.45767348570993  70.51213636556675  120.000000
0.8973684210526319  0.000000  0.000000  0.000000  -22.34189302454716  5.3767746363304  -8.265498771014288  45.463068270901594  16.974955172182668  4.736311060555447  -43.23221907054824  38.45184816141297  82.44593306386577  74.13046710964404  120.000000
0.9381578947368425  0.000000  0.000000  0.000000  -22.353334821912966  5.892652371860663  -8.44384485040999  45.033025536652474  17.121545798960895  5.199689427356132  -44.00694643905617  40.378742787953236  82.34767355974948  77.56621673706869  120.000000
0.978947368421053  0.000000  0.000000  0.000000  -22.418267301497195  6.495147164552015  -8.427180390015325  44.68904370297774  17.06231284691344  5.596756865284135  -44.653020159470955  42.196385967486044  82.19173916348325  80.77401633704366  120.000000
1.0197368421052635  0.000000  0.000000  0.000000  -22.53352325074114  7.167914100963884  -8.224078268180339  44.41797812321688  16.828424520114318  5.915853419083745  -45.174549962678746  43.86082086469621  82.00901095935087  83.71976634363932  120.000000
1.060526315789474  0.000000  0.000000  0.000000  -22.693027475591467  7.884929980552373  -7.851534350930126  44.2031456391595  16.45734146049783  6.145979354432772  -45.581969203189686  45.34481592409401  81.82796483402151  86.38595449433707  120.000000
1.1013157894736847  0.000000  0.000000  0.000000  -22.887084186403083  8.615431301920026  -7.33301153020729  44.02843843026776  15.98644060576769  6.278654888168096  -45.89323750950273  46.63962729833725  81.67388264577205  88.77135285870935  120.000000
1.1421052631578952  0.000000  0.000000  0.000000  -23.10419007581573  9.329066291389957  -6.69527717465415  43.88110290453587  15.4495146239279  6.3092570646591  -46.12907322988053  47.74951745982841  81.56498592112763  90.88430278818453  120.000000
1.1828947368421057  0.000000  0.000000  0.000000  -23.331352025523373  9.998916801319524  -5.9671759757460645  43.75410171395082  14.874081408348943  6.2388375380880206  -46.313190468282485  48.68858952036501  81.51193014391654  92.7362584029397  120.000000
1.2236842105263164  0.000000  0.000000  0.000000  -23.555401936144484  10.604393285658777  -5.178383645349093  43.6456525406057  14.28239404742368  6.074102843389726  -46.467936987623844  49.47344757021718  81.51634813887117  94.33689379687982  120.000000
1.2644736842105269  0.000000  0.000000  0.000000  -23.763777447624175  11.131933177302507  -4.358025484327905  43.55787938181428  13.690224617506122  5.82854135355064  -46.612242880653554  50.12304317583443  81.57282676572727  95.69394499291954  120.000000
1.3052631578947373  0.000000  0.000000  0.000000  -23.94732782422474  11.574357480031109  -3.532537155668203  43.49561992522113  13.110660341446772  5.518996217646152  -46.75977274917787  50.653417855485465  81.6705705736086  96.81495669644033  120.000000
1.3460526315789478  0.000000  0.000000  0.000000  -24.10141106021889  11.929688866716292  -2.7246303358379405  43.46337728935845  12.55350471513371  5.165082628288443  -46.91829909972572  51.0788400047905  81.79582100219275  97.70957907750366  120.000000
1.3868421052631583  0.000000  0.000000  0.000000  -24.225927052684515  12.20053557168948  -1.9526988416753623  43.46476668874021  12.027748240555445  4.785375648222892  -47.09183582361557  51.40879198136804  81.93428970709313  98.3908945538021  120.000000
1.427631578947369  0.000000  0.000000  0.000000  -24.324421495568686  12.393145780242136  -1.2308501764279622  43.4996844040521  11.539481404798732  4.397608647922266  -47.27891853001098  51.65136868534517  82.07311090412517  98.87590305244323  120.000000
1.4684210526315795  0.000000  0.000000  0.000000  -24.40201741251825  12.517092801799496  -0.5694691607674428  43.56546109136251  11.093225109145493  4.015681619774999  -47.47576236198613  51.81175175559766  82.20255329723994  99.18518269830183  120.000000
1.50921052631579  0.000000  0.000000  0.000000  -24.464063622039536  12.58405381837448  0.024227856000952164  43.654724930105914  10.689934999439657  3.6507876010319644  -47.673901546261334  51.89598644000231  82.31655687100597  99.34241877577398  120.000000
1.5500000000000007  0.000000  0.000000  0.000000  -24.51481005946244  12.607039674066437  0.5456977839638818  43.75828039713051  10.329203895934569  3.3093262464573754  -47.864380466375074  51.90864308969661  82.41366001542308  99.37320894795447  120.000000
1.5907894736842112  0.000000  0.000000  0.000000  -24.55728752218915  12.59845020412659  0.9930428594626453  43.86472586989499  10.008358809357407  2.995214915358882  -48.03690299134575  51.85557495152751  82.49700432622463  99.30312452565359  120.000000
1.6315789473684217  0.000000  0.000000  0.000000  -24.59346153806174  12.56886646574189  1.3670436488391904  43.96539361436919  9.72524170370812  2.709036863546114  -48.185121703294946  51.74022988060756  82.5747617866453  99.15408377608482  120.000000
1.6723684210526322  0.000000  0.000000  0.000000  -24.624438210360395  12.525078982038085  1.6710683991998865  44.05456307143304  9.477521972367315  2.451006976153365  -48.306136952779404  51.56553405479459  82.65942652141572  98.94077101818267  120.000000
1.7131578947368427  0.000000  0.000000  0.000000  -24.65044113397796  12.469565486390318  1.9102257981153534  44.13309597437701  9.26489297686094  2.220120133767093  -48.403710705234346  51.32992595760176  82.76661163952431  98.66709860568328  120.000000
1.7539473684210534  0.000000  0.000000  0.000000  -24.670064235628004  12.399420557398653  2.0898296183094507  44.205882671137935  9.087948465568296  2.015975422922026  -48.48466842336283  51.02920687523714  82.91216208160655  98.32453745157794  120.000000
1.7947368421052639  0.000000  0.000000  0.000000  -24.679590254092208  12.307049802721467  2.2134098041329286  44.28267090460298  8.949357499533848  1.837280647722725  -48.55851706977148  50.65298251641109  83.10909878271848  97.89024823554017  120.000000
1.8355263157894743  0.000000  0.000000  0.000000  -24.672554198926463  12.180927047027224  2.2810817269212404  44.37415449186725  8.851786254198197  1.6835601510192466  -48.63155654848051  50.186415626684024  83.36413822743073  97.32642052322247  120.000000
1.876315789473685  0.000000  0.000000  0.000000  -24.64015712386228  12.007537841753079  2.288725797771019  44.4919480308285  8.798518608564722  1.5539267634043807  -48.70619784017103  49.608568949659606  83.67609791338455  96.58188615072744  120.000000
1.9171052631578955  0.000000  0.000000  0.000000  -24.573309275190077  11.772833322976421  2.2287624354755313  44.64433835330175  8.79262784852691  1.4478849611822766  -48.777125961066986  48.8961700752653  84.03567971932489  95.5984935944955  120.000000
1.957894736842106  0.000000  0.000000  0.000000  -24.465108150796365  11.4640557588636  2.0914799390120415  44.83605272690982  8.838726831800452  1.36305152217744  -48.83409155610126  48.0250770196945  84.42665817038724  94.3209439442643  120.000000
1.9986842105263165  0.000000  0.000000  0.000000  -24.313495513247688  11.071889327489346  1.8673584395930694  45.064927702316204  8.942433632487237  1.2960972798670942  -48.8616802100178  46.97496695112205  84.82843181221506  92.70671004049184  120.000000
2.039473684210527  0.000000  0.000000  0.000000  -24.12216783757011  10.592790827610543  1.5485848580290136  45.324105124734345  9.110028145048577  1.242934662064029  -48.84310571958812  45.73122083843781  85.2179001668029  90.73171505153368  120.000000
2.0802631578947377  0.000000  0.000000  0.000000  -23.900403615664814  10.03042328075827  1.1306949993496884  45.6031883721724  9.345937512939068  1.2023314949829962  -48.76151384784282  44.28825905895575  85.57221474974239  88.38971917942749  120.000000
2.121052631578948  0.000000  0.000000  0.000000  -23.660798991941828  9.396264332592246  0.6122488891403586  45.893386495209555  9.650774133942306  1.177858942439086  -48.60380427750943  42.65025750299239  85.86926439234135  85.68703541716262  120.000000
2.1618421052631587  0.000000  0.000000  0.000000  -23.415988830698485  8.708668383634851  -0.005887182370533917  46.18875678977151  10.019500323968819  1.1801656121421085  -48.36146201710125  40.833604058701816  86.08982502041789  82.63684866337796  120.000000
2.2026315789473694  0.000000  0.000000  0.000000  -23.17693242186816  7.990778635091702  -0.7219350442673595  46.48716653307201  10.441992293419712  1.2251418195487755  -48.03064790123678  38.866519951550494  86.21744269046549  79.256665694797  120.000000
2.2434210526315796  0.000000  0.000000  0.000000  -22.95679980283853  7.268791931013955  -1.5317441572253334  46.78742513222731  10.903272140657775  1.3301492778605268  -47.60577168638156  36.78576007387785  86.23717134866668  75.56865259012885  120.000000
2.2842105263157904  0.000000  0.000000  0.000000  -22.772689039808235  6.569295451961603  -2.427777122570535  47.08689156077351  11.384356229307336  1.5076384587077325  -47.06447310238677  34.6325614728733  86.1278368215554  71.60259673179362  120.000000
2.325000000000001  0.000000  0.000000  0.000000  -22.6398624860342  5.916241339999927  -3.401487159705174  47.3791568180192  11.866731794850113  1.7642738823421211  -46.35614095979593  32.45115501704212  85.8613600101731  67.39869864675785  120.000000
2.3657894736842113  0.000000  0.000000  0.000000  -22.56643307570109  5.328276884445069  -4.446064685553211  47.653142423970856  12.336923184386318  2.102242400106527  -45.402138164926406  30.287764085879594  85.40481782196312  63.00944007038045  120.000000
2.406578947368422  0.000000  0.000000  0.000000  -22.554513974372657  4.8168869414734745  -5.552729678177391  47.89341770883254  12.78647008103274  2.515537185654546  -44.11117158674722  28.18812623789596  84.72579866717525  58.50257190875929  120.000000
2.4473684210526327  0.000000  0.000000  0.000000  -22.601701023475545  4.387341687334288  -6.706309932964525  48.0902850947812  13.207863788315597  2.9930721928715727  -42.410924697080574  26.19808254452554  83.80939713845112  53.953618122993106  120.000000
2.488157894736843  0.000000  0.000000  0.000000  -22.700618713179043  4.0376848315338405  -7.885327843926394  48.24675889811607  13.59347638869553  3.5226313645823377  -40.27733563049613  24.36035197558312  82.67996373428767  49.43129300214614  120.000000
2.5289473684210537  0.000000  0.000000  0.000000  -22.84341478010532  3.7570714357763046  -9.06437708740021  48.38097390503228  13.937821811262253  4.092211574097559  -37.755668874106156  22.709950808182253  81.41510407753486  44.992279267086815  120.000000
2.569736842105264  0.000000  0.000000  0.000000  -23.023115398709567  3.5303576958296117  -10.216702887040828  48.52142189561081  14.23854225653979  4.690425563475719  -34.977227773835786  21.26611479215606  80.15483472345834  40.68506079838406  120.000000
2.6105263157894747  0.000000  0.000000  0.000000  -23.233430441855326  3.3423705826185865  -11.314665592734059  48.697018128509676  14.494604064247204  5.304540517633985  -32.15278428135036  20.02547135621536  79.08625052953097  36.5570403035318  120.000000
2.6513157894736854  0.000000  0.000000  0.000000  -23.47189988961479  3.181617062503587  -12.332246582958751  48.92748211018574  14.707435473240249  5.9189085742174035  -29.535218632509373  18.956051599616195  78.39902386689064  32.66032884814673  120.000000
2.6921052631578957  0.000000  0.000000  0.000000  -23.736697243266505  3.0455395097961375  -13.246960577838713  49.21615500847056  14.879348960526745  6.518687443453491  -27.36563064659964  18.003894370887675  78.23877193369051  29.055459581956335  120.000000
2.7328947368421064  0.000000  0.000000  0.000000  -24.0187310107406  2.9409176927167007  -14.04433308780591  49.55096962380153  15.012943224256686  7.092552481664659  -25.824682687263703  17.108404903610136  78.67168190782495  25.808656447184415  120.000000
2.7736842105263166  0.000000  0.000000  0.000000  -24.30487900552427  2.873116010982576  -14.720637123101445  49.91164667203925  15.114217648156197  7.632195896168865  -24.998987697635915  16.21740556654496  79.66957794322288  22.97684657036681  120.000000
2.8144736842105273  0.000000  0.000000  0.000000  -24.582307634011595  2.8369111282809154  -15.280197324236193  50.279494313086026  15.192996811522072  8.127478168443366  -24.87924915937183  15.295593618141833  81.13623692028453  20.5911025775864  120.000000
2.855263157894738  0.000000  0.000000  0.000000  -24.838206642924483  2.8178708323909856  -15.731483534351067  50.63857667405902  15.26051849310562  8.56617404445567  -25.39561386651879  14.325901753064993  82.96566378887741  18.656686385069115  120.000000
2.8960526315789483  0.000000  0.000000  0.000000  -25.06146642590071  2.7952727931886723  -16.085297938293557  50.974186106179424  15.330206818901422  8.932274831939164  -26.462089376031862  13.304384115526254  85.07643998642313  17.16574016345782  120.000000
2.936842105263159  0.000000  0.000000  0.000000  -25.246864049610174  2.739605013438361  -16.35730586206075  51.27153783428548  15.417265046682488  9.205349986810555  -27.991682253041184  12.233849094063551  87.39878217191583  16.09604490097243  120.000000
2.9776315789473697  0.000000  0.000000  0.000000  -25.414944536492907  2.6034803990583906  -16.565651446410826  51.52575690287643  15.540678849638256  9.353262218490647  -29.883107356950415  11.116325590192286  89.8395605480437  15.397331438167225  120.000000
3.01842105263158  0.000000  0.000000  0.000000  -25.587608244084315  2.3227212664509738  -16.737846755795488  51.73467346270163  15.723157434404124  9.339304009493059  -32.06239931577362  9.946964393624498  92.30854861861046  14.979000603579406  120.000000
3.0592105263157907  0.000000  0.000000  0.000000  -25.811960349975465  1.8163234209078256  -16.90722984831436  51.92587890526027  15.978137749881917  9.121070296405955  -34.43238243345262  8.719138315283239  94.68231422200273  14.680052675902607  120.000000
3.1000000000000014  0.000000  0.000000  0.000000  -26.189423789106037  0.9992210234828606  -17.117236940509926  52.1458894910562  16.296845621360582  8.664546141397317  -36.727580351457135  7.416885448978713  96.66376416709468  14.25917968446678  120.000000
