Simulation
nRows=77
nColumns=15
endheader
time  TH_x TH_y TH_z SC_y  SC_z  SC_x  AC_y  AC_z  AC_x  GH_y  GH_z  GH_yy  EL_x  PS_y
0.0  0.000000  0.000000  0.000000  -28.51228703744288  -3.2183214266686337  2.3909466747142796  59.086959300822876  5.00999793188331  -3.7203236300989757  -55.30331209126963  7.057217507213778  114.0449229472307  14.7504005978628  120.000000
0.04078947368421054  0.000000  0.000000  0.000000  -26.26641962971689  -1.5643791627679562  3.348097539819144  57.90876921314771  4.438666147370488  -3.3568622923344877  -50.942954368755  7.264351286789331  108.36974914720332  14.805618673849072  120.000000
0.08157894736842108  0.000000  0.000000  0.000000  -24.46901993182792  -0.5002100782105273  4.048715130988202  56.93872206510005  3.956544402868829  -3.275376108788155  -45.72369485127261  7.6830946122852835  101.93186013325382  14.587428063863975  120.000000
0.12236842105263163  0.000000  0.000000  0.000000  -23.087866887012026  0.17620524764666856  4.536794194405282  56.14261509196149  3.6043219722980155  -3.3576643894240923  -40.32367106104966  8.34654810018842  95.50762601210978  14.504580332656472  120.000000
0.16315789473684217  0.000000  0.000000  0.000000  -22.029455571365183  0.6221701758114387  4.8430416686633855  55.455199304221296  3.383440996796596  -3.512978486411336  -35.59147552016025  9.22269027009242  89.90437036276155  14.755558072179333  120.000000
0.2039473684210527  0.000000  0.000000  0.000000  -21.216478131855922  0.9616098093996392  4.97811077989618  54.828964999758306  3.2990235096838254  -3.6565800176697407  -32.00665904411206  10.268520152091765  85.55779332982958  15.483046688971505  120.000000
0.24473684210526325  0.000000  0.000000  0.000000  -20.580987206681765  1.289078140602987  4.936967879374953  54.209975388408154  3.3504780378269086  -3.7218641430861727  -29.664971604716577  11.42513371879208  82.46350938468123  16.772693263183097  120.000000
0.2855263157894738  0.000000  0.000000  0.000000  -20.09348984258629  1.6536076440458465  4.713613545930192  53.57604992225461  3.540179143767033  -3.6703699707091735  -28.430629776329027  12.652434821730026  80.40329918294964  18.668100604754695  120.000000
0.32631578947368434  0.000000  0.000000  0.000000  -19.738214445267122  2.0674798829154253  4.311774818840679  52.91509866573841  3.87045142663189  -3.4930560408120748  -28.121749187342864  13.929535992436097  79.13875659788486  21.176797509923865  120.000000
0.3671052631578949  0.000000  0.000000  0.000000  -19.504340607188418  2.5212335064184352  3.743146336741483  52.236543800840025  4.339490496224963  -3.1948302208635884  -28.561336025923417  15.248890181863052  78.49531898536101  24.24614341238761  120.000000
0.4078947368421054  0.000000  0.000000  0.000000  -19.372205766611167  2.9959400631772817  3.0275092541324544  51.55311688584538  4.934363975762203  -2.7838976723354634  -29.594174168974014  16.611091931628184  78.36116767442213  27.766459392211416  120.000000
0.44868421052631596  0.000000  0.000000  0.000000  -19.317366140644143  3.473788794388388  2.1908173623176737  50.88567656009503  5.632929342827542  -2.270065442280593  -31.05416120513166  18.01727106096563  78.63763204186138  31.586144220900124  120.000000
0.4894736842105265  0.000000  0.000000  0.000000  -19.319161374209397  3.9418703642903505  1.2638521596008596  50.24896208157538  6.409002997313242  -1.6625197819264936  -32.768554243959656  19.473136674264016  79.22671245829653  35.55402595068397  120.000000
0.530263157894737  0.000000  0.000000  0.000000  -19.36504383527776  4.393874185263111  0.2806430604825387  49.6526165598335  7.2393725213526325  -0.9800311720953903  -34.5705699641499  20.982285234200056  80.01185743543313  39.55493524840104  120.000000
0.5710526315789476  0.000000  0.000000  0.000000  -19.453646257265373  4.827989871529255  -0.7220884584732891  49.091869580303786  8.101873158952422  -0.2481760250270116  -36.320092118734316  22.54919635409429  80.87591415079866  43.52642263004279  120.000000
0.6118421052631582  0.000000  0.000000  0.000000  -19.591333157722566  5.244573210594652  -1.7109820642089872  48.55656984475873  8.980421569954672  0.5017061401398455  -37.92390840291843  24.174891693942072  81.71508536907267  47.45787409008026  120.000000
0.6526315789473687  0.000000  0.000000  0.000000  -19.786047179627953  5.645711001646241  -2.6560776876745047  48.036687153506946  9.856618027732459  1.2461999575502045  -39.34211172097335  25.866006563434695  82.46340986056211  51.36625119477899  120.000000
0.6934210526315792  0.000000  0.000000  0.000000  -20.042405874993616  6.033925973356163  -3.527252520931236  47.53428359680497  10.705355163612468  1.9635263480932645  -40.5749532177253  27.628946366456937  83.08260979255495  55.267406246185686  120.000000
0.7342105263157898  0.000000  0.000000  0.000000  -20.360062444004743  6.410347123061719  -4.288760345979009  47.060233501020434  11.490563848223271  2.631843635392768  -41.63985891214998  29.471263086248598  83.55367368541803  59.163376091836255  120.000000
0.7750000000000004  0.000000  0.000000  0.000000  -20.731362978566263  6.780650504063548  -4.909574279400981  46.635507459087535  12.172122584356304  3.235125550720447  -42.556898616783734  31.394244960176948  83.8672988338205  63.03924405410691  120.000000
0.8157894736842108  0.000000  0.000000  0.000000  -21.142822787622933  7.15477105189703  -5.374303725857778  46.27706143995443  12.723042843863874  3.771044130714329  -43.34457066336509  33.38516409987915  84.02826296315156  66.86960032866774  120.000000
0.8565789473684213  0.000000  0.000000  0.000000  -21.580227856202697  7.54361399205031  -5.680041769042789  45.99295822775053  13.131545595879523  4.242482413147839  -44.01695957430387  35.412163296865366  84.05036945204486  70.6204865887891  120.000000
0.8973684210526319  0.000000  0.000000  0.000000  -22.03296931787107  7.956658493168662  -5.825301092619535  45.78129726672289  13.394572212862494  4.651130374654026  -44.58052451498841  37.42695458718897  83.95475197056747  74.245978946889  120.000000
0.9381578947368425  0.000000  0.000000  0.000000  -22.49040840943843  8.399571268762651  -5.8121597568288195  45.62961175382544  13.518075319114265  4.99361071318909  -45.039981946863804  39.3703200525489  83.76804459308347  77.69325409237331  120.000000
0.978947368421053  0.000000  0.000000  0.000000  -22.94240294255893  8.874206687343733  -5.648371506307127  45.51958733829904  13.515166567393784  5.267108690590843  -45.40110578352546  41.18665353914622  83.52127440053695  80.91168402777375  120.000000
1.0197368421052635  0.000000  0.000000  0.000000  -23.37849493772401  9.377585871876589  -5.349124983929647  45.42987725186203  13.403329928842606  5.4700167584144515  -45.67253924563834  42.83543907817117  83.24705184795035  83.8643538911624  120.000000
1.060526315789474  0.000000  0.000000  0.000000  -23.78902938718228  9.901213029654796  -4.933234411014214  45.34135954386467  13.20169095982765  5.599833698855712  -45.8678452948429  44.29528113832006  82.97566976705836  86.53315874842961  120.000000
1.1013157894736847  0.000000  0.000000  0.000000  -24.166596909362077  10.432472119769193  -4.4208299242856866  45.24170742678604  12.927104502852929  5.654250787185577  -46.00539283091053  45.56450748678125  82.73304197147054  88.91682157308456  120.000000
1.1421052631578952  0.000000  0.000000  0.000000  -24.505638057442443  10.957096034684652  -3.8322214868369486  45.12573418492161  12.59515291223715  5.632410372862617  -46.10582063574168  46.65334006457296  82.53900058487913  91.02458067134758  120.000000
1.1828947368421057  0.000000  0.000000  0.000000  -24.802592128686225  11.460408794678298  -3.187794965946149  44.99560929605934  12.218820637814664  5.537408899220431  -46.18926471962658  47.58007012043392  82.40567381276342  92.86916121194665  120.000000
1.2236842105263164  0.000000  0.000000  0.000000  -25.05576916173187  11.928869257500127  -2.5075551960641724  44.859393259805536  11.810779900145775  5.37533849110748  -46.27296253775632  48.362715712935085  82.33631284229068  94.46176303533832  120.000000
1.2644736842105269  0.000000  0.000000  0.000000  -25.265162111043043  12.350799168709024  -1.8107591067791213  44.728400955561696  11.381906836092684  5.1567225471518165  -46.36956143147553  49.01922108458814  82.32644026184018  95.81134579567559  120.000000
1.3052631578947373  0.000000  0.000000  0.000000  -25.43291371083933  12.717213450857317  -1.1150557615963517  44.61538278689216  10.94369849584233  4.893767308413898  -46.4871742157393  49.56306105798956  82.365620943195  96.92600844384057  120.000000
1.3460526315789478  0.000000  0.000000  0.000000  -25.56322772791289  13.02195614831893  -0.4360580342396372  44.53083189066187  10.506556477429408  4.600777896925312  -46.628875460273704  50.00588174665726  82.44023825608039  97.8155410080239  120.000000
1.3868421052631583  0.000000  0.000000  0.000000  -25.662267831267286  13.262463998956715  0.21305191758011024  44.48255839907308  10.081226829525683  4.291008668587279  -46.79460687753511  50.3548611860209  82.53589068036693  98.49282007407606  120.000000
1.427631578947369  0.000000  0.000000  0.000000  -25.737143294176217  13.439620583748974  0.8214675243502764  44.47294380068769  9.676177290768043  3.9773512054915794  -46.98009066080184  50.61660555357028  82.63960587411  98.97469781542432  120.000000
1.4684210526315795  0.000000  0.000000  0.000000  -25.79475450868278  13.558148005446467  1.380502183772997  44.500365840268756  9.298479598264404  3.6696135241174144  -47.17906799362442  50.795170971759276  82.74123266304467  99.28152281757794  120.000000
1.50921052631579  0.000000  0.000000  0.000000  -25.840527977021235  13.625680897028339  1.8832421216794903  44.5575251967112  8.951599665361664  3.375769115435149  -47.381814071621285  50.89595265565399  82.83432164655753  99.43690304335324  120.000000
1.5500000000000007  0.000000  0.000000  0.000000  -25.877953525049108  13.652236301431476  2.3245171877108497  44.63451894074443  8.637293210374537  3.099985738764011  -47.57836121984487  50.92296681219633  82.91685826445622  99.4663418904598  120.000000
1.5907894736842112  0.000000  0.000000  0.000000  -25.90867109100607  13.648300408468398  2.7012027207027858  44.71910959684268  8.354585136723278  2.844907177929215  -47.75840354493518  50.88165243469098  82.99164225087345  99.39541801341491  120.000000
1.6315789473684217  0.000000  0.000000  0.000000  -25.93320665732701  13.62366631022601  3.0126823034416614  44.80164601065432  8.102271797308495  2.6109097821141085  -47.91584727004253  50.77508935604492  83.0666615641548  99.24609134699834  120.000000
1.6723684210526322  0.000000  0.000000  0.000000  -25.95142747668455  13.585510769197166  3.261002849146082  44.87583727225883  7.878179148194675  2.3989852889258936  -48.04881032804735  50.6058737737679  83.15462395881656  99.03314519206495  120.000000
1.7131578947368427  0.000000  0.000000  0.000000  -25.96268630450554  13.53785409805348  3.450244573368252  44.9420632141492  7.681138631070905  2.209937952455681  -48.16231272968045  50.37237786073106  83.27167820392499  98.76066697129465  120.000000
1.7539473684210534  0.000000  0.000000  0.000000  -25.965097279909763  13.480583700437496  3.585046260975513  45.00511175838174  7.509897134243661  2.045965591976882  -48.26499536194854  50.07060231867016  83.43457578652044  98.42030448590556  120.000000
1.7947368421052639  0.000000  0.000000  0.000000  -25.95461364908095  13.410106160362336  3.66861041872644  45.07442269963793  7.364072556812932  1.9090760064893773  -48.368276404336235  49.691054719541555  83.65730240429944  97.98936237013504  120.000000
1.8355263157894743  0.000000  0.000000  0.000000  -25.92432201691396  13.32003593303741  3.7010067912991294  45.16025424852584  7.242360492203616  1.8022976822262335  -48.48086403417096  49.22035417503494  83.94750784199522  97.42996409002086  120.000000
1.876315789473685  0.000000  0.000000  0.000000  -25.864480765721346  13.202737964577175  3.6782143758571246  45.27306607608892  7.143273725891007  1.7281757408498708  -48.60757110685242  48.63971425027626  84.30433168605053  96.69053492598863  120.000000
1.9171052631578955  0.000000  0.000000  0.000000  -25.76400454043566  13.04997115581257  3.592811305581222  45.41941192648038  7.065288561303363  1.6888711132360947  -48.74593942370524  47.928255316158165  84.71840286425538  95.71226235552096  120.000000
1.957894736842106  0.000000  0.000000  0.000000  -25.612817659924808  12.853505868873082  3.435408751759136  45.60133655434129  7.0092685880329375  1.6836142490400055  -48.88773671996501  47.0644457186875  85.17284999456383  94.43908521473188  120.000000
1.9986842105263165  0.000000  0.000000  0.000000  -25.404732760496444  12.605853145996278  3.197236094367996  45.81377998341299  6.979325338772026  1.7087532250848911  -49.01892514066918  46.0299632930824  85.6463083402074  92.82779682965005  120.000000
2.039473684210527  0.000000  0.000000  0.000000  -25.138844296502775  12.301560883336343  2.8717965398738885  46.04672026355774  6.983046669697454  1.7575956416224723  -49.122934048732894  44.81111498243796  86.11459124985755  90.85377238826844  120.000000
2.0802631578947377  0.000000  0.000000  0.000000  -24.819874641490685  11.938503619389786  2.4564264595368934  46.28728086268915  7.029359163602623  1.8236594988210975  -49.18293253783426  43.401074450064  86.5534002868238  88.51013374648898  120.000000
2.121052631578948  0.000000  0.000000  0.000000  -24.45588081954989  11.51865507066287  1.951850249167778  46.52442692561934  7.1264072155526  1.903091542580944  -49.18543984235794  41.8007667390483  86.93916207071366  85.80300494117996  120.000000
2.1618421052631587  0.000000  0.000000  0.000000  -24.055198232464523  11.048555081795861  1.3609903372894818  46.75079988561117  7.278596544820868  1.9981096580878834  -49.12068615663132  40.02199018816806  87.25084190323342  82.7462894196189  120.000000
2.2026315789473694  0.000000  0.000000  0.000000  -23.6256113617145  10.537599918102723  0.6880431803596064  46.96369521585637  7.487181270153305  2.115207510039725  -48.983072067698565  38.08695471727605  87.47033200385187  79.35913191925115  120.000000
2.2434210526315796  0.000000  0.000000  0.000000  -23.17821843293885  9.995963130816989  -0.06139051283413595  47.16411999912587  7.750713274058875  2.261644938913937  -48.76638591014369  36.02674480551749  87.58046679929923  75.66598831691933  120.000000
2.2842105263157904  0.000000  0.000000  0.000000  -22.726763346353792  9.435331590607612  -0.8822941323755294  47.35160348046712  8.064828163459065  2.4423096606328096  -48.44929909162458  33.87849172838982  87.55912223871634  71.69849356390685  120.000000
2.325000000000001  0.000000  0.000000  0.000000  -22.283189375857862  8.868107914334177  -1.77090805703696  47.520313835694566  8.422909628503184  2.65911845273376  -47.984682003515054  31.686827049114225  87.3801621750417  67.49841223665383  120.000000
2.3657894736842113  0.000000  0.000000  0.000000  -21.857998541818347  8.306486938525973  -2.7241350743491117  47.65996296645098  8.816096862473412  2.909819059779728  -47.29513866884398  29.50132983262113  87.00977575615298  63.11696537398672  120.000000
2.406578947368422  0.000000  0.000000  0.000000  -21.462926593852956  7.760269404581482  -3.7378779451703226  47.757745765021156  9.236136968477464  3.187486472744763  -46.285796188509785  27.37213339122714  86.41044634186957  58.616910070403236  120.000000
2.4473684210526327  0.000000  0.000000  0.000000  -21.10959307938059  7.238413841412412  -4.806614029306639  47.80744196622845  9.673815028141709  3.48969135680706  -44.86840140614302  25.351118757134433  85.5541775368502  54.06832231496434  120.000000
2.488157894736843  0.000000  0.000000  0.000000  -20.80150437046896  6.7504953977026  -5.921727863257203  47.81615133715229  10.118554358032561  3.8229695774061443  -42.998917089690686  23.486531790688947  84.45059742411154  49.53676516243784  120.000000
2.5289473684210537  0.000000  0.000000  0.000000  -20.53301101311609  6.300079068252149  -7.068457125833277  47.803770339723116  10.56027635359905  4.195854593684638  -40.710810019110056  21.818538791394708  83.16853608176055  45.08039288817  120.000000
2.569736842105264  0.000000  0.000000  0.000000  -20.294506971338222  5.88490117389712  -8.224630643931805  47.79881800243024  10.990181325849544  4.612444578286298  -38.13461390119033  20.369979100196144  81.84876497049427  40.751468866868684  120.000000
2.6105263157894747  0.000000  0.000000  0.000000  -20.07428760885779  5.50073739379303  -9.363357709855366  47.829873997086  11.39981284270113  5.071431368714587  -35.493176163398026  19.140471448886863  80.69587437988926  36.601266308805045  120.000000
2.6513157894736854  0.000000  0.000000  0.000000  -19.86637608980523  5.14439388459371  -10.457462328991761  47.9158543632023  11.78336380327624  5.563446877670141  -33.05531086888801  18.0979850243168  79.92646875483214  32.684672088330245  120.000000
2.6921052631578957  0.000000  0.000000  0.000000  -19.676440294778857  4.816913228842363  -11.481851297633126  48.06093146255268  12.137640350179316  6.073554832287429  -31.069548553915062  17.183641526140846  79.70566936837145  29.062323614663338  120.000000
2.7328947368421064  0.000000  0.000000  0.000000  -19.514312758147234  4.524729616394098  -12.41789807917661  48.25485030555691  12.463407217034389  6.585438902159844  -29.71529610123916  16.32701777726242  80.11277279833766  25.798704926921854  120.000000
2.7736842105263166  0.000000  0.000000  0.000000  -19.38864155223715  4.272792689850339  -13.257629274744092  48.478308861209136  12.767066814640948  7.084308764799947  -29.07862971182463  15.464245773568779  81.13417045403716  22.950576434194996  120.000000
2.8144736842105273  0.000000  0.000000  0.000000  -19.30712359880331  4.053223738331228  -14.004996983783775  48.71086267663376  13.062887708576119  7.553624422861859  -29.15344078833911  14.54996781141356  82.67727406883412  20.554660801664046  120.000000
2.855263157894738  0.000000  0.000000  0.000000  -19.27418187246073  3.8424470471020564  -14.66945854137359  48.93418712340928  13.37384884431692  7.972111830641254  -29.88230557333961  13.55817462971237  84.6393632446823  18.623028241510116  120.000000
2.8960526315789483  0.000000  0.000000  0.000000  -19.285903564489473  3.601161239172594  -15.2639173112336  49.13384623656668  13.728408255615367  8.310834053543726  -31.208723450730645  12.482695493915953  86.95671896264524  17.14965653353499  120.000000
2.936842105263159  0.000000  0.000000  0.000000  -19.3328765299587  3.26825096133636  -15.809627889944606  49.29370669963298  14.160345143303003  8.52942238161949  -33.08327316364006  11.33382383571942  89.58242826834565  16.113681292418256  120.000000
2.9776315789473697  0.000000  0.000000  0.000000  -19.41426470456167  2.7589349261727527  -16.330799745908458  49.408540226111086  14.705782816671787  8.57454083501303  -35.47458574325286  10.130014538811823  92.47945999775672  15.463588963364499  120.000000
3.01842105263158  0.000000  0.000000  0.000000  -19.530557666227697  1.9654544569524355  -16.86494195912434  49.48582030499167  15.395255654389386  8.385078652032414  -38.33273893439265  8.892263229384715  95.56973943062884  15.09032030513112  120.000000
3.0592105263157907  0.000000  0.000000  0.000000  -19.69320520605525  0.737633550854085  -17.45878123164887  49.57973161502881  16.248219289478055  7.883531822207665  -41.52665800415616  7.64638448783117  98.69039463294307  14.775084188912297  120.000000
3.1000000000000014  0.000000  0.000000  0.000000  -19.929661180139618  -1.0992474327826498  -18.168574131205673  49.77209915688198  17.268061451160204  6.997246244182704  -44.78284153592395  6.413031287559897  101.54339239404153  14.191307410308246  120.000000
