Simulation
nRows=77
nColumns=15
endheader
time  TH_x TH_y TH_z SC_y  SC_z  SC_x  AC_y  AC_z  AC_x  GH_y  GH_z  GH_yy  EL_x  PS_y
0.0  0.000000  0.000000  0.000000  -23.169259137588984  -1.779952481694211  -5.0234547215177585  54.47296973894239  10.826571589587235  -0.298471537187768  -20.53757000274425  6.465551774234363  77.09423843866851  14.828683565588738  120.000000
0.04078947368421054  0.000000  0.000000  0.000000  -22.004926356695076  -1.1592757141809769  -4.981519123254307  54.03508447006949  10.80735712591174  0.03935705531432599  -22.145241801347264  7.168640434423906  77.2562544247978  14.723310966882654  120.000000
0.08157894736842108  0.000000  0.000000  0.000000  -21.087812971212546  -0.8227836462482918  -5.110344873089351  53.701576904771905  10.8694727447962  0.28927394101951426  -22.53329086526703  8.017417402174907  76.39156001666039  14.534477291125418  120.000000
0.12236842105263163  0.000000  0.000000  0.000000  -20.384802883044138  -0.6634198657742646  -5.413298502131677  53.418261366940165  11.066891867317098  0.5231798046596137  -22.389126645563326  9.019186241574129  75.27580891838436  14.538208111812024  120.000000
0.16315789473684217  0.000000  0.000000  0.000000  -19.85643116550185  -0.6006041200741612  -5.905519020033454  53.120913953251375  11.42244603323387  0.7907187847230518  -22.044978532411786  10.130361771452742  74.16659689555192  14.868900751095996  120.000000
0.2039473684210527  0.000000  0.000000  0.000000  -19.443786198520034  -0.5686265714959239  -6.5776158729943885  52.77628882936384  11.945224236880643  1.1253759186941825  -21.82721644993  11.322159922589424  73.3287421432555  15.64177839634311  120.000000
0.24473684210526325  0.000000  0.000000  0.000000  -19.119253579730437  -0.5108761555470785  -7.416959675966562  52.34568059292029  12.62791658467902  1.557583860305477  -21.87544170535721  12.564687982739189  72.79899207026084  16.94330936449172  120.000000
0.2855263157894738  0.000000  0.000000  0.000000  -18.877239771270347  -0.3895300562878215  -8.407681970090112  51.81498809691601  13.458425352323381  2.109494094639174  -22.267071623265373  13.840361294420902  72.57642314481882  18.82132378775109  120.000000
0.32631578947368434  0.000000  0.000000  0.000000  -18.715629510052207  -0.18569526257939667  -9.52429130096284  51.17427056930168  14.411895766389803  2.788960243590232  -23.05792748317348  15.146853882631781  72.65921989366377  21.295243161441512  120.000000
0.3671052631578949  0.000000  0.000000  0.000000  -18.632284502101683  0.10541531087464838  -10.736593640774505  50.431020551728054  15.449429453802216  3.591732213136369  -24.25715524649234  16.489863514994003  73.02855712324615  24.325766849828113  120.000000
0.4078947368421054  0.000000  0.000000  0.000000  -18.62354203437052  0.46965152444931124  -12.002773560130118  49.61179518084168  16.522319764369094  4.499306000229815  -25.835128973597904  17.88194243276074  73.66741777930513  27.810228486216403  120.000000
0.44868421052631596  0.000000  0.000000  0.000000  -18.67693283881453  0.8863108493989931  -13.271987019525431  48.7632825132062  17.57275067307906  5.479106298334356  -27.69480452826339  19.338392652805453  74.52776230681027  31.59340802668307  120.000000
0.4894736842105265  0.000000  0.000000  0.000000  -18.776927239021305  1.341077369199913  -14.491265786141048  47.9319245046303  18.54538473141804  6.495813452634649  -29.69258366860427  20.871490106984396  75.53593916488266  35.51723858219357  120.000000
0.530263157894737  0.000000  0.000000  0.000000  -18.917384068022205  1.826910427682777  -15.611257238599993  47.15423069267389  19.3949529844457  7.507337142838547  -31.665862673145515  22.489539492072687  76.58158978898197  39.47357023103213  120.000000
0.5710526315789476  0.000000  0.000000  0.000000  -19.117950007749023  2.343888967666684  -16.58568086160496  46.4595410558614  20.085488043229198  8.475672299644659  -33.47379924865677  24.198028998190008  77.55604292451665  43.41005685376842  120.000000
0.6118421052631582  0.000000  0.000000  0.000000  -19.41380732841935  2.896079238138851  -17.378475056076972  45.87579133106314  20.592121977955095  9.364228241007496  -35.01521189261342  25.997561014877505  78.36105781349252  47.31729217423207  120.000000
0.6526315789473687  0.000000  0.000000  0.000000  -19.838727136410455  3.4836950519130223  -17.96472545740288  45.42347323528979  20.899655851522546  10.142180533161257  -36.24239182705734  27.889317673900393  78.93211307409096  51.2105068960693  120.000000
0.6934210526315792  0.000000  0.000000  0.000000  -20.417666327959296  4.098970761360555  -18.334180477134655  45.12123391503706  21.004506412546046  10.783915288481083  -37.15174144200158  29.87318260183002  79.23527361884015  55.10561580865382  120.000000
0.7342105263157898  0.000000  0.000000  0.000000  -21.15904988705765  4.7238973276835425  -18.49294259578632  44.980178501718484  20.918277507331478  11.276877794639246  -37.77842968690616  31.947454810030695  79.27436679570276  59.00561132360838  120.000000
0.7750000000000004  0.000000  0.000000  0.000000  -22.0490642294247  5.33312352959558  -18.46361270789435  45.00021709513407  20.66974460640114  11.621466745044135  -38.18542672069457  34.10346733590307  79.08698651212323  62.897163019779974  120.000000
0.8157894736842108  0.000000  0.000000  0.000000  -23.05154321048076  5.900949945893788  -18.267863622534797  45.16546649693581  20.296260132181416  11.825826336946614  -38.45683490004662  36.3179266557328  78.74450608063802  66.75237826482544  120.000000
0.8565789473684213  0.000000  0.000000  0.000000  -24.108783261563513  6.409861019083184  -17.919224768561467  45.44174720054152  19.839030241070684  11.899898441172475  -38.68401564489196  38.54411855653545  78.34007613518052  70.53042782478431  120.000000
0.8973684210526319  0.000000  0.000000  0.000000  -25.15079713574277  6.857725233100288  -17.423645656277447  45.781821007478165  19.337454457255546  11.858578058835045  -38.94454400583249  40.71759711028102  77.96900291132744  74.17900072099621  120.000000
0.9381578947368425  0.000000  0.000000  0.000000  -26.11010874021119  7.261019172547308  -16.783855992358678  46.13402168527855  18.821608760941793  11.72073782849474  -39.285174288061484  42.767915556640695  77.70456523669505  77.6416966715457  120.000000
0.978947368421053  0.000000  0.000000  0.000000  -26.93965257230031  7.6509531395768615  -16.005467731713676  46.45318784839045  18.304072078739896  11.508521618006954  -39.709288540674635  44.637581184479636  77.57586255202295  80.86773200482558  120.000000
1.0197368421052635  0.000000  0.000000  0.000000  -27.62088933889752  8.063167857233257  -15.103397050835344  46.706895912159816  17.779405241788464  11.245240024639935  -40.185772454613826  46.2945747087332  77.56861933614994  83.82073925461916  120.000000
1.060526315789474  0.000000  0.000000  0.000000  -28.159332809818675  8.524615528760712  -14.100854767962234  46.87721091971707  17.2343665890952  10.950644792679698  -40.67295374594685  47.73133530498872  77.64614844746522  86.48368972874972  120.000000
1.1013157894736847  0.000000  0.000000  0.000000  -28.573571157785103  9.045460460752318  -13.027615062048868  46.96010693524767  16.654919748391013  10.638095689715511  -41.13525629658109  48.96037559344762  77.7679355580224  88.85690433055198  120.000000
1.1421052631578952  0.000000  0.000000  0.000000  -28.884937456406703  9.618917291262752  -11.917771121970384  46.961835463854875  16.03651469025262  10.315998832259533  -41.552849888209025  50.001817200212336  77.90431910785306  90.95114881141303  120.000000
1.1828947368421057  0.000000  0.000000  0.000000  -29.111149785883974  10.225107158573541  -10.806784113277283  46.89638919654561  15.382766233023478  9.988939519348323  -41.919593223180414  50.879277002376824  78.03700203823708  92.78074954013744  120.000000
1.2236842105263164  0.000000  0.000000  0.000000  -29.267089200950043  10.83692066469278  -9.72278042867938  46.7850933771376  14.703236648119171  9.655975416449488  -42.239678311225724  51.613404740547175  78.1575972121312  94.3584063904478  120.000000
1.2644736842105269  0.000000  0.000000  0.000000  -29.366286375757184  11.424913800529463  -8.685082869715687  46.65263272998697  14.01010530295736  9.314296583589405  -42.52220937216666  52.22228819494956  78.26378655300364  95.69441648607777  120.000000
1.3052631578947373  0.000000  0.000000  0.000000  -29.421855714414722  11.962503652178633  -7.706568639794798  46.52379910720611  13.318785413109063  8.962099537781906  -42.77777591901225  52.71932391691078  78.35553903723233  96.79791606006104  120.000000
1.3460526315789478  0.000000  0.000000  0.000000  -29.446246881182017  12.428843872789992  -6.795379474737666  46.418498517054466  12.64568926542283  8.601669989467476  -43.01569119261187  53.11546481308315  78.43470852804252  97.67949802745301  120.000000
1.3868421052631583  0.000000  0.000000  0.000000  -29.450631487278415  12.810750663245845  -5.957216834181997  46.350572179322015  12.007473484503416  8.237746797775534  -43.24311164051572  53.41825332085233  78.502432583362  98.35253308324552  120.000000
1.427631578947369  0.000000  0.000000  0.000000  -29.444100535344326  13.10284371283831  -5.196127856063062  46.3253428309266  11.41832582881075  7.877997881248338  -43.46403500119169  53.63438995786658  78.56058895899409  98.83376911253431  120.000000
1.4684210526315795  0.000000  0.000000  0.000000  -29.432804215441177  13.30733661622477  -4.515611307845508  46.341402390878834  10.88930748030257  7.529692762606272  -43.679642030537195  53.76878156637571  78.61057325998154  99.14299867075277  120.000000
1.50921052631579  0.000000  0.000000  0.000000  -29.419231485159052  13.432577970812456  -3.918389422717362  46.38983937210457  10.426490740735291  7.200019953837576  -43.88785608731253  53.827085244105746  78.65553836627281  99.30294332842432  120.000000
1.5500000000000007  0.000000  0.000000  0.000000  -29.402471345956805  13.49155484036491  -3.4063555661204505  46.45781992512621  10.032167773722092  6.893367702795216  -44.085167599462096  53.813655925478564  78.70005712642782  99.3381883597249  120.000000
1.5907894736842112  0.000000  0.000000  0.000000  -29.37922339128974  13.499285765418573  -2.9795019547950488  46.52991547257097  9.704537430652948  6.612999324168663  -44.26742618676517  53.73343480188855  78.75205763758224  99.27341141076106  120.000000
1.6315789473684217  0.000000  0.000000  0.000000  -29.34535774854426  13.470742832300752  -2.6354836368383756  46.59342458545577  9.440070683445759  6.359922598146488  -44.433005494094964  53.58893840687744  78.82221850622658  99.12985103049931  120.000000
1.6723684210526322  0.000000  0.000000  0.000000  -29.297338215492616  13.418331403413957  -2.3692225681885803  46.64006105674126  9.233515132108733  6.1356015553619665  -44.58308046828197  53.38180181933024  78.9243662123621  98.92167777184319  120.000000
1.7131578947368427  0.000000  0.000000  0.000000  -29.23279601333801  13.350653322301813  -2.1740590472450845  46.66927553212843  9.079903017119502  5.941062036217014  -44.72309957823216  53.10991050578445  79.07313823828017  98.6526245474672  120.000000
1.7539473684210534  0.000000  0.000000  0.000000  -29.15035214887842  13.271189996410888  -2.0434478131557117  46.68632739295908  8.97399873876883  5.778555751897589  -44.85960318946967  52.7691102696836  79.28167879490192  98.31413751871702  120.000000
1.7947368421052639  0.000000  0.000000  0.000000  -29.048453554117398  13.178553092593978  -1.9736842300313737  46.702054487842226  8.911250418701577  5.649957775688467  -44.998597494084635  52.35076969516661  79.55732791205469  97.88358946264962  120.000000
1.8355263157894743  0.000000  0.000000  0.000000  -28.924612354985438  13.067097600231996  -1.9657217162115268  46.7289810937487  8.88647931777906  5.558135082814153  -45.14044215866309  51.84308211173344  79.89873539090614  97.32322756116722  120.000000
1.876315789473685  0.000000  0.000000  0.000000  -28.774596547979417  12.928324328566319  -2.0265218337475637  46.7801457718532  8.894709418040456  5.505345533130327  -45.27859912590147  51.229777154937906  80.29314078424622  96.58165355471981  120.000000
1.9171052631578955  0.000000  0.000000  0.000000  -28.593330645192864  12.751784745406512  -2.1678149786444907  46.86477585318274  8.931909617320272  5.4935139567836  -45.3976034293518  50.49260671003117  80.71794507221547  95.60015322462377  120.000000
1.957894736842106  0.000000  0.000000  0.000000  -28.376040247428335  12.526124816197  -2.4044173090743004  46.9870224048905  8.99735782408927  5.5217597289061064  -45.47514028578853  49.61273690653028  81.14212758671236  94.32297128616592  120.000000
1.9986842105263165  0.000000  0.000000  0.000000  -28.120428340043496  12.240145541154805  -2.750556679155899  47.14308420387104  9.095176720592692  5.586696127846866  -45.48391239605337  48.57405349317315  81.53173569702012  92.70769614788328  120.000000
2.039473684210527  0.000000  0.000000  0.000000  -27.82739404289468  11.884345985796076  -3.217900475907749  47.322981288234544  9.234572455037693  5.682268545231487  -45.39543263853668  47.365199248135156  81.85209329275712  90.73110599268814  120.000000
2.0802631578947377  0.000000  0.000000  0.000000  -27.500693070223754  11.452565379069291  -3.8133695375017287  47.51226982546248  9.427692238750152  5.802760568559938  -45.184223563739195  45.98236500053645  82.07219682016758  88.38830808152952  120.000000
2.121052631578948  0.000000  0.000000  0.000000  -27.14570578031128  10.94314421959706  -4.538111491535283  47.697450010947286  9.686081103214825  5.94413578350744  -44.83206129035757  44.43060580636441  82.16518882624763  85.68643703795162  120.000000
2.1618421052631587  0.000000  0.000000  0.000000  -26.767820244614523  10.358753399049826  -5.387125015351541  47.86902319818524  10.017672162183331  6.105475882918788  -44.330303195499376  42.72559996900977  82.1105877783005  82.63817565705327  120.000000
2.2026315789473694  0.000000  0.000000  0.000000  -26.370843764205855  9.707299390262378  -6.350836737173916  48.022818262048666  10.42535354221552  6.28931057667712  -43.67980481106019  40.89256253958537  81.89506190517933  79.25936036749047  120.000000
2.2434210526315796  0.000000  0.000000  0.000000  -25.958968553652934  9.002294472060784  -7.415503379607855  48.15731680060445  10.90664743123774  6.500839856219167  -42.88721335045244  38.962651465020215  81.5138699354741  75.57107321511361  120.000000
2.2842105263157904  0.000000  0.000000  0.000000  -25.536762696446928  8.261732211346008  -8.565836978617213  48.268338555591484  11.455814011242392  6.744387918135697  -41.953301380343035  36.96785376247066  80.96674929752317  71.60289000248873  120.000000
2.325000000000001  0.000000  0.000000  0.000000  -25.10556668955313  7.50692628985939  -9.788491730382196  48.34479459710076  12.066162935759007  7.023411564235724  -40.86513816532128  34.939963642355586  80.25801124852795  67.39661962631652  120.000000
2.3657894736842113  0.000000  0.000000  0.000000  -24.663349256217504  6.760034695055965  -11.068859790751471  48.369728161478186  12.729101621667365  7.337712250250112  -39.59356047788712  32.91100508362778  79.3969504471854  63.00865676193905  120.000000
2.406578947368422  0.000000  0.000000  0.000000  -24.204297858473403  6.039478869862969  -12.385960282170888  48.32432558948273  13.431415615199375  7.678531936926349  -38.10384791826961  30.912589685752558  78.39990042396485  58.50709171969357  120.000000
2.4473684210526327  0.000000  0.000000  0.000000  -23.719948050377866  5.356184160610473  -13.71346472873758  48.196153312770996  14.157974332472024  8.031868438542729  -36.37852447130153  28.974328814801417  77.29892090264418  53.96110287560789  120.000000
2.488157894736843  0.000000  0.000000  0.000000  -23.200041301027326  4.713698771119783  -15.02484687106096  47.985949031901036  14.893577973898335  8.384458117034201  -34.43470906344192  27.12335249648136  76.15012886542458  49.43275779910426  120.000000
2.5289473684210537  0.000000  0.000000  0.000000  -22.633748379659497  4.1102923066410835  -16.295288821531248  47.71024129491416  15.621874373343918  8.727880449315727  -32.33969267015925  25.386085609669138  75.04247394743825  44.979923395735064  120.000000
2.569736842105264  0.000000  0.000000  0.000000  -22.01871740415966  3.5437970563083216  -17.503042755195185  47.40101009457742  16.32466961525566  9.060809156827714  -30.21701918436252  23.78206678157195  74.09405276927026  40.65885764924327  120.000000
2.6105263157894747  0.000000  0.000000  0.000000  -21.361793188170203  3.0165326820211353  -18.631309355884625  47.09685178012892  16.98082990661826  9.388754269515355  -28.23020504234068  22.319474895839015  73.43415687042507  36.52628754283058  120.000000
2.6513157894736854  0.000000  0.000000  0.000000  -20.675596547496074  2.5338823771556047  -19.670103255510178  46.83181683611244  17.571213165158394  9.71697883328379  -26.543804778943166  20.992004167516843  73.16526552042846  32.64199639865624  120.000000
2.6921052631578957  0.000000  0.000000  0.000000  -19.988160834332408  2.0982521816295883  -20.6127570935132  46.629212098403094  18.086447308216385  10.045997863295964  -25.277717023184923  19.777381564213968  73.31588336982698  29.065612448594383  120.000000
2.7328947368421064  0.000000  0.000000  0.000000  -19.342344770890193  1.712667773690234  -21.449313056395887  46.50328089714731  18.52961911269455  10.370959398030795  -24.47514337687378  18.639954239117188  73.83819577477482  25.849464637244132  120.000000
2.7736842105263166  0.000000  0.000000  0.000000  -18.77459478103485  1.3880511816793146  -22.166201070265924  46.45941000278265  18.905968406547963  10.686963128726045  -24.10526648457688  17.543668133818567  74.64331952754115  23.03416650415472  120.000000
2.8144736842105273  0.000000  0.000000  0.000000  -18.30524898940325  1.1397970365142467  -22.752429764963956  46.491980645532394  19.218810471069308  10.990716618066221  -24.082260249486332  16.45794611979851  75.61778575020227  20.649186446759074  120.000000
2.855263157894738  0.000000  0.000000  0.000000  -17.944752469828597  0.9791140711112161  -23.202544120040116  46.589267642275395  19.474228904196824  11.280534218717424  -24.288951223319934  15.358820818830763  76.64374929216002  18.710559089876465  120.000000
2.8960526315789483  0.000000  0.000000  0.000000  -17.691727772732005  0.9050435821860782  -23.519581547571597  46.73772556618085  19.684272310784348  11.553620936511098  -24.604558972295788  14.226996730937795  77.6085714942326  17.2142731557762  120.000000
2.936842105263159  0.000000  0.000000  0.000000  -17.534928811547847  0.8965949342054824  -23.714808891506017  46.92385611185781  19.872029328709836  11.800610812553204  -24.92619478739941  13.046526099675914  78.40920355469852  16.137319381903843  120.000000
2.9776315789473697  0.000000  0.000000  0.000000  -17.46620256912473  0.9105470192728401  -23.806741814433966  47.14134277551652  20.070010603546603  12.000774422809794  -25.15037530267078  11.803402559104546  78.91671501020079  15.432860056647348  120.000000
3.01842105263158  0.000000  0.000000  0.000000  -17.473092355159565  0.8768849239724672  -23.823489562062832  47.39312949067223  20.315431209056598  12.122361553411736  -25.158955188205038  10.48557080136843  78.96230793870428  15.009637188448236  120.000000
3.0592105263157907  0.000000  0.000000  0.000000  -17.536793894424214  0.6985008846274718  -23.7984230104562  47.70293031757542  20.63958408330713  12.121743809384272  -24.78522225810447  9.09238429436357  78.32531061620661  14.71569902085319  120.000000
3.1000000000000014  0.000000  0.000000  0.000000  -17.688685418790566  0.3068882626033936  -23.769418544963692  48.08908989320081  21.03469999813635  11.98352448094449  -23.52996150496104  7.62758333350692  76.47935079829519  14.354551125937904  120.000000
