Simulation
nRows=77
nColumns=15
endheader
time  TH_x TH_y TH_z SC_y  SC_z  SC_x  AC_y  AC_z  AC_x  GH_y  GH_z  GH_yy  EL_x  PS_y
0.0  0.000000  0.000000  0.000000  -26.385327572937907  -2.1320317430034685  -2.3934634418014755  57.260793026261226  8.899282941147336  -1.2957609926469043  -43.61264455802223  7.34568459969553  102.02145992723229  14.751552228544936  120.000000
0.04078947368421054  0.000000  0.000000  0.000000  -25.03606010729159  -1.179944723713894  -2.0262683962912424  56.48530126643309  8.690712469935967  -0.9088755204690423  -37.08917459645869  7.8218488006875635  94.54652487138596  14.637362210052569  120.000000
0.08157894736842108  0.000000  0.000000  0.000000  -23.90465154732145  -0.5552845595326695  -1.82527339325764  55.82419338728184  8.52377792236841  -0.7106188738790397  -31.032373670401295  8.479585661187507  87.56946193901634  14.414610655281864  120.000000
0.12236842105263163  0.000000  0.000000  0.000000  -22.936621430534068  -0.1473782794386572  -1.8063552210280371  55.23427761240709  8.468088602697097  -0.5980523905509254  -26.150587617428013  9.335006915044792  81.85835440622878  14.379172411403768  120.000000
0.16315789473684217  0.000000  0.000000  0.000000  -22.087183963293405  0.13319292245948508  -1.973237042129975  54.66451482370207  8.545595594780213  -0.4973213870960455  -22.72922130929714  10.342618905071252  77.64834660602025  14.704286692576726  120.000000
0.2039473684210527  0.000000  0.000000  0.000000  -21.31025567754975  0.3367162481679202  -2.322144535804834  54.08707203616859  8.771940653451992  -0.3717120428219765  -20.751394502332595  11.455693532731472  74.85072212381763  15.506883764063012  120.000000
0.24473684210526325  0.000000  0.000000  0.000000  -20.582989522044517  0.4893116569464522  -2.847533365442998  53.478367205774575  9.154603680428451  -0.19674035547061974  -20.030419233894712  12.640457069125828  73.21277937762672  16.8510814796861  120.000000
0.2855263157894738  0.000000  0.000000  0.000000  -19.928991605880768  0.6086863138760724  -3.5443732993781594  52.831978975687115  9.702178960725256  0.04683495075840617  -20.30711493138583  13.877488209564747  72.43658468567399  18.76963985160262  120.000000
0.32631578947368434  0.000000  0.000000  0.000000  -19.390012202802353  0.7249835549465251  -4.398995726600892  52.143409012738175  10.408147912238928  0.3846656036544805  -21.34690142427991  15.15861096430098  72.2819563477299  21.270987307224715  120.000000
0.3671052631578949  0.000000  0.000000  0.000000  -19.001547037841107  0.8789845495578141  -5.38529193225277  51.416939431077  11.242146984272695  0.8399438631615962  -22.93752376347203  16.480614566135433  72.56654943296584  24.315621294037197  120.000000
0.4078947368421054  0.000000  0.000000  0.000000  -18.764700231251275  1.094302449762701  -6.462896615084715  50.66697511515333  12.16322650978338  1.4166046178458034  -24.92245553241124  17.84510065847755  73.19146371883274  27.807636234451046  120.000000
0.44868421052631596  0.000000  0.000000  0.000000  -18.6476560972278  1.366826032299207  -7.584088163167057  49.91480052402582  13.124292192108937  2.0950964306563153  -27.15704079930135  19.263026900685496  74.08572557185205  31.60062352415811  120.000000
0.4894736842105265  0.000000  0.000000  0.000000  -18.612491135203967  1.6847583570635645  -8.699685614108294  49.179989618269545  14.079838922658567  2.847361335236784  -29.48671338966622  20.742223487592486  75.16564238164716  35.537958705185176  120.000000
0.530263157894737  0.000000  0.000000  0.000000  -18.632844234791655  2.0430605339020587  -9.760776379079946  48.47866866754814  14.98941732406783  3.641738301672406  -31.768027266482868  22.286478912042757  76.33396654122078  39.506994536321294  120.000000
0.5710526315789476  0.000000  0.000000  0.000000  -18.702343026220472  2.444439263970638  -10.72111687405285  47.818371268342936  15.81852273559931  4.448135246589138  -33.888328544421746  23.89428343475647  77.49421282737478  43.45148756886472  120.000000
0.6118421052631582  0.000000  0.000000  0.000000  -18.829293126620907  2.893212545249826  -11.541901012350003  47.202785184208786  16.541711466649893  5.234046484674006  -35.7776788732952  25.557594067986315  78.5600726302776  47.361365684179646  120.000000
0.6526315789473687  0.000000  0.000000  0.000000  -19.02472140203509  3.3901665433438564  -12.192332457446968  46.6342112747029  17.13972931591949  5.968604613987335  -37.41230394547827  27.269685169391337  79.47418532315925  51.251981139289434  120.000000
0.6934210526315792  0.000000  0.000000  0.000000  -19.293914229368514  3.9306497298470813  -12.652913673033888  46.11882679036816  17.59965225674759  6.625137803902804  -38.80263350809354  29.025632330180258  80.20710333329198  55.14001722698026  120.000000
0.7342105263157898  0.000000  0.000000  0.000000  -19.632460932616954  4.503301716494523  -12.915483778579816  45.667416757058085  17.91514579476771  7.184210321028777  -39.97847342456598  30.824649573390328  80.75333566682731  59.03005938577048  120.000000
0.7750000000000004  0.000000  0.000000  0.000000  -20.027387445697833  5.093554261718291  -12.983244696237323  45.292524487562986  18.086743996395345  7.634656251937293  -40.97724977781273  32.66568450085456  81.1237801165891  62.91117856617155  120.000000
0.8157894736842108  0.000000  0.000000  0.000000  -20.4632999887359  5.688387814681541  -12.867423467463754  45.00241089313696  18.121033983934772  7.973852024736665  -41.831973509388924  34.54083435206279  81.33783483698939  66.7582359402255  120.000000
0.8565789473684213  0.000000  0.000000  0.000000  -20.924872931521705  6.279648945982284  -12.584717744464172  44.7957418584157  18.028859102183116  8.205497350931484  -42.56590451942512  36.42900861613735  81.41957019769204  70.53215686037682  120.000000
0.8973684210526319  0.000000  0.000000  0.000000  -21.39941061828624  6.8642924838895185  -12.153416351047373  44.66267379531498  17.824668471133467  8.337598765166737  -43.192649889062665  38.29567733822515  81.39718995584798  74.18130916691715  120.000000
0.9381578947368425  0.000000  0.000000  0.000000  -21.8773320584432  7.443019250004189  -11.592429029377962  44.58620758731007  17.524911995574993  8.381141473917488  -43.71953660297117  40.098451239500044  81.30243207603655  77.64859621899517  120.000000
0.978947368421053  0.000000  0.000000  0.000000  -22.350847215512136  8.018039246264854  -10.920492251433537  44.54588402864332  17.146594841561274  8.347175311488478  -44.151603029675954  41.7952181879516  81.16699149209138  80.88198201291804  120.000000
1.0197368421052635  0.000000  0.000000  0.000000  -22.812308745444028  8.590535955823594  -10.155996133460906  44.52092176325904  16.70456883416672  8.24516227111429  -44.496298202903375  43.353841452538575  81.02123326503317  83.844385786751  120.000000
1.060526315789474  0.000000  0.000000  0.000000  -23.253477541919967  9.158813709359842  -9.317371369549411  44.49403009872615  16.212269725453883  8.081357160448755  -44.766157779549296  44.75576608707835  80.89150307533761  86.5183233416205  120.000000
1.1013157894736847  0.000000  0.000000  0.000000  -23.666025838651933  9.717388156008397  -8.423239378466228  44.453389191318756  15.681073451200692  7.860448501683841  -44.97873268456852  45.99735658875431  80.79926090142344  88.90365587424273  120.000000
1.1421052631578952  0.000000  0.000000  0.000000  -24.042381914679297  10.258033021657473  -7.492223942486589  44.394456837090004  15.121622237649646  7.5861098250948835  -45.15425082276494  47.08395582913438  80.7586277313115  91.0102540572671  120.000000
1.1828947368421057  0.000000  0.000000  0.000000  -24.376516024992878  10.770716290143447  -6.542515451619212  44.31928872817997  14.543040406236045  7.263570208061182  -45.3121064013471  48.02690141816385  80.77588979787912  92.8510864584603  120.000000
1.2236842105263164  0.000000  0.000000  0.000000  -24.66465687368229  11.244980815490973  -5.591445853409092  44.23616475018909  13.954599144913402  6.899294493879767  -45.46854825877402  48.837895700938205  80.84890789371215  94.43779297341436  120.000000
1.2644736842105269  0.000000  0.000000  0.000000  -24.90554818448618  11.670811274265452  -4.655061005893394  44.156382283300665  13.36505718224512  6.502475729487708  -45.634746100653906  49.52858769137108  80.9689240743898  95.77996447493403  120.000000
1.3052631578947373  0.000000  0.000000  0.000000  -25.10062330445257  12.039919499716861  -3.7479104674366317  44.09253647488991  12.784004123656176  6.083458073876199  -45.81727652296808  50.10781425524826  81.12228339124681  96.88644918587198  120.000000
1.3460526315789478  0.000000  0.000000  0.000000  -25.25389986700174  12.346435525329476  -2.8826715019682077  44.05480746965972  12.220729791489719  5.654175150756621  -46.017818061532175  50.583166465357856  81.29358276263464  97.76772980007152  120.000000
1.3868421052631583  0.000000  0.000000  0.000000  -25.371501040312726  12.587867889232145  -2.070043716249348  44.05023112897329  11.684648164887895  5.225860987141322  -46.23486922198568  50.959641521799476  81.4677625756147  98.43738821062013  120.000000
1.427631578947369  0.000000  0.000000  0.000000  -25.460644260501258  12.765273005709162  -1.318814692265599  44.08053889958379  11.18343323896477  4.809338696350965  -46.463310472880124  51.24208992431884  81.6322493132462  98.91276805552654  120.000000
1.4684210526315795  0.000000  0.000000  0.000000  -25.528236410167256  12.883550427466393  -0.6360575714224934  44.143086450841636  10.7229252300712  4.412945713699153  -46.69594349078334  51.43442221194888  81.777866775935  99.21461575146083  120.000000
1.50921052631579  0.000000  0.000000  0.000000  -25.579707017977434  12.950745836940293  -0.02678974802648243  44.23008247121331  10.30539590507405  4.042708639041592  -46.92288018130778  51.54174659398538  81.89961047608992  99.36667942130994  120.000000
1.5500000000000007  0.000000  0.000000  0.000000  -25.61848271177753  12.977286229923147  0.5057182561963653  44.33087390946566  9.93079325490138  3.7013817869886125  -47.133838506990685  51.568856973619546  81.99688802620668  99.3945404856854  120.000000
1.5907894736842112  0.000000  0.000000  0.000000  -25.646225554360885  12.974258860515194  0.9598175432359795  44.43310642888445  9.597044908215588  3.3902931882486995  -47.31887038262248  51.52125816158286  82.07379752913593  99.32367556857763  120.000000
1.6315789473684217  0.000000  0.000000  0.000000  -25.663404314694557  12.951931897932058  1.336065460265809  44.52679993154482  9.30157806137951  3.1092393682567283  -47.47177834583962  51.402899099229835  82.13903434289168  99.17601582750429  120.000000
1.6723684210526322  0.000000  0.000000  0.000000  -25.669906481022103  12.917990608028854  1.6376826399328344  44.60608615108222  9.04137427082507  2.8582603520683  -47.59103852438522  51.21627726724032  82.20550142925919  98.96620723067001  120.000000
1.7131578947368427  0.000000  0.000000  0.000000  -25.665106192050608  12.876582217764481  1.8697851293861942  44.67159364493184  8.814149316252575  2.6376425221079027  -47.681398113048395  50.96037544857277  82.28876362449171  98.69829507654148  120.000000
1.7539473684210534  0.000000  0.000000  0.000000  -25.647295381374605  12.827480085765048  2.037903351444709  44.72913010639226  8.618194360470946  2.448637038920669  -47.751638157035416  50.63098608822756  82.40459133742449  98.36375233973007  120.000000
1.7947368421052639  0.000000  0.000000  0.000000  -25.61268460751794  12.76630725699841  2.145827956078965  44.7889623688477  8.452558969496641  2.292655736925698  -47.81261063329607  50.219414896335664  82.56549364195077  97.9397399341315  120.000000
1.8355263157894743  0.000000  0.000000  0.000000  -25.55477592103705  12.685334352980728  2.1939060596544797  44.86290133557539  8.316120008828264  2.1716773757208125  -47.872925024603326  49.712876218625546  82.7777393686864  97.38803158122658  120.000000
1.876315789473685  0.000000  0.000000  0.000000  -25.464357355097455  12.57472436301716  2.178009074830898  44.96266671275478  8.207650844024931  2.0874561967241934  -47.93674742649165  49.09458864108805  83.03926062715334  96.65655418791987  120.000000
1.9171052631578955  0.000000  0.000000  0.000000  -25.330958140034074  12.423423031645429  2.0901682525384935  45.0965947774393  8.126656703309877  2.0409218351731884  -48.001580178061964  48.3460805065196  83.34012914659253  95.6857446831632  120.000000
1.957894736842106  0.000000  0.000000  0.000000  -25.145118835240165  12.219984307063758  1.9200511829263278  45.267819265462514  8.075165696398617  2.030507115225069  -48.05883881999615  47.44983287298012  83.66399981896168  94.41877504888362  120.000000
1.9986842105263165  0.000000  0.000000  0.000000  -24.901327612269164  11.953465970129551  1.6574655651705958  45.472398476323114  8.059262299086948  2.051531393610518  -48.094731460874634  46.392167543390315  83.99127821863252  92.81178069294893  120.000000
2.039473684210527  0.000000  0.000000  0.000000  -24.599568807899335  11.614739194374922  1.294022320395011  45.700428766405956  8.089003478323269  2.0966107881383347  -48.092821175684726  45.16518776451662  84.30085106046721  90.83966829735682  120.000000
2.0802631578947377  0.000000  0.000000  0.000000  -24.245361318269723  11.19830807289249  0.8242578886092673  45.93854762978394  8.176547937299905  2.158436957214768  -48.037085978676146  43.7676839653119  84.57226426503897  88.4952630650531  120.000000
2.121052631578948  0.000000  0.000000  0.000000  -23.84785137557966  10.703463028196682  0.24519842786794366  46.17405319195356  8.333435571343077  2.232771676821773  -47.91475994847462  42.2055417164397  84.78571431119994  85.7842481940379  120.000000
2.1618421052631587  0.000000  0.000000  0.000000  -23.416767826722  10.134872641180596  -0.4445956836028308  46.397659265339385  8.568273327760727  2.3211329389531405  -47.71791474314024  40.492115100157804  84.92297636181686  82.71970210277034  120.000000
2.2026315789473694  0.000000  0.000000  0.000000  -22.96031540575365  9.502195711684507  -1.2458778237824615  46.60417907604582  8.88557704462972  2.4312733485725526  -47.44121777893865  38.64815826488735  84.9671979842979  79.31947461783966  120.000000
2.2434210526315796  0.000000  0.000000  0.000000  -22.48618286628382  8.819563981139632  -2.158546405384495  46.79081692235794  9.285709011302648  2.5751655871575116  -47.07652152840165  36.700187890640194  84.90235608164421  75.60754533993156  120.000000
2.2842105263157904  0.000000  0.000000  0.000000  -22.00385542011165  8.10536893816501  -3.181075785667832  46.95341408336875  9.764900925183555  2.7653121834669645  -46.60250326034623  34.67778323848015  84.70977212972241  71.61730480733684  120.000000
2.325000000000001  0.000000  0.000000  0.000000  -21.525037950344338  7.380388283880597  -4.3092419942204145  47.083757742344105  10.315992453815301  3.010481651393638  -45.97450047791785  32.612555366361775  84.36577761110622  67.39420078367836  120.000000
2.3657894736842113  0.000000  0.000000  0.000000  -21.062264927415526  6.665441065969342  -5.537422377545543  47.16927099325947  10.929862097506305  3.31557332671608  -45.12133073084133  30.53909252528019  83.84029456222487  62.995600874659196  120.000000
2.406578947368422  0.000000  0.000000  0.000000  -20.626883627773974  5.979196500664961  -6.858326295595973  47.196458508692125  11.59686134378068  3.6825155530522142  -43.958026059893946  28.494857870523195  83.10300699354129  58.48804957279351  120.000000
2.4473684210526327  0.000000  0.000000  0.000000  -20.225948330437333  5.335870230587163  -8.257571377266862  47.1571989609752  12.303743570925073  4.109311891594604  -42.407666737803105  26.520746325623655  82.13533825751188  53.940749239070506  120.000000
2.488157894736843  0.000000  0.000000  0.000000  -19.859807133124875  4.744237470547443  -9.710139852651283  47.05622736491005  13.032479581953245  4.590138409852314  -40.432508166427446  24.658522615535528  80.94998334204611  49.41782875653567  120.000000
2.5289473684210537  0.000000  0.000000  0.000000  -19.52394280548044  4.206658292960857  -11.180935931356856  46.91349972211883  13.761937074744518  5.116611612813465  -38.062127257882025  22.947486208793435  79.6103137811802  44.97668987129626  120.000000
2.569736842105264  0.000000  0.000000  0.000000  -19.213669599975614  3.7219440206334986  -12.62692373457687  46.763374637747695  14.469415556243113  5.6780888911790095  -35.41144858240075  21.416556191636566  78.24356144784433  40.66876873997929  120.000000
2.6105263157894747  0.000000  0.000000  0.000000  -18.92692858956401  3.2903686862453787  -14.002675394776444  46.64643448738348  15.130894788354277  6.2624342902036805  -32.675502557640456  20.075932812551287  77.03171299980643  36.54337205605192  120.000000
2.6513157894736854  0.000000  0.000000  0.000000  -18.67075724090507  2.916886791551683  -15.264935542447203  46.597351420600134  15.723067204214763  6.853605851215843  -30.090133158483972  18.90807195295568  76.16696017419437  32.653991888544255  120.000000
2.6921052631578957  0.000000  0.000000  0.000000  -18.46859137170938  2.6104077838122053  -16.376740709358444  46.637613186010384  16.226078589567805  7.43319540661201  -27.871700598455195  17.87087792213499  75.79167609365184  29.060539559624754  120.000000
2.7328947368421064  0.000000  0.000000  0.000000  -18.351063047865136  2.3792842394199742  -17.312319264688536  46.7726719159572  16.628067741977283  7.983041501626196  -26.171885508479946  16.909320174215758  75.96602372429729  25.822266459293072  120.000000
2.7736842105263166  0.000000  0.000000  0.000000  -18.33954203098732  2.225012369843218  -18.05696682360787  46.99472244554633  16.922807458609086  8.486433195236822  -25.07040307802352  15.972020105886118  76.6778221750829  22.98488738828898  120.000000
2.8144736842105273  0.000000  0.000000  0.000000  -18.436655086779737  2.1430942411140728  -18.609205925738923  47.28334784115137  17.111655246080634  8.931593718655806  -24.596426078454805  15.018569204154911  77.87749390251903  20.578709404523337  120.000000
2.855263157894738  0.000000  0.000000  0.000000  -18.624640660796327  2.127004132607932  -18.980615779851064  47.614593249101354  17.205138368391616  9.311219102651526  -24.761474019851228  14.023223144424254  79.51708390881478  18.62354096863567  120.000000
2.8960526315789483  0.000000  0.000000  0.000000  -18.8759831764489  2.1608572118004563  -19.191236718243875  47.969364535876736  17.22032116986046  9.61781998835402  -25.57721949399253  12.97910481855719  81.57102647074956  17.122327075637326  120.000000
2.936842105263159  0.000000  0.000000  0.000000  -19.170435406430876  2.2122134065438748  -19.266407329606924  48.334072512813485  17.184252352272793  9.840634478664148  -27.06434563304027  11.889876026338648  84.04718636560389  16.05101036696561  120.000000
2.9776315789473697  0.000000  0.000000  0.000000  -19.51613499387631  2.233603303492649  -19.23363353405114  48.70817248623073  17.129798951305652  9.960617780755792  -29.234323962322964  10.76402183568428  86.95902783046789  15.355039328464864  120.000000
3.01842105263158  0.000000  0.000000  0.000000  -19.93375843119917  2.16811387109054  -19.12649541600843  49.09465320949276  17.089443896513597  9.959099232184148  -32.12946823458228  9.60952304753946  90.34929550608938  14.945557041591677  120.000000
3.0592105263157907  0.000000  0.000000  0.000000  -20.454866972268302  1.9514599391442307  -18.984727670535882  49.51513029797799  17.085255636973617  9.811840361076092  -35.788846034710545  8.430894098886114  94.25857360070555  14.676359407005725  120.000000
3.1000000000000014  0.000000  0.000000  0.000000  -21.146436848029047  1.517776430229954  -18.858564683227605  49.99714802596271  17.11605024879172  9.502598038858764  -40.161319974946224  7.226615077370922  98.631734618468  14.338909394382181  120.000000
