Simulation
nRows=101
nColumns=15
endheader
time  TH_x TH_y TH_z SC_y  SC_z  SC_x  AC_y  AC_z  AC_x  GH_y  GH_z  GH_yy  EL_x  PS_y
0.0  0.000000  0.000000  0.000000  -27.549367437425936  3.5970814489931238  5.325895916796365  53.54992990624156  9.757930556093056  3.3285796718821423  6.5440387656603844  5.838507508950132  42.010762817001165  16.059394441668687  120.000000
0.027999999999999973  0.000000  0.000000  0.000000  -26.81884417050105  3.9477212865413596  4.889315072323277  52.96444014980638  9.823290980285188  3.489707206323185  8.441337967509421  6.6236140635976355  39.904170600428984  15.539991360860872  120.000000
0.055999999999999946  0.000000  0.000000  0.000000  -25.900845668793856  4.336021362925261  4.354195707926789  52.36555955524724  9.793000123721619  3.6633891696446366  9.864222081595761  7.383383785165192  38.139791609536815  15.037839129300375  120.000000
0.08399999999999992  0.000000  0.000000  0.000000  -25.09547936539573  4.656651403631909  3.8290441251540224  51.800529529693115  9.707933298007497  3.8297714912924112  11.018113835986856  8.144884245819979  36.53735593020552  14.556134739262912  120.000000
0.11199999999999989  0.000000  0.000000  0.000000  -24.45849652058358  4.908917984806184  3.340230611843772  51.31518614409499  9.61320351341611  3.965818248914601  11.966863943646525  8.938608658658763  35.057941620762634  14.097717273718876  120.000000
0.13999999999999987  0.000000  0.000000  0.000000  -24.013049688853897  5.0888100877290645  2.9222892250814585  50.91797863134995  9.531823053515923  4.072019798988007  12.64174094389964  9.781776617169022  33.79345096269614  13.663627399389652  120.000000
0.16799999999999984  0.000000  0.000000  0.000000  -23.740395619680132  5.205119938415013  2.5861633953940317  50.60914843833774  9.478884923051346  4.153562951776023  13.033160732522735  10.693426433993773  32.76915133456603  13.257231576261104  120.000000
0.1959999999999998  0.000000  0.000000  0.000000  -23.590384698898557  5.286146635391653  2.334865574131734  50.37953324151672  9.457292657971822  4.212931223797495  13.143474083955526  11.686349443673961  31.99117558958704  12.882114233859308  120.000000
0.22399999999999978  0.000000  0.000000  0.000000  -23.53284797948892  5.345625437434902  2.169659545779325  50.214790168007404  9.468045843535084  4.254113979406657  13.007482046387471  12.771585321779984  31.42759025916155  12.54351553291182  120.000000
0.2519999999999998  0.000000  0.000000  0.000000  -23.522702277824038  5.404878060280871  2.085574681746065  50.0974275057346  9.504665235367382  4.280477967083834  12.677193380264608  13.951129063916923  31.0238130343146  12.245786199883051  120.000000
0.27999999999999975  0.000000  0.000000  0.000000  -23.538250157451888  5.473477556969704  2.0822919898767345  50.01114944518078  9.564271029965154  4.295411698139912  12.215053626565854  15.222879349682014  30.712257450660196  11.99424838320391  120.000000
0.3079999999999997  0.000000  0.000000  0.000000  -23.559120635542445  5.562996856776292  2.1569046799333917  49.94142841572562  9.64355166806144  4.298997923471141  11.676097914751633  16.579151923307098  30.427934417720536  11.789797297297785  120.000000
0.3359999999999997  0.000000  0.000000  0.000000  -23.578798267984084  5.678564261081537  2.309918409233911  49.877941187394036  9.742372969003979  4.290530711520698  11.112688130597611  18.008402240202738  30.10708775139435  11.632120345211357  120.000000
0.36399999999999966  0.000000  0.000000  0.000000  -23.602035008200936  5.823268618054701  2.542386918780362  49.81654547505484  9.862503642190743  4.267513937199632  10.574099216616137  19.498367013846735  29.68733128730131  11.517067002169476  120.000000
0.3919999999999996  0.000000  0.000000  0.000000  -23.633855659849058  5.996204565798877  2.8551535386658267  49.75453187218666  10.005895214743642  4.227244090446397  10.09294168110163  21.03361065101287  29.12378046880202  11.438335546976605  120.000000
0.4199999999999996  0.000000  0.000000  0.000000  -23.69234101444376  6.188044711912119  3.2492813123552096  49.69250841531713  10.17459188979045  4.169860927096814  9.69262013214521  22.59985292267302  28.384560571530436  11.387677158517628  120.000000
0.44799999999999957  0.000000  0.000000  0.000000  -23.783875238334915  6.393015391365204  3.724276770573579  49.63368245653884  10.368221508015099  4.093742622260547  9.383127849049256  24.181415387473287  27.457382988338455  11.356346728297922  120.000000
0.47599999999999953  0.000000  0.000000  0.000000  -23.919322223902135  6.600574637788268  4.277198708603446  49.58273588941165  10.587015760489836  4.000808835314669  9.164171972413612  25.76736941919059  26.348231584174695  11.334941276596146  120.000000
0.5039999999999996  0.000000  0.000000  0.000000  -24.099228481458372  6.804309781197293  4.905399297559076  49.544372211435714  10.827260341502633  3.892816786773949  9.026102791339362  27.34669980277537  25.081047668965446  11.31427976830105  120.000000
0.5319999999999995  0.000000  0.000000  0.000000  -24.3217109815493  6.997538311850753  5.601597555853104  49.52274914439412  11.085080425303806  3.7732312647272392  8.953454336788335  28.913728876690488  23.691276613364415  11.285414027335817  120.000000
0.5599999999999995  0.000000  0.000000  0.000000  -24.581499189172032  7.17576596353306  6.3609082765634355  49.520833781567454  11.35315387252869  3.645734841191462  8.92887689345299  30.46244647999466  22.22124007287641  11.24143397165801  120.000000
0.5879999999999994  0.000000  0.000000  0.000000  -24.86962727002817  7.336975297240914  7.172291692600667  49.539725057987546  11.625076988282741  3.514796024004787  8.934454291984819  31.99096028924281  20.71262402392682  11.177440428969845  120.000000
0.6159999999999994  0.000000  0.000000  0.000000  -25.17853094273754  7.479194428048331  8.029114226696286  49.5794885976781  11.892384370026925  3.3844449895648494  8.95376203309099  33.49598772050097  19.20483746281379  11.092920336622504  120.000000
0.6439999999999994  0.000000  0.000000  0.000000  -25.49880944545252  7.604133607862117  8.918706767043068  49.63825231008306  12.14859537594173  3.2586742399774953  8.971607957608303  34.97666349955761  17.729804654493122  10.990631981635037  120.000000
0.6719999999999994  0.000000  0.000000  0.000000  -25.82336370566572  7.712112974207508  9.83407279960784  49.71361575812427  12.38670487950601  3.1407652088020814  8.974486251248274  36.430268736447246  16.314151850455147  10.877363811317034  120.000000
0.6999999999999993  0.000000  0.000000  0.000000  -26.145203777588645  7.807317317506316  10.76427099776736  49.802083586980984  12.602251551474247  3.034120392947972  8.95130307010095  37.85552539350734  14.976116055590909  10.761178753497331  120.000000
0.7279999999999993  0.000000  0.000000  0.000000  -26.458732221396115  7.891696966570042  11.703698394586851  49.90024975358243  12.791445906298923  2.9415492716219083  8.89270261522986  39.24973040469329  13.72969407016444  10.650954482908164  120.000000
0.7559999999999992  0.000000  0.000000  0.000000  -26.760786199534483  7.970300848071471  12.645501451068068  50.004526460560776  12.95284867950382  2.8664022694392552  8.792821763520541  40.61095987738443  12.582405229782003  10.554028810724006  120.000000
0.7839999999999993  0.000000  0.000000  0.000000  -27.048404802895146  8.045731144356106  13.586316624062812  50.11162528471541  13.086240696217306  2.8115449128671264  8.647643899143644  41.936563009037755  11.539557981501696  10.47601639621358  120.000000
0.8119999999999992  0.000000  0.000000  0.000000  -27.323064756153453  8.122260053881124  14.523757119136599  50.21891270085244  13.192466512215272  2.780239016229462  8.456923482035778  43.22410744173991  10.602399299150191  10.420078169282228  120.000000
0.8399999999999992  0.000000  0.000000  0.000000  -27.584564125574317  8.202233675369243  15.456651760988034  50.323834685223076  13.273029070999636  2.7751629655034216  8.221524471235181  44.47127893565166  9.771993331908252  10.387457463661091  120.000000
0.8679999999999991  0.000000  0.000000  0.000000  -27.837404179526576  8.288526310847146  16.38549781900311  50.42489099721373  13.329124651550908  2.7992131554897344  7.945255858090139  45.67569285801726  9.04733522964974  10.377837600932702  120.000000
0.8959999999999991  0.000000  0.000000  0.000000  -28.082727004441956  8.38270158546742  17.30981348072124  50.52055027648373  13.361695611204253  2.8543725938962905  7.631965638498328  46.835322024093145  8.428247420965834  10.389664950733218  120.000000
0.9239999999999992  0.000000  0.000000  0.000000  -28.325510544484793  8.486352982906862  18.230366344468354  50.61048829545754  13.370825413886786  2.9426229357514027  7.287164849720905  47.94781402340066  7.913213009993731  10.420689909159877  120.000000
0.9519999999999991  0.000000  0.000000  0.000000  -28.566799049089127  8.60022682706038  19.146241165274297  50.694566845307286  13.356115538334414  3.064930751360406  6.915592299594751  49.01084130328495  7.500787451749406  10.468357472991967  120.000000
0.9799999999999991  0.000000  0.000000  0.000000  -28.81087167527161  8.724962038746645  20.057994967312368  50.77381688911983  13.316927573762555  3.222266100517155  6.522177134229298  50.02136387366649  7.187536146350375  10.530811705795337  120.000000
1.0079999999999991  0.000000  0.000000  0.000000  -29.058443186908686  8.860515703545811  20.964939692784  50.84952604075982  13.252938660737058  3.4148786389492707  6.110183867488365  50.975851795549964  6.968066331166033  10.60780982037346  120.000000
1.035999999999999  0.000000  0.000000  0.000000  -29.313448505972428  9.006020466434574  21.86951740038849  50.92380883328777  13.164659520000763  3.643235723953377  5.681847206203448  51.86963014253865  6.833829676571183  10.701961978848017  120.000000
1.063999999999999  0.000000  0.000000  0.000000  -29.576427009969414  9.159938449290337  22.77297768961254  50.998522917753384  13.053832192513015  3.9075647966097358  5.2373031644526264  52.69766076032397  6.772617034908307  10.819295997847432  120.000000
1.091999999999999  0.000000  0.000000  0.000000  -29.850760116109676  9.318458329530653  23.681129608203733  51.07562266041361  12.923190812153596  4.208148992354478  4.775892280220402  53.454185803921206  6.769482333064455  10.96892609930374  120.000000
1.119999999999999  0.000000  0.000000  0.000000  -30.136124851372937  9.477729389771712  24.596616083215718  51.15597442111361  12.775840309967446  4.544646966539093  4.296712442730718  54.13480286659025  6.80695726911997  11.161064145209215  120.000000
1.1479999999999988  0.000000  0.000000  0.000000  -30.43386117598289  9.631464982519581  25.52441674970893  51.239889754073566  12.614487803085277  4.915386516950044  3.800871269103828  54.73674239642639  6.868090684405803  11.403784174299073  120.000000
1.1759999999999988  0.000000  0.000000  0.000000  -30.74146866697373  9.774613989137483  26.463095424128102  51.32660695356895  12.43965576114898  5.315704772406993  3.2929873502414946  55.26068080000864  6.9374681470238215  11.699159364134587  120.000000
1.2039999999999988  0.000000  0.000000  0.000000  -31.056948968828273  9.903105285730774  27.406738354788306  51.415227521787564  12.250850470324128  5.736920722829916  2.782468919549862  55.711153301112795  7.004035164433945  12.039660427475178  120.000000
1.2319999999999989  0.000000  0.000000  0.000000  -31.37468241193846  10.014492838960734  28.342691249754505  51.50498593373482  12.04514241409408  6.165420592023325  2.284226991606006  56.09594363725081  7.061675594132928  12.407132472934276  120.000000
1.2599999999999987  0.000000  0.000000  0.000000  -31.688825554177363  10.111913688378136  29.250815404705314  51.59567206666744  11.821336304838708  6.583207511162558  1.816778168694897  56.425975251416354  7.108926883847758  12.774710931374093  120.000000
1.2879999999999987  0.000000  0.000000  0.000000  -31.99042806205885  10.197288802869908  30.111085817032272  51.68766684332021  11.578384498580329  6.968805823650914  1.4002111364551681  56.711182736332454  7.148613073362969  13.112076193068074  120.000000
1.3159999999999987  0.000000  0.000000  0.000000  -32.270629505535304  10.276822470122992  30.901483233720956  51.780746413668254  11.319905269755315  7.300233264526618  1.0512593322039334  56.95966621117195  7.185893248649356  13.391000593703364  120.000000
1.3439999999999988  0.000000  0.000000  0.000000  -32.51891728093299  10.352051257229663  31.604766771399113  51.87403115897867  11.051637435972498  7.558823831402324  0.7821177790542988  57.174908943317604  7.226883255614716  13.591734515288934  120.000000
1.3719999999999988  0.000000  0.000000  0.000000  -32.72646438337635  10.423091837538207  32.209662370310255  51.96527566609623  10.782881669467024  7.731913906614524  0.5979727789078575  57.35590789438031  7.276524266792451  13.706230845539427  120.000000
1.3999999999999986  0.000000  0.000000  0.000000  -32.88423042607878  10.486691941003464  32.70810066992687  52.05177015400981  10.523118074498326  7.813856566325318  0.4982834451000779  57.49758214433316  7.337018548661228  13.738685500387152  120.000000
1.4279999999999986  0.000000  0.000000  0.000000  -32.987690562028185  10.536397614207385  33.101045310664915  52.13123970662186  10.280778586295954  7.803588216591614  0.4775244150960511  57.5900755886676  7.407828728293097  13.701951781307574  120.000000
1.4559999999999986  0.000000  0.000000  0.000000  -33.032421072213126  10.566625411494199  33.38664821009126  52.20206387013402  10.062819944266405  7.7030793405448845  0.5272127119457005  57.621255546553876  7.48447019558204  13.613239173609767  120.000000
1.4839999999999987  0.000000  0.000000  0.000000  -33.020204193280726  10.571594510930641  33.56935041778836  52.264390995517516  9.873372778585738  7.514869987887198  0.6392776334563792  57.57504620400401  7.559140736171862  13.490234440763151  120.000000
1.5119999999999985  0.000000  0.000000  0.000000  -32.95128725427281  10.54758560368516  33.64742184135538  52.3184580131621  9.715447474135145  7.241331968330949  0.8069231712047705  57.4353235862234  7.619850907495648  13.348191971251879  120.000000
1.5399999999999985  0.000000  0.000000  0.000000  -32.83197897912811  10.493333083177637  33.62200542221651  52.36539000322826  9.589533333358338  6.8841446500970696  1.0267123936023246  57.183898502640965  7.6523766722051825  13.198877062509291  120.000000
1.5679999999999985  0.000000  0.000000  0.000000  -32.66540745286457  10.407849906832764  33.488050998436115  52.40505872989529  9.495772837195108  6.445647361883343  1.2973221036691494  56.80574124023285  7.64074525819381  13.050598427323811  120.000000
1.5959999999999985  0.000000  0.000000  0.000000  -32.459325749042  10.293227446863717  33.24283410278938  52.437556799220026  9.432642800212822  5.930494982780693  1.6204983120271523  56.28780040890966  7.569817817226564  12.909319806947323  120.000000
1.6239999999999983  0.000000  0.000000  0.000000  -32.21701744592228  10.150212884358465  32.88011713875104  52.46239807719445  9.398320401275226  5.34650767145616  1.999001997739453  55.62425062615009  7.4267194740218025  12.779324734723433  120.000000
1.6519999999999984  0.000000  0.000000  0.000000  -31.945356629611418  9.981225856354069  32.39832541286198  52.47945336363296  9.38930512812298  4.704890652898752  2.4350227216916203  54.81356483303552  7.203968949215592  12.663393442212218  120.000000
1.6799999999999984  0.000000  0.000000  0.000000  -31.647407239567226  9.78644179945966  31.79258056914876  52.48902351437752  9.402236959616678  4.020494071238863  2.9285955469455924  53.86267826142218  6.900633514666619  12.562976729447799  120.000000
1.7079999999999984  0.000000  0.000000  0.000000  -31.329762766565494  9.566861996495144  31.06493724165821  52.4926280791273  9.431725989911769  3.310754307071922  3.4783057536026694  52.78255061224501  6.522529656331426  12.47859764959768  120.000000
1.7359999999999982  0.000000  0.000000  0.000000  -30.996333808072208  9.32236828073092  30.21533779860238  52.492479773654665  9.471290625401242  2.5944599503101102  4.081265855242113  51.59162607703521  6.081995072424665  12.410169462261749  120.000000
1.7639999999999982  0.000000  0.000000  0.000000  -30.65529722145676  9.054005021803743  29.25203455886965  52.490609947312585  9.511985786049056  1.8902873380389982  4.7336864050670675  50.30913977687478  5.596936120185701  12.357111074295211  120.000000
1.7919999999999983  0.000000  0.000000  0.000000  -30.31277263715687  8.762720820001041  28.179392730765553  52.4876212836564  9.54568924740653  1.2172211130732526  5.431236578735707  48.95864083976865  5.090127152289667  12.318605979892789  120.000000
1.8199999999999983  0.000000  0.000000  0.000000  -29.978424280894274  8.451376081592285  27.0094803562835  52.48202379014287  9.563917618844302  0.5930855788200904  6.169216426258998  47.56079178488165  4.587703654451421  12.293663083609644  120.000000
1.8479999999999983  0.000000  0.000000  0.000000  -29.658228337486293  8.123092249729735  25.750217252314215  52.46968023789104  9.561417547374734  0.03497467753457445  6.941912368694112  46.13639626845361  4.11830689017924  12.281076520009456  120.000000
1.8759999999999981  0.000000  0.000000  0.000000  -29.358598241214526  7.783062327732384  24.417228246037084  52.444428832492754  9.534185339981747  -0.44305982583114933  7.741376500757556  44.69980725813727  3.711687636810032  12.278992225047151  120.000000
1.9039999999999981  0.000000  0.000000  0.000000  -29.080167859239772  7.4371958213844245  23.023081513012666  52.39930661046398  9.482510322196635  -0.8291175590576577  8.558029307844425  43.26256206032  3.3961430856082866  12.284894501989124  120.000000
1.9319999999999982  0.000000  0.000000  0.000000  -28.82124190834636  7.093937030815105  21.588570280479352  52.32794146651902  9.407010722889664  -1.1166883160815946  9.379898150366309  41.829009000495304  3.1971202361662514  12.294824752191733  120.000000
1.9599999999999982  0.000000  0.000000  0.000000  -28.57495419054891  6.761742881970936  20.130580303825113  52.22575411575082  9.310475096031386  -1.3032850565533323  10.194337637524425  40.39989202832839  3.134036927326079  12.303605082685058  120.000000
1.987999999999998  0.000000  0.000000  0.000000  -28.333167963362662  6.449788590710814  18.6700500082143  52.090337837785405  9.194705209476874  -1.3921399426300096  10.987323018480883  38.97030433675908  3.2208475920500885  12.304524093698664  120.000000
2.0159999999999982  0.000000  0.000000  0.000000  -28.08537775357064  6.166331727008843  17.224206220040408  51.92224644567916  9.062652057668691  -1.3890646529174688  11.7478248367588  37.53469111621392  3.4620814288702237  12.291382165341451  120.000000
2.043999999999998  0.000000  0.000000  0.000000  -27.823653736738947  5.918922596610605  15.812519329182106  51.72459098403613  8.917483217837637  -1.3036135537619389  12.467410532415398  36.08690767723234  3.8550783369068795  12.259307236257124  120.000000
2.071999999999998  0.000000  0.000000  0.000000  -27.54148577506464  5.7126425231075  14.450510088451876  51.50229750804496  8.763940962765567  -1.147382390390595  13.14155668339317  34.62292143064911  4.388966508222723  12.206688246395396  120.000000
2.099999999999998  0.000000  0.000000  0.000000  -27.23930853065231  5.549056612572173  13.153065067214841  51.26257408682371  8.608669677607647  -0.9334078948207575  13.770375376491433  33.14118969155966  5.0467519326407775  12.13605540021864  120.000000
2.127999999999998  0.000000  0.000000  0.000000  -26.919568745974132  5.426827419987315  11.931303362426142  51.01431365330997  8.459584836784957  -0.6753598107962575  14.359060967465494  31.643204819054393  5.805327279150877  12.054469334811847  120.000000
2.155999999999998  0.000000  0.000000  0.000000  -26.592130296737036  5.340263158361901  10.79401576447039  50.76798321284994  8.326391568084434  -0.3863732651360027  14.917052544693142  30.13385144167258  6.6388154899786445  11.97194828346334  120.000000
2.183999999999998  0.000000  0.000000  0.000000  -26.266894281948833  5.281813870453675  9.746691883051202  50.53390107907666  8.218013909748926  -0.07890585031733949  15.455015757228486  28.619895120003648  7.52183524890854  11.899446645547323  120.000000
2.211999999999998  0.000000  0.000000  0.000000  -25.95764537436873  5.241716216102976  8.791068464086122  50.322143869044666  8.143228603752092  0.23647309834568303  15.983052906321346  27.110544651286315  8.433127217584339  11.846532482893483  120.000000
2.239999999999998  0.000000  0.000000  0.000000  -25.673991262123444  5.210670189060743  7.926545528572682  50.14125851437454  8.107568089263504  0.5509389279961134  16.507756628565275  25.61530833649765  9.358748620532234  11.820159975984497  120.000000
2.267999999999998  0.000000  0.000000  0.000000  -25.424023286888183  5.180341877259189  7.149055715628067  49.99816399175979  8.114529094870974  0.8589315786565109  17.031767043452664  24.145142640771585  10.292983233005383  11.823849364536235  120.000000
2.2959999999999976  0.000000  0.000000  0.000000  -25.209777835766626  5.144356913789738  6.453803279009973  49.89788103929567  8.16353300025229  1.1571954570506766  17.553272658512153  22.710584072509214  11.238115795319278  11.858810453013632  120.000000
2.3239999999999976  0.000000  0.000000  0.000000  -25.031931117777567  5.098288789485055  5.834575820759726  49.84102594458404  8.251952387436353  1.4464344200613501  18.062668982475753  21.322785764681594  12.205882434281689  11.92374519477725  120.000000
2.3519999999999976  0.000000  0.000000  0.000000  -24.88882711931295  5.041449628760554  5.287002142072886  49.8247463372431  8.375420941786224  1.728389182782639  18.541157515789944  19.99305534630587  13.217376967729969  12.016784355309097  120.000000
2.3799999999999977  0.000000  0.000000  0.000000  -24.777242575485936  4.978471522066896  4.803922656367229  49.847235353221066  8.5278722055234  2.0023929927980437  18.966213211100197  18.731488466297876  14.29643106586778  12.136155491029095  120.000000
2.4079999999999977  0.000000  0.000000  0.000000  -24.69171696064399  4.913182973280671  4.378335042204752  49.904862700245154  8.698837695030079  2.267416009442055  19.31371781005722  17.542870474978624  15.46664471677074  12.28170131205239  120.000000
2.4359999999999977  0.000000  0.000000  0.000000  -24.62566249298858  4.849673935737015  4.004268753342692  49.99243239242945  8.877466294890704  2.5245083404198394  19.5647346429174  16.429273207425577  16.74421090712076  12.454972946257623  120.000000
2.4639999999999977  0.000000  0.000000  0.000000  -24.568298146160213  4.79238433793809  3.6783677941367876  50.105924223270435  9.054391344960987  2.77523620719891  19.71469459592883  15.391547351942338  18.128662897063826  12.659363051224492  120.000000
2.4919999999999978  0.000000  0.000000  0.000000  -24.510372491895648  4.746387504189246  3.397490782023762  50.242214859863516  9.22263076405296  3.0206828347975665  19.768724467867813  14.429909276463277  19.607182189907206  12.898006334628905  120.000000
2.5199999999999974  0.000000  0.000000  0.000000  -24.443825350038814  4.71591467887888  3.1598259868861507  50.39698903708831  9.377287564628837  3.261276627502822  19.732692889232485  13.543484121980306  21.163458332129075  13.172482122215728  120.000000
2.5479999999999974  0.000000  0.000000  0.000000  -24.36587093387998  4.703776669175248  2.963742866369374  50.566276821660786  9.515705058297597  3.496875457476251  19.611857801135816  12.731139691524431  22.77971913065507  13.481561313590054  120.000000
2.5759999999999974  0.000000  0.000000  0.000000  -24.275571556277132  4.71090246265722  2.8079967045665226  50.74662375370263  9.636415899052576  3.7269132950451263  19.412305314486474  11.990759113344795  24.436368525053368  13.822117218699578  120.000000
2.6039999999999974  0.000000  0.000000  0.000000  -24.176911161718085  4.736108736696912  2.69075812339767  50.93600783056186  9.73912152307108  3.950612493135858  19.141823034967107  11.319306921108371  26.11237625013272  14.189082516466966  120.000000
2.6319999999999975  0.000000  0.000000  0.000000  -24.074792513356215  4.776954996876965  2.6096922478792517  51.13327300368687  9.823897451585315  4.167198882589107  18.813453621388923  10.712157630589344  27.783002726954003  14.57730788681426  120.000000
2.6599999999999975  0.000000  0.000000  0.000000  -23.9767892663812  4.82965643079331  2.561716610108067  51.33832832480892  9.891573085482905  4.376192520098926  18.445084866435614  10.16311804828166  29.421462752075023  14.98139966203401  120.000000
2.6879999999999975  0.000000  0.000000  0.000000  -23.88978397647189  4.888553692425973  2.543744040866254  51.548556758824375  9.942419898682251  4.579436061949059  18.053498161867314  9.663047259015189  31.006081588380752  15.397405288983164  120.000000
2.7159999999999975  0.000000  0.000000  0.000000  -23.820214429999712  4.949634051003813  2.5521733631290338  51.761567614638864  9.978178231799983  4.778305858490069  17.647328420222212  9.201344280862344  32.52851600231652  15.822114277087415  120.000000
2.7439999999999976  0.000000  0.000000  0.000000  -23.772694421644402  5.0128331438790354  2.5825080564745133  51.97595926689003  10.001782567331443  4.973421908848466  17.236610721622366  8.76790288743999  33.98435861551959  16.25504292424572  120.000000
2.771999999999997  0.000000  0.000000  0.000000  -23.74600730927926  5.081614369151617  2.6294354506200492  52.19386636880036  10.018212491632902  5.163775168221019  16.824065486479753  8.353688233656031  35.384386558417035  16.697326013060813  120.000000
2.799999999999997  0.000000  0.000000  0.000000  -23.740251273082556  5.159159757194233  2.689361740783343  52.413824253091015  10.032692551115746  5.352184437559941  16.41165414995095  7.9531753100399305  36.74413405497791  17.150634497922855  120.000000
