Simulation
nRows=101
nColumns=15
endheader
time  TH_x TH_y TH_z SC_y  SC_z  SC_x  AC_y  AC_z  AC_x  GH_y  GH_z  GH_yy  EL_x  PS_y
0.0  0.000000  0.000000  0.000000  -27.549367437425982  3.597081448993115  1.680564610871407  53.20248184076513  12.588248310730467  5.589003041452322  5.874951652366904  6.019649945008987  42.64424624344872  16.063819641208024  120.000000
0.027999999999999973  0.000000  0.000000  0.000000  -26.79643441167869  3.951021122006903  1.5005957031949992  52.60228609327893  12.3566820863686  5.577030281514035  7.891332531335131  6.824208149582404  40.41815945186098  15.534680115037347  120.000000
0.055999999999999946  0.000000  0.000000  0.000000  -25.87532771564311  4.338357632116967  1.251401293666814  52.01492311451524  12.055621247221724  5.582925952163643  9.421252415427608  7.574157741928965  38.554700319542675  15.03187195616388  120.000000
0.08399999999999992  0.000000  0.000000  0.000000  -25.082599972889252  4.6648997426498715  1.0158702080292275  51.47675291840931  11.733939402810883  5.5873909846782395  10.653564035720809  8.313498069839802  36.88495919411114  14.550871396155742  120.000000
0.11199999999999989  0.000000  0.000000  0.000000  -24.472897424134455  4.924467402032455  0.8155340178117116  51.02360040201902  11.429701928718147  5.568471252041869  11.65404314893581  9.077763970734946  35.36595516539272  14.091848013553406  120.000000
0.13999999999999987  0.000000  0.000000  0.000000  -24.05763153182176  5.112490308101827  0.674043844695478  50.661830454417334  11.161714346183857  5.526756671443412  12.387633364145213  9.888808302471396  34.0548803787801  13.656417720233792  120.000000
0.16799999999999984  0.000000  0.000000  0.000000  -23.81267333498784  5.235882498663158  0.5981160876402928  50.389878920254596  10.940053109761513  5.467585960973166  12.855855162804637  10.766436656552244  32.965416328995104  13.249335288033425  120.000000
0.1959999999999998  0.000000  0.000000  0.000000  -23.6806865794368  5.3198691022803635  0.5851966822736259  50.19692867359683  10.763789440903675  5.394645773443036  13.057410370609505  11.723662944351167  32.106874461830195  12.875341019053389  120.000000
0.22399999999999978  0.000000  0.000000  0.000000  -23.630043633846782  5.378850407856775  0.6353094166180785  50.06719296993804  10.630827219808511  5.312533071956658  13.009546792365297  12.772708141407836  31.46440346231092  12.539724465394077  120.000000
0.2519999999999998  0.000000  0.000000  0.000000  -23.619367921304523  5.439362250541747  0.7454135411645477  49.98134429865168  10.534033392703387  5.2243480602619545  12.739970537439982  13.919827503803322  31.006806046893676  12.245706049055984  120.000000
0.27999999999999975  0.000000  0.000000  0.000000  -23.629879426653922  5.513324059864992  0.9177111785145948  49.92095337795974  10.468673459861995  5.134071785776883  12.29122152737416  15.1679377146712  30.686146676565883  11.996335568630725  120.000000
0.3079999999999997  0.000000  0.000000  0.000000  -23.648326879380345  5.61408960844585  1.1538585127525276  49.87412107673576  10.428603678350955  5.042069698989787  11.728420136390676  16.513596105512487  30.427688491405668  11.792241242438433  120.000000
0.3359999999999997  0.000000  0.000000  0.000000  -23.66981911051406  5.74626122242227  1.455918355940922  49.83413188517173  10.410058643833947  4.946995034299881  11.117870801835233  17.94707631281323  30.154474040206885  11.633037600380945  120.000000
0.36399999999999966  0.000000  0.000000  0.000000  -23.70364582279933  5.906243976558307  1.827234676385962  49.7970206837512  10.410180277081809  4.847598854616944  10.519719711383418  19.45349433417576  29.79405692345993  11.515240120984465  120.000000
0.3919999999999996  0.000000  0.000000  0.000000  -23.754942820376936  6.091204387029764  2.2692457409764577  49.762635186962996  10.42921794959381  4.740029984754263  9.980806754002588  21.013514785549777  29.288101215248226  11.433738342592298  120.000000
0.4199999999999996  0.000000  0.000000  0.000000  -23.839868347790464  6.292658448127088  2.783560727872332  49.73375634128776  10.47069133642219  4.6215914252493215  9.532502229716075  22.608916803916834  28.597106623029102  11.381401003693808  120.000000
0.44799999999999957  0.000000  0.000000  0.000000  -23.9642281401593  6.50469438471748  3.3705923645347196  49.71306892226359  10.537819412788659  4.489303916504162  9.18668934094381  24.220836684381762  27.70625870781768  11.349514784073238  120.000000
0.47599999999999953  0.000000  0.000000  0.000000  -24.135793048503203  6.717289821934276  4.029813330219087  49.70413002302144  10.63408441472924  4.343545624269755  8.942053955093565  25.83579738372459  26.621925614253236  11.328477494193503  120.000000
0.5039999999999996  0.000000  0.000000  0.000000  -24.353222719800122  6.924596524528591  4.760307607073281  49.710335947955826  10.760178709837371  4.185652674328333  8.788054647266076  27.442346481271603  25.36831737297407  11.30864547598756  120.000000
0.5319999999999995  0.000000  0.000000  0.000000  -24.612079305615154  7.121690788549331  5.5561888088698295  49.73450320072573  10.915620844222198  4.018584797636264  8.706987731381474  29.034560808976064  23.982796025756873  11.280542532022778  120.000000
0.5599999999999995  0.000000  0.000000  0.000000  -24.9059079153109  7.304041319893016  6.412380030945622  49.77774092822173  11.09532956695226  3.8461761019534775  8.678480057179675  30.606166145875676  22.51050672749895  11.236652259840264  120.000000
0.5879999999999994  0.000000  0.000000  0.000000  -25.22482185789499  7.468657351323966  7.315486886822054  49.83985912098556  11.293271622144989  3.6723944978840994  8.682138803303115  32.15374795925409  20.995913843444875  11.171788534838193  120.000000
0.6159999999999994  0.000000  0.000000  0.000000  -25.560125298309377  7.612127048170784  8.255947688122882  49.92009921313155  11.49953422163734  3.500697722077628  8.70057367471194  33.67082906738758  19.480198558487285  11.085671934170891  120.000000
0.6439999999999994  0.000000  0.000000  0.000000  -25.901326074177508  7.7332327630764075  9.217586271720714  50.01541188621936  11.705731380631873  3.3358988542219907  8.719463974952625  35.1542552565281  17.99565749183055  10.981982676404774  120.000000
0.6719999999999994  0.000000  0.000000  0.000000  -26.24044780376578  7.8315697835346665  10.191831890238044  50.12223693818106  11.903111421694927  3.1819410715976697  8.725997234114306  36.60075038903374  16.568950023040728  10.868202702453857  120.000000
0.6999999999999993  0.000000  0.000000  0.000000  -26.571180046999476  7.914077940397589  11.169645150321818  50.23641999632287  12.08739076000069  3.042160419146709  8.708892584817677  38.01197315081784  15.218398272403048  10.752419344282785  120.000000
0.7279999999999993  0.000000  0.000000  0.000000  -26.889173098614283  7.9860696136069205  12.148103581376786  50.353391692016345  12.257146185488164  2.919230491439272  8.656812877849388  39.39108052803787  13.958632604294598  10.642514114501989  120.000000
0.7559999999999992  0.000000  0.000000  0.000000  -27.193079330663583  8.055343439691253  13.12333214722746  50.46919164961287  12.410956635396419  2.816312080067871  8.5627907795792  40.739183764206786  12.797443245920746  10.545201728283107  120.000000
0.7839999999999993  0.000000  0.000000  0.000000  -27.48005028783745  8.123817746472374  14.09214187591392  50.580306007526545  12.545818219021019  2.7370716194228635  8.423409219777076  42.05347609146016  11.739587611854839  10.466338807648428  120.000000
0.8119999999999992  0.000000  0.000000  0.000000  -27.749499136854283  8.193241451055732  15.050561933090227  50.685124276046466  12.658955374306192  2.684565608796117  8.23999086516151  43.32926854779113  10.785582029667655  10.409784162400793  120.000000
0.8399999999999992  0.000000  0.000000  0.000000  -27.999905963129592  8.265132334449344  15.994751511157602  50.78281859008418  12.749737831894643  2.6611802088383403  8.015278567121047  44.56160529088959  9.935847780296521  10.37761426593764  120.000000
0.8679999999999991  0.000000  0.000000  0.000000  -28.234746234253517  8.34180607346843  16.923242527495155  50.872948489127175  12.81864933861657  2.6693289170876584  7.753206887646942  45.747527664514045  9.189862407989628  10.369682345710864  120.000000
0.8959999999999991  0.000000  0.000000  0.000000  -28.455871757588696  8.425311838018025  17.836163823064375  50.955021600291694  12.866191493340668  2.7102514001430125  7.456792099099336  46.88634392502992  8.5481859194049  10.384179598233331  120.000000
0.9239999999999992  0.000000  0.000000  0.000000  -28.670433363083397  8.518079415370382  18.738153616479647  51.029662107451045  12.89164854208114  2.7852849966941204  7.130220793122272  47.9779671724076  8.010160759613907  10.418344156742798  120.000000
0.9519999999999991  0.000000  0.000000  0.000000  -28.88193762464885  8.621830358407648  19.632169592838792  51.09731889174847  12.894008344527013  2.895196761426412  6.776439113141657  49.02351828976957  7.575421898630698  10.469038651632953  120.000000
0.9799999999999991  0.000000  0.000000  0.000000  -29.097871036751915  8.73799778178897  20.52311745593355  51.16012667236952  12.871651061251445  3.040876943669028  6.398787336648614  50.02187946957926  7.241711619316247  10.533850323204693  120.000000
1.0079999999999991  0.000000  0.000000  0.000000  -29.321789256125236  8.866602433059013  21.412751164599886  51.21990957815866  12.823325515161374  3.222977612939155  5.998732728690064  50.97112435454711  7.004990157029378  10.611954845794132  120.000000
1.035999999999999  0.000000  0.000000  0.000000  -29.560761333526155  9.006941126411977  22.306592406790102  51.279493223121875  12.748922985377835  3.441827433279157  5.577343871512721  51.86694187375757  6.857537270829605  10.705447121356928  120.000000
1.063999999999999  0.000000  0.000000  0.000000  -29.816921562573537  9.15791226098651  23.20718110496463  51.34112506152128  12.651620058403408  3.6977511432457435  5.134393771787774  52.70393855127023  6.7871712458469675  10.820005596092214  120.000000
1.091999999999999  0.000000  0.000000  0.000000  -30.092257051462212  9.315210888763493  24.11847958059231  51.40675042963996  12.53564252304189  3.9918946033691665  4.670078723734504  53.47405171928519  6.778314781020278  10.96506940134552  120.000000
1.119999999999999  0.000000  0.000000  0.000000  -30.383327207390924  9.473790172765755  25.041256415921584  51.47805392740279  12.402370670040575  4.323005252208706  4.185866217084252  54.16726118821595  6.812326204210758  11.152077302585987  120.000000
1.1479999999999988  0.000000  0.000000  0.000000  -30.684802507393016  9.626179427049749  25.978842899376225  51.55490693982084  12.25089496768706  4.68676743913912  3.684697673579318  54.77471034464638  6.8714308416632734  11.39043442302973  120.000000
1.1759999999999988  0.000000  0.000000  0.000000  -30.989588322053763  9.767357382109685  26.92887804920903  51.63476691244073  12.079754496304119  5.078261110333592  3.174054564412713  55.29287927112254  6.9389747355885625  11.683906666263013  120.000000
1.2039999999999988  0.000000  0.000000  0.000000  -31.29213170863147  9.894918358219407  27.883496187977247  51.71338254233051  11.890104345414922  5.49073397776471  2.664861390283191  55.726044232846114  7.0032916988358105  12.025880028159762  120.000000
1.2319999999999989  0.000000  0.000000  0.000000  -31.586655216500127  10.007695612581424  28.828233290251017  51.78777505301312  11.680806545149991  5.912193230914868  2.172270881052503  56.08404501451582  7.058193740497613  12.397982206893854  120.000000
1.2599999999999987  0.000000  0.000000  0.000000  -31.87072168528376  10.108961550697364  29.74235871992992  51.857960084386136  11.449756590319456  6.324676648790061  1.7137239252648417  56.381300934033526  7.102657246128776  12.772163581818422  120.000000
1.2879999999999987  0.000000  0.000000  0.000000  -32.14077970659343  10.201381960508908  30.60727010526512  51.92609254950147  11.195205812420681  6.706139034344626  1.3064272900258562  56.633861000620705  7.140354727010053  13.116072086664042  120.000000
1.3159999999999987  0.000000  0.000000  0.000000  -32.396312161570506  10.292948257957642  31.404543591854193  51.99517475221914  10.922104100117267  7.035508840586912  0.9650861886588356  56.85688347691173  7.1764611881836995  13.399677894960366  120.000000
1.3439999999999988  0.000000  0.000000  0.000000  -32.63277793215292  10.386069536704511  32.119206328961255  52.06659842971175  10.638171258876339  7.29665760974685  0.7008042602360939  57.06142453325982  7.216533915410734  13.602168766774923  120.000000
1.3719999999999988  0.000000  0.000000  0.000000  -32.8443016504774  10.480115091797135  32.74060247957905  52.13987009629666  10.353859535714337  7.479083477784445  0.5190786857781761  57.24947078058606  7.264826412748755  13.715628191698915  120.000000
1.3999999999999986  0.000000  0.000000  0.000000  -33.02040251756821  10.570511042741712  33.25890993507963  52.2131823746163  10.079891972507545  7.576926161727841  0.41911920363253946  57.41239102002753  7.32393634080422  13.744833954370172  120.000000
1.4279999999999986  0.000000  0.000000  0.000000  -33.15076073174297  10.647998522339925  33.66998930275846  52.28381221904892  9.826120828895915  7.588253723079234  0.3952995443988863  57.53347158824116  7.394180810036222  13.703738747630815  120.000000
1.4559999999999986  0.000000  0.000000  0.000000  -33.224909520472316  10.704602982711874  33.96795263404789  52.34951413995296  9.600281621882962  7.5136472100701726  0.43983484974980136  57.59154325967023  7.471686232749873  13.610747873472414  120.000000
1.4839999999999987  0.000000  0.000000  0.000000  -33.23780822834731  10.732689869046236  34.15387990287891  52.40917473601152  9.407543857787388  7.35301147171924  0.5449160549209668  57.563551213930616  7.549215531034972  13.484224919156036  120.000000
1.5119999999999985  0.000000  0.000000  0.000000  -33.186642466256735  10.727727732829852  34.22477151893088  52.46223580841214  9.250453157447708  7.106154462300509  0.7048540170658358  57.428824887400175  7.614667854866236  13.339888803992471  120.000000
1.5399999999999985  0.000000  0.000000  0.000000  -33.077528028629644  10.688421666771445  34.18234998386957  52.5087900606083  9.12828234573784  6.773569533387686  0.9177000923664649  57.16892084193373  7.652831441641773  13.189584377736692  120.000000
1.5679999999999985  0.000000  0.000000  0.000000  -32.91637837668473  10.614910051659963  34.02448617315253  52.54779516611755  9.040594521442754  6.357967738209089  1.1842112095019524  56.7733660167909  7.645652441733733  13.041359820949367  120.000000
1.5959999999999985  0.000000  0.000000  0.000000  -32.71497295240578  10.51116564650191  33.75393284909828  52.57902967543994  8.98519708018008  5.8642841135217845  1.5077340644288524  56.235180659631794  7.57597577312763  12.900643845372576  120.000000
1.6239999999999983  0.000000  0.000000  0.000000  -32.47943090037144  10.378972982350652  33.367638780233236  52.602443606886695  8.959054269140564  5.300551517674178  1.8921111398548882  55.553827964626294  7.429653334377287  12.771329764264031  120.000000
1.6519999999999984  0.000000  0.000000  0.000000  -32.21736240661775  10.220631908513337  32.86391015512641  52.619179150335405  8.956740923067647  4.678000698759059  2.3401499805032073  54.7298874944575  7.1989354580140255  12.65632270958553  120.000000
1.6799999999999984  0.000000  0.000000  0.000000  -31.931208657098296  10.035648111022468  32.2360477577831  52.63093658434821  8.97404345056659  4.011463648082632  2.85131550709459  53.77006711924316  6.883585130970967  12.55725334203826  120.000000
1.7079999999999984  0.000000  0.000000  0.000000  -31.62598694675589  9.823930875814614  31.48330730226498  52.63988141552164  9.006315395278952  3.3189808392525584  3.422464419305895  52.68538907184793  6.490762585723899  12.47445714552747  120.000000
1.7359999999999982  0.000000  0.000000  0.000000  -31.305067388284275  9.584410343042117  30.603852664334546  52.64822593596871  9.048361498641079  2.621041293486993  4.04862358866984  51.49528041792181  6.034510676953848  12.407630231829156  120.000000
1.7639999999999982  0.000000  0.000000  0.000000  -30.976500195961112  9.31787325885823  29.60461259030894  52.65754352578675  9.093037204372136  1.9382933423266426  4.723885335871343  50.221283731975646  5.534685528066592  12.355898332759892  120.000000
1.7919999999999983  0.000000  0.000000  0.000000  -30.646740857626348  9.02530469005137  28.489336265979645  52.6675074239125  9.134108579392052  1.2914537272186843  5.441748873515367  48.88933975537606  5.016363895140984  12.31826085869707  120.000000
1.8199999999999983  0.000000  0.000000  0.000000  -30.325504873352447  8.709856601899489  27.26811041728762  52.67550494763678  9.165335914166466  0.6996910449269633  6.195608583601569  47.52161566439266  4.5080075551342444  12.293661990970106  120.000000
1.8479999999999983  0.000000  0.000000  0.000000  -30.018549579840208  8.374441970532878  25.94744961741042  52.67599146812998  9.183450979925066  0.18096686985281102  6.97852985754424  46.13892212234738  4.039960941957527  12.281030469166422  120.000000
1.8759999999999981  0.000000  0.000000  0.000000  -29.731911639203563  8.024117711677214  24.542797742095  52.66157246727338  9.186101763902485  -0.25084717091730896  7.782015111830576  44.754604774180294  3.6427989752610546  12.27871189149868  120.000000
1.9039999999999981  0.000000  0.000000  0.000000  -29.46638470095981  7.665023061328264  23.06856062707207  52.62434921506047  9.174816531456404  -0.5857467726050657  8.59606173033696  43.377844106432526  3.344984421919897  12.284252216259025  120.000000
1.9319999999999982  0.000000  0.000000  0.000000  -29.220778634949433  7.305569985250975  21.546760928504824  52.55763012794586  9.150578972362151  -0.8199059660473483  9.408240046616573  42.00847630996996  3.1718070893274075  12.29351146594001  120.000000
1.9599999999999982  0.000000  0.000000  0.000000  -28.987774312506414  6.953038347784036  19.99553603307573  52.456936659114696  9.114627432693396  -0.9535000341211001  10.205884715868468  40.64073918997807  3.142042797020227  12.301021254085446  120.000000
1.987999999999998  0.000000  0.000000  0.000000  -28.75767482673171  6.616197492559497  18.437953785088098  52.321056805912036  9.065648686797255  -0.9918450228601415  10.976850865704645  39.262870717251865  3.267576487057805  12.300252802031817  120.000000
2.0159999999999982  0.000000  0.000000  0.000000  -28.517566065587356  6.304123111721611  16.89487337631791  52.15153723179408  9.003146893147989  -0.9424556120939497  11.71307801965598  37.863358839973166  3.5498429292799756  12.285460439467084  120.000000
2.043999999999998  0.000000  0.000000  0.000000  -28.25675915646943  6.025532381450659  15.390282059806797  51.950956995557696  8.927372721309949  -0.8160240824754913  12.40828469386085  36.43162702864438  3.9834610110706445  12.252098879424034  120.000000
2.071999999999998  0.000000  0.000000  0.000000  -27.96684678248912  5.788084627682589  13.943790371574574  51.723484364671016  8.84143481983734  -0.6255647921641033  13.059622132247064  34.96132896471363  4.554843175605733  12.198778414424483  120.000000
2.099999999999998  0.000000  0.000000  0.000000  -27.64689553769257  5.595799251992155  12.573728940560002  51.47501129257183  8.751195010814685  -0.38500328231414005  13.667999993341132  33.450688276896166  5.244891145263588  12.128133835239757  120.000000
2.127999999999998  0.000000  0.000000  0.000000  -27.29893031312847  5.448581544559719  11.294014345445808  51.212963175454874  8.6641966138187  -0.10812763549611042  14.2388088847454  31.90394532567495  6.028909608636412  12.047111458138826  120.000000
2.155999999999998  0.000000  0.000000  0.000000  -26.93403963967124  5.342657848778407  10.114869746402222  50.94803417784585  8.589965574059804  0.19127220542151505  14.782191792978411  30.3314410728832  6.879321691146093  11.965671331830888  120.000000
2.183999999999998  0.000000  0.000000  0.000000  -26.564647534252593  5.271694860606043  9.04253246668072  50.69127913331166  8.536778399596548  0.5000385354138625  15.308871095444779  28.747089201639252  7.770203651849649  11.894466779222613  120.000000
2.211999999999998  0.000000  0.000000  0.000000  -26.207914499791485  5.226037646331825  8.078390313906544  50.45403273472971  8.512240548405082  0.8080150694832103  15.829956049502801  27.16768229471762  8.67972357177626  11.842903088720906  120.000000
2.239999999999998  0.000000  0.000000  0.000000  -25.876623988305347  5.195560146601949  7.219920252500863  50.24667204137838  8.520125573185437  1.1072262165098692  16.354241675649558  25.60904301783697  9.593076732034277  11.817838253578731  120.000000
2.267999999999998  0.000000  0.000000  0.000000  -25.58204337449311  5.169106711818057  6.459221256863552  50.07715640736798  8.561795356413127  1.393819134529691  16.885793180375888  24.086154729865875  10.50483522151772  11.822556788108914  120.000000
2.2959999999999976  0.000000  0.000000  0.000000  -25.3296093469318  5.137869464458842  5.788433404521025  49.950659173879274  8.63504709675985  1.6670718130722446  17.421863994151924  22.612393712008895  11.41986290388972  11.857823972973986  120.000000
2.3239999999999976  0.000000  0.000000  0.000000  -25.122089033716826  5.097837419538727  5.199128528624883  49.86909930768652  8.737764287987048  1.9291312733697112  17.951136386023876  21.201694157238084  12.353031688525544  11.922135594821187  120.000000
2.3519999999999976  0.000000  0.000000  0.000000  -24.957746141019122  5.048207819381197  4.683834967895729  49.8319165264447  8.865368495983803  2.181750034378674  18.45414619316526  19.864455728510872  13.327560102748604  12.013919833249544  120.000000
2.3799999999999977  0.000000  0.000000  0.000000  -24.831749573309416  4.990675256970771  4.231893102073385  49.83803571729481  9.010694377016492  2.4253642762923695  18.90869447010085  18.6058945333932  14.368168330524277  12.132039224186098  120.000000
2.4079999999999977  0.000000  0.000000  0.000000  -24.73623711785429  4.927607016330915  3.8353777270868696  49.88344285196554  9.165278928483554  2.6609200953716012  19.291156337730776  17.426588990022346  15.498548919793405  12.277162675492752  120.000000
2.4359999999999977  0.000000  0.000000  0.000000  -24.662609847674297  4.863780708429723  3.4891422558657745  49.962340997349834  9.322055116149663  2.8905194948079505  19.58032665391013  16.326277186651488  16.73676020827979  12.450733523610438  120.000000
2.4639999999999977  0.000000  0.000000  0.000000  -24.599851264884865  4.805007841029458  3.1906203000012283  50.07007329319974  9.474678857022445  3.1155203078880263  19.766033383095458  15.303858516536529  18.087108339619043  12.655782743457795  120.000000
2.4919999999999978  0.000000  0.000000  0.000000  -24.538580342050107  4.757154141562733  2.9371005577831064  50.20316317659471  9.617310290055787  3.336821482581361  19.849138078597264  14.357510627437241  19.54029874287255  12.89500679163022  120.000000
2.5199999999999974  0.000000  0.000000  0.000000  -24.470803488448603  4.7247782888557  2.7268899368975306  50.357233835596915  9.74512922937532  3.554924785068861  19.834570330994055  13.48486365058093  21.080466998036123  13.170084811451026  120.000000
2.5479999999999974  0.000000  0.000000  0.000000  -24.393345138564  4.711019570658732  2.5584413322705473  50.52797783953869  9.855540795721133  3.7696051626651226  19.72664376871392  12.68409044129428  22.6903219260918  13.47990362813752  120.000000
2.5759999999999974  0.000000  0.000000  0.000000  -24.305251749135685  4.717013487738939  2.430613251354054  50.71137730626386  9.94708291098026  3.9803332720374835  19.531586047730077  11.953117999578831  24.349640781911233  13.821382487177143  120.000000
2.6039999999999974  0.000000  0.000000  0.000000  -24.21017085995555  4.741812426770626  2.3416108305010455  50.90479954758306  10.019739556749682  4.186003058510586  19.25688321264981  11.2895447782269  26.037129209859003  14.18930392534694  120.000000
2.6319999999999975  0.000000  0.000000  0.000000  -24.112983191950207  4.7831769841672305  2.2890811185041344  51.106781439193895  10.073904070509085  4.385484099905091  18.91753564917578  10.689813621593617  27.725566202696402  14.578320458032138  120.000000
2.6599999999999975  0.000000  0.000000  0.000000  -24.020857162313803  4.836436993130189  2.270058653276425  51.31627404032352  10.110311850488284  4.578651103807889  18.532124906321407  10.148298897035447  29.387049988527362  14.982873693012206  120.000000
2.6879999999999975  0.000000  0.000000  0.000000  -23.940584189282006  4.895870363532852  2.281652269291498  51.53019816647289  10.129409149342887  4.7674028392301935  18.118200873181483  9.656610265873733  30.998556798678038  15.398751977353552  120.000000
2.7159999999999975  0.000000  0.000000  0.000000  -23.877722005803275  4.959582252539651  2.320017920219248  51.74835874123983  10.13415075362625  4.951325306575737  17.691805988740498  9.20573211769649  32.543655054788495  15.822736727442804  120.000000
2.7439999999999976  0.000000  0.000000  0.000000  -23.837239936148197  5.02797283317868  2.380488066181643  51.96972660446731  10.127736252489992  5.130534096001933  17.265051106005725  8.785876849450789  34.01541139175237  16.254133135827107  120.000000
2.771999999999997  0.000000  0.000000  0.000000  -23.818930729449395  5.102635029708057  2.457759738080576  52.19348633412394  10.114116172907439  5.30528796456189  16.828340934312198  8.386231348644733  35.43726547741017  16.693845635526564  120.000000
2.799999999999997  0.000000  0.000000  0.000000  -23.825204302946485  5.186545334563594  2.547650351905154  52.416926605967966  10.097914593870646  5.477884052615937  16.376688518282098  8.000225031991016  36.83194183158781  17.143423020819142  120.000000
