Simulation
nRows=101
nColumns=15
endheader
time  TH_x TH_y TH_z SC_y  SC_z  SC_x  AC_y  AC_z  AC_x  GH_y  GH_z  GH_yy  EL_x  PS_y
0.0  0.000000  0.000000  0.000000  -27.549367437425936  3.5970814489931238  5.325895916796365  53.53352500905417  9.818132809804993  3.3235978018183485  6.529421292127722  5.760403783510004  42.02894000169765  16.059898197005108  120.000000
0.027999999999999973  0.000000  0.000000  0.000000  -26.838919901088005  3.9409549119770793  4.876901643408896  52.971899570327935  9.891750203365428  3.501824448651719  8.371771166545907  6.567955437809909  39.97766989388376  15.538398088820506  120.000000
0.055999999999999946  0.000000  0.000000  0.000000  -25.944893862837624  4.322284025932436  4.339425499982469  52.39505979848535  9.85494296969331  3.685795104991048  9.740577709754852  7.346345685359428  38.27076308005182  15.035176524476132  120.000000
0.08399999999999992  0.000000  0.000000  0.000000  -25.16162324043366  4.641302549458961  3.814053340704757  51.843724785872915  9.760814659771269  3.8624872696666257  10.83964426538787  8.122935400567838  36.728250577740084  14.552047608627976  120.000000
0.11199999999999989  0.000000  0.000000  0.000000  -24.543596872894074  4.898130992736815  3.3276131972646343  51.36349112829626  9.657086070733888  4.007756553033558  11.749061074374467  8.927461686317356  35.29400441177612  14.091488838639952  120.000000
0.13999999999999987  0.000000  0.000000  0.000000  -24.111983892239955  5.0877268129204305  2.914301522255911  50.96523123867771  9.56737191757071  4.122119070341634  12.422397216787774  9.775771337241226  34.037514700367474  13.655863724599211  120.000000
0.16799999999999984  0.000000  0.000000  0.000000  -23.847219403841116  5.216805883517016  2.5842873579620904  50.65196677249959  9.50681341344984  4.210478488743647  12.857345997624932  10.685515701745006  32.97640361886347  13.249547432203439  120.000000
0.1959999999999998  0.000000  0.000000  0.000000  -23.69669780894728  5.309373760392354  2.3389131271820114  50.41765825955245  9.477186907913163  4.27560238318868  13.047741604611783  11.668410085253871  32.125251369578585  12.87705519797697  120.000000
0.22399999999999978  0.000000  0.000000  0.000000  -23.63129548147436  5.377677812160507  2.178938040156079  50.249789586630556  9.478535550674279  4.321740713569446  13.005974165748162  12.736504608627829  31.473942387804126  12.543248674891213  120.000000
0.2519999999999998  0.000000  0.000000  0.000000  -23.610481756786957  5.446853766883663  2.1007504622900215  50.13159601636982  9.504857475536474  4.351443701562546  12.753322837328716  13.89656969985982  30.99764467837349  12.251051155266936  120.000000
0.27999999999999975  0.000000  0.000000  0.000000  -23.6163426837694  5.527590754382976  2.1055900842458386  50.04579931441854  9.552591543137288  4.368129269434758  12.325217973751089  15.152737140059541  30.655019900925804  12.00308880168934  120.000000
0.3079999999999997  0.000000  0.000000  0.000000  -23.635801637078675  5.633459326348072  2.193549438348525  49.98025093698109  9.616156234788399  4.3728268999922335  11.780694080859991  16.503259957446407  30.377161869242897  11.79971520681853  120.000000
0.3359999999999997  0.000000  0.000000  0.000000  -23.663546486009402  5.7685576177141185  2.3651834307177158  49.92762595770312  9.69200233648138  4.364715856093765  11.182309165529304  17.939673161372188  30.09079166972556  11.64048249507349  120.000000
0.36399999999999966  0.000000  0.000000  0.000000  -23.708080806521913  5.929442698358037  2.621379084656569  49.88358399933767  9.777447885218894  4.343253302065003  10.590279678730381  19.448652757962254  29.723588936987003  11.521951080196963  120.000000
0.3919999999999996  0.000000  0.000000  0.000000  -23.77318969981553  6.113345588890673  2.96221178614482  49.84687442384239  9.872488101850394  4.305777550429012  10.051183028254291  21.011345483972505  29.2181152900777  11.439406606071053  120.000000
0.4199999999999996  0.000000  0.000000  0.000000  -23.873687621301816  6.312158400129591  3.387435222781971  49.81965062422133  9.980702715739683  4.2505999599617175  9.598255193397808  22.61011114999689  28.53348468934766  11.385911367909115  120.000000
0.44799999999999957  0.000000  0.000000  0.000000  -24.01417919374322  6.5208174657883635  3.8965343421443577  49.804045388598304  10.105651590095643  4.1747586787551  9.244175033839436  24.226040536989046  27.65439631773077  11.35301030037254  120.000000
0.47599999999999953  0.000000  0.000000  0.000000  -24.201549978223802  6.72992413097292  4.486699051713523  49.80233750795802  10.252325471591062  4.08002708883381  8.988236197127424  25.845709385964874  26.586376956437864  11.331002447937042  120.000000
0.5039999999999996  0.000000  0.000000  0.000000  -24.433871630515164  6.933865509246888  5.156018077973029  49.81700234420926  10.422621747889753  3.9685401255619626  8.821002477485528  27.45706137671321  25.351973964825746  11.310372396353532  120.000000
0.5319999999999995  0.000000  0.000000  0.000000  -24.706054379128407  7.128027018285975  5.897072623251562  49.850236545879525  10.617411283508929  3.843682086357717  8.725817407974006  29.053880915991744  23.986548021055253  11.281628331756377  120.000000
0.5599999999999995  0.000000  0.000000  0.000000  -25.011531194561954  7.307851799544392  6.704201812551379  49.902505657775926  10.83261683956337  3.7095169029460107  8.683098164419686  30.62922766733662  22.533446385147016  11.23740491402443  120.000000
0.5879999999999994  0.000000  0.000000  0.000000  -25.340161509742824  7.470239272817617  7.562957503077525  49.97303903305734  11.063323712425998  3.5703270728658967  8.672985861174151  32.17959585523544  21.035697222199726  11.172536151914066  120.000000
0.6159999999999994  0.000000  0.000000  0.000000  -25.68326130395176  7.6116272881142475  8.46327964369152  50.060725478050834  11.300260122146483  3.429681241347637  8.678531721882525  33.69806037034797  19.533563290180137  11.086821631629183  120.000000
0.6439999999999994  0.000000  0.000000  0.000000  -26.030278358749268  7.730549344069705  9.387797723678178  50.16215619998488  11.535869341001602  3.292858944779296  8.685724098550041  35.18167113841965  18.058930826859513  10.983781826291773  120.000000
0.6719999999999994  0.000000  0.000000  0.000000  -26.373337502920773  7.8265459799512955  10.32880432320364  50.27383967123361  11.76076636626909  3.1631760084902742  8.682117733350866  36.62724580225253  16.638518574189586  10.870799021811813  120.000000
0.6999999999999993  0.000000  0.000000  0.000000  -26.706274983905644  7.906751012775863  11.277718598522819  50.39160299623242  11.970366705167026  3.043907854783895  8.656761878670764  38.03666033670205  15.290983505285977  10.755770669961722  120.000000
0.7279999999999993  0.000000  0.000000  0.000000  -27.024854062235395  7.976378517119072  12.231735064634  50.51075212875368  12.163078794844228  2.937961842116207  8.598470569057554  39.41322148439854  14.031629375635815  10.646456268552251  120.000000
0.7559999999999992  0.000000  0.000000  0.000000  -27.328077944878373  8.0436244643956  13.186344247566396  50.62737632976421  12.337553557126347  2.8488820273616904  8.500353127997855  40.758227161510035  12.868889337676912  10.54946448180378  120.000000
0.7839999999999993  0.000000  0.000000  0.000000  -27.613203863589927  8.110444893141912  14.138199921100423  50.73800732553685  12.490554838950878  2.780507968090837  8.358689112424862  42.06900199256147  11.808398568606655  10.470667425867129  120.000000
0.8119999999999992  0.000000  0.000000  0.000000  -27.879872043500704  8.178613258412277  15.082542200749733  50.84103423720978  12.619379041975122  2.736550943366349  8.174520848346722  43.341087320605425  10.85127142361923  10.41393006438074  120.000000
0.8399999999999992  0.000000  0.000000  0.000000  -28.1265126587304  8.249712846241932  16.01532746468859  50.93589563789797  12.723133393846265  2.719438249582677  7.950086821624297  44.569589058022515  9.998528047586541  10.38140388988299  120.000000
0.8679999999999991  0.000000  0.000000  0.000000  -28.356841003143177  8.326156650407174  16.93445529163852  51.022323464334335  12.802455479082244  2.7320827859987293  7.6889485267544835  45.75167164981399  9.249902669998805  10.372956235562157  120.000000
0.8959999999999991  0.000000  0.000000  0.000000  -28.57264346244591  8.409975694684688  17.84034008845909  51.10005767149599  12.857447931099154  2.7755654027942094  7.39360334703767  46.886633269532325  8.606096252555732  10.386785483586653  120.000000
0.9239999999999992  0.000000  0.000000  0.000000  -28.781439527846878  8.503735209267303  18.736470861609867  51.169735612463285  12.888357062785646  2.852155362822425  7.067971224126189  47.9743707430967  8.06626939919148  10.420175702959497  120.000000
0.9519999999999991  0.000000  0.000000  0.000000  -28.98678953665233  8.609133345949614  19.62575702547173  51.23186564621031  12.89456014435845  2.96279101370185  6.714665782446808  49.0160280969163  7.629757162738128  10.47008988169233  120.000000
0.9799999999999991  0.000000  0.000000  0.000000  -29.19653465826479  8.727621358236751  20.512919006790412  51.2885532724296  12.87509215953132  3.108848317972596  6.337001605880495  50.010489647338325  7.293843075189858  10.53432969190976  120.000000
1.0079999999999991  0.000000  0.000000  0.000000  -29.414208618366533  8.859113370306021  21.399765561311014  51.34150936443854  12.829107426636575  3.291214332464641  5.936543591260105  50.95602582374687  7.054001140226989  10.61234443776642  120.000000
1.035999999999999  0.000000  0.000000  0.000000  -29.64699994861531  9.002781021810957  22.291881078333542  51.39343169205056  12.756837422997  3.5104644853833  5.514685655993059  51.84855251953189  6.902182035269058  10.706468096108688  120.000000
1.063999999999999  0.000000  0.000000  0.000000  -29.89689004485995  9.157328735837796  23.19115230794442  51.44640129105563  12.661904117811691  3.767172512537636  5.0716313908048365  52.68300246005976  6.826112532717854  10.822416425599016  120.000000
1.091999999999999  0.000000  0.000000  0.000000  -30.165783807924562  9.318228572350097  24.10215317428162  51.502515464336476  12.547810255480483  4.06164191501847  4.60802070360712  53.45162757323884  6.810508864897015  10.96937614236941  120.000000
1.119999999999999  0.000000  0.000000  0.000000  -30.449997816752497  9.48040974599245  25.025403611958165  51.56365827424191  12.415310846464038  4.391852732082429  4.12574531358114  54.144568058154164  6.837308901563115  11.15824916107256  120.000000
1.1479999999999988  0.000000  0.000000  0.000000  -30.744034941407946  9.63627541478875  25.96301527174245  51.6298205173466  12.263704976814623  4.753577819424143  3.628128818076678  54.75332995449921  6.889417213442243  11.397800334082477  120.000000
1.1759999999999988  0.000000  0.000000  0.000000  -31.04068801385335  9.780814072334335  26.911330259367283  51.6987536423061  12.092187335002883  5.142371571648715  3.1228700637280027  55.27449639354719  6.950805546370574  11.69124485305595  120.000000
1.2039999999999988  0.000000  0.000000  0.000000  -31.334592658266036  9.91160004363993  27.863753881541093  51.76689393761927  11.901079591022206  5.550625057772779  2.620631977648139  55.712218538364674  7.01034302464058  12.031708398112201  120.000000
1.2319999999999989  0.000000  0.000000  0.000000  -31.620189071460654  10.027273976233609  28.805921621938666  51.83162178768996  11.689560214743741  5.966643758984546  2.1357070605085524  56.0756896662791  7.062241047049287  12.401019777619984  120.000000
1.2599999999999987  0.000000  0.000000  0.000000  -31.895716952509883  10.131047636713747  29.717306790551255  51.89338405434066  11.456188654738028  6.373059090813141  1.6845026962022618  56.378576363075155  7.105564361699394  12.77175593338007  120.000000
1.2879999999999987  0.000000  0.000000  0.000000  -32.158105560538736  10.225314242180577  30.579890249085793  51.9544851153819  11.199698295843021  6.74873715041136  1.283115857131473  56.636195409301244  7.1438222525495645  13.112438988060578  120.000000
1.3159999999999987  0.000000  0.000000  0.000000  -32.407654487411584  10.318065793554297  31.375590068571196  52.018012229286434  10.925464050398558  7.073686234425902  0.9456224752516142  56.863205235773094  7.181734307762217  13.393880755011724  120.000000
1.3439999999999988  0.000000  0.000000  0.000000  -32.640127712147915  10.41168892780991  32.08969994612281  52.08528384040258  10.641305173526405  7.332588804302408  0.6830008057706921  57.07037761005784  7.2241907010905475  13.595795434449292  120.000000
1.3719999999999988  0.000000  0.000000  0.000000  -32.849939047541675  10.505936997914494  32.71224123161832  52.15580560192034  10.357087040972507  7.514678402111821  0.501002232353931  57.25949817666046  7.274805380179165  13.710204836864868  120.000000
1.3999999999999986  0.000000  0.000000  0.000000  -33.026460697212414  10.596581551728857  33.23322302010605  52.227559526847394  10.083035107006927  7.613709514108949  0.3995423380188066  57.42175676395574  7.335495618067359  13.741376550666763  120.000000
1.4279999999999986  0.000000  0.000000  0.000000  -33.15912825413915  10.674721439048069  33.64796730908392  52.29756330316358  9.828727281903406  7.627202222263669  0.37387261135467775  57.540491289828715  7.406002870092984  13.702581590722469  120.000000
1.4559999999999986  0.000000  0.000000  0.000000  -33.23695138413983  10.732692171923329  33.94978517269387  52.36318470242854  9.60185231496547  7.55514413834219  0.41690927089897134  57.59446844932046  7.482097162620618  13.611568296633628  120.000000
1.4839999999999987  0.000000  0.000000  0.000000  -33.25444547238158  10.762981957803044  34.139337798145434  52.42306455676589  9.407621543370839  7.396848529896282  0.5212725333882424  57.560809776051315  7.556473961807326  13.486296653305827  120.000000
1.5119999999999985  0.000000  0.000000  0.000000  -33.20820345323594  10.76097908631877  34.21308342216567  52.47634932295859  9.24856875720129  7.1520010284475335  0.6814439393651393  57.4192827753135  7.617251039494445  13.342438364322796  120.000000
1.5399999999999985  0.000000  0.000000  0.000000  -33.10405440674366  10.725257680370376  34.172704433168306  52.52314154327516  9.12406733098112  6.821234773581573  0.8953412977906808  57.15199770263454  7.64972476101456  13.192022573527552  120.000000
1.5679999999999985  0.000000  0.000000  0.000000  -32.94745012558597  10.655757158898991  34.01599059884459  52.562427800201746  9.033785285773979  6.407529032996945  1.1632291674182913  56.74929750215054  7.636653700245878  13.043384325568908  120.000000
1.5959999999999985  0.000000  0.000000  0.000000  -32.75021466495952  10.556331933015235  33.74602017094748  52.594252887720096  8.975568676494975  5.916167961277139  1.4878829319511795  56.2048781546949  7.561757731897332  12.90216492837273  120.000000
1.6239999999999983  0.000000  0.000000  0.000000  -32.518247700793566  10.428592917571297  33.359793478500706  52.61877000444224  8.94627435108942  5.355455977395927  1.872721351135066  55.51898871469978  7.411642463418502  12.772429822809146  120.000000
1.6519999999999984  0.000000  0.000000  0.000000  -32.259263219575175  10.274833236623568  32.85605894185516  52.637322863064554  8.940187280699222  4.736753772675218  2.3204574221222307  54.692766041814316  7.179001355093986  12.657173657523657  120.000000
1.6799999999999984  0.000000  0.000000  0.000000  -31.9756866289982  10.09457804516448  32.228374136068915  52.65165544333431  8.952706233593563  4.074580586469845  2.83071727588898  53.7332936797154  6.863727975439074  12.558068914615829  120.000000
1.7079999999999984  0.000000  0.000000  0.000000  -31.6728192886968  9.887757055065261  31.476244910706203  52.66359868654467  8.979064901463675  3.386668942167991  3.4005629047939183  52.65158933540887  6.4729252398561705  12.475392584927018  120.000000
1.7359999999999982  0.000000  0.000000  0.000000  -31.354084813615156  9.653215319921124  30.59733583386974  52.67481724999076  9.01442485080021  2.6933906129153886  4.02540616414539  51.46692056109146  6.020331578457663  12.408778761345552  120.000000
1.7639999999999982  0.000000  0.000000  0.000000  -31.02757493322432  9.391654358651968  29.598294280773324  52.686226445955484  9.052229828443142  2.0153736902200605  4.699750983605252  50.20044862974869  5.525372015486112  12.357307330767844  120.000000
1.7919999999999983  0.000000  0.000000  0.000000  -30.69942040800952  9.103866656027975  28.482364966412735  52.697003069504056  9.08694817090657  1.3733377770467219  5.4175957724537325  48.877711251462756  5.0124822955619  12.31999374932952  120.000000
1.8199999999999983  0.000000  0.000000  0.000000  -30.37898391390932  8.792824080458388  27.260175255690424  52.70422892632193  9.112542102058155  0.7860290045880937  6.172594862464542  47.52025181414242  4.509491891478003  12.29577676414458  120.000000
1.8479999999999983  0.000000  0.000000  0.000000  -30.071612752232255  8.461167598421962  25.938524071126015  52.70230925650869  9.12586718526657  0.27093115208718177  6.957925799369427  46.148325495066025  4.046042464589743  12.283553243035138  120.000000
1.8759999999999981  0.000000  0.000000  0.000000  -29.783307992754455  8.113920062662496  24.533666889511256  52.68411770535516  9.124347009772444  -0.1588997288667658  7.764958545304027  44.77455043584115  3.6521247073195484  12.281556227618761  120.000000
1.9039999999999981  0.000000  0.000000  0.000000  -29.514879489534653  7.75699859450057  23.05986025004624  52.64218168518667  9.109474032243895  -0.4938294125874616  8.58360782303842  43.40750833250917  3.3556276552354842  12.287208707162206  120.000000
1.9319999999999982  0.000000  0.000000  0.000000  -29.265427248443103  7.398473661461681  21.53894298767792  52.57036670598936  9.081948048260324  -0.7302252423119415  9.401446567554522  42.04638759724318  3.1814002035750355  12.29627338033897  120.000000
1.9599999999999982  0.000000  0.000000  0.000000  -29.02791657328672  7.045222667479709  19.988390590502792  52.46482545482952  9.042974251776593  -0.8679972921092085  10.206013204837133  40.68497992831985  3.1478864352018046  12.30333281361141  120.000000
1.987999999999998  0.000000  0.000000  0.000000  -28.7932035379  6.705786154191258  18.431078297745273  52.324911743002886  8.991368757373198  -0.9120370202271806  10.985384711247777  39.311272072529974  3.2668651218832148  12.302030141083078  120.000000
2.0159999999999982  0.000000  0.000000  0.000000  -28.54889138634434  6.388867424953793  16.887559341579305  52.15241932486648  8.927236855782903  -0.8692732373624794  11.731292814341066  37.91371371931906  3.5401920257139463  12.286826181912645  120.000000
2.043999999999998  0.000000  0.000000  0.000000  -28.28504257803063  6.103179323829628  15.381899267207924  51.9501223397257  8.851552245991755  -0.7500898138462879  12.436851228241128  36.48170221390762  3.963315168140897  12.253352358348161  120.000000
2.071999999999998  0.000000  0.000000  0.000000  -27.993518220738398  5.8565179150917075  13.933715352475055  51.72231682530678  8.768185928022385  -0.5672756373408602  13.098410245824883  35.008892028642805  4.5237190350720695  12.200354277777034  120.000000
2.099999999999998  0.000000  0.000000  0.000000  -27.6733138266039  5.653000928212326  12.561692455619907  51.474742053967184  8.683344244179857  -0.33448603857596926  13.71603102861465  33.49344699146943  5.203431510731443  12.130423318615104  120.000000
2.127999999999998  0.000000  0.000000  0.000000  -27.325973591878537  5.493092139615745  11.2799311987969  51.21451543799359  8.604508759692534  -0.0654819032977452  14.29410110707586  31.93956579419371  5.978990001362559  12.050293248121267  120.000000
2.155999999999998  0.000000  0.000000  0.000000  -26.961945797353984  5.3739854965177525  10.098932987500941  50.951938822116986  8.540830890101699  0.22603681590476593  14.842076948824355  30.357771751763778  6.82371970797084  11.969643832101472  120.000000
2.183999999999998  0.000000  0.000000  0.000000  -26.592632983629827  5.290343258813968  9.025342082922549  50.697475183426185  8.499805274903  0.5273288166190138  15.37076749041798  28.76245931799906  7.711845639141875  11.89894953410565  120.000000
2.211999999999998  0.000000  0.000000  0.000000  -26.23435938208821  5.233525341921834  8.060800785388695  50.46195241726147  8.488160280502983  0.8284764705672816  15.891942174176636  27.171201294954965  8.621006281554616  11.847544538258726  120.000000
2.239999999999998  0.000000  0.000000  0.000000  -25.899372582997835  5.194313741865932  7.202979947690248  50.25531264901758  8.508640808011764  1.121629834559888  16.415467440706596  25.600686055552895  9.535297761144879  11.822327525362686  120.000000
2.267999999999998  0.000000  0.000000  0.000000  -25.599127365174343  5.16191611702797  6.443986219593534  50.08517539708403  8.561736281442633  1.402972837151974  16.94656943362802  24.066829192444885  10.447927382488038  11.826714673274582  120.000000
2.2959999999999976  0.000000  0.000000  0.000000  -25.339458974348847  5.127648250603408  5.775844378626464  49.95670128034648  8.644412421446471  1.671558681880856  17.483599059393924  22.583655981264428  11.362338477459659  11.861629067406037  120.000000
2.3239999999999976  0.000000  0.000000  0.000000  -25.123932904702635  5.08716109987085  5.189824661584672  49.872054018628994  8.753990303582013  1.9293240285113327  18.016130153159786  21.16553546811472  12.292200625660152  11.925753105821169  120.000000
2.3519999999999976  0.000000  0.000000  0.000000  -24.951415933891255  5.039055128707116  4.678283602302732  49.831013374441824  8.885563669519106  2.1779413447888403  18.525158853733316  19.823004572312108  13.260001059470447  12.017618016571255  120.000000
2.3799999999999977  0.000000  0.000000  0.000000  -24.81772423916177  4.984412720885183  4.23041428853887  49.83299807590517  9.032108834928406  2.4178879980952557  18.988400714235347  18.56140399317645  14.290397340042453  12.136141830926444  120.000000
2.4079999999999977  0.000000  0.000000  0.000000  -24.71531003446071  4.924926417355271  3.838242293179977  49.87452053170714  9.185578677216002  2.6502428429340013  19.381377013308107  17.381296146032724  15.407906018288733  12.281918293017684  120.000000
2.4359999999999977  0.000000  0.000000  0.000000  -24.63603472952658  4.864838172535628  3.496505311565287  49.95027878694372  9.339498460079813  2.877214049587421  19.68114942001875  16.282282594732386  16.632392940745135  12.456231071635736  120.000000
2.4639999999999977  0.000000  0.000000  0.000000  -24.569263727839285  4.809439708535839  3.2024899620890594  50.055818448128754  9.488115064662749  3.1001373533548784  19.874517113924938  15.262848797486098  17.97131124153613  12.661815320032868  120.000000
2.4919999999999978  0.000000  0.000000  0.000000  -24.50604588284975  4.7642406585156785  2.9532239082959233  50.18795348137575  9.626062522913658  3.319828682076995  19.959833265677794  14.32065064017354  19.418103818869408  12.901143203486907  120.000000
2.5199999999999974  0.000000  0.000000  0.000000  -24.43841146595475  4.733455706988298  2.7468658755088575  50.34255058942818  9.748926599231593  3.536781338455338  19.940592349545703  13.452745191725732  20.958665700130734  13.17583934194078  120.000000
2.5479999999999974  0.000000  0.000000  0.000000  -24.363296425280485  4.720107275500242  2.5818528925354483  50.51544109355705  9.854448722718455  3.7509126026106374  19.82121842241182  12.656814494226575  22.575966132534646  13.48486976044432  120.000000
2.5759999999999974  0.000000  0.000000  0.000000  -24.279588407031035  4.725437095732262  2.457052188476972  50.702489068608195  9.941464188032057  3.96176771366204  19.60863145339132  11.930285950044883  24.2494752360607  13.825295657358247  120.000000
2.6039999999999974  0.000000  0.000000  0.000000  -24.190945641895105  4.748783654243205  2.370621191581652  50.90083017706677  10.010099065070646  4.168290902452331  19.311919230921546  11.270283146624166  25.956690361278383  14.192087823951805  120.000000
2.6319999999999975  0.000000  0.000000  0.000000  -24.101825040181026  4.788153471641783  2.3201154567748428  51.10867555753449  10.060733770255316  4.369384485284852  18.947946014133816  10.672727767176236  27.668924877909088  14.58016256588413  120.000000
2.6599999999999975  0.000000  0.000000  0.000000  -24.01919185153959  4.839286113227799  2.3025280355189737  51.32462378371391  10.094082990917627  4.56489609311292  18.53659647099573  10.131665902903025  29.35725657594997  14.98416922494607  120.000000
2.6879999999999975  0.000000  0.000000  0.000000  -23.94926640383339  4.89693108274417  2.3149165761188204  51.545313377653464  10.110638639044431  4.756549531928993  18.095770948516485  9.638585163541487  30.998534662061306  15.400108670891784  120.000000
2.7159999999999975  0.000000  0.000000  0.000000  -23.897177781569923  4.959373137301891  2.3534404240336237  51.77029845829222  10.113247764369026  4.94392761684181  17.641395803494238  9.184510642121786  32.576561442416846  15.824975406695534  120.000000
2.7439999999999976  0.000000  0.000000  0.000000  -23.867076084360207  5.026957320753646  2.413459480447558  51.99848573709999  10.104994999869032  5.127114709478936  17.184993239144458  8.759903585715364  34.08494671239349  16.258243098158367  120.000000
2.771999999999997  0.000000  0.000000  0.000000  -23.858381302395294  5.101108847269126  2.4898456198077845  52.22925206014227  10.089748681159147  5.306351713791866  16.717484815537887  8.354563270815582  35.546175077696255  16.700771510215777  120.000000
2.799999999999997  0.000000  0.000000  0.000000  -23.872691826222287  5.184301257848222  2.5787201100184753  52.460052202201325  10.072051377552313  5.4840850024458225  16.23430253264417  7.962456103825736  36.982010988192535  17.15391508945644  120.000000
