simulation
nRows=100
nColumns=15
endheader
time  TH_x TH_y TH_z SC_y  SC_z  SC_x  AC_y  AC_z  AC_x  GH_y  GH_z  GH_yy  EL_x  PS_y
0.000000  0.000000  0.000000  0.000000  -24.573561  3.445128  -1.993216  42.933830  10.616661  8.944164  20.458669  -1.916577  18.795296  20.457003  82.617647
0.029798  0.000000  0.000000  0.000000  -24.626223  3.436171  -1.888997  42.960365  10.757288  8.927842  20.503051  -2.154540  18.888040  20.704173  82.467767
0.059596  0.000000  0.000000  0.000000  -24.640679  3.432562  -1.864203  42.978979  10.810165  8.927404  20.526996  -2.247347  18.932435  20.782018  82.416467
0.089394  0.000000  0.000000  0.000000  -24.624784  3.435303  -1.905478  42.992814  10.789289  8.942132  20.522406  -2.200897  18.926759  20.710579  82.435933
0.119192  0.000000  0.000000  0.000000  -24.586391  3.445398  -1.998813  43.005251  10.708207  8.970835  20.481185  -2.021089  18.869290  20.509894  82.498349
0.148990  0.000000  0.000000  0.000000  -24.533354  3.463848  -2.130354  43.019705  10.580567  9.012439  20.395235  -1.713821  18.758306  20.200004  82.575900
0.178788  0.000000  0.000000  0.000000  -24.473526  3.491656  -2.285989  43.039613  10.419851  9.065675  20.256458  -1.284993  18.592085  19.800948  82.640770
0.208586  0.000000  0.000000  0.000000  -24.414762  3.529825  -2.450906  43.068439  10.239067  9.128754  20.056759  -0.740504  18.368905  19.332767  82.665145
0.238384  0.000000  0.000000  0.000000  -24.364915  3.579357  -2.612190  43.109295  10.052524  9.201291  19.788040  -0.086251  18.087044  18.815499  82.621207
0.268182  0.000000  0.000000  0.000000  -24.331839  3.641255  -2.755451  43.165387  9.873519  9.281806  19.442203  0.671865  17.744780  18.269185  82.481142
0.297980  0.000000  0.000000  0.000000  -24.323387  3.716521  -2.867701  43.239647  9.716296  9.369862  19.011152  1.527946  17.340391  17.713865  82.217135
0.327778  0.000000  0.000000  0.000000  -24.347000  3.806050  -2.934673  43.334741  9.593628  9.463729  18.487427  2.476004  16.870828  17.169865  81.806796
0.357576  0.000000  0.000000  0.000000  -24.403373  3.908977  -2.947818  43.446594  9.512907  9.560044  17.873944  3.508595  16.311440  16.662200  81.316097
0.387374  0.000000  0.000000  0.000000  -24.487714  4.023004  -2.900703  43.566038  9.475439  9.652219  17.182060  4.617091  15.619995  16.219691  80.882897
0.417172  0.000000  0.000000  0.000000  -24.595073  4.145795  -2.787185  43.683780  9.482543  9.733722  16.423378  5.792830  14.753756  15.871275  80.647145
0.446970  0.000000  0.000000  0.000000  -24.720499  4.275009  -2.599317  43.790758  9.534327  9.796680  15.609502  7.027149  13.669981  15.645886  80.748787
0.476768  0.000000  0.000000  0.000000  -24.859281  4.408263  -2.331664  43.877820  9.632583  9.835088  14.752107  8.311393  12.327171  15.571827  81.324914
0.506566  0.000000  0.000000  0.000000  -25.017955  4.541061  -1.986174  43.946474  9.780449  9.849898  13.866283  9.637190  10.742311  15.647517  82.377639
0.536364  0.000000  0.000000  0.000000  -25.218940  4.665920  -1.573399  44.013593  9.981672  9.850548  12.971949  10.996571  9.014974  15.829189  83.718494
0.566162  0.000000  0.000000  0.000000  -25.485857  4.775130  -1.105860  44.097137  10.240946  9.848094  12.089383  12.381598  7.250968  16.069887  85.144619
0.595960  0.000000  0.000000  0.000000  -25.842324  4.860983  -0.595992  44.215269  10.562865  9.853541  11.238866  13.784334  5.556100  16.322655  86.453152
0.625758  0.000000  0.000000  0.000000  -26.311917  4.915791  -0.056235  44.386443  10.951893  9.877966  10.440650  15.196833  4.036078  16.540578  87.441454
0.655556  0.000000  0.000000  0.000000  -26.900392  4.939467  0.505758  44.617410  11.403558  9.928173  9.703804  16.608895  2.757253  16.692856  87.993585
0.685354  0.000000  0.000000  0.000000  -27.568732  4.951029  1.100864  44.885728  11.886710  9.995295  9.009288  18.004644  1.687052  16.789191  88.211507
0.715152  0.000000  0.000000  0.000000  -28.270994  4.972452  1.743423  45.164764  12.365565  10.067647  8.333719  19.367330  0.777611  16.845545  88.230876
0.744949  0.000000  0.000000  0.000000  -28.961237  5.025709  2.443188  45.427285  12.807687  10.136745  7.653713  20.680200  -0.018936  16.877882  88.187347
0.774747  0.000000  0.000000  0.000000  -29.593519  5.132775  3.212989  45.646396  13.178849  10.191486  6.945885  21.926503  -0.750454  16.902165  88.216576
0.804545  0.000000  0.000000  0.000000  -30.130361  5.309223  4.059904  45.801007  13.455170  10.225314  6.187919  23.093291  -1.454527  16.934164  88.432117
0.834343  0.000000  0.000000  0.000000  -30.573938  5.540653  4.981343  45.901241  13.646166  10.243199  5.362511  24.185446  -2.120560  16.988749  88.843969
0.864141  0.000000  0.000000  0.000000  -30.938030  5.803889  5.971217  45.966139  13.771425  10.254158  4.453822  25.213063  -2.723861  17.080527  89.431832
0.893939  0.000000  0.000000  0.000000  -31.236418  6.075757  7.024341  46.014800  13.849549  10.266923  3.446012  26.186241  -3.239737  17.224104  90.175400
0.923737  0.000000  0.000000  0.000000  -31.482881  6.333080  8.135570  46.066328  13.898551  10.290776  2.323243  27.115077  -3.643493  17.434085  91.054367
0.953535  0.000000  0.000000  0.000000  -31.691842  6.554106  9.299568  46.138376  13.934715  10.334215  1.075279  28.009176  -3.915227  17.722737  92.046352
0.983333  0.000000  0.000000  0.000000  -31.883553  6.730022  10.503779  46.234110  13.968542  10.396484  -0.257148  28.873669  -4.078614  18.081043  93.110096
1.013131  0.000000  0.000000  0.000000  -32.081378  6.858926  11.731282  46.348999  14.008112  10.471913  -1.606098  29.711293  -4.180592  18.488627  94.194262
1.042929  0.000000  0.000000  0.000000  -32.308713  6.938979  12.965207  46.478662  14.061574  10.554496  -2.903375  30.524766  -4.268316  18.925004  95.247418
1.072727  0.000000  0.000000  0.000000  -32.588951  6.968341  14.187854  46.618798  14.137851  10.638564  -4.080787  31.316805  -4.388942  19.369691  96.218133
1.102525  0.000000  0.000000  0.000000  -32.944239  6.945586  15.382022  46.765555  14.245530  10.718339  -5.073426  32.089800  -4.587195  19.802786  97.057358
1.132323  0.000000  0.000000  0.000000  -33.371312  6.877684  16.537295  46.919166  14.385120  10.793617  -5.883441  32.839463  -4.858218  20.216258  97.764635
1.162121  0.000000  0.000000  0.000000  -33.843176  6.779443  17.649971  47.083293  14.549118  10.869444  -6.575585  33.555273  -5.150865  20.613157  98.384869
1.191919  0.000000  0.000000  0.000000  -34.331927  6.665973  18.716254  47.261136  14.729851  10.951586  -7.217008  34.226470  -5.412220  20.996960  98.964702
1.221717  0.000000  0.000000  0.000000  -34.809665  6.552383  19.734315  47.455683  14.918097  11.044706  -7.874859  34.842294  -5.589362  21.371141  99.550779
1.251515  0.000000  0.000000  0.000000  -35.248648  6.453654  20.704089  47.669612  15.103249  11.152419  -8.615581  35.392041  -5.629919  21.739101  100.189221
1.281313  0.000000  0.000000  0.000000  -35.632212  6.375975  21.616896  47.897762  15.281752  11.277528  -9.457135  35.868875  -5.518731  22.099119  100.890625
1.311111  0.000000  0.000000  0.000000  -35.961683  6.311252  22.470322  48.126126  15.446962  11.406874  -10.338727  36.272238  -5.301095  22.441155  101.607871
1.340909  0.000000  0.000000  0.000000  -36.240036  6.250083  23.256579  48.338192  15.596937  11.529637  -11.192350  36.602150  -5.027845  22.754406  102.288551
1.370707  0.000000  0.000000  0.000000  -36.470247  6.183064  23.971676  48.517630  15.727460  11.632049  -11.949993  36.858630  -4.749818  23.028069  102.880257
1.400505  0.000000  0.000000  0.000000  -36.655291  6.100798  24.608260  48.647179  15.837197  11.702447  -12.543673  37.041697  -4.517830  23.251345  103.330604
1.430303  0.000000  0.000000  0.000000  -36.797556  5.999001  25.161252  48.718731  15.922340  11.731677  -12.933123  37.152768  -4.360473  23.417304  103.613825
1.460101  0.000000  0.000000  0.000000  -36.897716  5.888355  25.611086  48.747723  15.986995  11.732795  -13.159190  37.197342  -4.241313  23.530331  103.782032
1.489899  0.000000  0.000000  0.000000  -36.956131  5.782263  25.936943  48.754851  16.035232  11.722098  -13.277473  37.181664  -4.112086  23.596872  103.901506
1.519697  0.000000  0.000000  0.000000  -36.973162  5.694129  26.119251  48.761648  16.069891  11.715075  -13.343575  37.111975  -3.924527  23.623374  104.038529
1.549495  0.000000  0.000000  0.000000  -36.949171  5.637357  26.134718  48.789364  16.096413  11.729771  -13.413095  36.994521  -3.630371  23.616283  104.259382
1.579293  0.000000  0.000000  0.000000  -36.884808  5.623083  25.967988  48.855714  16.114665  11.778117  -13.530879  36.833068  -3.193460  23.581878  104.615328
1.609091  0.000000  0.000000  0.000000  -36.782317  5.649990  25.618350  48.951616  16.116712  11.858058  -13.682650  36.617779  -2.644175  23.525535  105.075081
1.638889  0.000000  0.000000  0.000000  -36.644486  5.712502  25.095718  49.059381  16.087995  11.958863  -13.833927  36.334168  -2.035639  23.452319  105.579140
1.668687  0.000000  0.000000  0.000000  -36.474103  5.805039  24.408325  49.160700  16.015575  12.070718  -13.950211  35.967744  -1.420995  23.367294  106.067981
1.698485  0.000000  0.000000  0.000000  -36.273959  5.922023  23.566279  49.238018  15.885382  12.182042  -13.997003  35.504016  -0.853384  23.275525  106.482081
1.728283  0.000000  0.000000  0.000000  -36.046073  6.057243  22.578448  49.275089  15.686342  12.281603  -13.939750  34.929565  -0.383107  23.181105  106.765274
1.758081  0.000000  0.000000  0.000000  -35.784094  6.197607  21.458429  49.260028  15.425185  12.356907  -13.743325  34.242669  -0.029427  23.077522  106.898063
1.787879  0.000000  0.000000  0.000000  -35.476514  6.325788  20.225293  49.183218  15.117232  12.393813  -13.372245  33.448804  0.207497  22.951740  106.883520
1.817677  0.000000  0.000000  0.000000  -35.111749  6.424393  18.900524  49.034190  14.775536  12.377835  -12.791019  32.553554  0.327783  22.790624  106.725047
1.847475  0.000000  0.000000  0.000000  -34.678217  6.476034  17.501759  48.799671  14.415555  12.298612  -11.964161  31.562502  0.331551  22.581040  106.426046
1.877273  0.000000  0.000000  0.000000  -34.164790  6.463916  16.058859  48.466734  14.042977  12.139404  -10.858236  30.481717  0.219984  22.310357  105.989827
1.907071  0.000000  0.000000  0.000000  -33.572211  6.386839  14.591551  48.037808  13.661892  11.905726  -9.493459  29.329967  0.021991  21.979037  105.417239
1.936869  0.000000  0.000000  0.000000  -32.913940  6.260302  13.116582  47.535831  13.268703  11.620408  -7.947503  28.139625  -0.203815  21.601568  104.706504
1.966667  0.000000  0.000000  0.000000  -32.204063  6.100623  11.650773  46.986435  12.859130  11.306352  -6.300863  26.943729  -0.397366  21.193128  103.855711
1.996465  0.000000  0.000000  0.000000  -31.456661  5.924122  10.208123  46.416611  12.430637  10.987913  -4.634032  25.775318  -0.498595  20.768892  102.862951
2.026263  0.000000  0.000000  0.000000  -30.685857  5.747051  8.804917  45.855784  11.978833  10.687144  -3.027288  24.667230  -0.447720  20.344023  101.726678
2.056061  0.000000  0.000000  0.000000  -29.909671  5.578596  7.453795  45.330188  11.509163  10.420499  -1.537988  23.630976  -0.215597  19.932148  100.484181
2.085859  0.000000  0.000000  0.000000  -29.153437  5.414710  6.161911  44.855291  11.045409  10.193988  -0.180547  22.638114  0.169527  19.544025  99.245496
2.115657  0.000000  0.000000  0.000000  -28.443291  5.249892  4.945936  44.443000  10.607885  10.004838  1.035340  21.655805  0.673096  19.190094  98.128655
2.145455  0.000000  0.000000  0.000000  -27.805368  5.078637  3.817319  44.100112  10.222057  9.853896  2.099978  20.651214  1.260551  18.880796  97.251693
2.175253  0.000000  0.000000  0.000000  -27.265803  4.895444  2.794206  43.830438  9.909594  9.737221  3.003674  19.591507  1.897337  18.626570  96.732635
2.205051  0.000000  0.000000  0.000000  -26.841369  4.698435  1.889508  43.631749  9.684287  9.650109  3.748669  18.455394  2.561376  18.433007  96.625970
2.234848  0.000000  0.000000  0.000000  -26.516848  4.498115  1.096669  43.490491  9.532384  9.586150  4.377992  17.261047  3.273215  18.289123  96.769066
2.264646  0.000000  0.000000  0.000000  -26.270194  4.307633  0.402626  43.393209  9.434934  9.540545  4.943376  16.035056  4.062507  18.180396  96.952950
2.294444  0.000000  0.000000  0.000000  -26.079362  4.140139  -0.206826  43.328400  9.373114  9.509504  5.496553  14.804014  4.958899  18.092306  96.968649
2.324242  0.000000  0.000000  0.000000  -25.922305  4.008780  -0.747155  43.286038  9.328692  9.490107  6.089256  13.594512  5.992040  18.010332  96.607189
2.354040  0.000000  0.000000  0.000000  -25.778556  3.924500  -1.233597  43.258548  9.286871  9.480426  6.765108  12.429634  7.181489  17.923183  95.702905
2.383838  0.000000  0.000000  0.000000  -25.637866  3.883966  -1.669290  43.244026  9.247892  9.479109  7.515278  11.309778  8.481529  17.840469  94.370213
2.413636  0.000000  0.000000  0.000000  -25.494047  3.878170  -2.050344  43.241041  9.216311  9.483928  8.310065  10.226318  9.820474  17.780113  92.834971
2.443434  0.000000  0.000000  0.000000  -25.340924  3.898086  -2.371108  43.245803  9.195087  9.492171  9.119713  9.170603  11.126571  17.760060  91.323321
2.473232  0.000000  0.000000  0.000000  -25.172321  3.934691  -2.622101  43.252444  9.183979  9.499212  9.914469  8.133981  12.328066  17.798256  90.061403
2.503030  0.000000  0.000000  0.000000  -24.982757  3.979232  -2.793984  43.253980  9.181450  9.500844  10.666154  7.108976  13.357873  17.911292  89.260280
2.532828  0.000000  0.000000  0.000000  -24.775961  4.026576  -2.891817  43.250890  9.184276  9.498328  11.367448  6.103625  14.210659  18.097829  88.931344
2.562626  0.000000  0.000000  0.000000  -24.562180  4.074149  -2.931533  43.250423  9.188924  9.496696  12.025807  5.136956  14.924834  18.343826  88.944575
2.592424  0.000000  0.000000  0.000000  -24.351802  4.119431  -2.931918  43.260698  9.193873  9.502655  12.649001  4.228232  15.539731  18.634978  89.166959
2.622222  0.000000  0.000000  0.000000  -24.155213  4.159902  -2.911287  43.290313  9.197323  9.522464  13.244797  3.396714  16.094684  18.956975  89.465481
2.652020  0.000000  0.000000  0.000000  -23.982653  4.193059  -2.887800  43.347718  9.197628  9.562293  13.820858  2.661343  16.628483  19.295590  89.708678
2.681818  0.000000  0.000000  0.000000  -23.839315  4.216893  -2.870428  43.434255  9.195224  9.623269  14.381157  2.030080  17.161149  19.639305  89.818470
2.711616  0.000000  0.000000  0.000000  -23.724185  4.230005  -2.855898  43.542683  9.192426  9.699634  14.925133  1.497384  17.689632  19.979931  89.782398
2.741414  0.000000  0.000000  0.000000  -23.635870  4.231035  -2.840708  43.665211  9.192072  9.785545  15.451948  1.056885  18.209467  20.309489  89.592032
2.771212  0.000000  0.000000  0.000000  -23.572977  4.218624  -2.821432  43.794065  9.197062  9.875206  15.960765  0.702215  18.716188  20.619994  89.238941
2.801010  0.000000  0.000000  0.000000  -23.534111  4.191410  -2.793989  43.921546  9.209813  9.962370  16.450744  0.427002  19.205331  20.903465  88.714694
2.830808  0.000000  0.000000  0.000000  -23.517879  4.148034  -2.754608  44.039901  9.232887  10.041095  16.921047  0.224879  19.672428  21.151921  88.010861
2.860606  0.000000  0.000000  0.000000  -23.522887  4.087134  -2.699185  44.141384  9.268505  10.105306  17.370837  0.089476  20.113015  21.357379  87.119012
2.890404  0.000000  0.000000  0.000000  -23.547741  4.007350  -2.623584  44.218198  9.318725  10.149058  17.799274  0.014423  20.522626  21.511856  86.030717
2.920202  0.000000  0.000000  0.000000  -23.591047  3.907322  -2.522463  44.262626  9.384584  10.165717  18.205520  -0.006649  20.896796  21.607372  84.737544
2.950000  0.000000  0.000000  0.000000  -23.651413  3.785690  -2.391521  44.266753  9.467634  10.149623  18.588738  0.019890  21.231059  21.635943  83.231064
