Simulation
nRows=101
nColumns=15
endheader
time  TH_x TH_y TH_z SC_y  SC_z  SC_x  AC_y  AC_z  AC_x  GH_y  GH_z  GH_yy  EL_x  PS_y
0.0  0.000000  0.000000  0.000000  -40.72756060979867  6.591151762039726  5.708391943303158  44.5378943903055  3.514919671671671  -0.8521755711800657  144.02952308136554  2.120921229498813  -119.771209348496  22.707547132900118  120.000000
0.028900000000000006  0.000000  0.000000  0.000000  -40.56587211073413  6.771420843647628  5.505284195146947  44.28519971601866  3.8060968730045235  -0.6914652973799451  151.0758234732077  1.2630992385021114  -126.42898452124064  22.702225594509738  120.000000
0.05780000000000001  0.000000  0.000000  0.000000  -40.40865945541692  6.869469492108025  5.288644618410149  44.05745675977079  4.001884956798689  -0.5563455218366081  171.95553589938697  0.5634776777933186  -146.94299911194653  22.675099688384073  120.000000
0.08670000000000001  0.000000  0.000000  0.000000  -40.304580269023276  6.922209699367662  5.069005237137945  43.85678848439583  4.100729386523268  -0.4457597310179218  -107.3454437098344  0.31198843824476163  132.66932182146434  22.599155816562504  120.000000
0.11560000000000002  0.000000  0.000000  0.000000  -40.28530443753065  6.953709324189691  4.858192957511628  43.69507733545701  4.1120905321989625  -0.36048346146054194  -59.05251285373953  0.5787714145209335  84.6071844960898  22.46526465996066  120.000000
0.14450000000000002  0.000000  0.000000  0.000000  -40.37161151765061  6.974785733028483  4.67168666680603  43.58551747695966  4.051499564579725  -0.29442562029261715  -39.319864367641095  0.8341252413335369  65.0019025559884  22.276760461694177  120.000000
0.17340000000000003  0.000000  0.000000  0.000000  -40.568557949487506  6.986267046181206  4.524568773516628  43.54623731945997  3.9343470287116813  -0.2358398611867399  -23.47154564007021  1.0889450693799119  49.162465018408454  22.052786980017487  120.000000
0.20230000000000004  0.000000  0.000000  0.000000  -40.86729944601  6.984544699268781  4.429230434392412  43.598638600151254  3.7717623377666496  -0.16620441525870325  -10.883612387379735  1.4406482861294632  36.45811872861537  21.824114686278914  120.000000
0.23120000000000004  0.000000  0.000000  0.000000  -41.24693013874696  6.964268309686363  4.3923779780418055  43.76439579934223  3.5723381247191353  -0.06368885530690434  -3.309830509794315  1.9510202089527457  28.64179748708629  21.627338668684047  120.000000
0.26010000000000005  0.000000  0.000000  0.000000  -41.67984524532113  6.922736564635722  4.413185456361759  44.05897726844456  3.3441638095482222  0.0923838052710991  -0.5271272204319365  2.6446660584556305  25.49452865977731  21.50116390209943  120.000000
0.28900000000000003  0.000000  0.000000  0.000000  -42.133649650475704  6.862156814934143  4.485747421760907  44.48599254669862  3.097276142078153  0.3176342753029242  -1.092430836188721  3.5355772885251127  25.58088596914371  21.478353235752884  120.000000
0.31790000000000007  0.000000  0.000000  0.000000  -42.57735700553857  6.790772627858094  4.599651552174869  45.02989567787935  2.843884604418519  0.6187390805115627  -3.500915265235427  4.638060615506734  27.406253477665064  21.578070779919035  120.000000
0.34680000000000005  0.000000  0.000000  0.000000  -42.98652459105258  6.723134218128131  4.742111266030608  45.659202755242404  2.600678951999029  0.9925054186183314  -6.619103954809732  5.95473382430347  29.848524415543967  21.799003621793798  120.000000
0.3757000000000001  0.000000  0.000000  0.000000  -43.349879203379565  6.678972677479142  4.901016803004113  46.32917350919665  2.385694165774167  1.4241785220735972  -9.701360582577736  7.467594615876877  32.175504122623536  22.11721074389725  120.000000
0.40460000000000007  0.000000  0.000000  0.000000  -43.6700477281067  6.676639579541783  5.070987461218386  46.990855531575626  2.217330015478783  1.8885565651552132  -12.328970834774246  9.134884199206246  33.9838144200932  22.489263974151946  120.000000
0.4335000000000001  0.000000  0.000000  0.000000  -43.96497724960466  6.728611584560992  5.255221676518608  47.60013995272425  2.1122840864402432  2.3536390421283233  -14.294436944794844  10.899327722217242  35.08220924264021  22.860902678673835  120.000000
0.4624000000000001  0.000000  0.000000  0.000000  -44.25926302446859  6.839312529121915  5.463593367023788  48.12368342208577  2.0823472157206657  2.78607739540909  -15.521635003289113  12.701432420290173  35.40942042628128  23.179690473604612  120.000000
0.49130000000000007  0.000000  0.000000  0.000000  -44.579337995952436  7.005724591715698  5.710845964802888  48.542372035244036  2.1332564702859202  3.157009364429209  -16.02447924005494  14.490661286634138  34.992310977348176  23.405751392579674  120.000000
0.5202000000000001  0.000000  0.000000  0.000000  -44.94112877548681  7.219953022251611  6.010540537114108  48.84890711404294  2.261776268225069  3.4463323543403304  -15.875086979598585  16.234929246422972  33.912242975153944  23.51879759609649  120.000000
0.5491000000000001  0.000000  0.000000  0.000000  -45.34908536538824  7.472698326277813  6.370352576790419  49.045929486374376  2.4589246411249444  3.647198826011582  -15.190122929241541  17.920455121185253  32.29215420348122  23.517813991565948  120.000000
0.5780000000000001  0.000000  0.000000  0.000000  -45.79434582351923  7.754994824329065  6.7893148500886165  49.143678971336925  2.7121169205204962  3.766103122530618  -14.110915826957358  19.548517330782893  30.277819526097705  23.416622541962983  120.000000
0.6069000000000001  0.000000  0.000000  0.000000  -46.261109692718755  8.059827691802237  7.26374145581956  49.15780013938799  3.003942693189815  3.8173919877235862  -12.786444122730966  21.129257782367493  28.021374800655  23.23790505946687  120.000000
0.6358000000000001  0.000000  0.000000  0.000000  -46.731293492747525  8.381473524397748  7.789792359698505  49.109082142509614  3.3157328293002655  3.8197972560941613  -11.355357146184113  22.674357524640207  25.664419053458634  23.00636466718699  120.000000
0.6647000000000002  0.000000  0.000000  0.000000  -47.191648196672546  8.715374203213175  8.363716002626107  49.02125223516843  3.631073643259574  3.7941158694862587  -9.930092285127156  24.19334295622756  23.321637983624754  22.744593809617903  120.000000
0.6936000000000001  0.000000  0.000000  0.000000  -47.63444155930777  9.056565512174812  8.98338000269304  48.91928175902542  3.93848375761591  3.7601733812524163  -8.589058905006238  25.690515376267143  21.072247022898075  22.47048066481093  120.000000
0.7225000000000001  0.000000  0.000000  0.000000  -48.06091115774848  9.400411578070955  9.648617907904304  48.826692813357745  4.231826965114452  3.7351303248047443  -7.37363558186147  27.16486437501733  18.955952686177586  22.19625783648558  120.000000
0.7514000000000002  0.000000  0.000000  0.000000  -48.47721131891101  9.743002967995615  10.359879434757273  48.76230922596847  4.510065598985672  3.7323671325299967  -6.291442434607345  28.610316375192337  16.975965774349834  21.928828007741917  120.000000
0.7803000000000001  0.000000  0.000000  0.000000  -48.8953056156407  10.081791812435881  11.118516471130528  48.73787377986317  4.77691809804199  3.760452503568102  -5.322912078226984  30.01643188822387  15.106327754507488  21.670779291675192  120.000000
0.8092000000000001  0.000000  0.000000  0.000000  -49.32794669175663  10.415492773426724  11.924732235102312  48.75671450382491  5.039450901959209  3.8238119285056866  -4.430142390169579  31.370271768983773  13.30210417666198  21.42127509323216  120.000000
0.8381000000000002  0.000000  0.000000  0.000000  -49.78950757014122  10.745032682736426  12.777919038797068  48.81471829205695  5.306366605192188  3.9238912323560475  -3.567822497189031  32.65767393497365  11.51246020817506  21.176672549462378  120.000000
0.8670000000000002  0.000000  0.000000  0.000000  -50.29090698099885  11.072070640000115  13.675220999638798  48.90226475323349  5.585998222916775  4.060675183328843  -2.6941739502740307  33.86633552649995  9.693543768640827  20.93238372429513  120.000000
0.8959000000000001  0.000000  0.000000  0.000000  -50.84049717358073  11.39857842932016  14.611798669077887  49.00788284795573  5.885249294284828  4.234488450748262  -1.7806510583416937  34.988166361959124  7.819666801604308  20.684342059927506  120.000000
0.9248000000000002  0.000000  0.000000  0.000000  -51.4399897337502  11.725416743346038  15.580248200004664  49.12169562142528  6.207877954076373  4.44754990959124  -0.8188302498984401  36.02139362394706  5.891286331254632  20.430651057892618  120.000000
0.9537000000000002  0.000000  0.000000  0.000000  -52.086868671498884  12.052800691481064  16.571149479825465  49.238097117916894  6.553868134391292  4.704783791587277  0.17733349767572354  36.971246585284035  3.9365703393598834  20.172840528413506  120.000000
0.9826000000000001  0.000000  0.000000  0.000000  -52.77276560067819  12.379588979807318  17.573263118494943  49.35694413921022  6.919395043085848  5.013443851049873  1.1744718055018508  37.84831063461914  2.007051652519195  19.915864636114726  120.000000
1.0115000000000003  0.000000  0.000000  0.000000  -53.48810308206799  12.70451109247877  18.57451504451705  49.48279053248571  7.297760807186575  5.38178454520194  2.1282127106253124  38.66638562355646  0.1659815295354007  19.667113075267697  120.000000
1.0404000000000002  0.000000  0.000000  0.000000  -54.221729741185875  13.025791016844854  19.56233100275282  49.622954888283985  7.680962826602079  5.817021725624057  2.993968115326821  39.43908108908843  -1.5251624320717605  19.43425623184801  120.000000
1.0693000000000001  0.000000  0.000000  0.000000  -54.96534906659465  13.34223494774376  20.524940883164096  49.78460305275995  8.061441361166407  6.323278974273271  3.7377305485378245  40.17805387708977  -3.0201577169921876  19.222775687558016  120.000000
1.0982000000000003  0.000000  0.000000  0.000000  -55.711328952555135  13.652569560223982  21.451181875526274  49.97205670194301  8.43346956364844  6.899941769068072  4.343472725890837  40.89151888081292  -4.296504017483766  19.03394440694039  120.000000
1.1271000000000002  0.000000  0.000000  0.000000  -56.4562093579574  13.956214119963839  22.33205025645508  50.18527190619204  8.793744051620358  7.541104577729462  4.816174825726006  41.58414874716653  -5.357920647854729  18.864349684527475  120.000000
1.1560000000000001  0.000000  0.000000  0.000000  -57.19712519582139  14.251849583563514  23.15952915195044  50.42005338538796  9.141126702794912  8.235640434944122  5.177835458140225  42.25776102055961  -6.228954574821435  18.706867639890582  120.000000
1.1849000000000003  0.000000  0.000000  0.000000  -57.93234533404169  14.537625749245255  23.927779958468214  50.66839341806252  9.476231010917564  8.967798421642815  5.458215147828466  42.91178162958282  -6.943711433156959  18.552573197254812  120.000000
1.2138000000000002  0.000000  0.000000  0.000000  -58.65639445680845  14.81015440019481  24.63169550999644  50.92057108586974  9.799879850206386  9.718514432665655  5.685233587981218  43.5442718177341  -7.534935528442803  18.39355675045705  120.000000
1.2427000000000001  0.000000  0.000000  0.000000  -59.3630698552492  15.065619847340665  25.268710458339495  51.16770227523045  10.111693687062765  10.467592967682567  5.878975168413546  44.1525115622472  -8.026592241134532  18.2257807709141  120.000000
1.2716000000000003  0.000000  0.000000  0.000000  -60.04186770607502  15.299377490151116  25.836884775276918  51.403311207594264  10.409798733559164  11.195172629888784  6.049236702135658  44.73356141100302  -8.431611676759657  18.050697705554843  120.000000
1.3005000000000002  0.000000  0.000000  0.000000  -60.68136827516417  15.507519491885475  26.33652762398903  51.62329807887794  10.691117700238776  11.883115400342202  6.196517078524495  45.28364155466557  -8.75363749806981  17.87503047210253  120.000000
1.3294000000000004  0.000000  0.000000  0.000000  -61.26745176060938  15.686489581095397  26.76783852152069  51.82545144749051  10.9524396934984  12.51594487406819  6.3168754270775915  45.79735225114123  -8.993616390703489  17.70848931054385  120.000000
1.3583000000000003  0.000000  0.000000  0.000000  -61.78813589270106  15.834190909328312  27.13315823470196  52.00849838746326  11.190413663959585  13.080897286223621  6.4065111862834465  46.26679509938282  -9.155741842387135  17.560690701628502  120.000000
1.3872000000000002  0.000000  0.000000  0.000000  -62.2320290461497  15.94921660611689  27.43471936802897  52.17105696649423  11.40189792638142  13.567956135948098  6.465799047168525  46.68119354351283  -9.25258628022656  17.438253913417945  120.000000
1.4161000000000004  0.000000  0.000000  0.000000  -62.59345067324378  16.031886190324254  27.676517052240627  52.31162101668704  11.583536554254911  13.969398144146288  6.501612173152258  47.02703385410627  -9.306903971555071  17.342920861259724  120.000000
1.4450000000000003  0.000000  0.000000  0.000000  -62.86979653557994  16.08346817244829  27.861386336935173  52.428620552443654  11.732099377541548  14.279890786147451  6.527314447323434  47.28899387793826  -9.350048259346005  17.27153367358425  120.000000
1.4739000000000002  0.000000  0.000000  0.000000  -63.06373321145316  16.107304158299314  27.992134358875177  52.51997085722295  11.84433802307551  14.49639856707729  6.560042416833146  47.45114711627506  -9.416548713596258  17.217578528976446  120.000000
1.5028000000000004  0.000000  0.000000  0.000000  -63.178343080187894  16.10747989362031  28.06967008285242  52.58304950265872  11.91669033361025  14.617748253979073  6.617058845934193  47.49857624138861  -9.53723349483397  17.17362148565656  120.000000
1.5317000000000003  0.000000  0.000000  0.000000  -63.21907407029899  16.089556087034374  28.094311380613124  52.61472331947217  11.945403473225728  14.644070781732387  6.712828737411695  47.41888493243378  -9.733384176184588  17.133882874422994  120.000000
1.5606000000000002  0.000000  0.000000  0.000000  -63.189283825376016  16.059044989535757  28.06443204311217  52.61149964312077  11.926525053204374  14.57631231645801  6.856430197024076  47.20324973072346  -10.012333540809356  17.096100402858845  120.000000
1.5895000000000004  0.000000  0.000000  0.000000  -63.09265152123827  16.02170975860617  27.977984298466385  52.5696780673173  11.856384290862293  14.415772808184084  7.050622725650821  46.84738615421647  -10.367189300555598  17.061978527040505  120.000000
1.6184000000000003  0.000000  0.000000  0.000000  -62.92989098817099  15.98135973634199  27.831728725391173  52.48608167839063  11.73203153089681  14.163851447698688  7.292418826957669  46.35148898301335  -10.779742985835211  17.036339399998656  120.000000
1.6473000000000002  0.000000  0.000000  0.000000  -62.70223277704038  15.939835994245483  27.623176034082473  52.35898878508778  11.552062646053221  13.822044502175181  7.574999494874911  45.720350248333354  -11.226451511916073  17.02496945421084  120.000000
1.6762000000000004  0.000000  0.000000  0.000000  -62.40837061549371  15.895114130516227  27.350218823185408  52.18851652393452  11.316825788015075  13.391886528152563  7.8895448966765915  44.962841756448945  -11.68409966062752  17.032277443622693  120.000000
1.7051000000000003  0.000000  0.000000  0.000000  -62.048809343084365  15.842021463860185  27.0136326855767  51.97712641427488  11.028450015811154  12.874523116445658  8.227181497975497  44.09150241115569  -12.134797892711699  17.059792507470213  120.000000
1.7340000000000004  0.000000  0.000000  0.000000  -61.62381763140307  15.771765976076873  26.61485340949669  51.729611962235474  10.691108350494709  12.271160736081896  8.580885074262738  43.122161748393836  -12.56876078463188  17.105470829304384  120.000000
1.7629000000000004  0.000000  0.000000  0.000000  -61.13678284632771  15.67432964537781  26.156817893667668  51.45221910474987  10.310904196349892  11.58443057790261  8.945744398228346  42.07333939457264  -12.983971943067669  17.163939187908166  120.000000
1.7918000000000003  0.000000  0.000000  0.000000  -60.59098992481818  15.539398672440504  25.641781222450113  51.15218230747846  9.894757540794943  10.819657766754938  9.318677287053264  40.96594496853524  -13.383860167082041  17.227619255546816  120.000000
1.8207000000000004  0.000000  0.000000  0.000000  -59.99395520998509  15.358952079788812  25.07409844998405  50.838117998882204  9.448570700614562  9.984987979773965  9.698269263667731  39.822133207669715  -13.774719216839939  17.288579526367105  120.000000
1.8496000000000004  0.000000  0.000000  0.000000  -59.35491269770924  15.127168046062483  24.458211789769145  50.51994114323712  8.976657729432311  9.092142863227457  10.083612814229358  38.664086614737975  -14.162996769341019  17.33992079685907  120.000000
1.8785000000000003  0.000000  0.000000  0.000000  -58.68701969664238  14.841544473874084  23.79987046566833  50.20757115729716  8.482331951808504  8.156410570293525  10.471531860205442  37.51178972870525  -14.55230827858665  17.376116504190144  120.000000
1.9074000000000004  0.000000  0.000000  0.000000  -58.00353395027584  14.501358605506931  23.105059348009263  49.9100460057427  7.968698796661247  7.195413615492342  10.855264852707247  36.38093921963416  -14.942419188520436  17.39312080191965  120.000000
1.9363000000000004  0.000000  0.000000  0.000000  -57.32173672745249  14.108201725734203  22.382147734797616  49.635310214546394  7.439607023308649  6.227930692880712  11.226466981782119  35.28120165478254  -15.331005241107661  17.388617766228215  120.000000
1.9652000000000003  0.000000  0.000000  0.000000  -56.65887087898554  13.665494773030744  21.640150950023397  49.389173647195705  6.900490628302933  5.272687295936772  11.577467720553406  34.21532768005361  -15.715058293373964  17.36227964602707  120.000000
1.9941000000000004  0.000000  0.000000  0.000000  -56.032648573785295  13.179789409799577  20.889496642696443  49.1740373256095  6.3587206881694325  4.347023702170848  11.901675601910181  33.17903301323563  -16.089822440002994  17.315445272608574  120.000000
2.0230000000000006  0.000000  0.000000  0.000000  -55.4558750340418  12.659988398085174  20.139318125772377  48.988707132953174  5.823442428457288  3.4659469871037567  12.193533798845902  32.16195012272927  -16.44760236220022  17.250494382995072  120.000000
2.0519000000000003  0.000000  0.000000  0.000000  -54.93810584058615  12.11775870948547  19.39817853801157  48.82895872086196  5.304505850341113  2.6413564372996983  12.448413498429876  31.14918089980677  -16.77716223360169  17.1702862269359  120.000000
2.0808000000000004  0.000000  0.000000  0.000000  -54.482284053388355  11.565647216470206  18.67142582341096  48.68876195249937  4.8124129378036455  1.8823278308656382  12.66321068747812  30.12321912155431  -17.06517884003145  17.077538063855826  120.000000
2.1097000000000006  0.000000  0.000000  0.000000  -54.088268360102  11.016584560207072  17.962121809467583  48.56155327722404  4.357579162451667  1.1953595430986856  12.837541784145198  29.06626645317638  -17.29916121975889  16.974272905582243  120.000000
2.1386000000000003  0.000000  0.000000  0.000000  -53.75118119591094  10.482015324376386  17.272900170300886  48.44148068160367  3.947631798774361  0.5827310932666496  12.975684346632988  27.962084903083205  -17.471306874884043  16.86154190789917  120.000000
2.1675000000000004  0.000000  0.000000  0.000000  -53.46576282088823  9.971884508580553  16.60755407766432  48.32341871434587  3.586435178844741  0.04250965826884968  13.088903294031535  26.797819636856456  -17.58213609767367  16.739616599897168  120.000000
2.1964000000000006  0.000000  0.000000  0.000000  -53.22466061577139  9.493640807916691  15.968847678463309  48.20297563967507  3.2749192191076166  -0.4301492544718161  13.196712928842198  25.564972261747418  -17.64221018168923  16.60829739598681  120.000000
2.2253000000000003  0.000000  0.000000  0.000000  -53.02183302962386  9.052793976358673  15.359088791525407  48.07636241209417  3.011582984018159  -0.8419554859682555  13.326283317507512  24.260057875106412  -17.67080047241476  16.467248797140503  120.000000
2.2542000000000004  0.000000  0.000000  0.000000  -52.84932063481135  8.65229212863751  14.778792207627259  47.94069636973934  2.792979047383072  -1.200364449325993  13.509244852729015  22.884942693126735  -17.691219673097027  16.31603534027211  120.000000
2.2831000000000006  0.000000  0.000000  0.000000  -52.698972019557075  8.29313134050174  14.227321051504061  47.79431182040421  2.614004489257702  -1.5124556562875138  13.776296594592244  21.447040830629668  -17.723561246358585  16.153693163559126  120.000000
2.3120000000000003  0.000000  0.000000  0.000000  -52.55805559360872  7.973788311590071  13.701765563680944  47.637304528514235  2.468103819718705  -1.7838029262128787  14.149564150165999  19.95921902729579  -17.77570141727849  15.97800825144449  120.000000
2.3409000000000004  0.000000  0.000000  0.000000  -52.41133244136457  7.690736561428898  13.198090109889492  47.47184850317013  2.3476157943720426  -2.017848950386973  14.635707949800036  18.439189160368247  -17.83657026269498  15.78505512767115  120.000000
2.3698000000000006  0.000000  0.000000  0.000000  -52.23905160202702  7.438239357306841  12.709647032455583  47.30223943568963  2.2454363249717524  -2.2147491751516113  15.221333373806871  16.908221632533742  -17.873656832927615  15.569950524666314  120.000000
2.3987000000000003  0.000000  0.000000  0.000000  -52.021894694582336  7.209706186257057  12.228762377787834  47.134557088014176  2.156163137894779  -2.371647187525816  15.872843888914813  15.389215858867866  -17.836732100877338  15.32852845263853  120.000000
2.4276000000000004  0.000000  0.000000  0.000000  -51.741492206954135  6.9981825891274445  11.748979202540815  46.97577875233194  2.0756521743976712  -2.484896128648153  16.542098444527106  13.904768680412163  -17.667969903774495  15.059695565153485  120.000000
2.4565000000000006  0.000000  0.000000  0.000000  -51.38708050444635  6.797533637670409  11.266763916836938  46.83285269915035  2.001861235375123  -2.5512775582936627  17.176442391409818  12.475766700504867  -17.31595336325188  14.768134640468194  120.000000
2.4854000000000003  0.000000  0.000000  0.000000  -50.954614910085255  6.602885973456902  10.780509657833218  46.71138102714423  1.9358218524354365  -2.568953991571774  17.731752152496075  11.120261514629213  -16.75051077817687  14.465775438307888  120.000000
2.5143000000000004  0.000000  0.000000  0.000000  -50.4497526140217  6.4116838076628  10.291104317089719  46.61526750731741  1.8814966928543155  -2.5378288476671997  18.18220547328323  9.852841320328785  -15.971379595978242  14.17086628350039  120.000000
2.5432000000000006  0.000000  0.000000  0.000000  -49.88420650008488  6.223163553919083  9.800763234570567  46.54682280852616  1.845090184842278  -2.459229103619944  18.527909331540425  8.68464129190663  -15.011535306174535  13.90483339260513  120.000000
2.5721000000000003  0.000000  0.000000  0.000000  -49.27556667623475  6.0384724661200275  9.312987498502437  46.506990208763796  1.8336405753175562  -2.3354972061451775  18.79825286721155  7.623030266239846  -13.935496937617696  13.68839458523824  120.000000
2.6010000000000004  0.000000  0.000000  0.000000  -48.64141235463592  5.859543290954189  8.831198390486225  46.49652591672349  1.8537012534929458  -2.1695038672415228  19.053921958923077  6.671221478431882  -12.835985517475569  13.537535680763767  120.000000
2.6299000000000006  0.000000  0.000000  0.000000  -48.000122789190556  5.6880921495696395  8.358993796649449  46.51698982394072  1.9101947732225135  -1.9641222723359095  19.390672021057913  5.82821797492272  -11.833911072522065  13.460699850587407  120.000000
2.6588000000000007  0.000000  0.000000  0.000000  -47.36697345643373  5.524152950225435  7.899109264676147  46.57141721172959  2.005561948064301  -1.7222168267985238  19.94850121137571  5.088946638760173  -11.086000767919822  13.458645867240156  120.000000
2.6877000000000004  0.000000  0.000000  0.000000  -46.75671814978079  5.365861245034917  7.453496481607544  46.66473939690735  2.139262305052445  -1.4468418749062808  20.92983105478199  4.444475720012819  -10.802831499398156  13.526153850456135  120.000000
2.7166000000000006  0.000000  0.000000  0.000000  -46.180540240355214  5.209137286695791  7.021763338832409  46.80313840794623  2.307057936343942  -1.1411821625738523  22.627267698386134  3.8830510057228502  -11.278808092467056  13.654692272392278  120.000000
2.7455000000000007  0.000000  0.000000  0.000000  -45.64803966292499  5.047407130361886  6.601303132409809  46.99365718309052  2.501164309816288  -0.8095732378702821  25.46386497621623  3.3916196228299156  -12.933094080589283  13.835256863589711  120.000000
2.7744000000000004  0.000000  0.000000  0.000000  -45.16280261377418  4.870138334401556  6.1862135569844625  47.24317849488049  2.70981540814861  -0.4578098085157645  30.02633562044293  2.960700502347658  -16.34655398360455  14.05907330800589  120.000000
2.8033000000000006  0.000000  0.000000  0.000000  -44.724062951178844  4.663750300481018  5.769526825702221  47.55237582686192  2.9192414445954777  -0.09130405379894181  37.07022395368248  2.5884393337573894  -22.267489763276306  14.317397271978964  120.000000
2.8322000000000007  0.000000  0.000000  0.000000  -44.323021429491206  4.411395712270745  5.342849259195706  47.91793525423584  3.1174314642359384  0.2833401104684588  47.37018326201347  2.290094745999077  -31.463926045624074  14.60526183263212  120.000000
2.8611000000000004  0.000000  0.000000  0.000000  -43.94548461277592  4.094973751481362  4.896357717391911  48.33389038963926  3.2952382174368657  0.6594328647532861  61.27715645030398  2.1017560047031982  -44.281562756334765  14.916364523343892  120.000000
2.8900000000000006  0.000000  0.000000  0.000000  -43.57255222407073  3.6985735609394697  4.421516077561495  48.78762200387061  3.444000918399157  1.033823039256251  77.89584245247393  2.06549618687527  -59.81938894500473  15.244677798900526  120.000000
