Simulation
nRows=101
nColumns=15
endheader
time  TH_x TH_y TH_z SC_y  SC_z  SC_x  AC_y  AC_z  AC_x  GH_y  GH_z  GH_yy  EL_x  PS_y
0.0  0.000000  0.000000  0.000000  -39.669477081952415  8.328989456863312  7.105304648342015  43.69745472502192  1.4295177651836275  -1.157996919103623  -18.211956348900685  -1.0588963128014035  42.591559168154326  23.536435207477243  120.000000
0.028900000000000006  0.000000  0.000000  0.000000  -39.76551133219121  7.8859043507536395  6.925030442588994  43.67859247763001  2.1734364020842123  -1.1998959314309936  -17.855124155227983  -0.5266170294781095  42.435541091051974  23.075121189075368  120.000000
0.05780000000000001  0.000000  0.000000  0.000000  -39.80962324701592  7.4323473057591904  6.670259082776929  43.650198410157905  2.7902444402300475  -1.274826321840381  -17.468420229822833  -0.10226392768291592  42.308705112147955  22.67822616897912  120.000000
0.08670000000000001  0.000000  0.000000  0.000000  -39.8238367930551  7.080353771229971  6.33390247984429  43.53388202224026  3.2433440963965667  -1.3657310624568644  -17.040780709659614  0.18736306694246418  42.21970416312724  22.389274243792457  120.000000
0.11560000000000002  0.000000  0.000000  0.000000  -39.85295799705663  6.854852187660856  5.938849170652185  43.318678601011136  3.5409761535740203  -1.4540057602417882  -16.594923983101776  0.34682570245437105  42.14302666875484  22.200421680576895  120.000000
0.14450000000000002  0.000000  0.000000  0.000000  -39.9293504178568  6.734886374975096  5.5298647271824946  43.06578651969971  3.721327999361577  -1.5146327677270646  -16.17613582748084  0.40923456412090403  42.030182612147165  22.082800929472462  120.000000
0.17340000000000003  0.000000  0.000000  0.000000  -40.071698640442754  6.688027618899633  5.162014672672777  42.86860243808721  3.829097462477416  -1.5093099650558128  -15.823394029919886  0.4333027109139182  41.83870305571406  22.009133141108048  120.000000
0.20230000000000004  0.000000  0.000000  0.000000  -40.29392785375032  6.67274755238069  4.886564273882369  42.83649867972204  3.907542013213075  -1.390850529004117  -15.578127342366706  0.4937434939777986  41.52402032545416  21.951221759582573  120.000000
0.23120000000000004  0.000000  0.000000  0.000000  -40.61218928276318  6.6409242116116785  4.738983335956994  43.059276175766094  3.992289846773021  -1.1152580445783091  -15.47344309342314  0.6738649706333797  41.05151087853909  21.87800890051565  120.000000
0.26010000000000005  0.000000  0.000000  0.000000  -41.037349231292694  6.558486994531736  4.724358151651727  43.58143211321815  4.100021465649805  -0.6621628237486076  -15.519843783527682  1.055905102149798  40.41236409419474  21.769837712652514  120.000000
0.28900000000000003  0.000000  0.000000  0.000000  -41.55228681526544  6.428215668476324  4.802793665494888  44.378502863605604  4.2179966905086825  -0.052512645236257  -15.694065390626216  1.713852689695743  39.635783160746996  21.64236549320155  120.000000
0.31790000000000007  0.000000  0.000000  0.000000  -42.096880802542195  6.290715818482598  4.892359461909925  45.31883302315351  4.305929323819431  0.6510948773396589  -15.930125405753792  2.7078898658710133  38.79667237198984  21.557823852866274  120.000000
0.34680000000000005  0.000000  0.000000  0.000000  -42.58177847710114  6.202287413924997  4.896691008677264  46.20187918301006  4.318423308056338  1.3622225752102162  -16.13627292661  4.0749060761516045  37.99253788696011  21.607485368068737  120.000000
0.3757000000000001  0.000000  0.000000  0.000000  -42.93155837086105  6.207784928325551  4.750796963045095  46.850026414237526  4.236777464704204  2.004919219725208  -16.22226365215728  5.806946621016283  37.302615716114595  21.857142459063542  120.000000
0.40460000000000007  0.000000  0.000000  0.000000  -43.128122528602276  6.322223973578705  4.457072430416138  47.19396658881533  4.086579593045075  2.543652133063701  -16.139403791327684  7.830532705464279  36.73069147348299  22.29410520714589  120.000000
0.4335000000000001  0.000000  0.000000  0.000000  -43.225320173013976  6.527011995950994  4.083139590575136  47.287990252762036  3.9342732476737  2.987186413120751  -15.89274848377706  10.013730490461231  36.184084156788664  22.82468949170852  120.000000
0.4624000000000001  0.000000  0.000000  0.000000  -43.32278424347522  6.784175241842928  3.724395229434548  47.262018752760554  3.861709793781554  3.3728333662377628  -15.51541675138585  12.209231531739398  35.51236286148938  23.318819321153136  120.000000
0.49130000000000007  0.000000  0.000000  0.000000  -43.51477028188537  7.055981639451619  3.4630915119290795  47.245886089839836  3.9365244709110665  3.744408364803917  -15.036062838379953  14.298969602839726  34.57167252172322  23.66483797325494  120.000000
0.5202000000000001  0.000000  0.000000  0.000000  -43.84728145171792  7.317477497808327  3.3431340105853713  47.31553421690711  4.193370354971199  4.131303681778871  -14.464227008920298  16.21912606036452  33.2756641449748  23.80826786583671  120.000000
0.5491000000000001  0.000000  0.000000  0.000000  -44.308823500758514  7.563157559607029  3.3642631219459367  47.47799142453179  4.627492770849986  4.540451540911729  -13.790059792303202  17.961943849432377  31.61977926257994  23.75760023071613  120.000000
0.5780000000000001  0.000000  0.000000  0.000000  -44.85022517825382  7.80492740994181  3.493233870531946  47.68640136904559  5.203236548795717  4.961095106902703  -12.995756332256773  19.557253843532912  29.67095665532521  23.564347391375023  120.000000
0.6069000000000001  0.000000  0.000000  0.000000  -45.41353236175269  8.061878118770096  3.6826043354103786  47.87162184448843  5.8702988740072675  5.37581365653019  -12.069873217657248  21.051669691437244  27.53663018181261  23.29517586935542  120.000000
0.6358000000000001  0.000000  0.000000  0.000000  -45.954170674015174  8.349150674956656  3.8887322543014986  47.97454679040363  6.580941949753749  5.770957314845534  -11.016009758659363  22.49041231417138  25.327915605362538  23.006811992079843  120.000000
0.6647000000000002  0.000000  0.000000  0.000000  -46.45072718305271  8.671057594827124  4.0835396992820625  47.967109265944735  7.3016994768447825  6.143030273259186  -9.856469736954148  23.905534098705523  23.130428926625097  22.73235963951054  120.000000
0.6936000000000001  0.000000  0.000000  0.000000  -46.902948112313894  9.021191794305404  4.256747546674522  47.85583581210107  8.01626919881485  6.499081546765768  -8.627418256393657  25.3133742532331  20.992744658644032  22.481479072008995  120.000000
0.7225000000000001  0.000000  0.000000  0.000000  -47.3240832607076  9.386934517298998  4.412955456794614  47.67144153117788  8.722115987901756  6.852641307810449  -7.370029381344836  26.716363003689914  18.93095665985928  22.248747570204298  120.000000
0.7514000000000002  0.000000  0.000000  0.000000  -47.73378183034347  9.754743650715548  4.5666800734849975  47.4544916386508  9.424269270410104  7.219165117046484  -6.1219655817665695  28.1068749877038  16.938621674144116  22.02260709257588  120.000000
0.7803000000000001  0.000000  0.000000  0.000000  -48.15294437817547  10.114218275690554  4.737326617293034  47.243552829885466  10.130352496265067  7.612402467766328  -4.91162939893014  29.470329826989676  14.997582523785054  21.79211171873886  120.000000
0.8092000000000001  0.000000  0.000000  0.000000  -48.60018735494318  10.45934345122781  4.945568070187514  47.067240166800474  10.847235795223241  8.04181644543468  -3.7558947364427784  30.788271339297506  13.086961639104855  21.551132539651054  120.000000
0.8381000000000002  0.000000  0.000000  0.000000  -49.09032658369511  10.787726394668013  5.211572322366385  46.942758364904016  11.579049757118748  8.511415440516231  -2.6617339311038593  32.041003657100674  11.188851600682687  21.298741147959255  120.000000
0.8670000000000002  0.000000  0.000000  0.000000  -49.6341641054272  11.099443492093513  5.554046080746601  46.87784209078976  12.325092776342604  9.020513700997682  -1.6300463423244358  33.210605317874105  9.292857024169956  21.037127585414158  120.000000
0.8959000000000001  0.000000  0.000000  0.000000  -50.23833390771037  11.395549973823284  5.989235086842726  46.87463426458606  13.078902803240007  9.56465225723323  -0.6601561264260892  34.28379087375817  7.398992405170392  20.769762971813744  120.000000
0.9248000000000002  0.000000  0.000000  0.000000  -50.90506689635348  11.67688467760349  6.53010137433516  46.93285834390931  13.827616107280914  10.136567268184143  0.24665594763330834  35.25489348501679  5.521069425775439  20.5003278625948  120.000000
0.9537000000000002  0.000000  0.000000  0.000000  -51.632229798684605  11.943893457479353  7.185401689083515  47.05263549773119  14.552273112248123  10.726725519482475  1.0853473347843894  36.1274402795222  3.6873578595454752  20.23230010034207  120.000000
0.9826000000000001  0.000000  0.000000  0.000000  -52.41417408922201  12.196780194402095  7.959727782975369  47.235602056308736  15.229287922573738  11.323867513209322  1.8471296076098043  36.91329866060716  1.938182355878099  19.96918944013806  120.000000
1.0115000000000003  0.000000  0.000000  0.000000  -53.24289132502192  12.435719894780979  8.854079203761488  47.48509385364781  15.833348519752427  11.915105001508783  2.5212049361401876  37.62965702107841  0.3190339336607317  19.714701744306314  120.000000
1.0404000000000002  0.000000  0.000000  0.000000  -54.109369180273504  12.660476200093745  9.867762701423542  47.804946591734506  16.340915290726276  12.486141217977437  3.0973507872820942  38.294528875239145  -1.1278094156669465  19.47278651877973  120.000000
1.0693000000000001  0.000000  0.000000  0.000000  -55.00485582978837  12.869514045116155  10.99985804077584  48.1980724779124  16.73396091171858  13.021968589624306  3.5686818216874023  38.922932036603235  -2.3715803460010156  19.24692744454217  120.000000
1.0982000000000003  0.000000  0.000000  0.000000  -55.921692401010255  13.059073579788308  12.251857343437145  48.66500710139957  17.002153144360356  13.507449755973889  3.9331481869898783  39.52353445044607  -3.39832858220203  19.039053295776494  120.000000
1.1271000000000002  0.000000  0.000000  0.000000  -56.85385677858476  13.219164099188255  13.626141035216465  49.2035648233685  17.148631895924613  13.92895322200386  4.193809300974173  40.09754837522804  -4.212390805349563  18.848538570408575  120.000000
1.1560000000000001  0.000000  0.000000  0.000000  -57.798065646886315  13.331825636077602  15.129319498178589  49.809755283759934  17.188734418045147  14.273262726188703  4.358923601761051  40.63699745027216  -4.8320893447027675  18.671788230735633  120.000000
1.1849000000000003  0.000000  0.000000  0.000000  -58.7514740375035  13.386894726440623  16.775469228954798  50.47839615488208  17.12249352988108  14.525546712195371  4.440107877567766  41.133864916516465  -5.284483532702186  18.503381959740885  120.000000
1.2138000000000002  0.000000  0.000000  0.000000  -59.707329675787875  13.397213815365376  18.579501976234  51.20200007965819  16.913883588590807  14.671247913332966  4.450209432962097  41.59303277323208  -5.600097885884588  18.33702409914026  120.000000
1.2427000000000001  0.000000  0.000000  0.000000  -60.65458858749414  13.384519068258502  20.554280581265758  51.967673882355776  16.514090096016233  14.695731622080201  4.4042607007039365  42.02246498651858  -5.805281223843195  18.168004262103846  120.000000
1.2716000000000003  0.000000  0.000000  0.000000  -61.57849423960405  13.36122427989651  22.703986432384333  52.756717321625885  15.891650483391516  14.584733256239142  4.318508399053436  42.4239263476808  -5.918579008469911  17.99635644602917  120.000000
1.3005000000000002  0.000000  0.000000  0.000000  -62.46027950024688  13.333703572573821  25.016775362189776  53.54510738956006  15.035426293647332  14.330455410246232  4.207739791439001  42.79583952658344  -5.953107234278228  17.82613741769482  120.000000
1.3294000000000004  0.000000  0.000000  0.000000  -63.27777499067193  13.308048565060107  27.46292141016452  54.30445903609322  13.952977121301844  13.93713000344991  4.084590621852937  43.13441575287409  -5.9207550804171305  17.662804836106545  120.000000
1.3583000000000003  0.000000  0.000000  0.000000  -64.00823042969783  13.289312952048762  29.99663032157727  55.00629201018761  12.669821310732411  13.418632907064183  3.960643626804166  43.434668367724605  -5.836512438348611  17.512193240384978  120.000000
1.3872000000000002  0.000000  0.000000  0.000000  -64.6328330982122  13.281123926198477  32.56065301550893  55.6259812550808  11.225496026691953  12.793760887417207  3.8471287075985745  43.689862206286065  -5.7218536189794715  17.37987129617179  120.000000
1.4161000000000004  0.000000  0.000000  0.000000  -65.14001589786147  13.284625291018774  35.0929532836443  56.14592796210954  9.669065740295032  12.082313278802925  3.755195409851127  43.89070386225648  -5.605740482860005  17.269084983616004  120.000000
1.4450000000000003  0.000000  0.000000  0.000000  -65.526421952669  13.297762493155151  37.5342229923647  56.557495126435164  8.053047392555566  11.301347220375437  3.6963813525981735  44.025795671134446  -5.522991258617486  17.179939962819017  120.000000
1.4739000000000002  0.000000  0.000000  0.000000  -65.79580453515537  13.316061039281504  39.83212641736829  56.86001819432783  6.427717375527896  10.464288442835077  3.6823364999605857  44.0827361888552  -5.509090719952938  17.11000537651021  120.000000
1.5028000000000004  0.000000  0.000000  0.000000  -65.95635220715732  13.334095034409323  41.94318572737023  57.058319594172545  4.836445177212309  9.580306114862317  3.7241334272882236  44.049665853525774  -5.594628703132075  17.055286247875255  120.000000
1.5317000000000003  0.000000  0.000000  0.000000  -66.01731074832267  13.347468206216831  43.83278878167273  57.158713905380964  3.3124933975481  8.65446460752399  3.831385992812885  43.91737791008156  -5.7994641941691825  17.01200091045475  120.000000
1.5606000000000002  0.000000  0.000000  0.000000  -65.98610496558355  13.35484342387153  45.474821529761066  57.166189000761186  1.8781199706229679  7.6880781382159595  4.011531790088443  43.68098670881204  -6.129196405514364  16.97753828469215  120.000000
1.5895000000000004  0.000000  0.000000  0.000000  -65.86678061261178  13.35892242547277  46.85234196639398  57.08255136745691  0.5443377220230815  6.679139709844514  4.269250339386072  43.340496688516005  -6.574869846063776  16.951327153079376  120.000000
1.6184000000000003  0.000000  0.000000  0.000000  -65.6598481691991  13.36549492329787  47.95837340560056  56.90616706190522  -0.6881156273579114  5.6229150075891186  4.605583585498766  42.89995552315244  -7.115951346394417  16.935270970858785  120.000000
1.6473000000000002  0.000000  0.000000  0.000000  -65.36348123511348  13.381337519682882  48.79671277155461  56.633748707780505  -1.8273297645755373  4.512945047239317  5.017378590175538  42.366253053225584  -7.725687604260036  16.932710548494562  120.000000
1.6762000000000004  0.000000  0.000000  0.000000  -64.97586382431722  13.411578269167572  49.3832665473958  56.26359177791982  -2.8887633438303015  3.3425382330585522  5.496904448065457  41.74771881291723  -8.376923349479751  16.947020616877534  120.000000
1.7051000000000003  0.000000  0.000000  0.000000  -64.49704196076644  13.457102526041933  49.747273181476565  55.79805286170935  -3.893302891397838  2.1055000269679174  6.032091652635982  41.05279097606736  -9.046783112128697  16.979964936645377  120.000000
1.7340000000000004  0.000000  0.000000  0.000000  -63.92988471626037  13.512181721011439  49.93286635051861  55.24506155502058  -4.865084071410054  0.7955988542898478  6.6069214900245  40.28819521204748  -9.719344388873429  17.02998029665961  120.000000
1.7629000000000004  0.000000  0.000000  0.000000  -63.281254494774466  13.563513102562663  50.00000055944556  54.61800171039675  -5.8290261247855275  -0.594956347455508  7.203535404667891  39.45578406756065  -10.385276591962048  17.09156434469714  120.000000
1.7918000000000003  0.000000  0.000000  0.000000  -62.560358448327236  13.595191829243532  50.000000541489605  53.932496129332975  -6.800133512450649  -2.0690463143620197  7.806637436581136  38.558971870149534  -11.040013826262154  17.15749040437687  120.000000
1.8207000000000004  0.000000  0.000000  0.000000  -61.77531040123281  13.595187831490607  49.940519807222586  53.202898884098644  -7.771284951510692  -3.613501504381171  8.407326032837094  37.61496529011966  -11.682499310370043  17.222009231561703  120.000000
1.8496000000000004  0.000000  0.000000  0.000000  -60.9347815043678  13.554352854793793  49.797647990638794  52.44275779355468  -8.72071348361879  -5.201558542105252  9.001596927742735  36.649685572469686  -12.312538870892798  17.280789463999724  120.000000
1.8785000000000003  0.000000  0.000000  0.000000  -60.05159461932665  13.463381283007134  49.54941176286722  51.66801204822128  -9.626420801809454  -6.802059662395966  9.585412624830024  35.68460280555867  -12.92997959409578  17.328893042393588  120.000000
1.9074000000000004  0.000000  0.000000  0.000000  -59.14308868216563  13.313540719737292  49.18518432569856  50.89733420425939  -10.470381345262155  -8.38168616396419  10.152350495409125  34.7339159512594  -13.534934280124551  17.36074280753356  120.000000
1.9363000000000004  0.000000  0.000000  0.000000  -58.23060488686452  13.098766318608021  48.703733096644434  50.15105623647883  -11.23807570949691  -9.905134975626693  10.69389166317979  33.804767221194695  -14.127644352403516  17.371741325465656  120.000000
1.9652000000000003  0.000000  0.000000  0.000000  -57.33838315326265  12.817266910315547  48.10995694267966  49.44897172366975  -11.918091245432198  -11.337322471679672  11.20090239082608  32.89731243950115  -14.707261579234963  17.359798585112785  120.000000
1.9941000000000004  0.000000  0.000000  0.000000  -56.49103740316473  12.472209134884253  47.41119869573183  48.8079712584981  -12.501617602014878  -12.647038807083046  11.665358604055236  32.00552423647348  -15.269683703295145  17.325700524941862  120.000000
2.0230000000000006  0.000000  0.000000  0.000000  -55.70999281603075  12.072772579539718  46.614348696829225  48.23872939532666  -12.982063458854078  -13.809311450334748  12.082048938029468  31.118212850339045  -15.805783196581267  17.272202143441763  120.000000
2.0519000000000003  0.000000  0.000000  0.000000  -55.010343878652954  11.634265724498103  45.72454410185913  47.74410703716027  -13.3545965861213  -14.806057254143797  12.449839328260671  30.22025169835993  -16.30179649837276  17.202628109326284  120.000000
2.0808000000000004  0.000000  0.000000  0.000000  -54.399491605826995  11.175583135327606  44.74544750433756  47.320457930534985  -13.615381225632945  -15.626345933346132  12.772579606867989  29.294392081349972  -16.74237068976735  17.119849793642206  120.000000
2.1097000000000006  0.000000  0.000000  0.000000  -53.87726888954452  10.716165230130947  43.68017120685992  46.960147770284856  -13.761583066655561  -16.26595243938896  13.05884404839275  28.323131353762925  -17.115591896043455  17.025845827584757  120.000000
2.1386000000000003  0.000000  0.000000  0.000000  -53.43694294526964  10.273161390556739  42.532617405708876  46.65383534179097  -13.792119152756197  -16.727166666912364  13.321205191956745  27.290287550365985  -17.417972142144865  16.921267088916533  120.000000
2.1675000000000004  0.000000  0.000000  0.000000  -53.066075427728656  9.857527977101253  41.30840433803627  46.39249385205534  -13.70803056977922  -17.019674788676102  13.574671890339012  26.18293645023875  -17.657860204674353  16.80503474271158  120.000000
2.1964000000000006  0.000000  0.000000  0.000000  -52.74690679128983  9.469860074506272  40.016593786196424  46.167669141339225  -13.511576699735658  -17.16393291592924  13.836123944906804  24.993396174220894  -17.854189071656677  16.67610693293523  120.000000
2.2253000000000003  0.000000  0.000000  0.000000  -52.45869841449861  9.102139992701716  38.66795220086838  45.97049813716863  -13.2050987156815  -17.188734416404113  14.12586643920705  23.721612292509317  -18.030981203546972  16.535970643829774  120.000000
2.2542000000000004  0.000000  0.000000  0.000000  -52.18629236086942  8.748202057406646  37.26354299809749  45.79823549959117  -12.788437233645466  -17.10768676559792  14.46255096991433  22.372980805591833  -18.21122501206427  16.385111837784788  120.000000
2.2831000000000006  0.000000  0.000000  0.000000  -51.926368718286355  8.411171629038124  35.78985174679507  45.65797739234882  -12.260401517484723  -16.904286236345364  14.856962316842719  20.9553207855139  -18.409283094404543  16.21900405841469  120.000000
2.3120000000000003  0.000000  0.000000  0.000000  -51.679668409998214  8.098393839923082  34.231141783244496  45.55600839081918  -11.624176888333448  -16.556127763018246  15.318653240492406  19.48143596351809  -18.625220082994257  16.032460772372787  120.000000
2.3409000000000004  0.000000  0.000000  0.000000  -51.44029514851178  7.813250208190829  32.58115091296997  45.489222520206916  -10.888354682228163  -16.059931759757692  15.860876276774718  17.970197361713346  -18.842783542048213  15.823613353092753  120.000000
2.3698000000000006  0.000000  0.000000  0.000000  -51.19450773370077  7.5543215331189435  30.84491740910511  45.447117783754734  -10.067040753195952  -15.431205243891213  16.49768124438934  16.444152978640385  -19.034815916915704  15.592183593624801  120.000000
2.3987000000000003  0.000000  0.000000  0.000000  -50.92464016426006  7.317890303659563  29.037996490799873  45.416402122529455  -9.180734332677922  -14.696049837736439  17.24090138432673  14.926738029540667  -19.172364150418872  15.338928613855224  120.000000
2.4276000000000004  0.000000  0.000000  0.000000  -50.613241360273854  7.098660392522985  27.185005411901166  45.386195215014844  -8.254755237811066  -13.884270008470732  18.0971980110832  13.440366619355908  -19.233740637467676  15.066814947076434  120.000000
2.4565000000000006  0.000000  0.000000  0.000000  -50.24721522903962  6.89006336869999  25.31635056429472  45.35244009553172  -7.316133558576796  -13.022933913409334  19.06471850690455  12.005915264260498  -19.211817386251994  14.78168090304049  120.000000
2.4854000000000003  0.000000  0.000000  0.000000  -49.821209159845615  6.685319207607296  23.464331693083714  45.31985354352973  -6.390042809468001  -12.132245566285398  20.13164224187251  10.642419806534283  -19.1166429683981  14.492796841199308  120.000000
2.5143000000000004  0.000000  0.000000  0.000000  -49.33859841913107  6.4789229335318606  21.65911646523033  45.299842414147676  -5.496848648542509  -11.224985163665247  21.277497881930703  9.367403695140236  -18.971920491558897  14.212776002897614  120.000000
2.5432000000000006  0.000000  0.000000  0.000000  -48.81009147588429  6.2680785805996395  19.92603263853115  45.306243619659796  -4.650374387168936  -10.308450408435023  22.47675591705883  8.196326398778554  -18.80788927949233  13.95630884420711  120.000000
2.5721000000000003  0.000000  0.000000  0.000000  -48.25055454311864  6.053725248255667  18.28393924905433  45.35033115225983  -3.8579191139498197  -9.387432621258013  23.703626722754244  7.141684596555891  -18.65340934500749  13.738494342793656  120.000000
2.6010000000000004  0.000000  0.000000  0.000000  -47.67555541904216  5.840619603631733  16.745071607134758  45.43765736311865  -3.121053478164558  -8.466443134695034  24.93667373128838  6.210982100810843  -18.529516692757348  13.57305844415528  120.000000
2.6299000000000006  0.000000  0.000000  0.000000  -47.09859521844054  5.636043115187363  15.315474204961298  45.56753246118179  -2.437317140695367  -7.550755418294192  26.16176890868494  5.405748482406577  -18.446498534736296  13.470816878619885  120.000000
2.6588000000000007  0.000000  0.000000  0.000000  -46.531030801398266  5.447271196751687  13.995495618300986  45.735720035643084  -1.801217397017871  -6.64507244673957  27.372404080818924  4.721096069434525  -18.404606216022522  13.438635762944399  120.000000
2.6877000000000004  0.000000  0.000000  0.000000  -45.983679284741115  5.279001937814966  12.779915798902932  45.938997668985984  -1.20596519375764  -5.751530029885486  28.56781187080857  4.147127434846124  -18.397901781073525  13.478779814046357  120.000000
2.7166000000000006  0.000000  0.000000  0.000000  -45.468200498206905  5.131421849253969  11.66003696080688  46.17819226909607  -0.6464730066256245  -4.869868627156222  29.75041464136858  3.6696801539798005  -18.417975756214854  13.589825619243525  120.000000
2.7455000000000007  0.000000  0.000000  0.000000  -44.99667775139114  4.998932016389487  10.624360160636456  46.45889295295142  -0.12138626480502135  -3.9990911315508435  30.925047664771466  3.271014531232528  -18.455527725756486  13.7692127756189  120.000000
2.7744000000000004  0.000000  0.000000  0.000000  -44.57672895497461  4.8723446170250995  9.65732275893064  46.787006338396424  0.36624736057987284  -3.136661267096138  32.09799649335843  2.9289092002876655  -18.500947543260743  14.01469814132819  120.000000
2.8033000000000006  0.000000  0.000000  0.000000  -44.20641329821061  4.74185625587869  8.741565074723537  47.16365081669829  0.8113481355063038  -2.2801333275872513  33.27727903667814  2.6163628382570407  -18.54383950241759  14.328673230389978  120.000000
2.8322000000000007  0.000000  0.000000  0.000000  -43.87100881624918  4.594680120823883  7.856275880363761  47.59063980886827  1.2116608813326046  -1.4313099485296823  34.47094616881491  2.309618804677294  -18.57414179436873  14.71730836365383  120.000000
2.8611000000000004  0.000000  0.000000  0.000000  -43.5449832544342  4.409695975553572  6.975984592270235  48.07032464719135  1.5679371946788698  -0.5935422970375042  35.681822184243885  1.9911034667742338  -18.58788937383307  15.177234563789444  120.000000
2.8900000000000006  0.000000  0.000000  0.000000  -43.20872484190305  4.155746663412959  6.076445503109813  48.601186630696404  1.8763638072047188  0.2349009794763584  36.903598031185055  1.6523619058910257  -18.591219703559243  15.688727422289954  120.000000
