Simulation
nRows=101
nColumns=15
endheader
time  TH_x TH_y TH_z SC_y  SC_z  SC_x  AC_y  AC_z  AC_x  GH_y  GH_z  GH_yy  EL_x  PS_y
0.0  0.000000  0.000000  0.000000  -34.36681953786089  -3.4356203906864002  -19.492783340311362  46.3642908317094  13.386753355828827  11.938350289440066  33.5310217172389  11.25922862744905  -7.087851081273183  5.121835655939399  120.000000
0.031000000000000014  0.000000  0.000000  0.000000  -34.31306546256246  -4.051809944460882  -21.571484249461925  45.950718511896326  15.190545312504675  12.975786356331517  32.40741076062141  11.430953547639856  -6.60498443127976  5.181191423558211  120.000000
0.06200000000000003  0.000000  0.000000  0.000000  -34.414837835841865  -4.084408506056054  -23.561616924128472  45.477656454954776  16.69138213191911  14.308079742236416  32.47947914754234  11.483741643510713  -7.141928096954842  5.461083077155543  120.000000
0.09300000000000004  0.000000  0.000000  0.000000  -34.524852968539406  -3.8776581977518805  -25.341478961550038  44.972747939587784  17.94005250339367  15.682658955812615  32.880942318880834  11.433834785237261  -7.860242946967121  5.804474842267481  120.000000
0.12400000000000005  0.000000  0.000000  0.000000  -34.553605667156916  -3.6307558347941287  -26.80271064622803  44.49317545879322  18.964633148729334  16.847273143897187  33.31850910972566  11.322035833903136  -8.522600839902523  6.188911736709415  120.000000
0.15500000000000008  0.000000  0.000000  0.000000  -34.53605985196769  -3.4463186306182094  -27.875687686298104  44.03729642966743  19.76742925900463  17.69438780685149  33.62004438219748  11.175474113862297  -8.976667836336887  6.644323075947588  120.000000
0.18600000000000008  0.000000  0.000000  0.000000  -34.525586433587186  -3.328876325914056  -28.553226732873192  43.617844488006  20.36231783685222  18.200086718165924  33.78893213925617  11.006933137523298  -9.2616544195406  7.207563042711448  120.000000
0.21700000000000008  0.000000  0.000000  0.000000  -34.54046248865017  -3.2321478176150404  -28.87432534585825  43.257221056596634  20.767748133045075  18.403828275626164  33.729647530428295  10.808771105229585  -9.29123362839127  7.909574543413444  120.000000
0.2480000000000001  0.000000  0.000000  0.000000  -34.5841519766292  -3.0988902418647  -28.928669097431147  42.92842478670765  21.000908752984092  18.415290108685458  33.31032451289833  10.576960236408857  -8.955496044775309  8.782119271778384  120.000000
0.27900000000000014  0.000000  0.000000  0.000000  -34.63938295267263  -2.885351000433321  -28.86670471494691  42.59460881200595  21.09619324559968  18.359121989584096  32.423537321730464  10.347770752197306  -8.163684594491203  9.847167431843138  120.000000
0.31000000000000016  0.000000  0.000000  0.000000  -34.680904864341024  -2.580049890810192  -28.77406269394855  42.22190568290506  21.082293756139133  18.31911945327799  30.976791381496696  10.121157346851986  -6.8399965873380575  11.118002875141034  120.000000
0.34100000000000014  0.000000  0.000000  0.000000  -34.7301044499778  -2.195699823320737  -28.600983384489297  41.84346798122758  20.965889886130547  18.27351379880052  28.907621615131365  9.866595660231141  -4.933681676937256  12.595911139789573  120.000000
0.37200000000000016  0.000000  0.000000  0.000000  -34.829018693044034  -1.743601394379046  -28.266051635632984  41.51680923037357  20.7474913439964  18.158791758348272  26.174424013543575  9.566634412627476  -2.4105546344527164  14.282567292417383  120.000000
0.4030000000000002  0.000000  0.000000  0.000000  -34.986847209525564  -1.2366080031630717  -27.733027910550465  41.27454310708115  20.419223350499742  17.939991664896212  22.62934749619153  9.239265353375828  0.8918125124994797  16.153939997809367  120.000000
0.43400000000000016  0.000000  0.000000  0.000000  -35.19581535433839  -0.696109317935558  -26.99646441969712  41.124740358224436  19.973872929778587  17.606348765310063  18.09738577997334  8.926641523881807  5.175288576296346  18.16751612583507  120.000000
0.4650000000000002  0.000000  0.000000  0.000000  -35.4463420363131  -0.14393295264512068  -26.072658910736937  41.066968045846586  19.412921271388274  17.156167807127755  12.521069591859288  8.690215412382134  10.53284707960242  20.278396228160982  120.000000
0.4960000000000002  0.000000  0.000000  0.000000  -35.7280920786957  0.4041598808722125  -24.99111437661345  41.08503295603166  18.750204362369136  16.598396082922044  6.0673479440972224  8.584933525136442  16.833695480801147  22.45037726694161  120.000000
0.5270000000000002  0.000000  0.000000  0.000000  -36.029218247915914  0.940819342177026  -23.79461355794549  41.14402254995307  18.008542041147535  15.952045123107657  -0.8333517156179656  8.644738220788637  23.679321777153298  24.655444551645168  120.000000
0.5580000000000003  0.000000  0.000000  0.000000  -36.337730489414604  1.4671430406494028  -22.53259208545699  41.19416041232089  17.218450739749287  15.238981246277675  -7.585211577323892  8.864240335558009  30.495998430101167  26.872813877885953  120.000000
0.5890000000000003  0.000000  0.000000  0.000000  -36.64491586362168  1.9883225245762204  -21.250529894634756  41.1824619315923  16.409056990620957  14.474062805816306  -13.637634916366183  9.20221789935943  36.749506221515134  29.084679590497444  120.000000
0.6200000000000003  0.000000  0.000000  0.000000  -36.947746453020834  2.508451913303516  -19.980689628718995  41.065869301536765  15.605881226774843  13.662051455162844  -18.65758564221818  9.59489143684644  42.11795979310941  31.272628064850014  120.000000
0.6510000000000002  0.000000  0.000000  0.000000  -37.250454526181294  3.0319228376286693  -18.739961312072033  40.82235786545752  14.824776390622059  12.802729583570178  -22.54801625194883  9.98245421620828  46.51125575720254  33.42108253189374  120.000000
0.6820000000000003  0.000000  0.000000  0.000000  -37.564096350157676  3.5657066502620967  -17.531653640527924  40.458575436759965  14.072168960195338  11.901785592276967  -25.41012369311425  10.329192815876764  50.02867772924143  35.52449667630974  120.000000
0.7130000000000003  0.000000  0.000000  0.000000  -37.902447951213304  4.119285719269568  -16.345442316511264  40.011993664119295  13.340460241395391  10.9728887545461  -27.468858096757685  10.63665869572811  52.880615477731155  37.59208961839051  120.000000
0.7440000000000003  0.000000  0.000000  0.000000  -38.279561439074776  4.703011651527094  -15.158258998984637  39.54608688042564  12.608728066507364  10.038464369715683  -29.021878126363163  10.940151258688863  55.335580070073156  39.640440996473096  120.000000
0.7750000000000004  0.000000  0.000000  0.000000  -38.706720120039094  5.327030876169488  -13.938644286767346  39.135195970256326  11.845311526379867  9.123615861112311  -30.36141996829843  11.293335260504033  57.64839195772011  41.68799267959476  120.000000
0.8060000000000004  0.000000  0.000000  0.000000  -39.19279473175695  5.996898318850895  -12.65161305027135  38.841703727992794  11.018602716878043  8.247381439982542  -31.708026125443492  11.746469042889292  60.00515060876767  43.75597996606414  120.000000
0.8370000000000004  0.000000  0.000000  0.000000  -39.73763873039854  6.709633855462992  -11.269779252808236  38.69235772658203  10.108019959910697  7.413653544584741  -33.140345499548204  12.324462825175255  62.462439034301056  45.8599787187237  120.000000
0.8680000000000003  0.000000  0.000000  0.000000  -40.32889165112783  7.453222563264642  -9.781379817353503  38.67011415584894  9.113204443663609  6.607398995332774  -34.603576650888  13.015150992910785  64.95934352065377  48.0064728375002  120.000000
0.8990000000000004  0.000000  0.000000  0.000000  -40.94790003019232  8.208120799119666  -8.193666695697095  38.72770655533309  8.052949910853494  5.802833096895168  -35.97459061783739  13.78127429423833  67.37864142828809  50.19493296062752  120.000000
0.9300000000000004  0.000000  0.000000  0.000000  -41.57852755179656  8.95222582352192  -6.529256291404288  38.82020110105417  6.956922622297601  4.979703021097836  -37.15031460206506  14.584979933375115  69.62168318181628  52.41854282733843  120.000000
0.9610000000000004  0.000000  0.000000  0.000000  -42.21015273732056  9.667793090056511  -4.819661586597249  38.92103044715602  5.853000908527379  4.13484821118636  -38.07691759592553  15.403422407083923  71.63332787125097  54.66648269913359  120.000000
0.9920000000000004  0.000000  0.000000  0.000000  -42.836049255876745  10.344275098279027  -3.098404234020805  39.01991070582016  4.763689697778142  3.281535168738612  -38.74661518603628  16.22592465217929  73.39962110658783  56.9252501677341  120.000000
1.0230000000000004  0.000000  0.000000  0.000000  -43.44944593724562  10.97956146963063  -1.398112194389468  39.11245387967353  3.7062208145354183  2.4409724715819245  -39.172789978301054  17.042431354611097  74.92672952312653  59.178237510280454  120.000000
1.0540000000000005  0.000000  0.000000  0.000000  -44.042561862675626  11.57907868210564  0.2526980030848812  39.19495330601142  2.694409364709062  1.6353341425257832  -39.38268776769484  17.83736569924557  76.2351359281823  61.40549706532249  120.000000
1.0850000000000004  0.000000  0.000000  0.000000  -44.6062902361355  12.1531603379843  1.8300675554015238  39.26290202540278  1.7382477151235098  0.8843512045167073  -39.407751731289885  18.590981107440104  77.35003900436682  63.58402536605943  120.000000
1.1160000000000005  0.000000  0.000000  0.000000  -45.132455406744555  12.71310289886567  3.31638035261031  39.313460672355696  0.8444563178570968  0.20402885873043783  -39.28206278377009  19.284066376386114  78.29909698205729  65.69056890472743  120.000000
1.1470000000000005  0.000000  0.000000  0.000000  -45.615678907009915  13.266349618260058  4.699698789301541  39.346301724455586  0.017472795975501748  -0.3949185611064327  -39.03368794080136  19.90199501158302  79.10356745642288  67.70481794505335  120.000000
1.1780000000000006  0.000000  0.000000  0.000000  -46.05470887145051  13.812838005323476  5.973907355386045  39.36452505765352  -0.7387695096686132  -0.9085741643169507  -38.68470000463735  20.437283993694308  79.77667653424515  69.61181237098452  120.000000
1.2090000000000005  0.000000  0.000000  0.000000  -46.45333024665875  14.34482864220964  7.136826745277003  39.37351586673537  -1.4203639529942627  -1.339743218970437  -38.2454932264799  20.890020284359185  80.31916434406178  71.40392063439445  120.000000
1.2400000000000007  0.000000  0.000000  0.000000  -46.81923890793914  14.849025699336817  8.189628963178523  39.38033309993347  -2.0235331218402446  -1.6960988286074608  -37.721162997094744  21.2665492257701  80.72579701964254  73.07853788783318  120.000000
1.2710000000000006  0.000000  0.000000  0.000000  -47.1610184145515  15.310316093665238  9.134817838125933  39.39229042274384  -2.545275937123983  -1.9872888458542093  -37.11480845558385  21.577378700027158  80.98966359231993  74.63447572372256  120.000000
1.3020000000000005  0.000000  0.000000  0.000000  -47.48585211289018  15.7152615470691  9.976547919588864  39.416301629129165  -2.983799672194462  -2.22213022661121  -36.43687144296755  21.835846242007094  81.11223524547165  76.07006017357449  120.000000
1.3330000000000006  0.000000  0.000000  0.000000  -47.797413705612264  16.05563502311956  10.719335762465494  39.45649121674827  -3.339907011766259  -2.408147701648939  -35.7078809226525  22.05563953165082  81.10595864185191  77.38300222675586  120.000000
1.3640000000000005  0.000000  0.000000  0.000000  -48.095770286826074  16.331962528701904  11.368037745780397  39.51301661150733  -3.6183534035781206  -2.5510753698754987  -34.960154899290075  22.248233613740545  80.99640099986298  78.5713091791122  120.000000
1.3950000000000007  0.000000  0.000000  0.000000  -48.37836468517642  16.55320416644156  11.927633659535495  39.581665320388886  -3.8281671245802844  -2.655067179517862  -34.23099982513683  22.42243502187919  80.8167322802387  79.63404126568201  120.000000
1.4260000000000006  0.000000  0.000000  0.000000  -48.641431261227424  16.73263741518416  12.403996708633018  39.656332479530306  -3.9807285944689816  -2.72374016954692  -33.55974067859902  22.584414588920115  80.60387106465025  80.57096067258679  120.000000
1.4570000000000007  0.000000  0.000000  0.000000  -48.880694246034395  16.882617726209556  12.803267077465666  39.73027177031528  -4.087853030501707  -2.7619206111512264  -32.97870367430504  22.738217432096057  80.38947434360196  81.38103830302354  120.000000
1.4880000000000007  0.000000  0.000000  0.000000  -49.091645816509306  17.01120276211521  13.131986726870618  39.798068145310545  -4.160125747913709  -2.77619472879255  -32.51038748599216  22.885178028449626  80.19684160470842  82.05981802047994  120.000000
1.5190000000000006  0.000000  0.000000  0.000000  -49.269469030481915  17.121560859807587  13.395677537822234  39.85569488287028  -4.206454262404247  -2.7743345417633165  -32.16173169329422  23.023203098376747  80.0361099310396  82.59726184387497  120.000000
1.5500000000000007  0.000000  0.000000  0.000000  -49.408833872590854  17.21227659241898  13.598032851395796  39.900929643897626  -4.2332791789231985  -2.7642175712656294  -31.926518967076856  23.146298317510656  79.9056311587759  82.9779835472924  120.000000
1.5810000000000006  0.000000  0.000000  0.000000  -49.50373146000862  17.278385299148606  13.740050970894185  39.93207062831466  -4.244627670130117  -2.7537064292370603  -31.785612909915734  23.244939011295745  79.79143872499453  83.18379326156786  120.000000
1.6120000000000008  0.000000  0.000000  0.000000  -49.54815075028247  17.313058460373536  13.82118669014664  39.948576193260514  -4.242513133833253  -2.7499421676770295  -31.712829907308112  23.30662569587145  79.67201496665494  83.1967231989084  120.000000
1.6430000000000007  0.000000  0.000000  0.000000  -49.536049948356116  17.30915212344627  13.83997371053491  39.95012190805212  -4.227536977412188  -2.758707795150355  -31.678368057767504  23.317459145332084  79.52259686913214  83.00244236807099  120.000000
1.6740000000000008  0.000000  0.000000  0.000000  -49.461914302165795  17.259664510932737  13.795220129915071  39.93751005609871  -4.198399680992985  -2.7836760148091573  -31.6549032404392  23.263861202633667  79.32142472891523  82.59340054385714  120.000000
1.7050000000000007  0.000000  0.000000  0.000000  -49.32137115675291  17.157788989192124  13.685792346152699  39.912234408269434  -4.151850290249533  -2.8265889594696563  -31.615917795932674  23.134167406480408  79.04863917541718  81.96918048620634  120.000000
1.7360000000000007  0.000000  0.000000  0.000000  -49.11145528571736  16.99740796732944  13.51037074270751  39.87707087693278  -4.083239908243214  -2.8867950089640226  -31.53676062952804  22.919295027889362  78.68613805258688  81.13315665301405  120.000000
1.7670000000000008  0.000000  0.000000  0.000000  -48.83036222642545  16.773210457413246  13.267014881286883  39.835172565275585  -3.9874994127219145  -2.9614816488636673  -31.394202810547966  22.613815991032936  78.21622809468936  80.0895629581236  120.000000
1.7980000000000007  0.000000  0.000000  0.000000  -48.47879072692248  16.48190822441896  12.95451470214216  39.79042352353259  -3.859775339340895  -3.045498058775701  -31.17069255575687  22.216334080842596  77.6246379824481  78.84482476760138  120.000000
1.8290000000000008  0.000000  0.000000  0.000000  -48.06168866085624  16.12481286958433  12.573514964671924  39.7463360048829  -3.696442821288072  -3.1318766467578505  -30.854287218548397  21.72911104300066  76.90060852889856  77.41242999481811  120.000000
1.8600000000000008  0.000000  0.000000  0.000000  -47.588902734578824  15.708814181235306  12.12762033260489  39.7058725889516  -3.495161261337481  -3.2121264579340982  -30.44231806468125  21.157268764025087  76.04044823110445  75.81550829412478  120.000000
1.891000000000001  0.000000  0.000000  0.000000  -47.07400088549796  15.244845671897252  11.62320983578693  39.67149460165805  -3.2549270245247754  -3.277416145797124  -29.939864931678077  20.5083693978685  75.04672837595696  74.08436252151769  120.000000
1.9220000000000008  0.000000  0.000000  0.000000  -46.53190065819602  14.744842825452102  11.068794754141479  39.646024700594076  -2.975300164690249  -3.31937848265659  -29.36044301933044  19.791845715072835  73.92941153791855  72.25109093356343  120.000000
1.953000000000001  0.000000  0.000000  0.000000  -45.97664397499981  14.219162155969915  10.473509840021233  39.632214113247905  -2.655913964479016  -3.3317650955004394  -28.7189687216149  19.018136192547303  72.70078929823188  70.34534476058508  120.000000
1.9840000000000009  0.000000  0.000000  0.000000  -45.42002131602636  13.67538136273664  9.845869768517538  39.63306195348988  -2.296354202954586  -3.3103235113405924  -28.02744093784803  18.197717191607364  71.37226636102173  68.38941086084536  120.000000
2.015000000000001  0.000000  0.000000  0.000000  -44.870894105484695  13.118097828932369  9.192368185705268  39.651278411223316  -1.8967375862660343  -3.252608683939721  -27.28757438734648  17.340704861010284  69.9478140309768  66.39484208458357  120.000000
2.0460000000000007  0.000000  0.000000  0.000000  -44.335926432018674  12.549276972045  8.517755491700234  39.689980015168295  -1.4570367967325777  -3.1573189662894805  -26.491809572053434  16.456596471534827  68.42431301845663  64.36443893026028  120.000000
2.077000000000001  0.000000  0.000000  0.000000  -43.81927939913041  11.97003243489825  7.825334465907245  39.751568241572656  -0.9768275103216812  -3.0236373516037163  -25.628442072543375  15.553673560951061  66.79620418281787  62.29750154482091  120.000000
2.108000000000001  0.000000  0.000000  0.000000  -43.321878408611326  11.381042523375708  7.117753870917079  39.83832550594981  -0.4532987957252649  -2.8504586754470935  -24.6943631670889  14.63764243565581  65.06724669206181  60.19461718332002  120.000000
2.139000000000001  0.000000  0.000000  0.000000  -42.84165560262522  10.780246603189815  6.400464420200343  39.95333996254302  0.11471934011371045  -2.6397699687299108  -23.696722948146473  13.713959783577545  63.249868608621824  58.05789418589419  120.000000
2.170000000000001  0.000000  0.000000  0.000000  -42.376915919238144  10.162065069463246  5.681842800823931  40.1024992792963  0.7213405499208382  -2.3962487307957  -22.65154504913831  12.794090483066864  61.360151735797395  55.89099500242575  120.000000
2.201000000000001  0.000000  0.000000  0.000000  -41.92528282826973  9.526108346262637  4.969408448535158  40.29497609711513  1.344700440700949  -2.1199299279690718  -21.580639283693422  11.904146526960163  59.416757873933385  53.698376819780066  120.000000
2.232000000000001  0.000000  0.000000  0.000000  -41.48048755293868  8.886142243148077  4.264577333601982  40.54529467476647  1.9472156239751481  -1.7992937501725432  -20.51968629830768  11.08433142000869  57.45100520400132  51.4848718097989  120.000000
2.263000000000001  0.000000  0.000000  0.000000  -41.03635659574597  8.262091734745368  3.560747182937119  40.869234462346164  2.488338290465489  -1.4148190377725125  -19.51817502848696  10.38005311079666  55.508710737848446  49.25531125259446  120.000000
2.294000000000001  0.000000  0.000000  0.000000  -40.59069175742227  7.6679906568258795  2.8521031154552228  41.27479430086288  2.9376027509579954  -0.9532454508320982  -18.632273524198762  9.826689734448575  53.64760851903171  47.01620816494661  120.000000
2.325000000000001  0.000000  0.000000  0.000000  -40.142310762059616  7.109828200164535  2.1366923572326133  41.75497990184057  3.2835135439865244  -0.4182054438933377  -17.88037472698618  9.435116848214426  51.89835671958249  44.77699743045017  120.000000
2.356000000000001  0.000000  0.000000  0.000000  -39.68925976154726  6.585487899018228  1.4146500155406716  42.28730361005544  3.5346598912192504  0.17090750060975024  -17.217711164386635  9.190763982965995  50.23680375362577  42.546088188106545  120.000000
2.387000000000001  0.000000  0.000000  0.000000  -39.229250702840915  6.086636504354666  0.6870440240235438  42.83823666932619  3.712710780763798  0.7838090429078696  -16.535769340028082  9.062368909342714  48.57927157630876  40.33076654912342  120.000000
2.418000000000001  0.000000  0.000000  0.000000  -38.762465941253  5.60222453243533  -0.044179952901309015  43.373747825848945  3.8445661097546866  1.387757417176044  -15.702687051092028  9.013671977410834  46.81798377220403  38.13973902370825  120.000000
2.449000000000001  0.000000  0.000000  0.000000  -38.29127664774282  5.120818720227456  -0.7775167992276787  43.86655967145934  3.9561673692882033  1.9550452300535341  -14.599693438146874  9.012581341596889  44.85297011433032  35.98159064819707  120.000000
2.4800000000000013  0.000000  0.000000  0.000000  -37.819617975286064  4.634098342051082  -1.5112567567221151  44.30032550208219  4.0692147270180365  2.4690718792730366  -13.162391552288534  9.034141591864936  42.62958024796588  33.86357200604089  120.000000
2.511000000000001  0.000000  0.000000  0.000000  -37.35349178021883  4.137890102801973  -2.247804474099927  44.66876392887263  4.203500121783623  2.9272258880768387  -11.379616346617347  9.06140466981393  40.13831829970236  31.793617096471934  120.000000
2.542000000000001  0.000000  0.000000  0.000000  -36.90142203623522  3.62996101320625  -2.9985314590923116  44.97521053102905  4.382394047158596  3.3405705660850114  -9.279737111412922  9.084829642902507  37.40149301330776  29.780871868661315  120.000000
2.5730000000000013  0.000000  0.000000  0.000000  -36.47361762491236  3.108881309891527  -3.779289567948914  45.227250366460524  4.628577153852599  3.727115450178194  -6.90591182643338  9.101886602381404  34.45312334847577  27.834582624525673  120.000000
2.604000000000001  0.000000  0.000000  0.000000  -36.07961853986362  2.57531073280284  -4.598701473232902  45.43373169982412  4.956000434957438  4.10177237203908  -4.309601198330974  9.11399344127743  31.335965919085616  25.96329630514673  120.000000
2.635000000000001  0.000000  0.000000  0.000000  -35.72644453950723  2.034016477252336  -5.462775969158645  45.602033700896214  5.3704457752650105  4.477000419977847  -1.5248903303132175  9.125819553814182  28.081169118297417  24.17195300207625  120.000000
2.6660000000000013  0.000000  0.000000  0.000000  -35.41883822304185  1.4932337339082933  -6.376071785185047  45.735704892080534  5.871746427472774  4.864565954904232  1.42525330247295  9.143204987356567  24.716145154458648  22.46029777793293  120.000000
2.6970000000000014  0.000000  0.000000  0.000000  -35.15806801844998  0.9621644492517455  -7.343840497784561  45.83416445760218  6.456101539041494  5.275251112493364  4.5322932163421035  9.173191488912767  21.261600344276754  20.822147651726368  120.000000
2.728000000000001  0.000000  0.000000  0.000000  -34.943343443452314  0.4496668469737847  -8.371581768266145  45.8935809741267  7.1189151984511545  5.719768596998372  7.790658409259441  9.220870019932372  17.737810851040646  19.248692651015663  120.000000
2.7590000000000012  0.000000  0.000000  0.000000  -34.774100907963145  -0.0354148185324548  -9.465517241725223  45.911051247092736  7.854307054536957  6.207669541812192  11.206595060814987  9.2914645300486  14.153215278652334  17.731197628244136  120.000000
2.7900000000000014  0.000000  0.000000  0.000000  -34.64855684459075  -0.4850233575513775  -10.629288968755318  45.882989061628365  8.656042658955856  6.746795691139047  14.777091432119342  9.387577251169485  10.516829520528841  16.266519731228858  120.000000
2.821000000000001  0.000000  0.000000  0.000000  -34.557535782399924  -0.8940172801975423  -11.862758409767507  45.80077236725805  9.517076724070552  7.345632757778952  18.449661756662152  9.506532755827935  6.880302604848753  14.859696861564977  120.000000
2.852000000000001  0.000000  0.000000  0.000000  -34.496107004817695  -1.258408538761031  -13.163784146657841  45.66234165670159  10.43220251049164  8.007991470043207  22.18917066480815  9.643401075303156  3.2625338692321355  13.5257032939691  120.000000
2.8830000000000013  0.000000  0.000000  0.000000  -34.462763332798325  -1.574083690227126  -14.529428193083753  45.474365645721996  11.395612707980808  8.733678351598316  25.96772482558075  9.79639393823987  -0.33093592744238065  12.28506045209523  120.000000
2.9140000000000015  0.000000  0.000000  0.000000  -34.45051372356924  -1.844531152063594  -15.952598811413266  45.24092370147296  12.403076154450842  9.518350345919984  29.74259054642848  9.962954688721474  -3.8883057404076364  11.16055134555939  120.000000
2.945000000000001  0.000000  0.000000  0.000000  -34.44863664875865  -2.0813928894009  -17.421451933175724  44.960295688733034  13.446927929637823  10.358964113282534  33.43122106246629  10.140672415738079  -7.355493192790894  10.172089160282066  120.000000
2.9760000000000013  0.000000  0.000000  0.000000  -34.42775400913651  -2.2940289410113395  -18.920181353828262  44.63685490270339  14.520822085528645  11.245827989089623  36.95959693741898  10.316011435765956  -10.695238845554096  9.34075235461774  120.000000
3.0070000000000014  0.000000  0.000000  0.000000  -34.3692505051982  -2.4834112576440677  -20.42604927019956  44.288772153496794  15.612154792748436  12.173242751155284  40.271042082555255  10.471783301912994  -13.882046036624597  8.68206500004959  120.000000
3.038000000000001  0.000000  0.000000  0.000000  -34.27228600823611  -2.605877479956495  -21.900464406439543  43.91604079584472  16.682979938696853  13.16836112830591  43.43011332544343  10.565214405573803  -17.008859136908203  8.225291128775305  120.000000
3.0690000000000013  0.000000  0.000000  0.000000  -34.197294003491045  -2.568548827492097  -23.31435261354594  43.57601625869075  17.690667097982907  14.241273656777008  46.76903261086092  10.607031818584735  -20.415171994626053  8.002411667389497  120.000000
3.1000000000000014  0.000000  0.000000  0.000000  -34.3861766210865  -2.250030777095501  -24.662747263153467  43.3332726145526  18.577166355573898  15.418085268467598  50.94917378533767  10.738219505389097  -24.7872011885779  8.043761465246142  120.000000
