unw1
version=1
nRows=3989
nColumns=18
inDegrees=yes

Units are S.I. units (second, meters, Newtons, ...)
If the header above contains a line with 'inDegrees', this indicates whether rotational values are in degrees (yes) or radians (no).

endheader
time	TH_x	TH_y	TH_z	TH_x_trans	TH_y_trans	TH_z_trans	SC_y	SC_z	SC_x	AC_y	AC_z	AC_x	GH_y	GH_z	GH_yy	EL_x	PS_y
      7.26000000	      6.47409337	   -179.82544753	      7.02781010	      0.04856577	      1.39462022	      0.10328679	    -25.36495262	      4.45855999	      4.75838902	     38.66229264	      4.41865410	     -2.10331371	    -11.82081776	     -1.68579136	     58.61297942	     20.28932574	     78.57597761
      7.27000000	      6.49048663	   -179.79373578	      7.02808784	      0.04878346	      1.39448684	      0.10318464	    -25.26795765	      4.49604050	      4.76509725	     38.74283894	      4.44812899	     -2.12051793	    -11.72476119	     -1.80019852	     58.68549029	     20.44152457	     78.60580476
      7.28000000	      6.41491834	   -179.90474591	      7.00996260	      0.04873674	      1.39448980	      0.10331802	    -25.26420487	      4.51924009	      4.78118478	     38.78213552	      4.51054193	     -2.16094092	    -11.58615141	     -1.92926985	     58.77819079	     20.66332384	     78.64956154
      7.29000000	      6.42069682	   -179.89120108	      6.98513605	      0.04879874	      1.39450845	      0.10328458	    -25.24723849	      4.49913473	      4.77544060	     38.79023029	      4.49360197	     -2.15522304	    -11.57414130	     -1.95543074	     58.78690305	     20.67818183	     78.65308934
      7.30000000	      6.42118531	   -179.87728397	      6.96737571	      0.04886974	      1.39453641	      0.10323590	    -25.22903217	      4.48453415	      4.77158790	     38.80103602	      4.47749516	     -2.14746074	    -11.56236633	     -1.98330362	     58.79612416	     20.69695704	     78.65637778
      7.31000000	      6.42230466	   -179.82404139	      6.99940157	      0.04917321	      1.39433558	      0.10308137	    -25.11215185	      4.55317739	      4.77063891	     38.87389269	      4.49201416	     -2.16464272	    -11.47289573	     -2.08243886	     58.86177256	     20.82758001	     78.68261243
      7.32000000	      6.41243332	   -179.82431627	      6.98448178	      0.04922092	      1.39435239	      0.10304808	    -25.10817835	      4.53963309	      4.76956877	     38.87669045	      4.48063021	     -2.15739088	    -11.46629530	     -2.10029176	     58.86650152	     20.84118986	     78.68442488
      7.33000000	      6.41054099	   -179.82416372	      6.98072109	      0.04938556	      1.39430026	      0.10304778	    -25.10716502	      4.53634395	      4.76890593	     38.87759350	      4.47729869	     -2.15561809	    -11.46504488	     -2.10464218	     58.86750754	     20.84394262	     78.68474553
      7.34000000	      6.31678816	   -179.82946943	      7.02853173	      0.04955902	      1.39407137	      0.10291893	    -24.99616064	      4.65586211	      4.75375557	     38.95476863	      4.48260889	     -2.18802645	    -11.35355612	     -2.23983695	     58.94749764	     21.04121685	     78.71627562
      7.35000000	      6.31488729	   -179.82972927	      7.02501483	      0.04967384	      1.39404204	      0.10292448	    -24.99563277	      4.65290051	      4.75380442	     38.95478636	      4.48056633	     -2.18643714	    -11.35281075	     -2.24240526	     58.94798782	     21.04291225	     78.71648422
      7.36000000	      6.29735110	   -179.82829389	      7.01256617	      0.04969872	      1.39408922	      0.10284353	    -24.98523535	      4.64584557	      4.75917694	     38.95694268	      4.47616443	     -2.17722292	    -11.34574411	     -2.25620836	     58.95238975	     21.05865067	     78.71860545
      7.37000000	      6.29558729	   -179.82836874	      7.01140985	      0.04980835	      1.39405023	      0.10285486	    -24.98414469	      4.64555676	      4.75940951	     38.95727606	      4.47557393	     -2.17657733	    -11.34496570	     -2.25768947	     58.95290022	     21.06025535	     78.71883478
      7.38000000	      6.17629601	   -179.83473826	      7.02625171	      0.05005888	      1.39385268	      0.10269560	    -24.83655033	      4.79684257	      4.73938877	     39.00716821	      4.48884714	     -2.22864424	    -11.24728098	     -2.35574245	     59.01406557	     21.22707781	     78.74773429
      7.39000000	      6.17183692	   -179.83702034	      7.02462324	      0.05013246	      1.39385479	      0.10270124	    -24.83594053	      4.79676116	      4.74187695	     39.00514167	      4.49038460	     -2.22728434	    -11.24676106	     -2.35498056	     59.01376523	     21.22842632	     78.74800858
      7.40000000	      6.15548101	   -179.84246167	      7.02294422	      0.05023575	      1.39378473	      0.10261591	    -24.83008722	      4.80173556	      4.75048140	     39.00025229	      4.49739266	     -2.22396612	    -11.24449279	     -2.35238641	     59.01313663	     21.23406964	     78.74909919
      7.41000000	      6.15397323	   -179.84268844	      7.02272674	      0.05031549	      1.39381801	      0.10267804	    -24.82909191	      4.80232149	      4.75105728	     38.99990866	      4.49746977	     -2.22348437	    -11.24417238	     -2.35269840	     59.01317436	     21.23482913	     78.74922687
      7.42000000	      6.15125107	   -179.84289397	      7.02357809	      0.05039591	      1.39379741	      0.10270211	    -24.82765660	      4.80404491	      4.75274872	     38.99951891	      4.49901656	     -2.22282672	    -11.24398878	     -2.35201960	     59.01302630	     21.23553398	     78.74934750
      7.43000000	      6.00073248	   -179.87929003	      6.99760239	      0.05061033	      1.39371128	      0.10254386	    -24.64589674	      4.96847838	      4.72487534	     38.99265768	      4.50114213	     -2.28944096	    -11.18108487	     -2.41872887	     59.02846091	     21.33833819	     78.77127429
      7.44000000	      5.99880984	   -179.88065708	      6.99899112	      0.05067344	      1.39370237	      0.10258390	    -24.64560233	      4.97014815	      4.72724814	     38.99089761	      4.50381010	     -2.28895233	    -11.18157950	     -2.41614760	     59.02754051	     21.33764260	     78.77125405
      7.45000000	      5.99175522	   -179.88582051	      7.00564361	      0.05079091	      1.39365310	      0.10255573	    -24.64367650	      4.97856405	      4.73595815	     38.98484937	      4.51514774	     -2.28847379	    -11.18356234	     -2.40571116	     59.02388413	     21.33458026	     78.77115176
      7.46000000	      5.99027640	   -179.88637843	      7.00614394	      0.05084924	      1.39365982	      0.10260185	    -24.64285723	      4.97946731	      4.73738196	     38.98385248	      4.51643582	     -2.28796788	    -11.18386099	     -2.40460898	     59.02327573	     21.33423266	     78.77114261
      7.47000000	      5.98231196	   -179.89140817	      7.01179514	      0.05098112	      1.39364402	      0.10259103	    -24.63726601	      4.98932461	      4.74535207	     38.97763642	      4.52751503	     -2.28863068	    -11.18608471	     -2.39514603	     59.01878311	     21.33029981	     78.77101819
      7.48000000	      5.98140420	   -179.89144398	      7.01184634	      0.05100901	      1.39362002	      0.10263265	    -24.63665297	      4.98958188	      4.74607918	     38.97721467	      4.52812929	     -2.28832191	    -11.18625801	     -2.39470306	     59.01847334	     21.33006363	     78.77100216
      7.49000000	      5.97371290	   -179.89634692	      7.01779561	      0.05115505	      1.39360986	      0.10262915	    -24.62918990	      5.00102959	      4.75312616	     38.97127564	      4.53997329	     -2.29084831	    -11.18913682	     -2.38488301	     59.01318361	     21.32408399	     78.77067169
      7.50000000	      5.97227723	   -179.89661608	      7.01795444	      0.05118339	      1.39357468	      0.10267686	    -24.62784808	      5.00187729	      4.75415738	     38.97048714	      4.54124494	     -2.29082035	    -11.18955507	     -2.38394302	     59.01245143	     21.32326164	     78.77061309
      7.51000000	      5.96454659	   -179.90187763	      7.02177992	      0.05132241	      1.39357439	      0.10267784	    -24.61808696	      5.01286423	      4.75963856	     38.96425626	      4.55246899	     -2.29506939	    -11.19341658	     -2.37472144	     59.00582102	     21.31431243	     78.76997955
      7.52000000	      5.94675250	   -179.91499066	      7.01268883	      0.05140882	      1.39347920	      0.10265902	    -24.58645071	      5.02723148	      4.76253633	     38.94878347	      4.56566109	     -2.30830444	    -11.20343261	     -2.36510529	     58.98744287	     21.28851021	     78.76810537
      7.53000000	      5.94542242	   -179.91582023	      7.00897558	      0.05144836	      1.39356705	      0.10272218	    -24.58245474	      5.02586237	      4.76121812	     38.94753117	      4.56327880	     -2.30872831	    -11.20424453	     -2.36747317	     58.98570525	     21.28645508	     78.76792093
      7.54000000	      5.94406197	   -179.91622201	      7.00919041	      0.05147800	      1.39353778	      0.10277322	    -24.58100355	      5.02667074	      4.76208378	     38.94665871	      4.56455567	     -2.30893254	    -11.20498516	     -2.36637354	     58.98462967	     21.28482382	     78.76776320
      7.55000000	      5.83417965	   -180.01094536	      6.88685001	      0.05152986	      1.39390479	      0.10267324	    -24.34336754	      5.03496248	      4.73199268	     38.83862626	      4.56392806	     -2.39309654	    -11.31170505	     -2.35639556	     58.81645913	     21.01826414	     78.74216994
      7.56000000	      5.83376147	   -180.01100526	      6.88814911	      0.05155293	      1.39389940	      0.10270924	    -24.34284016	      5.03580857	      4.73262784	     38.83843819	      4.56441251	     -2.39279201	    -11.31195123	     -2.35613006	     58.81608326	     21.01810931	     78.74211469
      7.57000000	      5.83177371	   -180.01558421	      6.90624578	      0.05169252	      1.39382824	      0.10273593	    -24.33699425	      5.04872642	      4.73725025	     38.83576509	      4.56998663	     -2.39324685	    -11.31626092	     -2.35185389	     58.80949280	     21.01236777	     78.74106206
      7.58000000	      5.83127321	   -180.01557113	      6.90680035	      0.05170238	      1.39380158	      0.10277399	    -24.33645073	      5.04888838	      4.73768748	     38.83555107	      4.57012451	     -2.39291435	    -11.31658983	     -2.35175731	     58.80903498	     21.01191021	     78.74097929
      7.59000000	      5.78989522	   -180.13950176	      7.03808962	      0.05167365	      1.39363511	      0.10269309	    -24.11100656	      5.03842394	      4.70457630	     38.75258924	      4.39700189	     -2.36089824	    -11.50615846	     -2.43169605	     58.53531192	     20.66806408	     78.68885396
      7.60000000	      5.78957694	   -180.13942990	      7.03846553	      0.05168743	      1.39362323	      0.10272751	    -24.11056832	      5.03899260	      4.70524315	     38.75252647	      4.39802579	     -2.36095137	    -11.50638835	     -2.43086255	     58.53494209	     20.66774812	     78.68879960
      7.61000000	      5.79434081	   -180.15343079	      6.96193873	      0.05180821	      1.39375577	      0.10274122	    -24.04761299	      5.02457232	      4.71462295	     38.76069545	      4.43845057	     -2.39742914	    -11.54748048	     -2.37746192	     58.46264218	     20.58959671	     78.67693720
      7.62000000	      5.79323339	   -180.15419323	      6.96487135	      0.05183537	      1.39374355	      0.10279908	    -24.04757101	      5.02682036	      4.71616979	     38.76020800	      4.44073189	     -2.39757027	    -11.54853660	     -2.37488795	     58.46119162	     20.58795707	     78.67666768
      7.63000000	      5.79077820	   -180.16041628	      6.97659676	      0.05196097	      1.39369742	      0.10281874	    -24.04993253	      5.03643322	      4.72035454	     38.75728784	      4.45035362	     -2.40129498	    -11.55468441	     -2.36061990	     58.45314219	     20.57555088	     78.67508994
      7.64000000	      5.78978077	   -180.16099776	      6.97868115	      0.05192612	      1.39364841	      0.10287455	    -24.05014142	      5.03788916	      4.72172798	     38.75651283	      4.45272706	     -2.40169376	    -11.55615801	     -2.35715845	     58.45135092	     20.57241684	     78.67472344
      7.65000000	      5.76138943	   -180.21262705	      6.92171507	      0.05185321	      1.39396400	      0.10297484	    -24.07280485	      4.94232156	      4.70779961	     38.71937537	      4.40230360	     -2.40032560	    -11.68799986	     -2.23003994	     58.28882792	     20.27278895	     78.63937828
      7.66000000	      5.74472103	   -180.18831596	      7.05379471	      0.05197079	      1.39372782	      0.10284433	    -23.94625397	      4.94948672	      4.65950745	     38.85430326	      4.18471205	     -2.33901316	    -11.91288191	     -2.20664441	     57.97837274	     19.89174517	     78.57098507
      7.67000000	      5.74589517	   -180.19367094	      7.06262581	      0.05203020	      1.39362457	      0.10289231	    -23.94870733	      4.96173015	      4.66524458	     38.85241551	      4.20012984	     -2.34543195	    -11.91808199	     -2.18886409	     57.97102725	     19.88248492	     78.56952749
      7.68000000	      5.75624790	   -180.22126526	      6.98005241	      0.05199819	      1.39392133	      0.10294482	    -23.96678101	      4.91182846	      4.68136200	     38.84240522	      4.21513912	     -2.35397375	    -11.99823535	     -2.07966497	     57.86336066	     19.73182313	     78.54614450
      7.69000000	      5.75694287	   -180.22314711	      6.99954494	      0.05208668	      1.39377989	      0.10305121	    -23.96792701	      4.92940845	      4.68798062	     38.84133846	      4.23046862	     -2.35893959	    -12.00442610	     -2.05984810	     57.85572269	     19.71871557	     78.54459042
      7.70000000	      5.77916729	   -180.20169813	      6.96411576	      0.05209267	      1.39400584	      0.10307327	    -23.98164105	      4.85212411	      4.68046907	     38.84981774	      4.15242778	     -2.33033200	    -12.16333593	     -1.89953605	     57.66196523	     19.37948076	     78.50135534
      7.71000000	      5.77749048	   -180.20476673	      6.99347909	      0.05217701	      1.39387062	      0.10309999	    -23.98394997	      4.87766203	      4.69049188	     38.84927848	      4.17332015	     -2.33542257	    -12.17085344	     -1.87446063	     57.65320564	     19.36522732	     78.49953651
      7.72000000	      5.77639272	   -180.18380476	      6.99969579	      0.05216133	      1.39403210	      0.10315106	    -24.01964491	      4.81134817	      4.66765116	     38.89173989	      4.03430644	     -2.28034060	    -12.38016108	     -1.69535438	     57.40752092	     18.95359367	     78.44363950
      7.73000000	      5.77566034	   -180.18717907	      7.03509423	      0.05226087	      1.39388588	      0.10317652	    -24.02183948	      4.84427376	      4.68112609	     38.89081637	      4.06351180	     -2.28768529	    -12.38844053	     -1.66302098	     57.39818449	     18.93816696	     78.44174361
      7.74000000	      5.80225727	   -180.14793491	      7.00380696	      0.05232957	      1.39406270	      0.10317801	    -24.04294489	      4.78853638	      4.67646723	     38.94255314	      3.96206939	     -2.23712014	    -12.60206376	     -1.44844979	     57.15382012	     18.54543496	     78.38685924
      7.75000000	      5.80123457	   -180.15599995	      7.04808878	      0.05243247	      1.39390835	      0.10323879	    -24.04961954	      4.82973843	      4.69116090	     38.93921480	      3.99767491	     -2.24824280	    -12.61199361	     -1.40792400	     57.14295642	     18.52699922	     78.38466680
      7.76000000	      5.83367786	   -180.06331642	      7.11213881	      0.05258243	      1.39382017	      0.10319146	    -24.06234693	      4.82340750	      4.65465713	     39.10239754	      3.73039404	     -2.12582527	    -12.96754192	     -1.14863356	     56.74091940	     18.00655203	     78.29709507
      7.77000000	      5.82823839	   -180.08079038	      7.15934932	      0.05269750	      1.39366292	      0.10325512	    -24.07720475	      4.87043895	      4.67553699	     39.09251622	      3.78062056	     -2.14131531	    -12.97972619	     -1.09360512	     56.72785541	     17.98538944	     78.29452333
      7.78000000	      5.79630593	   -180.16288702	      7.08744123	      0.05258413	      1.39395866	      0.10348684	    -24.18775868	      4.82378656	      4.70324946	     39.03222668	      3.81266867	     -2.14592658	    -13.09447727	     -0.89170769	     56.60392067	     17.79996331	     78.26852062
      7.79000000	      5.82329519	   -180.05619235	      7.17619622	      0.05272797	      1.39376654	      0.10340950	    -24.21542710	      4.84267395	      4.66422706	     39.16235331	      3.52244806	     -2.01781516	    -13.47104572	     -0.57605720	     56.19630789	     17.33871389	     78.19194084
      7.80000000	      5.82138442	   -180.06987038	      7.23601308	      0.05289253	      1.39358830	      0.10347272	    -24.22616675	      4.90400878	      4.69349829	     39.15091654	      3.59080905	     -2.03739970	    -13.48493718	     -0.50432889	     56.18198311	     17.31237937	     78.18943317
      7.81000000	      5.85019198	   -180.01002823	      7.19968585	      0.05294282	      1.39370293	      0.10348728	    -24.28266967	      4.88781753	      4.68758379	     39.21515620	      3.38552804	     -1.94939491	    -13.88171777	     -0.09022154	     55.77144024	     16.91153323	     78.13162755
      7.82000000	      5.84641160	   -180.02807666	      7.27013361	      0.05314331	      1.39350094	      0.10355660	    -24.29740208	      4.95855233	      4.72140438	     39.19953467	      3.46496941	     -1.97244185	    -13.89725001	     -0.00689919	     55.75586461	     16.88141174	     78.12905889
      7.83000000	      5.86339892	   -179.96401609	      7.24009802	      0.05319872	      1.39366692	      0.10355056	    -24.36319386	      4.92317838	      4.71766173	     39.19053815	      3.27020997	     -1.89423286	    -14.28582162	      0.45291272	     55.38315707	     16.48182447	     78.09646484
      7.84000000	      5.85782048	   -179.98460628	      7.32161807	      0.05342347	      1.39344248	      0.10361601	    -24.38006620	      5.00416146	      4.75701000	     39.17241556	      3.36101895	     -1.91951292	    -14.30331484	      0.54789969	     55.36607653	     16.44832954	     78.09373881
      7.85000000	      5.86587927	   -179.91635799	      7.29183399	      0.05347549	      1.39362304	      0.10359442	    -24.45385846	      4.97055838	      4.75174651	     39.13974031	      3.14420364	     -1.82810456	    -14.72536091	      1.07608759	     54.99396105	     16.04268958	     78.07594233
      7.86000000	      5.85916558	   -179.93899001	      7.38446277	      0.05371855	      1.39337756	      0.10365667	    -24.47218936	      5.06238092	      4.79675366	     39.11961114	      3.24699322	     -1.85584234	    -14.74477225	      1.18272830	     54.97547933	     16.00640938	     78.07306983
      7.87000000	      5.86823596	   -179.86426762	      7.34573803	      0.05380916	      1.39357244	      0.10360958	    -24.55055765	      5.03147167	      4.79725684	     39.06633936	      3.02781051	     -1.75465072	    -15.19896096	      1.77501079	     54.60642639	     15.61384296	     78.06644303
      7.88000000	      5.86056805	   -179.88919250	      7.44883896	      0.05403964	      1.39331361	      0.10367737	    -24.57061718	      5.13364283	      4.84687911	     39.04452407	      3.14131026	     -1.78506816	    -15.22030263	      1.89229898	     54.58660892	     15.57525944	     78.06343265
      7.89000000	      5.86083496	   -179.81157067	      7.40661259	      0.05408413	      1.39348935	      0.10364254	    -24.65187348	      5.12595430	      4.84372498	     39.02058527	      2.88068644	     -1.66705288	    -15.77444644	      2.56890407	     54.18373472	     15.22943781	     78.07749967
      7.90000000	      5.85069281	   -179.86541605	      7.37629244	      0.05424385	      1.39362281	      0.10375988	    -24.71452374	      5.15813354	      4.92289765	     38.94657185	      3.03086887	     -1.70264056	    -15.88965937	      2.84075892	     54.10096898	     15.11428781	     78.07898867
      7.91000000	      5.84316438	   -179.88931002	      7.49894140	      0.05452329	      1.39331976	      0.10381589	    -24.73557460	      5.27569989	      4.97966497	     38.92154143	      3.15678940	     -1.73397385	    -15.91491123	      2.97532341	     54.07789803	     15.06947249	     78.07540810
      7.92000000	      5.83884431	   -179.78640308	      7.37690310	      0.05458316	      1.39344045	      0.10379586	    -24.79093373	      5.33981920	      4.95688459	     39.15087879	      2.66509377	     -1.54045958	    -17.07737947	      4.01378721	     53.44414447	     14.91719380	     78.20827589
      7.93000000	      5.83094945	   -179.81625661	      7.51095754	      0.05483169	      1.39313622	      0.10387347	    -24.81722738	      5.46485034	      5.01941126	     39.11808686	      2.80463180	     -1.57617750	    -17.10287785	      4.15462802	     53.42229594	     14.87003781	     78.20543013
      7.94000000	      5.81611475	   -179.88215943	      7.43674558	      0.05485760	      1.39359214	      0.10400761	    -24.96445506	      5.39702025	      5.13646139	     38.88924585	      2.97061886	     -1.58165921	    -17.27088852	      4.56006663	     53.30121990	     14.62006133	     78.20085174
      7.95000000	      5.89108438	   -179.77045358	      7.44861241	      0.05519676	      1.39369817	      0.10379033	    -25.00463460	      5.38420046	      5.22063542	     38.72961988	      3.01992057	     -1.54289213	    -17.50494377	      5.03596929	     53.13963189	     14.33670376	     78.20090193
      7.96000000	      5.87959418	   -179.80030186	      7.60204116	      0.05545689	      1.39335695	      0.10387934	    -25.03357753	      5.52655582	      5.28357141	     38.70197812	      3.16105242	     -1.57829139	    -17.53475516	      5.19162192	     53.11322853	     14.28885683	     78.19676679
      7.97000000	      5.85789421	   -179.60852868	      7.86569399	      0.05569153	      1.39367202	      0.10385285	    -24.97902576	      4.89219562	      6.87107181	     40.34090687	      0.95154833	     -1.25866481	    -33.62318924	      8.18536029	     60.61893472	     15.81341193	     89.20815116
      7.98000000	      5.85421974	   -179.60199045	      7.61777881	      0.05551554	      1.39339729	      0.10381353	    -25.16727660	      5.50356938	      7.10834122	     40.24549452	      0.81367348	     -0.88150026	    -34.04716727	      8.53197895	     60.61893472	     15.41815743	     88.77323333
      7.99000000	      5.83543655	   -179.64463256	      7.63020547	      0.05573509	      1.39356977	      0.10390419	    -25.24197423	      5.53489166	      7.24918641	     40.17360035	      1.05018185	     -0.89769125	    -34.13694733	      8.87329041	     60.58750115	     15.29866929	     88.70838957
      8.00000000	      5.87343948	   -179.51550750	      7.64792805	      0.05590255	      1.39347863	      0.10405222	    -25.44171796	      5.55448772	      7.35396875	     40.79586765	      0.66056449	     -0.45160547	    -35.13888866	     10.18305776	     60.60483127	     15.42503609	     87.82260143
      8.01000000	      5.93744418	   -179.49124589	      7.78780424	      0.05606030	      1.39341065	      0.10391109	    -25.53507576	      5.56270765	      7.52666960	     40.58319522	      0.73888389	     -0.30465411	    -35.58485441	     10.58826129	     60.61893472	     15.23716533	     87.54947771
      8.02000000	      5.93810726	   -179.39918153	      7.77990467	      0.05620045	      1.39344053	      0.10404938	    -25.73293525	      5.62251635	      7.65475066	     40.99705946	      0.57011591	      0.01400469	    -36.41028349	     11.57882403	     60.52320146	     15.30630139	     86.97537866
      8.03000000	      5.92584539	   -179.44978983	      7.80260510	      0.05640518	      1.39359030	      0.10406264	    -25.78815562	      5.68556765	      7.81990940	     40.89403434	      0.83797489	      0.00170843	    -36.52617670	     11.89446722	     60.47221331	     15.19935908	     86.91811210
      8.04000000	      6.01273971	   -179.32079329	      7.92688480	      0.05653889	      1.39340564	      0.10408039	    -26.00058330	      5.69753331	      7.96863778	     41.10345394	      0.63124005	      0.39143581	    -37.20457301	     12.82522057	     60.13894944	     15.19723989	     86.49365715
      8.05000000	      5.95342893	   -179.38273370	      7.91902756	      0.05673921	      1.39363866	      0.10418807	    -26.06016637	      5.77986822	      8.12710261	     41.05684193	      0.92336278	      0.35208863	    -37.29325410	     13.15874274	     60.06612860	     15.11432331	     86.44701707
      8.06000000	      6.07850416	   -179.24435277	      7.97833760	      0.05684646	      1.39348494	      0.10429623	    -26.32417652	      5.78681332	      8.27812871	     41.49786666	      0.68270122	      0.80334982	    -37.97236161	     14.28524536	     59.48356881	     15.25162141	     85.98908891
      8.07000000	      6.01517696	   -179.30258405	      7.99699332	      0.05704014	      1.39369049	      0.10438051	    -26.38208848	      5.87185016	      8.43882266	     41.42919206	      0.96929068	      0.77029127	    -38.05738057	     14.60825642	     59.39681839	     15.16272966	     85.94607570
      8.08000000	      6.12549055	   -179.16771003	      8.05852501	      0.05716360	      1.39357905	      0.10445018	    -26.61467348	      5.87216062	      8.57588654	     41.83067674	      0.77043326	      1.19072058	    -38.68042653	     15.70219849	     58.68478671	     15.30661331	     85.51638289
      8.09000000	      6.07007362	   -179.22429026	      8.08758764	      0.05736473	      1.39377073	      0.10454523	    -26.67565261	      5.95640269	      8.74569263	     41.76136268	      1.06233942	      1.16511696	    -38.75232853	     16.02588923	     58.58521885	     15.22295676	     85.47597236
      8.10000000	      6.17829483	   -179.09554527	      8.14564411	      0.05750334	      1.39367240	      0.10468317	    -26.92506593	      5.95379579	      8.87364003	     42.18836741	      0.90892374	      1.56237556	    -39.22834941	     17.09619253	     57.76391873	     15.39804011	     85.08568987
      8.11000000	      6.12572122	   -179.15189759	      8.18655276	      0.05769094	      1.39386074	      0.10475244	    -26.99314972	      6.03336607	      9.05006000	     42.10028655	      1.20152077	      1.54344010	    -39.28650159	     17.41604946	     57.65354484	     15.30766242	     85.04948524
      8.12000000	      6.28651944	   -179.01298018	      8.27684007	      0.05779407	      1.39371974	      0.10488156	    -27.28547228	      5.99800761	      9.19087564	     42.44377625	      1.07064238	      1.94734370	    -39.59091701	     18.43988891	     56.76212551	     15.44141193	     84.71239339
      8.13000000	      6.27668293	   -179.00175605	      8.26477517	      0.05797079	      1.39383898	      0.10502254	    -27.35851073	      6.06919204	      9.27630122	     42.69116043	      1.15262155	      2.11360242	    -39.85522574	     19.18491764	     55.95317232	     15.59990339	     84.45376047
      8.14000000	      6.34660113	   -178.95875734	      8.37650247	      0.05813793	      1.39384294	      0.10508512	    -27.52880074	      6.05976029	      9.41808807	     42.72590920	      1.28171136	      2.28865395	    -39.93745116	     19.77464441	     55.38614901	     15.61089009	     84.31998293
      8.15000000	      6.36686368	   -178.90565245	      8.38354335	      0.05830422	      1.39393819	      0.10524844	    -27.70746079	      6.10875189	      9.50401555	     42.93461800	      1.38454997	      2.45347421	    -39.95709570	     20.49149543	     54.62065884	     15.69319273	     84.16010024
      8.16000000	      6.31485600	   -178.95540037	      8.44496053	      0.05849995	      1.39412150	      0.10531930	    -27.78671782	      6.18074237	      9.68815324	     42.83328302	      1.67627401	      2.44575783	    -39.97729827	     20.80295162	     54.48991307	     15.60493338	     84.13298511
      8.17000000	      6.28977267	   -178.98033995	      8.64649653	      0.05875885	      1.39382645	      0.10538322	    -27.81210462	      6.35996788	      9.80492797	     42.81369925	      1.88618336	      2.41037314	    -39.97580040	     20.98701960	     54.45041161	     15.56800716	     84.12361928
      8.18000000	      6.45496153	   -178.78114769	      8.56817928	      0.05890299	      1.39409223	      0.10550162	    -28.10998304	      6.22266965	      9.09404154	     42.66684947	      2.29517088	      2.75896100	    -38.21531439	     21.70592284	     50.23968428	     15.84173300	     84.96323886
      8.19000000	      6.42627758	   -178.81223401	      8.76766781	      0.05915296	      1.39380554	      0.10559267	    -28.13873031	      6.40046742	      9.20838911	     42.64208299	      2.50385960	      2.72149325	    -38.21597402	     21.88833043	     50.20607950	     15.80768099	     84.95558331
      8.20000000	      6.34901068	   -178.87646804	      8.71194553	      0.05931272	      1.39441996	      0.10567213	    -28.29307108	      6.36002772	      9.47005514	     42.48645428	      2.85195857	      2.76434244	    -38.24372012	     22.33929620	     50.04631456	     15.69641654	     84.91666366
      8.21000000	      6.57278379	   -178.71015377	      8.74049966	      0.05939553	      1.39423060	      0.10585001	    -28.54607806	      6.30704775	      9.45649503	     42.97352140	      2.63769215	      3.28399027	    -38.48784597	     23.62334463	     48.40231718	     16.06016779	     84.65628374
      8.22000000	      6.54358255	   -178.73987905	      8.93828747	      0.05965614	      1.39394405	      0.10594145	    -28.57496834	      6.48265161	      9.56938816	     42.94939461	      2.84331822	      3.24616869	    -38.48463327	     23.80258794	     48.36868195	     16.02855327	     84.64915657
      8.23000000	      6.68981266	   -178.58108457	      8.91466606	      0.05979287	      1.39430613	      0.10606128	    -28.98583242	      6.29132458	      9.75542690	     43.05498133	      2.90158024	      3.55873578	    -38.32922149	     24.83342870	     47.70447550	     16.08878571	     84.54583954
      8.24000000	      6.65801916	   -178.61080172	      9.10813907	      0.06005249	      1.39401666	      0.10613416	    -29.01189725	      6.46728733	      9.86618044	     43.03369698	      3.10443122	      3.52038667	    -38.32629928	     25.00989027	     47.66793783	     16.05734073	     84.53787772
      8.25000000	      6.70872052	   -178.48641732	      8.99659843	      0.06014416	      1.39440165	      0.10626632	    -29.30927379	      6.39183282	      9.96578438	     43.26300354	      3.05472526	      3.86851658	    -38.26614632	     26.13806207	     46.53546503	     16.15216531	     84.33621976
      8.26000000	      6.63682657	   -178.52896115	      9.06250332	      0.06040041	      1.39454963	      0.10626745	    -29.35460495	      6.48059757	     10.13807907	     43.17451428	      3.33348884	      3.85341564	    -38.28265852	     26.40790082	     46.40684501	     16.09211452	     84.31651273
      8.27000000	      6.70714961	   -178.54796189	      9.12166782	      0.06058681	      1.39442783	      0.10633916	    -29.28407175	      6.51872882	      9.98659306	     43.21599624	      3.44310797	      4.05985599	    -38.28247818	     27.01268853	     44.28825781	     16.50344202	     84.37448611
      8.28000000	      6.64590674	   -178.56690055	      9.18781266	      0.06085110	      1.39457011	      0.10636785	    -29.36363876	      6.59557975	     10.14911902	     43.13887797	      3.70600475	      4.04801004	    -38.24633282	     27.31288762	     44.20359145	     16.44810212	     84.37723568
      8.29000000	      6.63971920	   -178.55436451	      9.22287389	      0.06115147	      1.39471619	      0.10637800	    -29.46091421	      6.64194638	     10.32240276	     43.06934833	      3.95533970	      4.06904727	    -38.18797097	     27.70541861	     44.06355661	     16.39544400	     84.36918169
      8.30000000	      6.67532170	   -178.36841368	      9.25502932	      0.06125107	      1.39457933	      0.10641811	    -29.69771386	      6.71835336	     10.21495301	     43.34309479	      3.79710807	      4.35398318	    -37.89675545	     28.67001612	     42.88310047	     16.48618692	     84.42980684
      8.31000000	      6.64183430	   -178.42207950	      9.35510480	      0.06152427	      1.39460357	      0.10646357	    -29.77586774	      6.78107967	     10.39985666	     43.23759340	      4.05930799	      4.37106785	    -37.88121310	     28.93005250	     42.77836645	     16.46508917	     84.42623812
      8.32000000	      6.65122152	   -178.43423332	      9.40595561	      0.06177903	      1.39470432	      0.10647447	    -29.84874740	      6.82957552	     10.57693645	     43.15618760	      4.30965235	      4.39370285	    -37.84893178	     29.26645015	     42.63128318	     16.44192737	     84.41400916
      8.33000000	      6.77237577	   -178.31008508	      9.50133254	      0.06184484	      1.39448250	      0.10659488	    -30.12052297	      6.81809632	     10.58861001	     43.33062086	      4.21097865	      4.65270817	    -37.62170457	     30.14039232	     41.82842007	     16.66787096	     84.38122648
      8.34000000	      6.69760056	   -178.33569628	      9.57909151	      0.06214330	      1.39455980	      0.10652897	    -30.14857238	      6.92058856	     10.74014195	     43.26258132	      4.46133119	      4.63381413	    -37.63258882	     30.37459951	     41.71790957	     16.60984418	     84.37318868
      8.35000000	      6.67175261	   -178.34621025	      9.60850056	      0.06242855	      1.39467040	      0.10655391	    -30.19250304	      6.99386436	     10.89794638	     43.19533004	      4.71272367	      4.62941350	    -37.63326789	     30.69363458	     41.54881361	     16.55567711	     84.35722130
      8.36000000	      6.76241333	   -178.24693805	      9.67342704	      0.06246075	      1.39448025	      0.10666873	    -30.40685270	      7.01208454	     10.87951901	     43.43810794	      4.59329509	      4.90138439	    -37.52695564	     31.56439145	     40.48945497	     16.78937241	     84.30772096
      8.37000000	      6.69481991	   -178.27528448	      9.74926786	      0.06275804	      1.39454227	      0.10661648	    -30.42807788	      7.11361335	     11.02897395	     43.36467344	      4.84721126	      4.87627551	    -37.54710324	     31.77957398	     40.38069033	     16.73960094	     84.30506405
      8.38000000	      6.67808609	   -178.28794759	      9.78817640	      0.06304138	      1.39460416	      0.10663447	    -30.46141900	      7.19327766	     11.17992073	     43.30521267	      5.10086376	      4.86229710	    -37.55687858	     32.06519320	     40.21716356	     16.70405275	     84.29785928
      8.39000000	      6.66826660	   -178.29103972	      9.82643622	      0.06329969	      1.39466757	      0.10662052	    -30.52903057	      7.25041535	     11.32802909	     43.28065806	      5.32717661	      4.88145708	    -37.54742735	     32.41211259	     39.99118883	     16.70532889	     84.28406166
      8.40000000	      6.65219925	   -178.31296940	     10.00248416	      0.06347805	      1.39438821	      0.10659307	    -30.55241044	      7.40486123	     11.41981833	     43.27328250	      5.49356462	      4.85169820	    -37.53516405	     32.56458355	     39.95396661	     16.69239922	     84.27780151
      8.41000000	      6.69922585	   -178.12612057	      9.97235503	      0.06364045	      1.39441356	      0.10656194	    -30.68335868	      7.40043016	     11.30242047	     43.62400026	      5.40356704	      5.18621719	    -37.88044180	     33.54560575	     37.93485868	     17.10826432	     84.39366774
      8.42000000	      6.65294148	   -178.19806647	     10.04165576	      0.06379073	      1.39451615	      0.10662987	    -30.75118875	      7.45901514	     11.46692277	     43.56742901	      5.67024336	      5.17721893	    -37.85279562	     33.76576608	     37.85646080	     17.13192133	     84.41760912
      8.43000000	      6.66203662	   -178.23078908	     10.09016289	      0.06401309	      1.39454642	      0.10667692	    -30.81474949	      7.51662952	     11.62245083	     43.53321677	      5.93204503	      5.16468628	    -37.82510623	     34.03389008	     37.74847350	     17.14602802	     84.43571567
      8.44000000	      6.66941876	   -178.24635992	     10.14045206	      0.06422699	      1.39458965	      0.10671124	    -30.90765212	      7.55784576	     11.77361852	     43.52726952	      6.17653589	      5.17174637	    -37.79555061	     34.34099643	     37.59780639	     17.17390067	     84.45152480
      8.45000000	      6.65520497	   -178.27108423	     10.31421581	      0.06439432	      1.39430020	      0.10670770	    -30.93437181	      7.70944608	     11.86287384	     43.51932444	      6.34127359	      5.13891167	    -37.78286636	     34.48785213	     37.56647059	     17.16257441	     84.44711317
      8.46000000	      6.61388612	   -178.28159432	     10.29013760	      0.06458893	      1.39464276	      0.10671105	    -31.06341140	      7.68790368	     12.06550506	     43.48829857	      6.63133128	      5.16742082	    -37.77175272	     34.85894062	     37.38289277	     17.16469708	     84.44030983
      8.47000000	      6.78287788	   -178.15810726	     10.35987521	      0.06458341	      1.39442368	      0.10691462	    -31.21037246	      7.61126920	     10.80697960	     43.92413303	      7.42466755	      6.32043721	    -38.53654461	     35.67675686	     33.24115419	     18.29634254	     91.08414263
      8.48000000	      6.72789499	   -178.18145109	     10.43683353	      0.06476273	      1.39447005	      0.10688912	    -31.27747850	      7.69129501	     10.95964106	     43.86273716	      7.66410311	      6.30937916	    -38.52584642	     35.89194864	     33.17788391	     18.28895908	     91.06518583
      8.49000000	      6.73907190	   -178.18749166	     10.46987810	      0.06494722	      1.39454497	      0.10691756	    -31.37209263	      7.74051090	     11.12378090	     43.83172342	      7.92506368	      6.30591820	    -38.50914976	     36.16849127	     33.07593654	     18.30255355	     91.03391987
      8.50000000	      6.72473042	   -178.21205679	     10.64221659	      0.06510393	      1.39425271	      0.10689564	    -31.40100213	      7.89037864	     11.21603093	     43.82128549	      8.09191691	      6.27347252	    -38.49448536	     36.31417161	     33.04629827	     18.29611487	     91.02624233
      8.51000000	      6.88623843	   -177.92405072	     10.59206319	      0.06519105	      1.39449141	      0.10707990	    -31.95759345	      7.73882724	     11.32082152	     44.26171004	      8.28192570	      6.54445202	    -38.77708895	     37.10024592	     32.19092626	     18.52695433	     90.78896628
      8.52000000	      6.86600554	   -177.95700828	     10.76095831	      0.06531944	      1.39423487	      0.10709917	    -31.98645065	      7.88659868	     11.41401609	     44.24440785	      8.45002395	      6.50970648	    -38.76549707	     37.24267786	     32.16346336	     18.51930358	     90.78259425
      8.53000000	      6.95889047	   -177.89676828	     10.69691493	      0.06536495	      1.39454336	      0.10726622	    -32.27198539	      7.77885278	     11.55390231	     44.56645352	      8.74596963	      6.79180453	    -39.19701505	     37.88675291	     31.45982586	     18.81083602	     90.69423166
      8.54000000	      6.93869274	   -177.92937097	     10.86681266	      0.06548615	      1.39428494	      0.10728485	    -32.30165613	      7.92651044	     11.64778130	     44.54877623	      8.91431343	      6.75667878	    -39.18363251	     38.02974886	     31.43317374	     18.80350255	     90.68867264
      8.55000000	      6.84733333	   -177.97520086	     10.86277025	      0.06562963	      1.39467631	      0.10722765	    -32.40243224	      7.90877705	     11.88706807	     44.47098849	      9.23250937	      6.78830379	    -39.17917319	     38.31849813	     31.33487548	     18.80928445	     90.67001064
      8.56000000	      6.99856365	   -177.98742594	     10.82268942	      0.06579762	      1.39477478	      0.10737819	    -32.56803239	      7.86214214	     12.11286312	     44.52124836	      9.55848347	      6.84006745	    -39.15599136	     38.72679437	     31.15981836	     18.90195105	     90.63815679
      8.57000000	      6.98446375	   -178.01927096	     10.99896528	      0.06587039	      1.39449976	      0.10740162	    -32.60670590	      8.01021292	     12.20151471	     44.51251642	      9.71927459	      6.80687579	    -39.14213752	     38.87168735	     31.12869610	     18.89899073	     90.63131400
      8.58000000	      7.16886895	   -177.67699501	     10.97471261	      0.06577680	      1.39472965	      0.10766614	    -33.30364614	      7.81184196	     12.28430036	     45.28364418	      9.85839315	      7.31875386	    -39.84077632	     39.87462623	     30.01595073	     19.24414508	     90.55262295
      8.59000000	      7.12534874	   -177.74852014	     11.04762793	      0.06588401	      1.39484979	      0.10776213	    -33.37428760	      7.85156275	     12.47298477	     45.23625886	     10.12292746	      7.34049044	    -39.83712293	     40.10970704	     29.94755394	     19.28751517	     90.55367330
      8.60000000	      7.11452284	   -177.78070851	     11.21917102	      0.06595990	      1.39458458	      0.10776670	    -33.40673422	      7.99765807	     12.56929029	     45.22387392	     10.29190037	      7.30708468	    -39.81943482	     40.25646250	     29.91839150	     19.28622423	     90.54817047
      8.61000000	      7.34244958	   -177.58894337	     11.13996696	      0.06583932	      1.39491866	      0.10805835	    -33.94298610	      7.75196184	     12.70016297	     45.81777545	     10.53505441	      7.82618456	    -40.40018735	     41.26723483	     29.04418159	     19.67065317	     90.66783133
      8.62000000	      7.28940014	   -177.64620272	     11.22011373	      0.06595301	      1.39501676	      0.10805462	    -34.00076084	      7.80127528	     12.88713846	     45.76855866	     10.79697726	      7.84311466	    -40.38947800	     41.48775944	     28.98388684	     19.69834703	     90.67337580
      8.63000000	      7.47069397	   -177.54515161	     11.24086291	      0.06585561	      1.39504469	      0.10828164	    -34.33558319	      7.71053083	     12.91285827	     46.21937613	     11.03128025	      8.29208012	    -40.88785468	     42.27006509	     28.36449921	     19.99766735	     90.99408018
      8.64000000	      7.40861898	   -177.59786704	     11.32753867	      0.06597488	      1.39513480	      0.10828045	    -34.39613821	      7.76180381	     13.09666555	     46.16789630	     11.29063741	      8.30541173	    -40.86645318	     42.48623089	     28.30764459	     20.02044715	     91.00181062
      8.65000000	      7.58628148	   -177.63604373	     11.37911996	      0.06581177	      1.39515220	      0.10863453	    -34.71642074	      7.63838269	     13.25465458	     46.37195470	     11.54422711	      8.53119777	    -40.85472942	     43.00344347	     28.02591122	     20.27105159	     91.10108472
      8.66000000	      7.53609200	   -177.63340152	     11.44646635	      0.06599410	      1.39526474	      0.10854620	    -34.77228372	      7.69129702	     13.43511632	     46.31835709	     11.80218687	      8.54398156	    -40.86629619	     43.24914888	     27.93119023	     20.24657353	     91.10403726
      8.67000000	      7.69506890	   -177.40365748	     11.46421350	      0.06595464	      1.39527632	      0.10868687	    -35.17642032	      7.64863683	     13.40070206	     46.83677547	     11.99170643	      9.00386074	    -41.37581506	     44.05726229	     27.12064034	     20.41126476	     91.39353036
      8.68000000	      7.63716875	   -177.46081885	     11.54722349	      0.06604669	      1.39539144	      0.10871014	    -35.24249905	      7.68148264	     13.58949098	     46.78500176	     12.25152673	      9.02796622	    -41.34602953	     44.27943387	     27.05849928	     20.45417282	     91.40518277
      8.69000000	      7.80554255	   -177.49303070	     11.61089452	      0.06587035	      1.39540869	      0.10898873	    -35.54828660	      7.54684563	     13.72409107	     46.98364643	     12.49129126	      9.28728605	    -41.33503247	     44.81220110	     26.73846311	     20.72711115	     91.53814502
      8.70000000	      7.76315391	   -177.48809953	     11.67683187	      0.06606839	      1.39549853	      0.10890498	    -35.59152599	      7.60340962	     13.89503666	     46.92983707	     12.73990494	      9.29705055	    -41.34529494	     45.04442699	     26.64584312	     20.70185244	     91.54591994
      8.71000000	      7.89316335	   -177.28269831	     11.69979467	      0.06606401	      1.39550239	      0.10897119	    -35.92732622	      7.58706325	     13.82090206	     47.39204304	     12.94565193	      9.76896244	    -41.82676410	     45.80446658	     25.82073455	     20.84673043	     91.90930051
      8.72000000	      7.82920365	   -177.33125166	     11.78618371	      0.06615277	      1.39559097	      0.10895058	    -35.97885894	      7.62616728	     13.99614847	     47.34094967	     13.18918915	      9.78691838	    -41.79412689	     46.00099537	     25.76698317	     20.88490947	     91.92261038
      8.73000000	      8.01388997	   -177.38453979	     11.79893645	      0.06615811	      1.39555874	      0.10914614	    -36.13361019	      7.56086271	     14.16307587	     47.39318407	     13.46561887	      9.89558851	    -41.72587253	     46.38091032	     25.59503652	     21.05689769	     91.99148736
      8.74000000	      7.90767133	   -177.39388020	     11.91768116	      0.06626334	      1.39563318	      0.10906393	    -36.20038573	      7.60872307	     14.31693418	     47.35623701	     13.66655640	      9.92767216	    -41.71611434	     46.56985927	     25.51560491	     21.05984097	     91.99682694
      8.75000000	      8.01460216	   -177.34919851	     11.95554877	      0.06614066	      1.39544879	      0.10901816	    -36.29079841	      7.65337763	     10.61192952	     46.88224919	     16.50604926	     12.89946647	    -42.17536004	     47.04641765	     22.38966843	     21.91278340	     98.33143680
      8.76000000	      7.99608513	   -177.37547044	     12.10653169	      0.06624081	      1.39522187	      0.10903318	    -36.31883300	      7.77806154	     10.70063373	     46.86104657	     16.65143030	     12.87072046	    -42.15052550	     47.16612009	     22.36626213	     21.91522157	     98.32505461
      8.77000000	      7.89018874	   -177.36628620	     12.13373195	      0.06644539	      1.39552345	      0.10885283	    -36.38143971	      7.75623858	     10.92512925	     46.76800099	     16.91006803	     12.91686774	    -42.13206258	     47.39083506	     22.28834882	     21.91479480	     98.29769401
      8.78000000	      7.88408628	   -177.38952101	     12.27439515	      0.06654712	      1.39527692	      0.10886337	    -36.40912606	      7.87297208	     11.00946683	     46.75189796	     17.04850028	     12.89108238	    -42.10627271	     47.50844496	     22.26320181	     21.91979497	     98.29078477
      8.79000000	      8.05864340	   -177.21019175	     12.17925435	      0.06652573	      1.39547833	      0.10888496	    -36.80356243	      7.76567762	     11.13504898	     47.04950154	     17.30979766	     13.30019016	    -42.34911132	     48.15734657	     21.71578108	     22.03636556	     98.05621598
      8.80000000	      8.04038152	   -177.23375593	     12.31384032	      0.06663462	      1.39525150	      0.10886504	    -36.82513067	      7.87525699	     11.21522726	     47.03204651	     17.43941142	     13.27638024	    -42.32563358	     48.26087226	     21.69534588	     22.04088106	     98.05099022
      8.81000000	      8.01494581	   -177.25423604	     12.43740676	      0.06675476	      1.39505035	      0.10883419	    -36.84682696	      7.97268588	     11.30218979	     47.00953948	     17.57204738	     13.25768939	    -42.30410432	     48.36639683	     21.67214058	     22.04416712	     98.04505661
      8.82000000	      7.87360317	   -177.24184463	     12.42891723	      0.06699930	      1.39547056	      0.10855761	    -36.87590616	      7.91223835	     11.54451885	     46.89451884	     17.83003526	     13.32084052	    -42.30943013	     48.56272042	     21.59132281	     22.04203283	     98.02205307
      8.83000000	      7.86860442	   -177.26099728	     12.54375963	      0.06710663	      1.39523878	      0.10853222	    -36.89492792	      8.00811926	     11.61704478	     46.88083280	     17.94676977	     13.30113547	    -42.28834500	     48.65811372	     21.57009210	     22.04769006	     98.01663034
      8.84000000	      7.85517168	   -177.27680806	     12.64756731	      0.06722685	      1.39503849	      0.10848666	    -36.91319511	      8.09202009	     11.69532258	     46.86239151	     18.06488066	     13.28674930	    -42.26980542	     48.75324909	     21.54681796	     22.05188147	     98.01070266
      8.85000000	      7.77018782	   -177.25073613	     12.59450608	      0.06749235	      1.39544337	      0.10819061	    -36.93741570	      8.01361713	     11.94605335	     46.74879594	     18.32278926	     13.36439941	    -42.29293214	     48.95773016	     21.44501818	     22.05485784	     97.98297456
      8.86000000	      7.77028290	   -177.26688603	     12.69239531	      0.06759557	      1.39522100	      0.10815509	    -36.95370116	      8.09712770	     12.00696739	     46.73993425	     18.42107883	     13.34907028	    -42.27564211	     49.03809642	     21.42559085	     22.06154284	     97.97805252
      8.87000000	      7.76177858	   -177.27977170	     12.77950443	      0.06770771	      1.39503463	      0.10810004	    -36.96871339	      8.16929251	     12.07262258	     46.72651551	     18.51958282	     13.33877419	    -42.26133741	     49.11671010	     21.40478726	     22.06658143	     97.97282116
      8.88000000	      7.91285380	   -177.31212339	     12.61137448	      0.06758485	      1.39521541	      0.10810343	    -37.17137048	      8.14521178	     12.34602215	     46.86637149	     18.76825854	     13.78388361	    -42.64782317	     49.44496132	     20.92448806	     22.40700947	     97.85353198
      8.89000000	      7.89845802	   -177.32092196	     12.69302541	      0.06768408	      1.39505264	      0.10804246	    -37.17883873	      8.21519835	     12.39440345	     46.85734901	     18.84714524	     13.77045583	    -42.63548749	     49.50528289	     20.91106465	     22.40648800	     97.85120266
      8.90000000	      7.87752195	   -177.32808766	     12.76528977	      0.06779764	      1.39490849	      0.10796812	    -37.18584946	      8.27591665	     12.44612260	     46.84366784	     18.92581694	     13.76045712	    -42.62649789	     49.56390194	     20.89682423	     22.40430133	     97.84874693
      8.91000000	      7.74414184	   -177.29317832	     12.75723647	      0.06804766	      1.39517126	      0.10766925	    -37.16000475	      8.27367747	     12.58800000	     46.75671931	     19.07867099	     13.79514604	    -42.67822331	     49.64871602	     20.85078858	     22.36338285	     97.84545852
      8.92000000	      7.73771114	   -177.30141893	     12.81837643	      0.06814771	      1.39502748	      0.10760418	    -37.16526607	      8.32909475	     12.62712741	     46.74866075	     19.14192589	     13.78514304	    -42.67061083	     49.69516668	     20.84041760	     22.36415639	     97.84393568
      8.93000000	      7.72548628	   -177.30716737	     12.87050839	      0.06824864	      1.39491493	      0.10753260	    -37.16896088	      8.37550340	     12.66862086	     46.73739111	     19.20363964	     13.77900444	    -42.66584207	     49.73814777	     20.82997082	     22.36373315	     97.84247537
      8.94000000	      7.70878071	   -177.31082001	     12.91410930	      0.06835168	      1.39482953	      0.10745276	    -37.17114915	      8.41377252	     12.71172429	     46.72335101	     19.26341667	     13.77625807	    -42.66391087	     49.77739437	     20.81972703	     22.36229409	     97.84117338
      8.95000000	      7.60426951	   -177.28435958	     12.86977662	      0.06858074	      1.39513889	      0.10715962	    -37.13786298	      8.39334615	     12.86188335	     46.62735412	     19.40929775	     13.82641806	    -42.73558041	     49.82444302	     20.78899720	     22.33541118	     97.84347373
      8.96000000	      7.60397057	   -177.29084845	     12.90643333	      0.06866252	      1.39504526	      0.10709889	    -37.13991924	      8.42970747	     12.88754427	     46.62200269	     19.45006874	     13.82145872	    -42.73364027	     49.85012291	     20.78415543	     22.33767760	     97.84347752
      8.97000000	      7.59957613	   -177.29522360	     12.93539999	      0.06873913	      1.39498191	      0.10703446	    -37.14044100	      8.45828462	     12.91419761	     46.61460888	     19.48836312	     13.81976676	    -42.73410533	     49.87150514	     20.77998435	     22.33918962	     97.84375006
      8.98000000	      7.59222384	   -177.29811289	     12.95742261	      0.06881524	      1.39493992	      0.10696436	    -37.13974468	      8.48008803	     12.94134020	     46.60542552	     19.52419210	     13.82076188	    -42.73698092	     49.88864555	     20.77671783	     22.34012095	     97.84438271
      8.99000000	      7.53224530	   -177.29412803	     12.90438887	      0.06898527	      1.39518905	      0.10672510	    -37.10523678	      8.46567014	     13.07610005	     46.51792647	     19.65022909	     13.87709631	    -42.83097566	     49.87316377	     20.78350989	     22.33606143	     97.86088707
      9.00000000	      7.53732614	   -177.29932072	     12.92072570	      0.06903922	      1.39514081	      0.10667993	    -37.10541122	      8.48497854	     13.08687689	     46.51680201	     19.66858681	     13.87561706	    -42.83307309	     49.87898707	     20.78520498	     22.33984412	     97.86273937
      9.01000000	      7.53805103	   -177.30052368	     12.92446151	      0.06907138	      1.39523214	      0.10663349	    -37.10581746	      8.48877993	     13.08906402	     46.51644497	     19.67218454	     13.87522254	    -42.83312447	     49.88059209	     20.78532986	     22.34036158	     97.86296154
      9.02000000	      7.53967854	   -177.30210759	     12.93570741	      0.06917331	      1.39513403	      0.10658572	    -37.10220890	      8.50178948	     13.10372859	     46.51492744	     19.69132780	     13.87858173	    -42.83681861	     49.88003674	     20.78961445	     22.34477058	     97.86581494
      9.03000000	      7.54005657	   -177.30278926	     12.93485120	      0.06913867	      1.39516283	      0.10651020	    -37.10226714	      8.50147088	     13.10410816	     46.51436252	     19.69171116	     13.87886194	    -42.83811660	     49.87868874	     20.79042613	     22.34498354	     97.86623706
      9.04000000	      7.59763852	   -177.42190654	     12.86852078	      0.06924276	      1.39527166	      0.10639637	    -37.06347451	      8.51583278	     13.35046660	     46.37276940	     19.96346216	     13.99608617	    -43.14827495	     49.54175941	     21.04368192	     22.43373643	     97.99593355
      9.05000000	      7.65630676	   -177.44774487	     12.88375091	      0.06915537	      1.39511505	      0.10648974	    -37.08472110	      8.57052805	     13.28163537	     46.43428444	     19.93338919	     13.97855035	    -43.15322888	     49.48620776	     21.11531872	     22.47733936	     98.03117020
      9.06000000	      7.65413538	   -177.44210696	     12.86676386	      0.06918219	      1.39520332	      0.10642776	    -37.08108332	      8.55539787	     13.27549297	     46.43855556	     19.92226812	     13.98556688	    -43.15732947	     49.46976529	     21.12400065	     22.47939713	     98.03528176
      9.07000000	      7.65528810	   -177.43709153	     12.84556997	      0.06916330	      1.39529832	      0.10634265	    -37.07737936	      8.53659582	     13.26538720	     46.44320844	     19.90589415	     13.99193652	    -43.16243938	     49.44970195	     21.13292668	     22.48083789	     98.03907281
      9.08000000	      7.65972166	   -177.43248712	     12.82084834	      0.06916478	      1.39540445	      0.10628847	    -37.07405807	      8.51388637	     13.25135022	     46.45017544	     19.88546334	     13.99866066	    -43.16911354	     49.42262876	     21.14620914	     22.48308811	     98.04460820
      9.09000000	      7.66702677	   -177.42684057	     12.79144182	      0.06913139	      1.39551913	      0.10621281	    -37.06922004	      8.48706030	     13.23361150	     46.45864710	     19.85944927	     14.00581423	    -43.17597225	     49.39152124	     21.15947279	     22.48506095	     98.04970745
      9.10000000	      7.67994328	   -177.42267756	     12.75910906	      0.06918204	      1.39565126	      0.10615675	    -37.06547365	      8.45637662	     13.21024388	     46.47078573	     19.82826851	     14.01257099	    -43.18420585	     49.35189691	     21.17788560	     22.48810106	     98.05673004
      9.11000000	      7.69498428	   -177.41663191	     12.72252420	      0.06909122	      1.39578507	      0.10609594	    -37.05974916	      8.42169338	     13.18374706	     46.48462249	     19.79227615	     14.01996625	    -43.19240853	     49.30845903	     21.19627716	     22.49090713	     98.06338252
      9.12000000	      7.93720476	   -177.45634793	     12.86394886	      0.06917678	      1.39577052	      0.10654100	    -37.45171865	      8.08391333	     13.23095690	     46.70892069	     20.47380758	     13.86255757	    -43.43698598	     48.58955976	     22.36195164	     22.40300993	     98.63063833
      9.13000000	      7.94367385	   -177.44024720	     12.81279659	      0.06919897	      1.39595891	      0.10643167	    -37.43919311	      8.04099768	     13.19885137	     46.72170932	     20.42268740	     13.87684445	    -43.44299526	     48.54957336	     22.37373741	     22.40286247	     98.63477105
      9.14000000	      7.95537837	   -177.42630177	     12.75895908	      0.06915216	      1.39613917	      0.10634483	    -37.42820946	      7.99539860	     13.16030716	     46.73668206	     20.36555856	     13.88933929	    -43.45034705	     48.50411194	     22.38790302	     22.40275097	     98.63961571
      9.15000000	      7.97264710	   -177.41287710	     12.70299307	      0.06910427	      1.39631108	      0.10625131	    -37.41701438	      7.94725013	     13.11575482	     46.75582355	     20.30246486	     13.90129452	    -43.45779265	     48.45193675	     22.40475301	     22.40335306	     98.64521656
      9.16000000	      8.09867835	   -177.43660819	     12.74343400	      0.06893263	      1.39607079	      0.10643057	    -37.45161175	      7.95060468	     12.95369673	     46.87698367	     20.18130078	     13.87365767	    -43.43825181	     48.33117156	     22.50442823	     22.41605029	     98.68581662
      9.17000000	      8.10539800	   -177.41720848	     12.67262626	      0.06889330	      1.39631844	      0.10630614	    -37.43643201	      7.88395568	     12.91260939	     46.89394834	     20.11576783	     13.89229267	    -43.44854825	     48.27008621	     22.52183518	     22.41445187	     98.69142028
      9.18000000	      8.21496629	   -177.33433734	     12.87841896	      0.06907609	      1.39649339	      0.10652797	    -37.78961068	      7.42072728	     12.69655518	     47.20566345	     20.59229516	     13.71517451	    -43.40284909	     47.82042172	     23.44654891	     22.02723551	     99.14297890
      9.19000000	      8.22708172	   -177.31346176	     12.79424683	      0.06902772	      1.39674880	      0.10642267	    -37.77038129	      7.35211461	     12.64649387	     47.22097202	     20.51246760	     13.73596351	    -43.41551479	     47.75509329	     23.46222369	     22.02835970	     99.14720990
      9.20000000	      8.30964497	   -177.32008575	     12.77069921	      0.06888820	      1.39668521	      0.10645809	    -37.76758679	      7.34120982	     12.51305786	     47.29179341	     20.38133923	     13.73830250	    -43.41390027	     47.63689912	     23.52558783	     22.04842276	     99.16779921
      9.21000000	      8.32015054	   -177.29540240	     12.68145187	      0.06884753	      1.39691623	      0.10630282	    -37.74403312	      7.26373415	     12.45971122	     47.31255690	     20.29569602	     13.76281400	    -43.42625501	     47.55917372	     23.54430121	     22.04959921	     99.17273025
      9.22000000	      8.39256522	   -177.31754144	     12.69081938	      0.06869627	      1.39680250	      0.10634790	    -37.74483009	      7.24677393	     12.30348865	     47.40837316	     20.15560873	     13.75747412	    -43.42724373	     47.37789211	     23.63244639	     22.06209070	     99.20031302
      9.23000000	      8.40092335	   -177.29039355	     12.59201725	      0.06864551	      1.39704255	      0.10618216	    -37.71822776	      7.15894992	     12.24592322	     47.43053531	     20.06309996	     13.78398931	    -43.44156165	     47.28922023	     23.65357636	     22.06149198	     99.20581616
      9.24000000	      8.45580068	   -177.32250183	     12.62283425	      0.06847535	      1.39689801	      0.10622585	    -37.71154529	      7.14004273	     12.07155742	     47.53736394	     19.92064292	     13.76492686	    -43.44884338	     47.04628491	     23.76561943	     22.05590097	     99.24006228
      9.25000000	      8.46166725	   -177.29285119	     12.51690853	      0.06845674	      1.39712125	      0.10603239	    -37.68083918	      7.04450429	     12.00970610	     47.56139233	     19.82277001	     13.79276698	    -43.46410739	     46.94544618	     23.79051461	     22.05314171	     99.24655786
      9.26000000	      8.41559425	   -177.38574294	     12.64266143	      0.06868459	      1.39718429	      0.10599734	    -37.62523544	      6.88998039	     11.77794591	     47.53464591	     20.15904422	     13.51615244	    -43.39211038	     46.08982187	     24.43871268	     21.73231073	     99.45171770
      9.27000000	      8.43111123	   -177.35333811	     12.52512605	      0.06862092	      1.39738410	      0.10582126	    -37.59612253	      6.79072790	     11.70634149	     47.55975289	     20.04437663	     13.54703206	    -43.40469707	     45.99232146	     24.45990570	     21.73573875	     99.45625608
      9.28000000	      8.50554693	   -177.35468474	     12.52119466	      0.06844307	      1.39716983	      0.10580150	    -37.57996460	      6.79038092	     11.50444103	     47.65486778	     19.83294899	     13.54741380	    -43.38221289	     45.79071253	     24.53877769	     21.76113986	     99.47245481
      9.29000000	      8.45260079	   -177.35375934	     12.52268932	      0.06830935	      1.39716880	      0.10565712	    -37.54608396	      6.77043390	     11.32023951	     47.70739565	     19.64216090	     13.55629052	    -43.36726514	     45.53081628	     24.63724166	     21.74732948	     99.49212221
      9.30000000	      8.46427169	   -177.31459785	     12.38774124	      0.06828096	      1.39738448	      0.10541218	    -37.50504348	      6.65857544	     11.24428476	     47.73352449	     19.51827404	     13.59104305	    -43.38259686	     45.41558292	     24.66146396	     21.74637272	     99.49730620
      9.31000000	      8.49625892	   -177.32456779	     12.39301363	      0.06815051	      1.39711021	      0.10531105	    -37.42291578	      6.70295863	     11.01415704	     47.80733061	     19.29879476	     13.55726018	    -43.38106326	     45.11383185	     24.76968144	     21.71864391	     99.51975124
      9.32000000	      8.33051457	   -177.31579634	     12.42238894	      0.06843992	      1.39717359	      0.10487688	    -37.29808476	      6.70625058	     10.46603262	     46.93743235	     19.60516791	     13.34138224	    -42.31980738	     43.97964107	     25.21759661	     21.28662703	     99.32473363
      9.33000000	      8.34683227	   -177.27496577	     12.27617329	      0.06840579	      1.39735497	      0.10460520	    -37.25423523	      6.58649738	     10.38101531	     46.97412318	     19.46617455	     13.38009499	    -42.33584356	     43.85476388	     25.23964722	     21.29122906	     99.32847674
      9.34000000	      8.38995232	   -177.29575721	     12.27108533	      0.06821629	      1.39702362	      0.10453400	    -37.17398129	      6.64134684	     10.13060353	     47.10325029	     19.20392251	     13.36989584	    -42.35616710	     43.56436585	     25.30202983	     21.30513017	     99.33108329
      9.35000000	      8.16046594	   -177.40927350	     12.25774889	      0.06832585	      1.39698203	      0.10407036	    -36.79752703	      6.79125288	      9.42497378	     46.31590829	     19.38670288	     13.33589409	    -41.61386971	     42.55104872	     25.11310576	     21.15638528	     98.67923441
      9.36000000	      8.17794402	   -177.36511581	     12.09849183	      0.06826182	      1.39715719	      0.10378049	    -36.75200700	      6.66019989	      9.33304617	     46.35771375	     19.23520829	     13.37691336	    -41.63004462	     42.41538128	     25.13793057	     21.15998802	     98.68402149
      9.37000000	      8.02923397	   -177.48140738	     12.08535947	      0.06813032	      1.39685598	      0.10356098	    -36.48596310	      6.87999557	      9.02122784	     46.37941548	     19.04361808	     13.33755009	    -41.69393633	     41.82286278	     25.26920545	     21.02285393	     98.64165964
      9.38000000	      8.04737474	   -177.43676029	     11.91776576	      0.06805390	      1.39704709	      0.10328632	    -36.44046691	      6.74030715	      8.92312683	     46.41922380	     18.88137228	     13.37983162	    -41.70966403	     41.68002926	     25.29618883	     21.02760148	     98.64674874
      9.39000000	      7.87124315	   -177.51337617	     11.93120493	      0.06799674	      1.39669890	      0.10293746	    -36.10546427	      6.98507439	      8.59098788	     46.27054138	     18.61546133	     13.28550250	    -41.66708819	     41.04670818	     25.48144906	     20.90798582	     98.61027728
      9.40000000	      7.88945925	   -177.46795027	     11.75649636	      0.06789933	      1.39689264	      0.10264903	    -36.05906373	      6.83743720	      8.48957929	     46.31269932	     18.44560694	     13.33071595	    -41.68052073	     40.89609436	     25.50979943	     20.91455779	     98.61537434
      9.41000000	      7.73123675	   -177.72882985	     11.78810879	      0.06765980	      1.39647751	      0.10244755	    -35.67843638	      7.06411300	      8.14060223	     45.78877302	     18.25352367	     13.19456145	    -41.09519633	     39.92600102	     25.75764947	     20.86744766	     98.40535059
      9.42000000	      7.75094101	   -177.67561861	     11.60492367	      0.06757220	      1.39669220	      0.10213237	    -35.62888537	      6.91142106	      8.03298417	     45.83528504	     18.07486170	     13.23916675	    -41.10991139	     39.76934584	     25.78498460	     20.86942454	     98.41025414
      9.43000000	      7.55033201	   -177.59228194	     11.66542110	      0.06763360	      1.39630791	      0.10168294	    -35.45875956	      7.15373406	      7.36004656	     45.09910772	     17.96035257	     12.91934443	    -39.84528142	     38.56647467	     25.51651922	     20.46434657	     97.54592556
      9.44000000	      7.57212575	   -177.54509284	     11.47443775	      0.06750751	      1.39653182	      0.10141074	    -35.41009699	      6.99415158	      7.24937340	     45.14681983	     17.77490762	     12.96372428	    -39.86223504	     38.40260822	     25.54544628	     20.46868545	     97.55146434
      9.45000000	      7.37966372	   -177.63357344	     11.49462398	      0.06737682	      1.39615636	      0.10105623	    -35.04699750	      7.25325560	      6.94081041	     45.09453300	     17.45420148	     12.89408994	    -39.97043334	     37.72386921	     25.68793927	     20.31681276	     97.50465254
      9.46000000	      7.40226568	   -177.58795805	     11.29728968	      0.06722760	      1.39639165	      0.10080030	    -34.99983954	      7.08691406	      6.82629565	     45.14200753	     17.26155807	     12.93947981	    -39.98429460	     37.55427096	     25.71930741	     20.32342523	     97.51053769
      9.47000000	      7.19918399	   -177.71479786	     11.32234968	      0.06708353	      1.39600474	      0.10041534	    -34.58749448	      7.35994721	      6.52109408	     44.92569009	     16.92914582	     12.82237921	    -39.89197959	     36.76600259	     25.96983096	     20.19100945	     97.45660918
      9.48000000	      7.22354074	   -177.67146593	     11.11894091	      0.06690247	      1.39624800	      0.10019991	    -34.54409426	      7.18704608	      6.40222781	     44.97260016	     16.72977682	     12.86694772	    -39.90475200	     36.59249763	     26.00191905	     20.19721211	     97.46246338
      9.49000000	      7.07736921	   -177.92121436	     11.15603262	      0.06660994	      1.39581418	      0.10000477	    -34.16004257	      7.40210914	      6.12624440	     44.41819518	     16.46440528	     12.64894695	    -39.18225745	     35.53081112	     26.36521699	     20.05877648	     97.20370962
      9.50000000	      7.10205718	   -177.86840231	     10.94671510	      0.06645160	      1.39610602	      0.09973275	    -34.11202309	      7.22470493	      6.00265139	     44.47174306	     16.25693827	     12.69412436	    -39.19454264	     35.35064181	     26.39610261	     20.06177944	     97.20918035
      9.51000000	      7.13768657	   -177.81231090	     10.98821864	      0.06618459	      1.39561966	      0.09963033	    -34.01128968	      7.28079392	      5.67108149	     44.62599428	     15.85160443	     12.66919291	    -39.19370338	     34.95508221	     26.48387338	     20.03195648	     97.21349003
      9.52000000	      6.86003137	   -177.79080296	     10.96724271	      0.06625159	      1.39561980	      0.09903483	    -33.75984026	      7.43190937	      5.34751398	     43.64795719	     15.66718523	     12.11050648	    -37.49982637	     33.60553803	     26.55270307	     19.41955817	     96.14611037
      9.53000000	      6.88481330	   -177.74782276	     10.74879479	      0.06605046	      1.39594046	      0.09883995	    -33.71634238	      7.24680691	      5.22074135	     43.70026353	     15.45313818	     12.15315245	    -37.51454936	     33.41833179	     26.58344811	     19.42495379	     96.15157129
      9.54000000	      6.90785534	   -177.73441736	     10.78483727	      0.06571738	      1.39549744	      0.09878929	    -33.60239047	      7.28953545	      4.91400275	     43.85951528	     15.05471192	     12.14508653	    -37.54069960	     32.99270553	     26.67141529	     19.42135413	     96.15443738
      9.55000000	      6.61785666	   -177.83450685	     10.69307916	      0.06563997	      1.39560370	      0.09830778	    -33.15771939	      7.44939839	      4.72020821	     43.62591113	     14.79247237	     12.02778943	    -37.63061573	     32.24421326	     26.85979064	     19.15522493	     96.08843221
      9.56000000	      6.64807173	   -177.79347103	     10.47165820	      0.06538512	      1.39592141	      0.09811945	    -33.11523649	      7.25923054	      4.59011488	     43.67817364	     14.57190315	     12.07083107	    -37.63929627	     32.05094062	     26.89549188	     19.16417395	     96.09482074
      9.57000000	      6.51482069	   -177.95559624	     10.54708183	      0.06510862	      1.39553003	      0.09799708	    -32.90789937	      7.44676745	      4.46324090	     42.92616241	     14.23824869	     11.41467954	    -35.80737350	     30.57283012	     27.27318984	     18.52634073	     94.10368872
      9.58000000	      6.57276312	   -177.90049190	     10.45026223	      0.06486199	      1.39544611	      0.09784455	    -32.81045033	      7.36275297	      4.24197949	     43.01303471	     13.92202196	     11.41796511	    -35.82172278	     30.28396529	     27.35051808	     18.55348079	     94.10909713
      9.59000000	      6.39037406	   -177.92797972	     10.39579792	      0.06475891	      1.39549756	      0.09741888	    -32.42101875	      7.39814025	      4.02727673	     42.78323709	     13.60932837	     11.28834458	    -35.88716531	     29.71226048	     27.65129436	     18.45615134	     94.08648724
      9.60000000	      6.42670728	   -177.91593053	     10.31812388	      0.06440692	      1.39543673	      0.09738170	    -32.35332128	      7.30098071	      3.81232551	     42.87790763	     13.28709714	     11.30293029	    -35.87229534	     29.38989433	     27.75355195	     18.48428654	     94.09496202
      9.61000000	      6.29515592	   -178.10642843	     10.26732969	      0.06418219	      1.39550454	      0.09713648	    -31.97543883	      7.28378953	      3.71464945	     42.49277181	     13.06979291	     11.10003682	    -35.57404667	     28.62626822	     28.46636394	     18.32101265	     93.99363100
      9.62000000	      6.34486188	   -178.04533568	     10.17049121	      0.06389014	      1.39545901	      0.09706900	    -31.90430516	      7.19214200	      3.48885009	     42.58996649	     12.74717515	     11.09798369	    -35.57422730	     28.32829676	     28.54613194	     18.30188116	     93.99540299
      9.63000000	      6.29327076	   -178.00743601	     10.13767504	      0.06357380	      1.39541355	      0.09693392	    -31.80463804	      7.13433295	      3.24645467	     42.65109748	     12.39562301	     11.08351985	    -35.58203648	     27.92939278	     28.67271011	     18.24476442	     94.00153943
      9.64000000	      6.13022784	   -178.02564407	     10.07808216	      0.06355063	      1.39562948	      0.09652848	    -31.54611978	      7.09056075	      3.22201551	     42.10259290	     12.18940485	     10.66996655	    -34.84741522	     27.09062725	     29.87391851	     17.74969204	     93.47945075
      9.65000000	      6.18784028	   -178.00610720	      9.99047003	      0.06320663	      1.39557500	      0.09650643	    -31.46474220	      6.99676290	      3.01487689	     42.20530224	     11.87659137	     10.67750982	    -34.86677146	     26.75155741	     29.94224169	     17.74686954	     93.46648155
      9.66000000	      6.15520247	   -178.01095941	      9.94963093	      0.06283786	      1.39551958	      0.09645860	    -31.34735695	      6.93333462	      2.79427178	     42.25661101	     11.55449801	     10.65559667	    -34.90530220	     26.31197557	     30.05981824	     17.69751650	     93.45613084
      9.67000000	      6.18869499	   -177.98330526	      9.71715098	      0.06253476	      1.39588803	      0.09641932	    -31.31509613	      6.73652113	      2.65614047	     42.29776153	     11.32835433	     10.68160909	    -34.91651326	     26.11154586	     30.09669305	     17.69981393	     93.46309237
      9.68000000	      5.95338156	   -178.13913717	      9.79677929	      0.06253540	      1.39580044	      0.09599316	    -30.71684277	      6.85029223	      2.47855903	     41.85703117	     11.22162528	     10.32374061	    -34.99896261	     24.91955547	     30.77514634	     17.29731020	     93.44616141
      9.69000000	      6.03407439	   -178.13400749	      9.73022006	      0.06211872	      1.39569712	      0.09605410	    -30.67129455	      6.73730866	      2.27499353	     41.95083763	     10.91356840	     10.32452711	    -34.95065866	     24.57732084	     30.92563332	     17.35586406	     93.44843622
      9.70000000	      6.02246876	   -178.14039137	      9.70847936	      0.06173513	      1.39561316	      0.09604855	    -30.57715344	      6.65386093	      2.05950770	     41.97447948	     10.61675986	     10.27375232	    -34.91682991	     24.11404445	     31.16094845	     17.33920644	     93.45811748
      9.71000000	      5.92198000	   -178.21154005	      9.58498268	      0.06161740	      1.39598563	      0.09588405	    -30.47137412	      6.60805634	      3.23792866	     41.66201073	      9.93312442	      9.16726285	    -34.52492083	     23.27443529	     35.60577378	     16.32704502	     87.21203567
      9.72000000	      5.99334514	   -178.17807085	      9.50674104	      0.06125487	      1.39592940	      0.09590717	    -30.39746125	      6.48760183	      3.02846991	     41.75021428	      9.63480987	      9.15356176	    -34.53604386	     22.95434403	     35.68958066	     16.33634479	     87.23741181
      9.73000000	      5.98374699	   -178.16950207	      9.49901373	      0.06089484	      1.39583326	      0.09590738	    -30.28880986	      6.40049156	      2.79831262	     41.80245733	      9.33661285	      9.09766783	    -34.56373954	     22.50331104	     35.84183750	     16.31143807	     87.28432100
      9.74000000	      5.88773857	   -178.33357123	      9.48326947	      0.06078520	      1.39618960	      0.09579596	    -29.98321375	      6.21244806	      2.79610701	     41.31948620	      9.46907479	      8.68011181	    -34.49589590	     21.43950430	     36.93921735	     16.08843981	     87.56898937
      9.75000000	      5.95747302	   -178.26616727	      9.38571546	      0.06045783	      1.39612647	      0.09576947	    -29.89868570	      6.12451177	      2.58071786	     41.41176497	      9.17417954	      8.65127609	    -34.49827968	     21.13322623	     37.04670403	     16.07781909	     87.59424410
      9.76000000	      5.86529791	   -178.36811589	      9.37991756	      0.06021147	      1.39630025	      0.09569888	    -29.71266595	      6.02484132	      2.56578595	     41.06861932	      9.17208469	      8.33405840	    -34.43923782	     20.18586501	     38.20526364	     15.79662814	     87.78541015
      9.77000000	      5.78217128	   -178.29651243	      9.28737321	      0.06002410	      1.39645627	      0.09554127	    -29.54779231	      5.96758443	      2.40204158	     41.00950674	      8.96838431	      8.14133413	    -34.49848914	     19.67735659	     38.75541913	     15.57539358	     87.82237179
      9.78000000	      5.81438200	   -178.38062085	      9.24398924	      0.05968774	      1.39646983	      0.09560841	    -29.41382631	      5.86018635	      2.34787051	     40.86665094	      8.87733622	      7.94486762	    -34.50717008	     18.98778950	     39.57538229	     15.50147465	     87.87482664
      9.79000000	      5.88345907	   -178.33407710	      9.16748983	      0.05930788	      1.39639447	      0.09566807	    -29.35729792	      5.76843553	      2.14470878	     40.96197233	      8.58277711	      7.92642436	    -34.49901594	     18.68993997	     39.70363461	     15.52835887	     87.89148461
      9.80000000	      5.89886853	   -178.31006884	      9.12487642	      0.05893774	      1.39627518	      0.09571197	    -29.27238163	      5.70033316	      1.93284684	     41.02272030	      8.31480085	      7.86267985	    -34.49298499	     18.29163058	     39.90565852	     15.53028070	     87.92745969
      9.81000000	      5.79897339	   -178.41022213	      9.00930636	      0.05863124	      1.39665734	      0.09564264	    -29.15797880	      5.63356872	      3.33754654	     41.41762285	      7.55739915	      7.45347835	    -37.86399377	     18.23410040	     46.34129492	     15.07980361	     84.95477517
      9.82000000	      5.87835214	   -178.37473485	      8.92777024	      0.05827786	      1.39657645	      0.09572196	    -29.08065416	      5.53323857	      3.13412171	     41.51108863	      7.30021542	      7.40979545	    -37.85129908	     17.93292877	     46.43748425	     15.11693837	     84.98025797
      9.83000000	      5.92123510	   -178.36159654	      8.72288868	      0.05784913	      1.39689876	      0.09578151	    -29.06567015	      5.35898695	      2.99744114	     41.54215374	      7.08964323	      7.41742062	    -37.85514844	     17.75848019	     46.47246073	     15.13490851	     84.98983802
      9.84000000	      5.81100210	   -178.55192317	      8.92402155	      0.05781551	      1.39679769	      0.09574008	    -28.67010867	      5.26315083	      2.88162146	     40.87565079	      7.38673435	      6.75434476	    -37.65820000	     16.24180692	     47.88412408	     14.90312802	     85.39670776
      9.85000000	      5.85820740	   -178.53249403	      8.72360722	      0.05738193	      1.39711008	      0.09577734	    -28.65383216	      5.09763301	      2.74836433	     40.91201836	      7.17975856	      6.76159276	    -37.65724449	     16.07862603	     47.91835836	     14.92299709	     85.40564314
      9.86000000	      5.79192410	   -178.57531789	      8.79503617	      0.05727683	      1.39690902	      0.09576976	    -28.43636777	      5.12939239	      2.63827608	     40.50400144	      7.26095324	      6.29778551	    -37.35195426	     15.00906573	     49.46829914	     14.68859049	     85.78387997
      9.87000000	      5.83871667	   -178.55755181	      8.60315959	      0.05685626	      1.39720820	      0.09581467	    -28.42124326	      4.96986326	      2.51017479	     40.54002119	      7.06081192	      6.30439373	    -37.34990451	     14.85183779	     49.50119709	     14.71030176	     85.79193339
      9.88000000	      5.69464922	   -178.60550054	      8.56711040	      0.05676506	      1.39716559	      0.09585936	    -28.12002991	      5.05210508	      2.31279999	     40.37873091	      7.13044626	      5.82590086	    -37.15945770	     13.98507591	     50.69884790	     14.63899680	     86.05800324
      9.89000000	      5.74522109	   -178.59238535	      8.39026008	      0.05637215	      1.39742588	      0.09593172	    -28.11035752	      4.89686604	      2.19166165	     40.40787160	      6.93501851	      5.83595888	    -37.15599199	     13.83104242	     50.73225859	     14.66138556	     86.06599214
      9.90000000	      5.78768729	   -178.71319972	      8.54247584	      0.05620849	      1.39708885	      0.09596039	    -27.87859492	      4.85590131	      2.15310025	     39.89876312	      7.06366358	      5.42628998	    -36.86632530	     12.74638602	     52.41272254	     14.53988335	     86.43466438
      9.91000000	      5.83165218	   -178.69635575	      8.36907364	      0.05582186	      1.39736765	      0.09601606	    -27.86598897	      4.70926648	      2.03603982	     39.93293205	      6.87738793	      5.43293237	    -36.86092469	     12.60085096	     52.44476993	     14.56290238	     86.44195398
      9.92000000	      5.94235637	   -178.61126773	      8.40585102	      0.05563595	      1.39685555	      0.09609383	    -27.74260277	      4.73955214	      1.81637189	     40.09562246	      6.60837800	      5.37249154	    -36.79446110	     12.26648895	     52.64785552	     14.66019937	     86.48740528
      9.93000000	      6.02109070	   -178.82478282	      8.13261738	      0.05481334	      1.39692138	      0.09668791	    -28.08312160	      4.91164706	      3.24187151	     40.78289899	      5.91681014	      5.37480445	    -40.82379692	     12.53689257	     60.61893472	     14.40093458	     85.08601806
      9.94000000	      6.05503758	   -178.80264660	      7.97184909	      0.05449361	      1.39718501	      0.09668463	    -28.06081256	      4.77067940	      3.12823912	     40.80837830	      5.74237152	      5.37743181	    -40.82545216	     12.40052864	     60.61893472	     14.42551637	     85.09180558
      9.95000000	      5.84749081	   -178.82777430	      8.26889027	      0.05481148	      1.39717166	      0.09634275	    -27.39174077	      4.54300902	      2.77592645	     40.23405804	      5.88886560	      4.59533128	    -40.95518611	     11.31984181	     60.61893472	     14.64599703	     85.30694664
      9.96000000	      5.92280532	   -178.77721611	      8.19915930	      0.05457770	      1.39706489	      0.09639512	    -27.31125100	      4.50394956	      2.61901180	     40.33912427	      5.69126908	      4.55428041	    -40.89002517	     11.08269684	     60.61893472	     14.73976907	     85.35232305
      9.97000000	      5.87259419	   -178.89688586	      8.22856593	      0.05442429	      1.39716560	      0.09646490	    -27.09875965	      4.42007413	      2.54026282	     39.71117303	      5.92645993	      3.90099693	    -39.64174592	      9.97239785	     60.61893472	     14.78675475	     86.29960859
      9.98000000	      5.90598079	   -178.87712877	      8.07856010	      0.05411543	      1.39743100	      0.09645606	    -27.08146722	      4.29425316	      2.44545508	     39.74511788	      5.76956079	      3.91089885	    -39.62810314	      9.84799078	     60.61893472	     14.81572607	     86.30788299
      9.99000000	      5.83703038	   -178.90995180	      8.09047047	      0.05402992	      1.39723852	      0.09653544	    -26.94666043	      4.39598284	      2.39214895	     39.38104047	      5.85080085	      3.29355904	    -37.57508763	      8.89123405	     60.61893472	     14.72149726	     87.51533366
     10.00000000	      5.91904469	   -178.87169882	      8.03941196	      0.05382224	      1.39708779	      0.09658746	    -26.87176281	      4.36997083	      2.26490858	     39.49696925	      5.66726849	      3.27512929	    -37.49868586	      8.67080676	     60.61893472	     14.83880200	     87.54678695
     10.01000000	      5.94374727	   -178.87542296	      8.00739119	      0.05359061	      1.39691305	      0.09667751	    -26.78427546	      4.37750305	      2.12250289	     39.61493910	      5.50768458	      3.21123905	    -37.35254507	      8.38404928	     60.61893472	     15.01796202	     87.61028852
     10.02000000	      5.79690849	   -179.00640870	      7.97888734	      0.05352219	      1.39722128	      0.09661060	    -26.55760031	      4.32633729	      2.14684647	     38.90803957	      5.80241730	      2.49347083	    -35.16435097	      7.34823326	     60.61893472	     14.93212146	     88.61962472
     10.03000000	      5.89090376	   -178.96767570	      7.93653860	      0.05333418	      1.39703306	      0.09667185	    -26.48878981	      4.31529624	      2.04138942	     39.03000751	      5.63158741	      2.49009696	    -35.06810707	      7.13658499	     60.61893472	     15.06038192	     88.64648297
     10.04000000	      5.91346743	   -178.95315302	      7.81150841	      0.05305700	      1.39727848	      0.09668358	    -26.47346868	      4.20793750	      1.96599388	     39.05960937	      5.49955859	      2.50188993	    -35.04790062	      7.01961932	     60.61893472	     15.09581603	     88.65336518
     10.05000000	      5.96254508	   -178.91842740	      7.87622018	      0.05300876	      1.39668365	      0.09673157	    -26.31869128	      4.32815829	      1.79932048	     39.25892562	      5.32260737	      2.42544999	    -34.82779845	      6.65799599	     60.61893472	     15.36583751	     88.72647395
     10.06000000	      5.86905922	   -179.23889896	      7.84766876	      0.05278157	      1.39691297	      0.09684484	    -26.03079957	      4.28883903	      1.91769041	     38.28171254	      5.76419070	      1.72390055	    -32.03349311	      5.56175150	     60.61893472	     15.55929391	     89.70474133
     10.07000000	      5.88466859	   -179.21269817	      7.73281601	      0.05256658	      1.39714023	      0.09675899	    -26.00917616	      4.19085139	      1.85290097	     38.31868765	      5.64261708	      1.73966931	    -32.01208130	      5.45196520	     60.61893472	     15.58922128	     89.70988679
     10.08000000	      5.81680910	   -179.21416288	      7.66507447	      0.05243833	      1.39679757	      0.09690082	    -26.05023646	      4.47210583	      1.99331187	     38.27824904	      5.63368855	      1.37967585	    -29.41279337	      4.80979680	     60.61893472	     15.48994342	     90.17081030
     10.09000000	      5.83153194	   -179.19200541	      7.55892718	      0.05222357	      1.39700844	      0.09685749	    -26.02944997	      4.37739126	      1.93434728	     38.30787273	      5.51928072	      1.39629703	    -29.39477143	      4.70258301	     60.61893472	     15.52400612	     90.17359749
     10.10000000	      5.86842368	   -179.10766841	      7.62168291	      0.05228471	      1.39648672	      0.09677109	    -25.85936568	      4.48295813	      1.79915992	     38.49439248	      5.35792067	      1.34467931	    -29.24398632	      4.40587601	     60.61893472	     15.74640702	     90.19365757
     10.11000000	      5.76074762	   -179.18511707	      7.60514063	      0.05208201	      1.39628641	      0.09690067	    -25.74763067	      4.58574567	      1.68497005	     38.61267648	      5.28267518	      1.22790488	    -28.95939040	      4.07517599	     60.61893472	     16.07722680	     90.23650284
     10.12000000	      5.77518014	   -179.16891569	      7.49973699	      0.05187435	      1.39649246	      0.09690520	    -25.72815771	      4.49581910	      1.63279228	     38.63312672	      5.18440975	      1.23990648	    -28.93442124	      3.97772964	     60.61893472	     16.10986794	     90.24156432
     10.13000000	      5.68155012	   -179.35765675	      7.46701174	      0.05188041	      1.39656805	      0.09691416	    -25.56684155	      4.58016951	      3.25619185	     38.04575208	      4.76280673	     -0.46041361	    -23.21076432	      3.12107753	     60.61893472	     15.92953949	     85.74661798
     10.14000000	      5.69149497	   -179.33650291	      7.37694628	      0.05170134	      1.39673756	      0.09689498	    -25.54629827	      4.49991193	      3.20961385	     38.06911425	      4.66445574	     -0.44195216	    -23.19418944	      3.02334255	     60.61893472	     15.96353742	     85.75057601
     10.15000000	      5.71254213	   -179.25714862	      7.43941651	      0.05180702	      1.39622764	      0.09675057	    -25.37612364	      4.62166970	      3.11529466	     38.22430509	      4.53040835	     -0.46572872	    -23.06365658	      2.73458752	     60.61893472	     16.19148046	     85.78817754
     10.16000000	      5.71492337	   -179.24563473	      7.35139877	      0.05160214	      1.39640710	      0.09677432	    -25.36007024	      4.54630579	      3.07178024	     38.24432423	      4.44136753	     -0.45072670	    -23.04240357	      2.64025893	     60.61893472	     16.23034991	     85.79339522
     10.17000000	      5.63043885	   -179.57574690	      7.31474274	      0.05148753	      1.39613678	      0.09677608	    -24.93541299	      4.73193884	      3.20624223	     37.76145815	      4.68163692	     -0.78020609	    -21.47406003	      1.98099968	     60.61893472	     16.84153378	     86.26607386
     10.18000000	      5.63258414	   -179.55335377	      7.23482885	      0.05134705	      1.39628934	      0.09676510	    -24.91604867	      4.66080007	      3.16634448	     37.78810670	      4.59627426	     -0.76377076	    -21.45483315	      1.89636059	     60.61893472	     16.86945918	     86.27003812
     10.19000000	      5.59602818	   -179.45304489	      7.28313980	      0.05152340	      1.39589951	      0.09660652	    -24.75977670	      4.77376793	      3.07046391	     37.99818752	      4.48691398	     -0.80606670	    -21.28165085	      1.65926756	     60.61893472	     17.04583899	     86.31022329
     10.20000000	      5.59432481	   -179.44161196	      7.20652610	      0.05132407	      1.39607035	      0.09663843	    -24.74649257	      4.70658162	      3.03505080	     38.01875169	      4.41034583	     -0.79096999	    -21.25942280	      1.57779545	     60.61893472	     17.07907813	     86.31479411
     10.21000000	      5.40227329	   -179.64968957	      7.16035645	      0.05123772	      1.39605470	      0.09667294	    -24.57734990	      4.86511099	      3.28450622	     37.78283296	      4.56583872	     -1.10066515	    -18.66351111	      1.11467684	     60.61893472	     17.28570809	     86.77735094
     10.22000000	      5.40582640	   -179.63098717	      7.09364620	      0.05109596	      1.39619128	      0.09666345	    -24.56085218	      4.80237707	      3.25748304	     37.80286110	      4.49401262	     -1.07909854	    -18.64987119	      1.03954185	     60.61893472	     17.31570889	     86.77830301
     10.23000000	      5.43051122	   -179.56578450	      7.14903813	      0.05119193	      1.39578531	      0.09653119	    -24.43728929	      4.89357625	      3.22082165	     37.95401054	      4.41106490	     -1.07222987	    -18.53811043	      0.81313147	     60.61893472	     17.52576610	     86.78225242
     10.24000000	      5.43151241	   -179.55668244	      7.08425889	      0.05103697	      1.39591934	      0.09658952	    -24.42585956	      4.83687122	      3.19267221	     37.97088921	      4.34691740	     -1.05805804	    -18.52139132	      0.74199329	     60.61893472	     17.55808065	     86.78393744
     10.25000000	      5.40204370	   -179.55823242	      7.13469520	      0.05113408	      1.39547885	      0.09659696	    -24.29666459	      4.97441339	      3.15909273	     38.13569838	      4.32194207	     -1.09752439	    -18.32568694	      0.45905471	     60.61893472	     17.88084966	     86.80067167
     10.26000000	      5.39915580	   -179.55071295	      7.07090769	      0.05095633	      1.39564743	      0.09662139	    -24.28596386	      4.91822441	      3.13855171	     38.14808231	      4.26831447	     -1.08201343	    -18.30808527	      0.39566604	     60.61893472	     17.91082151	     86.80252325
     10.27000000	      5.38100103	   -179.80113579	      7.05627037	      0.05089548	      1.39565666	      0.09669166	    -24.07908619	      4.91242705	      3.40471745	     37.77757122	      4.58557409	     -1.36208253	    -16.58776454	     -0.08078897	     60.61893472	     18.37434971	     86.83417809
     10.28000000	      5.37715009	   -179.78376863	      7.00328264	      0.05081134	      1.39577540	      0.09670108	    -24.06430133	      4.86495882	      3.38516273	     37.79664636	      4.53142385	     -1.34491535	    -16.57545848	     -0.13691426	     60.61893472	     18.39525389	     86.83417749
     10.29000000	      5.35190754	   -179.70845020	      7.02892804	      0.05094983	      1.39552826	      0.09660592	    -23.95388543	      4.95029484	      3.34427445	     37.96036668	      4.46933342	     -1.35762104	    -16.46787501	     -0.29632197	     60.61893472	     18.52720923	     86.82791064
     10.30000000	      5.34488962	   -179.69978371	      6.98076764	      0.05082939	      1.39566259	      0.09662347	    -23.94494614	      4.90607140	      3.32942737	     37.97479285	      4.42329420	     -1.34089907	    -16.45482006	     -0.34880281	     60.61893472	     18.55145948	     86.82794628
     10.31000000	      5.33905032	   -179.68814516	      6.94001691	      0.05073358	      1.39577264	      0.09664022	    -23.93085815	      4.86930858	      3.31497234	     37.99409201	      4.37929672	     -1.32514435	    -16.43867025	     -0.40527159	     60.61893472	     18.58169689	     86.82842742
     10.32000000	      5.29086307	   -179.84699890	      6.83480601	      0.05078860	      1.39562999	      0.09694335	    -23.83003068	      5.02948767	      3.42096997	     38.21329222	      4.60729342	     -1.47623113	    -15.80969124	     -0.71539440	     60.61893472	     19.09041751	     86.76324286
     10.33000000	      5.28602678	   -179.83343288	      6.80129823	      0.05071349	      1.39574560	      0.09693579	    -23.81992873	      4.99027125	      3.41132791	     38.22233083	      4.56534823	     -1.45627177	    -15.79910190	     -0.75992200	     60.61893472	     19.10744469	     86.76285434
     10.34000000	      5.29150332	   -179.77773656	      6.90042178	      0.05077279	      1.39543847	      0.09682846	    -23.75192380	      5.03307603	      3.39602776	     38.29265477	      4.48997385	     -1.43328593	    -15.68707373	     -0.91238710	     60.61893472	     19.21793966	     86.75265432
     10.35000000	      5.28668362	   -179.77067339	      6.86681767	      0.05070025	      1.39555215	      0.09685307	    -23.74539251	      4.99826704	      3.38711564	     38.30082929	      4.45657163	     -1.41916358	    -15.67508816	     -0.95155900	     60.61893472	     19.23613077	     86.75210795
     10.36000000	      5.28220603	   -179.76119035	      6.83960566	      0.05064076	      1.39564983	      0.09686756	    -23.73515099	      4.96896889	      3.37974627	     38.31267906	      4.42567754	     -1.40494620	    -15.66105955	     -0.99295443	     60.61893472	     19.25885611	     86.75176080
     10.37000000	      5.29852871	   -179.82230317	      6.98167746	      0.05071055	      1.39556572	      0.09696364	    -23.78565473	      4.85687756	      3.67854364	     38.20834944	      4.59248829	     -1.59955824	    -13.93735542	     -1.26351224	     60.61853595	     19.50530872	     86.28073234
     10.38000000	      5.29117629	   -179.81129675	      6.95242743	      0.05068881	      1.39567169	      0.09695449	    -23.77561437	      4.83117495	      3.67423042	     38.22007336	      4.56441732	     -1.58369190	    -13.93263757	     -1.29426110	     60.61893472	     19.51951111	     86.27783056
     10.39000000	      5.28676185	   -179.80027195	      6.92997414	      0.05066374	      1.39575634	      0.09696459	    -23.76434884	      4.81202354	      3.66919195	     38.23417933	      4.53913438	     -1.57075110	    -13.92674274	     -1.32485780	     60.61893472	     19.53631015	     86.27519874
     10.40000000	      5.28318366	   -179.78813344	      6.91187434	      0.05063832	      1.39583449	      0.09697017	    -23.75101623	      4.79661059	      3.66465490	     38.25171039	      4.51495556	     -1.55792355	    -13.91948789	     -1.35761751	     60.61893472	     19.55725759	     86.27248277
     10.41000000	      5.28740834	   -179.74809088	      6.97270776	      0.05082773	      1.39551301	      0.09693236	    -23.67102200	      4.89404633	      3.66144220	     38.40912092	      4.49099095	     -1.55065059	    -13.86029918	     -1.48364677	     60.61893472	     19.72161504	     86.23890744
     10.42000000	      5.28151806	   -179.74741244	      6.95165477	      0.05078974	      1.39562113	      0.09696361	    -23.66998726	      4.87427458	      3.65959023	     38.41671813	      4.47442813	     -1.54045619	    -13.85629860	     -1.50418959	     60.61893472	     19.73554205	     86.23627404
     10.43000000	      5.27661460	   -179.74563337	      6.93475707	      0.05076078	      1.39570795	      0.09698706	    -23.66739251	      4.85782451	      3.65892556	     38.42704668	      4.45995654	     -1.53030865	    -13.85148135	     -1.52505819	     60.61893472	     19.75227382	     86.23349528
     10.44000000	      5.27325268	   -179.74360122	      6.92248770	      0.05073226	      1.39578624	      0.09700490	    -23.66365679	      4.84537006	      3.65945046	     38.44193220	      4.44791754	     -1.52056399	    -13.84514289	     -1.54705334	     60.61893472	     19.77414895	     86.22999858
