Simulation
nRows=79
nColumns=15
endheader
time  TH_x TH_y TH_z SC_y  SC_z  SC_x  AC_y  AC_z  AC_x  GH_y  GH_z  GH_yy  EL_x  PS_y
0.0  0.000000  0.000000  0.000000  -27.1797578126151  4.113237634951137  -1.6581312300915774  40.485373020099615  8.533351314086943  2.2479011357986107  152.6050081967615  3.5177403537371226  -105.87462429351044  20.526943809470932  120.000000
0.040769230769230766  0.000000  0.000000  0.000000  -26.54987805446698  4.531376216191093  -1.6225176967175035  40.13595322959665  8.784721650871365  2.256504503710318  157.73744346201445  3.2648285026710293  -111.04276369315907  20.7398671564193  120.000000
0.08153846153846153  0.000000  0.000000  0.000000  -26.003142892143305  4.7709319789416265  -1.5740883139639281  39.84337721247627  8.900579440202895  2.2540293002278884  161.99555416995446  3.1637516687811997  -115.30345100056832  20.95475536107854  120.000000
0.1223076923076923  0.000000  0.000000  0.000000  -25.5562679282778  4.905561514849049  -1.5194400935100785  39.63739798344224  8.92226840390017  2.2188934594715275  164.2774558257785  3.189728461509162  -117.56438296335692  21.147787636000746  120.000000
0.16307692307692306  0.000000  0.000000  0.000000  -25.224219451386467  4.9794924070040265  -1.4626968677095062  39.506685126543005  8.880513579886676  2.1488811939477213  164.61001907973417  3.3046608897972023  -117.88176524020702  21.288610396678642  120.000000
0.20384615384615384  0.000000  0.000000  0.000000  -24.99274422728627  5.017217660404493  -1.4065407173797155  39.42634985595839  8.796218753310633  2.061809990199445  163.8203641944957  3.4625701739413444  -117.10794901117366  21.344455524067605  120.000000
0.2446153846153846  0.000000  0.000000  0.000000  -24.837566513557313  5.029237261603273  -1.3540903789347203  39.37864040548551  8.681458498477355  1.9730418232782485  162.54883060178756  3.619111699617954  -115.91451366292115  21.29195040918251  120.000000
0.28538461538461535  0.000000  0.000000  0.000000  -24.733576492744483  5.021682614361033  -1.3086410503385966  39.362529156393535  8.539594364460585  1.8929240869652  161.06081012989117  3.7302781475674873  -114.59234107505418  21.115025471377887  120.000000
0.3261538461538461  0.000000  0.000000  0.000000  -24.658549444575076  5.000243319360071  -1.2727424413622734  39.37267182751935  8.368579708372584  1.8304845776776095  159.43454917786065  3.7551256188957955  -113.24299758112524  20.803897070864465  120.000000
0.3669230769230769  0.000000  0.000000  0.000000  -24.601239184303186  4.973728105967178  -1.248882607233737  39.404277632564096  8.165902895788996  1.790894627266351  157.55495887624653  3.656173916605325  -111.77368179721236  20.35302303024161  120.000000
0.4076923076923077  0.000000  0.000000  0.000000  -24.56063563994961  4.955242092846918  -1.237985023898218  39.45045361489297  7.931585675887653  1.7773846521336611  155.1652948471759  3.4009704925906985  -109.95330380851223  19.764887262366027  120.000000
0.4484615384615384  0.000000  0.000000  0.000000  -24.545958926184003  4.958874063509801  -1.2407329064428467  39.50647472564319  7.670531761530624  1.7982424761403204  151.7686529436351  2.9616995352094264  -107.31877607563929  19.05211985424336  120.000000
0.4892307692307692  0.000000  0.000000  0.000000  -24.574009732352913  4.994913750013342  -1.255970821082072  39.58040871389186  7.394340646377961  1.8684340677029878  146.10212226516524  2.3174874120076336  -102.65696370149142  18.242480588385618  120.000000
0.5299999999999999  0.000000  0.000000  0.000000  -24.668214300628556  5.063603405448401  -1.2733551493987307  39.69728334241193  7.118561412373905  2.004584703961025  133.21474079838353  1.470512611616865  -91.08623786196195  17.38373128822331  120.000000
0.5707692307692307  0.000000  0.000000  0.000000  -24.857020865293666  5.154060561208824  -1.273015228929339  39.89932540197472  6.862682730418747  2.220514069205107  77.21779854333472  0.7144048772808165  -36.802715044545295  16.54478240137988  120.000000
0.6115384615384615  0.000000  0.000000  0.000000  -25.168074785942267  5.249158473136715  -1.2307254136314745  40.23226877470975  6.648623489317551  2.525498938042952  4.292443384742995  1.5815436008267734  33.93036275177904  15.809635885584537  120.000000
0.6523076923076923  0.000000  0.000000  0.000000  -25.619668720370882  5.332520576220968  -1.1244019579152038  40.73002449758374  6.499358836601387  2.91987952073811  -12.34501736953859  3.310918695317644  47.84353251600584  15.259071534883708  120.000000
0.693076923076923  0.000000  0.000000  0.000000  -26.211022565740002  5.396373244954998  -0.9413775333443122  41.399172238335034  6.4359591573173285  3.3937473587643296  -19.563009718738193  5.397753487974977  51.81344697793893  14.945866037848926  120.000000
0.7338461538461538  0.000000  0.000000  0.000000  -26.919620272107704  5.445235331578186  -0.6822906352538007  42.2129092393809  6.476089622971826  3.927314527818404  -24.17563470354864  7.742727134892382  52.741888137135916  14.874680357751881  120.000000
0.7746153846153846  0.000000  0.000000  0.000000  -27.709159005436494  5.493007704043936  -0.35942999672412645  43.11531883208563  6.6321474964093206  4.494399587854619  -27.580901255953886  10.25434537426256  52.189762801329884  15.000590383448666  120.000000
0.8153846153846154  0.000000  0.000000  0.000000  -28.54202094076788  5.557227409663984  0.009673052986848304  44.03776454481263  6.90845863833307  5.066823927970705  -30.179055036726155  12.835822343781878  50.762048428570715  15.248355970854131  120.000000
0.856153846153846  0.000000  0.000000  0.000000  -29.38762850997863  5.653455438664254  0.40899504188775465  44.91649500744967  7.297439508270527  5.620441919615622  -32.11063309858525  15.399920403007815  48.79885210794204  15.540359637169809  120.000000
0.8969230769230768  0.000000  0.000000  0.000000  -30.22066961306175  5.7920963934145515  0.8270803222516891  45.70552745424814  7.779282891353973  6.139873311105482  -33.46828045875882  17.88281938797288  46.54701748204859  15.819324415267227  120.000000
0.9376923076923076  0.000000  0.000000  0.000000  -31.016964086032356  5.977897490338305  1.256839329839407  46.38103070005214  8.324488597813755  6.619983938830282  -34.365001369694376  20.250618902788812  44.20822005834526  16.057884457468184  120.000000
0.9784615384615384  0.000000  0.000000  0.000000  -31.755276438644092  6.210733587324026  1.6943301754173694  46.94101724156803  8.899796897523442  7.06358160165519  -34.93868645333363  22.49550417954397  41.941615492984354  16.25463325374248  120.000000
1.0192307692307692  0.000000  0.000000  0.000000  -32.42347485603855  6.487208417928504  2.139319430168284  47.39999324522186  9.475607303270037  7.479010764587857  -35.333364785271556  24.624906802354378  39.856202224105495  16.424936040192296  120.000000
1.0599999999999998  0.000000  0.000000  0.000000  -33.02713120081643  6.799567304703874  2.5970383532939705  47.78414276612044  10.0330215275012  7.875909602195728  -35.669411105208646  26.650354866154082  37.99416691867098  16.592960442230467  120.000000
1.1007692307692307  0.000000  0.000000  0.000000  -33.59294345357453  7.133846460143029  3.079774602268262  48.127308256485655  10.568154621069963  8.261441713147654  -36.02596113028559  28.581205998913276  36.32996849964275  16.785957188512263  120.000000
1.1415384615384614  0.000000  0.000000  0.000000  -34.16109202873904  7.471321870548863  3.6054525251306764  48.46633929669962  11.090128808840598  8.63926796789958  -36.44284379415913  30.42457200163368  34.789698838759065  17.0299437039479  120.000000
1.1823076923076923  0.000000  0.000000  0.000000  -34.773663492818386  7.790325035628816  4.194457568490249  48.83666352703573  11.616488566067655  9.009876655336878  -36.9321916913547  32.18791121089026  33.28120776891396  17.346197630640404  120.000000
1.223076923076923  0.000000  0.000000  0.000000  -35.46247760618133  8.069225939207257  4.86438371017699  49.26761102300298  12.16696179881544  9.371383364804235  -37.490831681498186  33.88093954288065  31.72254064824602  17.74927867346642  120.000000
1.2638461538461538  0.000000  0.000000  0.000000  -36.240938520547225  8.290055028370434  5.625242040875202  49.777506127060995  12.758001252709631  9.720998462202552  -38.10884178014236  35.51394062075033  30.062898227376824  18.245783101908025  120.000000
1.3046153846153845  0.000000  0.000000  0.000000  -37.10035416236216  8.442062681575768  6.475406210680986  50.3689470974055  13.398704798593458  10.055975867245584  -38.77269682434163  37.09368140996542  28.292991818879404  18.83259714518847  120.000000
1.3453846153846152  0.000000  0.000000  0.000000  -38.00855204246062  8.52546888209308  7.399365981771914  51.02460483656232  14.088151484951924  10.374410716072196  -39.46717662191945  38.61980198215296  26.451069847384705  19.492380353802563  120.000000
1.386153846153846  0.000000  0.000000  0.000000  -38.91452498427845  8.551557475866051  8.368709242108418  51.70829507672121  14.815424495567061  10.675507903304778  -40.17545723535572  40.08435823417076  24.62092071898016  20.188075237231185  120.000000
1.4269230769230767  0.000000  0.000000  0.000000  -39.7585954421442  8.540539554348198  9.345816652915465  52.36963258097453  15.560432141081126  10.959832080884542  -40.876245347220205  41.47375135370142  22.91585747208888  20.86374078399812  120.000000
1.4676923076923076  0.000000  0.000000  0.000000  -40.48558948707103  8.517554298776519  10.289915730581404  52.95346013403928  16.29621603362469  11.228887961808248  -41.54505470532606  42.77083211091183  21.452519868211322  21.456026556266153  120.000000
1.5084615384615383  0.000000  0.000000  0.000000  -41.05929452280338  8.504700634075801  11.165354093537449  53.41419121045984  16.994248630985236  11.483183704862132  -42.15831648119824  43.95536204170441  20.319814262761774  21.91327351086041  120.000000
1.5492307692307692  0.000000  0.000000  0.000000  -41.4702433938042  8.513945318875425  11.947904284634207  53.72805344831358  17.629860868290557  11.720083393056356  -42.699687902986824  45.003215794022886  19.554211936093346  22.214731865408517  120.000000
1.5899999999999999  0.000000  0.000000  0.000000  -41.733180206122974  8.54431851029632  12.626730849743705  53.897606830344145  18.186528295977922  11.9326774073881  -43.16505792047465  45.88670600771105  19.133663298642126  22.377698760011935  120.000000
1.6307692307692307  0.000000  0.000000  0.000000  -41.87737619217384  8.584384253192988  13.201833487905674  53.9476908947759  18.656912730395057  12.110958159136167  -43.562224695025854  46.57846265522703  18.992539682170605  22.446839865825673  120.000000
1.6715384615384614  0.000000  0.000000  0.000000  -41.93562700519576  8.617932312982244  13.678617641913076  53.9160706594877  19.040947860778502  12.244078473268894  -43.9048171395992  47.056879678067205  19.048918538518322  22.472536115565607  120.000000
1.712307692307692  0.000000  0.000000  0.000000  -41.936908058330346  8.629010905562833  14.062314006554022  53.84363604680641  19.34213386226851  12.322335002919687  -44.203354850117826  47.310430208274134  19.231133592981415  22.490149954327467  120.000000
1.753076923076923  0.000000  0.000000  0.000000  -41.90336706635386  8.60567813278402  14.353814146626572  53.76678027312157  19.56346725711131  12.337909222614252  -44.45746950976518  47.33802656802822  19.4920694370069  22.509559943956287  120.000000
1.7938461538461536  0.000000  0.000000  0.000000  -41.850041313933055  8.542126562622453  14.548370451962919  53.71186366484265  19.70463554008707  12.28548706032134  -44.653735134637245  47.14587921919176  19.808882515879066  22.51857477977494  120.000000
1.8346153846153845  0.000000  0.000000  0.000000  -41.78522725124455  8.439684578840197  14.636353151507532  53.691598020449334  19.76062737399242  12.1626625377329  -44.76825985486704  46.74273247236979  20.17097543147069  22.495289973897673  120.000000
1.8753846153846152  0.000000  0.000000  0.000000  -41.71037455914316  8.30693329974833  14.605519020258184  53.70234039392627  19.72148932117927  11.971071185621357  -44.771700902510396  46.13607174751174  20.566634739966567  22.421163788513006  120.000000
1.916153846153846  0.000000  0.000000  0.000000  -41.61943322251688  8.15856604170033  14.443639190525996  53.72418431624217  19.573255249727204  11.716888497145373  -44.63457298765094  45.33085066032715  20.97438314739552  22.288710969910014  120.000000
1.9569230769230768  0.000000  0.000000  0.000000  -41.498850387042275  8.012448782051557  14.141882247030512  53.724393357092026  19.3005592305372  11.410747428050302  -44.332296143011305  44.33070682793089  21.36433828560089  22.101883507746393  120.000000
1.9976923076923074  0.000000  0.000000  0.000000  -41.329160919366466  7.885303959756362  13.698144487406118  53.665057519710864  18.89107115310754  11.066003140239475  -43.8502078943132  43.13991934052276  21.706727076499856  21.871171963852237  120.000000
2.0384615384615383  0.000000  0.000000  0.000000  -41.08775960808566  7.788418319163183  13.119123760497443  53.51212062999175  18.3400617683284  10.696103876560498  -43.18743291518773  41.76525838905497  21.98274254735354  21.607174479943176  120.000000
2.079230769230769  0.000000  0.000000  0.000000  -40.75302759191766  7.724920733834373  12.420362081996489  53.243520615843586  17.653854509298235  10.311762701679124  -42.358936910825065  40.21611440230972  22.193052906478535  21.316259035714648  120.000000
2.1199999999999997  0.000000  0.000000  0.000000  -40.30965415080483  7.689075415834167  11.6229218380768  52.85297870086111  16.84953621426903  9.91958051944966  -41.39016098766264  38.50473214445775  22.35801233375587  20.999074912556683  120.000000
2.1607692307692306  0.000000  0.000000  0.000000  -39.75191022660077  7.6679720489832155  10.749081564720653  52.347908100052436  15.952499897270853  9.52176422616602  -40.310056110617026  36.64606817666055  22.51501432622239  20.65102607896366  120.000000
2.2015384615384614  0.000000  0.000000  0.000000  -39.08632261914654  7.64320061667272  9.820046707927636  51.746201220506435  14.99389325856434  9.116921256399516  -39.14495891134358  34.65778384143441  22.71525214881025  20.262802359029443  120.000000
2.2423076923076923  0.000000  0.000000  0.000000  -38.33346667806689  7.592497792867049  8.855786547919337  51.073018764520484  14.008357418044374  8.701961108530352  -37.91348681914184  32.5599020136219  23.018087795238618  19.82201175888185  120.000000
2.283076923076923  0.000000  0.000000  0.000000  -37.52341244308033  7.494847793074502  7.874406947856008  50.35578374354221  13.030638243655515  8.275385032834063  -36.62885314971267  30.375386055708436  23.488110437108194  19.31693357424426  120.000000
2.3238461538461537  0.000000  0.000000  0.000000  -36.68892293666347  7.336019033096006  6.892272504764969  49.62207142603951  12.092511534995428  7.84078012691659  -35.309859499589365  28.131043789885577  24.196971131443306  18.741114726829736  120.000000
2.3646153846153846  0.000000  0.000000  0.000000  -35.85967530927943  7.110955206291336  5.924795812266445  48.89970151947759  11.221268436235537  7.408065863520606  -33.99453687579112  25.857863225836425  25.225387314136444  18.099411182913332  120.000000
2.405384615384615  0.000000  0.000000  0.000000  -35.05764276357234  6.823836597447023  4.986665389476015  48.21591708845725  10.438898832307943  6.99208210949328  -32.75094670705747  23.590089737001282  26.66511797770071  17.41252618100177  120.000000
2.446153846153846  0.000000  0.000000  0.000000  -34.29443797595105  6.487255007753474  4.0911253161228105  47.59335718914143  9.761104813867325  6.609253506783075  -31.67574509438684  21.3617482558007  28.61190490769489  16.7158674974812  120.000000
2.486923076923077  0.000000  0.000000  0.000000  -33.57139590973792  6.119507276846734  3.2480669868730776  47.04324660063152  9.196961384581142  6.27172851150578  -30.869003703718818  19.20123509614878  31.135751601286497  16.052484804646753  120.000000
2.5276923076923077  0.000000  0.000000  0.000000  -32.882195348175124  5.741571826986457  2.4616838591852135  46.55733790248847  8.748993198527671  5.981404449593151  -30.388875585492404  17.125820665698384  34.234299395021715  15.465749804034715  120.000000
2.568461538461538  0.000000  0.000000  0.000000  -32.216247555638866  5.376790115977297  1.7282873980360498  46.102261644890454  8.41216718313154  5.7282896959836735  -30.202983241825965  15.137253497855587  37.786520069356335  14.994346389266594  120.000000
2.609230769230769  0.000000  0.000000  0.000000  -31.564073467141757  5.04884877616308  1.0374819558294004  45.622936839004346  8.1747547345584  5.491914086635679  -30.159675408667855  13.221877817471476  41.53464487488118  14.670292736362784  120.000000
2.65  0.000000  0.000000  0.000000  -30.919181153732055  4.779123263759419  0.3738078535433072  45.057736011644465  8.02244545247464  5.248690434144481  -30.000423822821034  11.35853502323849  45.11612601353464  14.518169442234218  120.000000
2.6907692307692304  0.000000  0.000000  0.000000  -30.274454496701484  4.584418150866771  -0.278301909623535  44.36126738480046  7.943074622811791  4.983451796480585  -29.415644275576664  9.531959405286523  48.143713352816995  14.54986279011238  120.000000
2.7315384615384612  0.000000  0.000000  0.000000  -29.62051125446948  4.471794761746159  -0.9235295117010657  43.527334042089244  7.928510423953213  4.695116443290727  -28.10893581381368  7.747938126605371  50.28846847680882  14.759535045397474  120.000000
2.772307692307692  0.000000  0.000000  0.000000  -28.946756355473354  4.436765342598698  -1.550866622023735  42.598443992609205  7.975900149350744  4.398135286766963  -25.831307687982545  6.038319766428094  51.31392055592779  15.122893076426264  120.000000
2.813076923076923  0.000000  0.000000  0.000000  -28.245887759961587  4.464912947163986  -2.1363300340486413  41.65466469034601  8.08786651836107  4.118744958707679  -22.36671884085577  4.451077924249501  51.04041013620141  15.602909156825255  120.000000
2.8538461538461535  0.000000  0.000000  0.000000  -27.52199914928774  4.53429634677972  -2.6501910446931456  40.78857612854463  8.26956096950211  3.8846879442118953  -17.380859560390018  3.0317206772844902  49.161096102368425  16.15887488792033  120.000000
2.8946153846153844  0.000000  0.000000  0.000000  -26.794579919047592  4.620722945260675  -3.0682315185317997  40.074794777416244  8.521679946925738  3.7151925376026536  -9.66384321546333  1.8071554393312874  44.454206767577574  16.752773967336058  120.000000
2.9353846153846153  0.000000  0.000000  0.000000  -26.09747197826291  4.7013061441890835  -3.3817085587835165  39.550780694347054  8.836952550164566  3.6140593973595445  8.555515353534567  0.7961416684324779  29.085757160141018  17.35236486688354  120.000000
2.9761538461538457  0.000000  0.000000  0.000000  -25.472715383199493  4.754880316296402  -3.6028445675281153  39.21285763553764  9.200426212861883  3.5686645899274074  103.70130995543273  0.41685582495985324  -63.46990068718637  17.930672881450935  120.000000
3.0169230769230766  0.000000  0.000000  0.000000  -24.961447456304082  4.759732183698565  -3.7624101779511614  39.02627001277004  9.591227590849176  3.5549757097031365  145.1682946991927  1.1016498998390765  -102.71915774322164  18.46525948332215  120.000000
3.0576923076923075  0.000000  0.000000  0.000000  -24.597402746928495  4.691326985747863  -3.903602137731716  38.944012689409256  9.985680317481997  3.545481092144653  152.27324909714386  1.890129906535004  -108.06408840771141  18.94278722949066  120.000000
3.0984615384615384  0.000000  0.000000  0.000000  -24.394022632790907  4.521031182626105  -4.073663769322413  38.927458739539496  10.360853619522567  3.5183927895580327  153.2090132150386  2.7534297225405218  -107.72249261998734  19.368012538673376  120.000000
3.139230769230769  0.000000  0.000000  0.000000  -24.328595363395454  4.210502829665898  -4.306842590508726  38.954505419272536  10.695816167126688  3.4669193298490963  151.932445720442  3.7438483019419375  -105.58584670055248  19.75891138250569  120.000000
3.1799999999999997  0.000000  0.000000  0.000000  -24.361315100272876  3.714495159996183  -4.608495409301985  39.011504372634  10.974949812736703  3.3987882045639672  150.17734203663983  4.877322739049424  -103.24626626353916  20.140700462019883  120.000000
