Simulation
nRows=101
nColumns=15
endheader
time  TH_x TH_y TH_z SC_y  SC_z  SC_x  AC_y  AC_z  AC_x  GH_y  GH_z  GH_yy  EL_x  PS_y
0.0  0.000000  0.000000  0.000000  -36.95552698708298  0.711373286167975  -0.1664174427277454  46.08285878659731  4.329543688845086  -0.30047814798775774  42.31220505041443  5.476594693821097  -26.887904838195983  21.62856437912398  120.000000
0.03200000000000003  0.000000  0.000000  0.000000  -36.97522794170822  0.9455740749483287  -0.03858882189217479  45.66826675078394  4.643876988103103  -0.5282877999443099  42.49465000566352  5.258245323908455  -27.263081306668628  21.291176637756305  120.000000
0.06400000000000006  0.000000  0.000000  0.000000  -36.98079683479445  1.0836035631531682  0.035998927112342656  45.31273414354187  4.8812035955626065  -0.7381764072230135  42.697710100768845  5.032334736008723  -27.636207267026467  20.992241699395993  120.000000
0.09600000000000009  0.000000  0.000000  0.000000  -36.974440175214525  1.152145375703751  0.0611665541656615  45.03573761045523  5.034877821717254  -0.9102066850887874  42.91915842821737  4.8280488894176905  -28.026298728231154  20.74524664157396  120.000000
0.1280000000000001  0.000000  0.000000  0.000000  -36.96993035421011  1.1620647429800193  0.04766016974848425  44.84789531298967  5.113256509258817  -1.0310298705339211  43.15571680110671  4.680491483797852  -28.455037848869043  20.556072074869505  120.000000
0.16000000000000014  0.000000  0.000000  0.000000  -36.972725524140365  1.123858224666957  0.0072250098218718545  44.75722626480341  5.13145954156972  -1.0931841504722672  43.409869100337204  4.620839067146467  -28.93912117743859  20.428628599774274  120.000000
0.19200000000000017  0.000000  0.000000  0.000000  -36.97885778945785  1.0528355800556146  -0.05018840586104431  44.76805441855526  5.106861621834863  -1.0934403118727816  43.696938042985835  4.66833419492355  -29.48229218873242  20.369133443762657  120.000000
0.2240000000000002  0.000000  0.000000  0.000000  -36.98179986357352  0.9626835099388322  -0.1155250873530152  44.875422593546894  5.056730999439584  -1.0298703546088288  44.03951785587867  4.830995983923001  -30.081617245985804  20.380863674138904  120.000000
0.2560000000000002  0.000000  0.000000  0.000000  -36.976251050105844  0.8611627593533028  -0.18074719101725922  45.07323764274993  4.9978774189080575  -0.9036167143024351  44.46162425536273  5.113095556750921  -30.734096370190375  20.459665768836725  120.000000
0.28800000000000026  0.000000  0.000000  0.000000  -36.96042737331187  0.7514022603316101  -0.23821854163766443  45.354647851233665  4.94545923439737  -0.7181334353681565  44.986405970511164  5.519097524839204  -31.439793688624846  20.594054603371013  120.000000
0.3200000000000003  0.000000  0.000000  0.000000  -36.93654444376967  0.635150726527062  -0.28046012748368865  45.711223676089595  4.910821885907099  -0.47842236191477366  45.631864959585435  6.0554505021798715  -32.20625080446764  20.766926946495587  120.000000
0.3520000000000003  0.000000  0.000000  0.000000  -36.90774290453172  0.517299088168255  -0.3013825531361136  46.12841017260219  4.901597737385277  -0.19193369024950752  46.41153336655548  6.728712330593337  -33.04700595866408  20.961657782128487  120.000000
0.38400000000000034  0.000000  0.000000  0.000000  -36.87405732518098  0.40942009830689813  -0.29904800756503824  46.5862085708097  4.9227258061544585  0.12897253485555865  47.33390903470953  7.543914365217477  -33.980572533981906  21.168834616495413  120.000000
0.41600000000000037  0.000000  0.000000  0.000000  -36.83362515228758  0.3293615771397894  -0.27702467190076935  47.05922438973535  4.975598084883411  0.46974819979321586  48.40185389292318  8.504705369274951  -35.029319677805205  21.38455497815942  120.000000
0.4480000000000004  0.000000  0.000000  0.000000  -36.78583211844118  0.2943639373982647  -0.24394765227047155  47.5214895014016  5.0561020486027015  0.8183630540301534  49.60823425305355  9.615949416122646  -36.22166963821387  21.60321981108597  120.000000
0.4800000000000004  0.000000  0.000000  0.000000  -36.73136546144971  0.3120226121423551  -0.21140520433149776  47.953861983679275  5.15290479347945  1.1689833215551533  50.93291414985232  10.88615767240351  -37.591629453172054  21.81270259854394  120.000000
0.5120000000000005  0.000000  0.000000  0.000000  -36.669676478788936  0.37820602608238213  -0.1897477538304322  48.3494783786092  5.246357290293929  1.5259244016714386  52.343420327542425  12.324468650337899  -39.17234677898729  21.99502801692512  120.000000
0.5440000000000005  0.000000  0.000000  0.000000  -36.596775421255266  0.48245410434450636  -0.18366064843159627  48.711777829308026  5.31382211474939  1.9025601118708872  53.79995681333012  13.931835187113975  -40.98260993336166  22.133672531956222  120.000000
0.5760000000000005  0.000000  0.000000  0.000000  -36.506394098193844  0.6156918980296385  -0.18886709574673066  49.05031486416178  5.343012178825418  2.3123358456072247  55.26273617360378  15.692286929449377  -43.01059164036075  22.22320509245151  120.000000
0.6080000000000005  0.000000  0.000000  0.000000  -36.39462479457452  0.7772317912000897  -0.19163222082448417  49.37876428042218  5.342790198844001  2.7591031880975394  56.69791238754249  17.572876805926263  -45.20453889302761  22.27342049508252  120.000000
0.6400000000000006  0.000000  0.000000  0.000000  -36.26586740814455  0.9776344485487386  -0.1707540290156661  49.709962340588405  5.343582741733655  3.2360770648566843  58.08084417374546  19.529413395263127  -47.476418843019914  22.30602416147564  120.000000
0.6720000000000006  0.000000  0.000000  0.000000  -36.137021104938846  1.2344740016060913  -0.10200239680647245  50.05046590465562  5.3861968046204804  3.732880860143183  59.39593274166775  21.516279986392497  -49.720410912862384  22.344522143391224  120.000000
0.7040000000000006  0.000000  0.000000  0.000000  -36.03543914199056  1.5617710178817976  0.03441008894544848  50.400220037081596  5.505311834525611  4.243402157138731  60.63290761429102  23.499723059824976  -51.84233340113127  22.402031716401446  120.000000
0.7360000000000007  0.000000  0.000000  0.000000  -35.98965235212843  1.9616354315926943  0.24716218881092586  50.757546571443065  5.7169799873869875  4.768260975979361  61.78277090769742  25.467582226589787  -53.78659684978234  22.47421520750361  120.000000
0.7680000000000007  0.000000  0.000000  0.000000  -36.02030207162275  2.4266481343384467  0.5318225830311227  51.12371015778101  6.016438533946555  5.313828251192982  62.83792868677535  27.42827066220753  -55.54648656069797  22.540690429046514  120.000000
0.8000000000000007  0.000000  0.000000  0.000000  -36.13687254467758  2.947282946656564  0.8750033410700943  51.50299708637792  6.385013592763853  5.889490393491329  63.7946489266993  29.40127896063552  -57.156054937717485  22.57319305354504  120.000000
0.8320000000000007  0.000000  0.000000  0.000000  -36.337328114116175  3.514580751504361  1.26045131251254  51.899888756074766  6.801911505941607  6.505125126378155  64.6551579862371  31.405754034904493  -58.67097433561986  22.54546637972905  120.000000
0.8640000000000008  0.000000  0.000000  0.000000  -36.60945438179669  4.12036372259232  1.6739848988849972  52.31710449538231  7.253599475750034  7.168953846839693  65.42820028313601  33.452579821348635  -60.145548691020714  22.44123839625156  120.000000
0.8960000000000008  0.000000  0.000000  0.000000  -36.9365606442494  4.759388527023632  2.109025903716822  52.7533548932453  7.7355898497921  7.884343135044904  66.12848380861995  35.54007405573034  -61.61384878203689  22.25938318885765  120.000000
0.9280000000000008  0.000000  0.000000  0.000000  -37.30416621611083  5.429129188616682  2.567187471023802  53.20112708646981  8.251299816799646  8.648278522634575  66.7724104464706  37.65400168127117  -63.08199474085247  22.013409008640902  120.000000
0.9600000000000009  0.000000  0.000000  0.000000  -37.70427766092242  6.127461740501553  3.0556181796857107  53.64765669810144  8.807889590667399  9.451634057622258  67.37277976307313  39.77250619004001  -64.53208877721839  21.725438854721393  120.000000
0.9920000000000009  0.000000  0.000000  0.000000  -38.13638190323675  6.851452297651229  3.585122389586315  54.077522865237654  9.409859507724171  10.281370432833448  67.93676177031172  41.8710644442585  -65.93190847297666  21.419487213872408  120.000000
1.024000000000001  0.000000  0.000000  0.000000  -38.603581333252244  7.594267929955191  4.168303701885037  54.47591373741736  10.055352234848645  11.121475138673834  68.46564262692179  43.927425587776  -67.24632449950806  21.11485243279699  120.000000
1.056000000000001  0.000000  0.000000  0.000000  -39.10860742179624  8.343593272821108  4.819020937299176  54.83190091692429  10.734490590855522  11.953209815151748  68.95678118379585  45.925087369229935  -68.44715333507314  20.822903318177367  120.000000
1.088000000000001  0.000000  0.000000  0.000000  -39.65264614050056  9.084326658749658  5.552544917590549  55.13879949264422  11.429112707209967  12.756482076992656  69.40719560334522  47.853856094775324  -69.5182227371745  20.547077114785928  120.000000
1.120000000000001  0.000000  0.000000  0.000000  -40.23399598645134  9.801075733176942  6.386428740553626  55.3921851120971  12.114410206020976  13.510008879457628  69.81567310687034  49.70808548071662  -70.45657795229641  20.282716945313805  120.000000
1.152000000000001  0.000000  0.000000  0.000000  -40.84722184797945  10.480445654005456  7.339436781856944  55.58789625223554  12.761532543827524  14.192014781590549  70.18370513850167  51.484013528831646  -71.27092263642272  20.02128440444127  120.000000
1.184000000000001  0.000000  0.000000  0.000000  -41.48436301544134  11.11272510501668  8.430539013167852  55.721914049495325  13.338532081468015  14.78116356616411  70.5160036036061  53.17831760664019  -71.9785865046637  19.75661339767572  120.000000
1.216000000000001  0.000000  0.000000  0.000000  -42.13566361866164  11.692044941934151  9.67662712680606  55.79127497476138  13.811997432277648  15.25830455323773  70.81879585237853  54.787167851076404  -72.60324179323703  19.488111920643405  120.000000
1.248000000000001  0.000000  0.000000  0.000000  -42.788838322344105  12.21520274791797  11.089930481737733  55.795047110061674  14.150225230396632  15.606762652244093  71.09665340397376  56.305608480228045  -73.17229853327038  19.221405522307748  120.000000
1.2800000000000011  0.000000  0.000000  0.000000  -43.429207899823616  12.680016086495659  12.681188873232085  55.73587110776332  14.323945422045554  15.810462034538567  71.35085063351484  57.72601913909551  -73.71320366679811  18.96586558552126  120.000000
1.3120000000000012  0.000000  0.000000  0.000000  -44.040643597841495  13.088091977878678  14.463236258257773  55.621392134157055  14.298008913185395  15.852140539303209  71.57705258469262  59.03978446725901  -74.2489024344533  18.733243905523036  120.000000
1.3440000000000012  0.000000  0.000000  0.000000  -44.60849940071296  13.448290265958489  16.45159054040927  55.46582216869952  14.024936712358064  15.712301281964972  71.76491722086476  60.240871674280584  -74.79298487248612  18.536071007200185  120.000000
1.3760000000000012  0.000000  0.000000  0.000000  -45.12282221178319  13.77393084898704  18.66161179838001  55.28830991156767  13.458543638107198  15.372027619968309  71.9035573536089  61.32286618919199  -75.34644477839899  18.38342128915838  120.000000
1.4080000000000013  0.000000  0.000000  0.000000  -45.579436330672166  14.076938685383192  21.10275032801257  55.10833289971571  12.568795760665125  14.817787208526607  71.98746642856321  62.275724845313555  -75.89668167602404  18.28015100616454  120.000000
1.4400000000000013  0.000000  0.000000  0.000000  -45.98025089825566  14.364412818893788  23.773043667924416  54.945394831714076  11.345412093999533  14.04589654615342  72.01924311453892  63.08704584693901  -76.42074553492274  18.225009757644532  120.000000
1.4720000000000013  0.000000  0.000000  0.000000  -46.32880546753792  14.63767979919026  26.650846586929053  54.81693579925261  9.802711386370685  13.06851828140131  72.01050414938672  63.73976312819923  -76.89154654942728  18.208269284118344  120.000000
1.5040000000000013  0.000000  0.000000  0.000000  -46.62614765399823  14.888507099384887  29.681657952792538  54.73479824050605  7.987857323420426  11.91622518107318  71.97939900215471  64.2116987780021  -77.28340262557462  18.21546385117921  120.000000
1.5360000000000014  0.000000  0.000000  0.000000  -46.87232526996625  15.099505260951597  32.77216064301754  54.7026665705279  5.980709728308811  10.634991973861979  71.94616844357724  64.4831167114344  -77.57592090697433  18.233103190970155  120.000000
1.5680000000000014  0.000000  0.000000  0.000000  -47.065977247852956  15.253821998219305  35.80553133190502  54.713152196738  3.876286229854066  9.277574550771144  71.93037759594695  64.54438010815223  -77.75576715237435  18.252757289165316  120.000000
1.6000000000000014  0.000000  0.000000  0.000000  -47.20360610417827  15.341096966818114  38.66661715447174  54.75434515361425  1.7641157093825204  7.89150343146188  71.94950133207074  64.40008655583  -77.81690198812014  18.271392604913512  120.000000
1.6320000000000014  0.000000  0.000000  0.000000  -47.281580207230114  15.3580637771705  41.261662124269044  54.816268925419486  -0.2858984352255862  6.511978574434258  72.01856449202064  64.06637892060635  -77.76077431235865  18.290399968676347  120.000000
1.6640000000000015  0.000000  0.000000  0.000000  -47.29715896657356  15.305864722705566  43.52609487286493  54.89138132170252  -2.227211471841167  5.1619301273378095  72.1463453520596  63.562945749560335  -77.59594998489426  18.313202505753946  120.000000
1.6960000000000015  0.000000  0.000000  0.000000  -47.24814427163493  15.18557026476478  45.42161658553243  54.975419700198245  -4.031408644124694  3.8549365706191994  72.33044416836921  62.90806256436209  -77.33828027715715  18.341842439381036  120.000000
1.7280000000000015  0.000000  0.000000  0.000000  -47.13189709016007  14.997624981637525  46.930446801874766  55.06614388856318  -5.684735405465669  2.5986940977727855  72.55571925702928  62.11758335872985  -77.00989518776613  18.376703593730358  120.000000
1.7600000000000016  0.000000  0.000000  0.000000  -46.944993068435814  14.742073073613344  48.04939299635405  55.16253008682092  -7.184892289680297  1.398530968703505  72.7951206180722  61.20566978527364  -76.6355361686754  18.416987125460864  120.000000
1.7920000000000016  0.000000  0.000000  0.000000  -46.68480135626834  14.419400133348473  48.78506136633105  55.26428640811642  -8.538043773230221  0.26029619510304886  73.01375446442289  60.186423706178324  -76.2374555921849  18.460836521004136  120.000000
1.8240000000000016  0.000000  0.000000  0.000000  -46.350593351264514  14.032108456565703  49.15034992867814  55.3701544708383  -9.755715504405599  -0.8074501284149853  73.17448186946164  59.07354397617889  -75.82871886891171  18.5057820416382  120.000000
1.8560000000000016  0.000000  0.000000  0.000000  -45.94317135890722  13.584857849881264  49.16316911639463  55.47604072801065  -10.849545185935522  -1.794005763722741  73.2443917882136  57.87821513032654  -75.40685956335727  18.54869270461578  120.000000
1.8880000000000017  0.000000  0.000000  0.000000  -45.466716556391766  13.084888297842049  48.8468931230737  55.57442838055586  -11.825938411476931  -2.686904967425666  73.20124754686269  56.60736896463804  -74.95023040251151  18.584847590024832  120.000000
1.9200000000000017  0.000000  0.000000  0.000000  -44.93135242628994  12.541917312109863  48.23087686198879  55.6553682422463  -12.681384880603078  -3.472928319067117  73.0375378993851  55.26348127290212  -74.42009591088589  18.608296854756517  120.000000
1.9520000000000017  0.000000  0.000000  0.000000  -44.35293462247458  11.966558069402717  47.34924687921395  55.709005964161754  -13.400119151639991  -4.141612626450635  72.75944489452473  53.846512037585825  -73.76869101779985  18.614251762765193  120.000000
1.9840000000000018  0.000000  0.000000  0.000000  -43.751357094764494  11.369536676853526  46.23777177506507  55.72826126375458  -13.956370603456838  -4.687750278542849  72.38239258938596  52.35692793083501  -72.95106211295513  18.600952380305888  120.000000
2.016000000000002  0.000000  0.000000  0.000000  -43.14734084344053  10.761577622407879  44.929496385912614  55.709775455135  -14.320641016831422  -5.1118017158651625  71.92559331074315  50.798249701357946  -71.93643047007988  18.571200035800803  120.000000
2.048000000000002  0.000000  0.000000  0.000000  -42.55856461308769  10.152714805654494  43.45031966974396  55.653690004561014  -14.46793239262689  -5.41882978497352  71.40737933106008  49.17852426159569  -70.71546099117411  18.53377419911351  120.000000
2.080000000000002  0.000000  0.000000  0.000000  -41.99673448126164  9.551753617336473  41.8160219479164  55.561245382744694  -14.38469817588758  -5.616499909169795  70.8432921359608  47.51018716999374  -69.30128052510814  18.504113957858937  120.000000
2.112000000000002  0.000000  0.000000  0.000000  -41.46472232734573  8.964238637921373  40.03482411200034  55.43188778142653  -14.070846595735846  -5.715474423753105  70.24432621041568  45.808079498598744  -67.72398890474761  18.502721693832317  120.000000
2.144000000000002  0.000000  0.000000  0.000000  -40.95730667981155  8.392078285525129  38.114158825761415  55.26195196156454  -13.53733420056028  -5.729578495798772  69.61659705972718  44.08741913537228  -66.02100412739865  18.550992644978  120.000000
2.176000000000002  0.000000  0.000000  0.000000  -40.46858544632171  7.839117142379726  36.06260090900971  55.04867473933723  -12.803753979176852  -5.665520911734225  68.96046998080169  42.35969743757212  -64.22700396326128  18.66801510477716  120.000000
2.208000000000002  0.000000  0.000000  0.000000  -39.99596671933562  7.312761231348503  33.888361329388985  54.79474501355812  -11.89661490488568  -5.5162062719651175  68.26811159091046  40.62882184792825  -62.36678034498108  18.86517747972178  120.000000
2.240000000000002  0.000000  0.000000  0.000000  -39.53664853684536  6.817542255726877  31.60264476144768  54.50514745010319  -10.848615765038824  -5.273550586778517  67.52382325905553  38.89380734848627  -60.45166964937659  19.14105429977811  120.000000
2.272000000000002  0.000000  0.000000  0.000000  -39.08871264203096  6.352746266135709  29.22289604466879  54.18400877590049  -9.69696318295783  -4.937678982349885  66.70602291435601  37.15257088154651  -58.4788533530205  19.48521486279465  120.000000
2.304000000000002  0.000000  0.000000  0.000000  -38.65438901071966  5.915194561839002  26.77300925590933  53.83552572180049  -8.479331246940083  -4.514710135412508  65.78873551873923  35.40403787773361  -56.43387308143395  19.883397649896292  120.000000
2.336000000000002  0.000000  0.000000  0.000000  -38.23747156123922  5.500009067525281  24.28314965288364  53.46464619651496  -7.22984507750568  -4.015749970937345  64.74330382192714  33.64973174791224  -54.295442113332356  20.319277829905424  120.000000
2.368000000000002  0.000000  0.000000  0.000000  -37.842138525033214  5.1020276844751224  21.787432197227446  53.07761362961037  -5.9773610144449805  -3.4555836225838408  63.54257231825435  31.894705981500636  -52.03979897859696  20.77682481091204  120.000000
2.400000000000002  0.000000  0.000000  0.000000  -37.47393846000114  4.717167294613831  19.3208588080977  52.6813221090588  -4.744669363400852  -2.851535787282932  62.165530995303456  30.147359817857343  -49.644596092561045  21.24231158490047  120.000000
2.432000000000002  0.000000  0.000000  0.000000  -37.13914439194564  4.342538375834809  16.917358904107086  52.280561103094094  -3.5477208659381096  -2.223158158756381  60.600100896244165  28.417182921297325  -47.092534080843855  21.704598788497822  120.000000
2.464000000000002  0.000000  0.000000  0.000000  -36.844781974750546  3.9786832390386184  14.60765898561931  51.877283486722995  -2.3971751235888905  -1.590626157742799  58.84504012767891  26.71439166124899  -44.374805492063146  22.154373072127246  120.000000
2.496000000000002  0.000000  0.000000  0.000000  -36.59849019570511  3.6287281493200063  12.41748685625568  51.47233026358248  -1.3002809793987669  -0.9734789337629487  56.910400683641306  25.051366547608243  -41.49414932465509  22.58352029035357  120.000000
2.5280000000000022  0.000000  0.000000  0.000000  -36.40630907281031  3.2955495048400696  10.366618135450956  51.06602346433408  -0.2628106229912169  -0.38895445327749656  54.81690726598227  23.44257907192936  -38.46619158765623  22.98361006804027  120.000000
2.5600000000000023  0.000000  0.000000  0.000000  -36.27006623242987  2.9824081010337617  8.46834805274629  50.65862359030634  0.7082542232127209  0.15031894307833835  52.59446304717812  21.9029783647286  -35.31935178811263  23.34406148351421  120.000000
2.5920000000000023  0.000000  0.000000  0.000000  -36.18797906492933  2.692541384088949  6.729976411206314  50.251482281399916  1.6043353932050635  0.6366524116933417  50.279245047065466  20.446500359671088  -32.09256899643031  23.6515446948522  120.000000
2.6240000000000023  0.000000  0.000000  0.000000  -36.157899865885845  2.4275344868829594  5.154468645810324  49.846825147069865  2.4173083470671655  1.0659493249602103  47.91025778879273  19.084097809644756  -28.830229656249763  23.89052900888269  120.000000
2.6560000000000024  0.000000  0.000000  0.000000  -36.17781492144134  2.1881125591825445  3.741820585535359  49.446897481412826  3.1415807233236097  1.4353541085336181  45.52537081751412  17.821841567783384  -25.5769313705519  24.045617843475753  120.000000
2.6880000000000024  0.000000  0.000000  0.000000  -36.245020997538624  1.9757589727388598  2.4905509683457425  49.054138106691056  3.774673753244984  1.74313268515496  43.15848490632223  16.66009996860591  -22.37262351793321  24.10456118979928  120.000000
2.7200000000000024  0.000000  0.000000  0.000000  -36.35548785365961  1.7930895393187818  1.3985398724035805  48.67125001075275  4.31694746174347  1.9906576564722873  40.83792384754724  15.594148268857245  -19.249241703918912  24.06140360062142  120.000000
2.7520000000000024  0.000000  0.000000  0.000000  -36.50172201337281  1.6433411360149406  0.4625429470871338  48.30128954654961  4.77117436851876  2.181907121842605  38.58418346049341  14.615986190547561  -16.230891242119448  23.918240552111662  120.000000
2.7840000000000025  0.000000  0.000000  0.000000  -36.67225520932965  1.5295902536143537  -0.32297096687722976  47.9487461962739  5.141724315985031  2.3224194687284894  36.40849461124809  13.716625819237125  -13.336416107963267  23.683235800786292  120.000000
2.8160000000000025  0.000000  0.000000  0.000000  -36.853562266789346  1.4535311913538016  -0.9664535397698832  47.61950454444754  5.4333147475126  2.4196309406238994  34.313215028904345  12.887928491552662  -10.581980773667933  23.367391957511614  120.000000
2.8480000000000025  0.000000  0.000000  0.000000  -37.03274213594094  1.4139989535138262  -1.4785169940524683  47.32057411787384  5.650296304743497  2.4827314936126657  32.2936319841929  12.123610937035249  -7.982622547532966  22.982033514069308  120.000000
2.8800000000000026  0.000000  0.000000  0.000000  -37.20032394687217  1.4063559948587625  -1.8708750274279051  47.06035438815736  5.797055067069115  2.52178963391574  30.340909780130684  11.419767285686495  -5.551722437560606  22.53779838285055  120.000000
2.9120000000000026  0.000000  0.000000  0.000000  -37.35183161955298  1.4233469968962333  -2.1552038245708025  46.84835983739515  5.878916979489235  2.5465975479410194  28.445360031342016  10.773937392173504  -3.2988284814121083  22.04570387854729  120.000000
2.9440000000000026  0.000000  0.000000  0.000000  -37.487731475883514  1.4563822686420846  -2.3426151049880324  46.69461264109331  5.9031760066397965  2.5653832690450313  26.598747951005826  10.183342669262176  -1.2270157792871892  21.518922650060006  120.000000
2.9760000000000026  0.000000  0.000000  0.000000  -37.61261634816105  1.4964358701730218  -2.443459240722583  46.60775749654756  5.879300534165372  2.5839691943176657  24.79550008259741  9.64256224869785  0.6693095242177912  20.97395741187992  120.000000
3.0080000000000027  0.000000  0.000000  0.000000  -37.73338439621119  1.5343778497388996  -2.468423770091115  46.59378782129474  5.81797849696276  2.605418713067421  23.031878839203735  9.14175927611687  2.404407866197734  20.430026577410214  120.000000
3.0400000000000027  0.000000  0.000000  0.000000  -37.85806475206023  1.5599989056837171  -2.4297115388233683  46.65398375118712  5.729619665225305  2.6291196015419  21.305871533222273  8.665706066700714  4.001374705281307  19.907930885747795  120.000000
3.0720000000000027  0.000000  0.000000  0.000000  -37.99435467907379  1.5619316766674534  -2.3431381502733886  46.783462759952535  5.621331541957241  2.651353294385576  19.615254067809673  8.194035148249142  5.489474722136628  19.427865066717043  120.000000
3.1040000000000028  0.000000  0.000000  0.000000  -38.14718870328596  1.5305209518322775  -2.228503761140997  46.968957158472335  5.493470979805238  2.6675701521055903  17.958070469571837  7.702554426759248  6.902744405063062  19.005969063613048  120.000000
3.136000000000003  0.000000  0.000000  0.000000  -38.31505698926699  1.4576089558990224  -2.1091972636777006  47.19414320672255  5.341869360151646  2.670776207855687  16.332624042048458  7.16910144131354  8.27670215365483  18.6555630656288  120.000000
3.168000000000003  0.000000  0.000000  0.000000  -38.49079683321937  1.3309321065950952  -2.0092640702910294  47.44780242177506  5.156470526099343  2.655154456089121  14.733338028625688  6.581051303613017  9.63875868339861  18.37625283566512  120.000000
3.200000000000003  0.000000  0.000000  0.000000  -38.669610899551515  1.1276438129707826  -1.9503531601368993  47.72662452278233  4.923864204552382  2.624248986560547  13.150599029977604  5.935658530271527  11.002536016673204  18.14570727575083  120.000000
