Simulation
nRows=101
nColumns=15
endheader
time  TH_x TH_y TH_z SC_y  SC_z  SC_x  AC_y  AC_z  AC_x  GH_y  GH_z  GH_yy  EL_x  PS_y
0.0  0.000000  0.000000  0.000000  -18.013182388814442  -1.1506711909701122  1.0909936384561734  59.77225387057291  4.609016194815746  -8.701290687190488  3.9411972962129114  18.031334794172498  27.823481581517633  29.814993593306905  120.000000
0.03  0.000000  0.000000  0.000000  -17.965241900421816  -0.6202687248189498  1.4664303629647482  59.983271793952824  4.940784591278841  -8.421360246251476  5.517182463452341  18.554062671704447  24.873879087391934  30.025305467437114  120.000000
0.06  0.000000  0.000000  0.000000  -18.02642677290875  -0.19552798288775017  1.7715231664558808  60.250744933229115  5.197075652581753  -8.129580231005447  7.101448063169842  19.066390988924777  21.9018057447561  30.267422720246074  120.000000
0.09  0.000000  0.000000  0.000000  -18.182657510300555  0.11778123118589967  2.0289609759861467  60.61328820543547  5.433619988333215  -7.8306386422035015  8.6959967236935  19.633973465404495  18.895211076501305  30.54207011725707  120.000000
0.12  0.000000  0.000000  0.000000  -18.43482988625076  0.3358957138835207  2.2544048554719396  61.08194535873506  5.676481873013315  -7.5252169456364815  10.28387716703394  20.29911481771525  15.831549312548546  30.869412540522386  120.000000
0.15  0.000000  0.000000  0.000000  -18.75064941828728  0.48679075323731114  2.4600301547372503  61.63795353180894  5.9433077592101675  -7.213381733587834  11.851995749875035  21.0855876121594  12.712748973449047  31.253265608410665  120.000000
0.18  0.000000  0.000000  0.000000  -19.107904507780123  0.5950895472762294  2.6525025013096175  62.25881554925476  6.243428345331311  -6.89284724231384  13.385852873801246  22.008633766003502  9.553450207118923  31.697604120645813  120.000000
0.21  0.000000  0.000000  0.000000  -19.480202255934415  0.6835372255994885  2.8315078710575605  62.91990729219462  6.577469226189075  -6.559285876415705  14.866599944501395  23.07080014825138  6.374232381651948  32.19852001186304  120.000000
0.24  0.000000  0.000000  0.000000  -19.84389208865299  0.7689799266711348  2.994539021249078  63.59615929921533  6.943057168663962  -6.209951488503823  16.27684705137483  24.26363942111277  3.2054029988057753  32.74607773488799  120.000000
0.27  0.000000  0.000000  0.000000  -20.182803051376194  0.8628380692653727  3.1389709778989157  64.26795283605847  7.338675092489253  -5.844865904510718  17.59928508259264  25.570331345209414  0.07833784984303639  33.330206726877144  120.000000
0.3  0.000000  0.000000  0.000000  -20.488582035959787  0.9719509721428301  3.2645562783520634  64.92026553956813  7.766133832965342  -5.4662446826788464  18.81993918300275  26.96879489594786  -2.9762921119615013  33.93818489046161  120.000000
0.32999999999999996  0.000000  0.000000  0.000000  -20.762157042345315  1.099041499305796  3.3735336511250815  65.54472242428318  8.231134039686118  -5.079696857116254  19.927768843123715  28.435813374079665  -5.936941921117167  34.557312862411116  120.000000
0.36  0.000000  0.000000  0.000000  -21.013961078854987  1.245366282694295  3.4700776933770086  66.1374818368726  8.740493468846608  -4.690247719082993  20.916960919740262  29.948608995061004  -8.79424056623913  35.175999551103374  120.000000
0.39  0.000000  0.000000  0.000000  -21.25989178135092  1.4090744234418728  3.5582912297025744  66.69899522413783  9.299281144232825  -4.3032864865664395  21.78737778200309  31.485889479184095  -11.552431945122127  35.783378365001106  120.000000
0.42  0.000000  0.000000  0.000000  -21.518403448669854  1.5848521973696712  3.6417562748246524  67.23244794327248  9.909652528083392  -3.9245875389682747  22.544793681543545  33.02649091983267  -14.22419603257144  36.36944258143069  120.000000
0.44999999999999996  0.000000  0.000000  0.000000  -21.808085202482815  1.7670886145086326  3.7231199619434525  67.74117162871546  10.570090431286758  -3.559145538237055  23.199514510296652  34.55061333628977  -16.823106774123886  36.92606793818255  120.000000
0.48  0.000000  0.000000  0.000000  -22.14275481228103  1.9511941066289717  3.8047233421638977  68.227238033674  11.276009675143815  -3.2102348023213825  23.763101756515788  36.04005470275405  -19.356681194744112  37.446646765232714  120.000000
0.51  0.000000  0.000000  0.000000  -22.526830750171772  2.1333627909807533  3.888220610625008  68.69112660830159  12.019632112179176  -2.8794810245899836  24.244712815354205  37.480720948682134  -21.82130733283358  37.924958037537934  120.000000
0.54  0.000000  0.000000  0.000000  -22.954047726796084  2.310929475032842  3.9739986728976247  69.13276817447036  12.789756058019863  -2.5660033558065805  24.648974540456226  38.86372430109542  -24.2015086419662  38.35525584237795  120.000000
0.57  0.000000  0.000000  0.000000  -23.409010365090534  2.482659143286612  4.060593172079833  69.55152944001415  13.571784407203891  -2.2658703906534194  24.97584697794453  40.1855706435237  -26.47194301941763  38.732284827228625  120.000000
0.6  0.000000  0.000000  0.000000  -23.871968046032126  2.6483109961858657  4.144487907359013  69.94767602915073  14.349295952667202  -1.9733275898599172  25.22257596728173  41.447377445582795  -28.60320625365203  39.05152283403158  120.000000
0.63  0.000000  0.000000  0.000000  -24.324163263291894  2.8083299072422356  4.220931483034847  70.32213181143732  15.106195190610359  -1.682127221946749  25.38612859054145  42.653351736948785  -30.567281413822517  39.30991757002795  120.000000
0.6599999999999999  0.000000  0.000000  0.000000  -24.75168173956542  2.9636698582388386  4.285187133179651  70.67658115076487  15.828836417950814  -1.3876547591719053  25.465883253398854  43.8094323277608  -32.343560651635435  39.506220914745406  120.000000
0.69  0.000000  0.000000  0.000000  -25.147064683218925  3.115453647930667  4.3344438869766275  71.01233498518107  16.507151223498997  -1.087682125549236  25.465528133368483  44.9213145700726  -33.92127830460587  39.64112645655223  120.000000
0.72  0.000000  0.000000  0.000000  -25.50829481802974  3.264466383036718  4.3685318630959316  71.33046399183908  17.134724643942228  -0.783320306216667  25.39356977281936  45.99375788420606  -35.30062901133216  39.71688762480679  120.000000
0.75  0.000000  0.000000  0.000000  -25.836995103559957  3.4109371236657657  4.389855527113196  71.63143906014383  17.70840472938628  -0.4776565666796786  25.262373679936807  47.02947255682213  -36.49061394081947  39.73741012057919  120.000000
0.78  0.000000  0.000000  0.000000  -26.136454672758283  3.554522099994379  4.402454224621227  71.91563757387499  18.22753595815401  -0.17534401604206315  25.086598647332266  48.02954025053498  -37.50675612686847  39.70808479894809  120.000000
0.8099999999999999  0.000000  0.000000  0.000000  -26.41022341659341  3.6943292772348255  4.411578629114193  72.18315614470065  18.693230131789473  0.11878105238902566  24.88122467798136  48.992852279613984  -38.3671986294102  39.63575324603038  120.000000
0.84  0.000000  0.000000  0.000000  -26.6613126116988  3.8290071088148125  4.4226259748687715  72.43439145992426  19.107686209393336  0.39981845675275923  24.659782978037594  49.91661715392466  -39.09095173560379  39.528685039712194  120.000000
0.87  0.000000  0.000000  0.000000  -26.89230187356949  3.956913259849476  4.440691669951331  72.67002310751859  19.47355410694214  0.6637820374886887  24.433146862474132  50.7963205679166  -39.69576692481086  39.396407751400496  120.000000
0.8999999999999999  0.000000  0.000000  0.000000  -27.105351243661108  4.076380846006521  4.470074074439859  72.89110048963062  19.79355901157908  0.9072241327995092  24.209371112754248  51.62656806665276  -40.19778251220586  39.24894860172304  120.000000
0.9299999999999999  0.000000  0.000000  0.000000  -27.302438420056788  4.185881603135082  4.51414709191148  73.09876233506189  20.070313370275485  1.12771704506763  23.99376351196948  52.40131786347453  -40.61086165597546  39.09605297232262  120.000000
0.96  0.000000  0.000000  0.000000  -27.485423402137673  4.284099093498442  4.575000254768558  73.2941426189358  20.30620193555903  1.3233973194832684  23.789478371965163  53.114812150518496  -40.947331002366994  38.94637154645231  120.000000
0.99  0.000000  0.000000  0.000000  -27.65611351845625  4.370073324809538  4.65348302803828  73.47814774167948  20.503358556962272  1.4932828198305172  23.597877965167775  53.761792312530126  -41.21797998765276  38.80696150513619  120.000000
1.02  0.000000  0.000000  0.000000  -27.81619381346534  4.443247973304192  4.749070554625015  73.65134607599207  20.66373111352798  1.6369672726184807  23.419150415492723  54.33822116274622  -41.43265502270937  38.683057853358335  120.000000
1.05  0.000000  0.000000  0.000000  -27.96724623521181  4.503456646744245  4.860114115499871  73.81415326381585  20.789307020869355  1.7547840109697217  23.252487642509085  54.84137212925409  -41.600117235297965  38.578265044471266  120.000000
1.08  0.000000  0.000000  0.000000  -28.110513886068414  4.550907892895117  4.984007331823956  73.96686451257604  20.88217314053735  1.8476908106345484  23.096481829874048  55.27038696953073  -41.72809980513456  38.49475610898026  120.000000
1.1099999999999999  0.000000  0.000000  0.000000  -28.246676050371725  4.586119804977858  5.117687330447062  74.11007620279408  20.944625827049233  1.9173155696654145  22.949169943787812  55.62631452454273  -41.82305914316635  38.43342296825346  120.000000
1.14  0.000000  0.000000  0.000000  -28.375472238798704  4.609853011180085  5.257981839861214  74.24461029326265  20.9789787288444  1.9658935463627532  22.808395911593323  55.91241871327765  -41.89011645273638  38.39391511576878  120.000000
1.17  0.000000  0.000000  0.000000  -28.495580961745993  4.623021082602593  5.402104034780338  74.37168182925751  20.987513484571323  1.9960039282061883  22.67204605667279  56.13384043768708  -41.933320458140116  38.3746954452014  120.000000
1.2  0.000000  0.000000  0.000000  -28.604729857970693  4.626643596257009  5.547795676762503  74.49229425736729  20.972269661739386  2.0103968104398575  22.538660302140368  56.297260480005356  -41.95608553155021  38.37335642254633  120.000000
1.23  0.000000  0.000000  0.000000  -28.70023049536002  4.621813720707934  5.6934340526902  74.60692606187543  20.93523259166687  2.0114626263850304  22.407965855325816  56.410053657754524  -41.96205778229533  38.38704493427107  120.000000
1.26  0.000000  0.000000  0.000000  -28.779602033454132  4.609709166593807  5.837815199208063  74.71458114272299  20.878532221995574  2.001081714319844  22.281585815492104  56.47963624660988  -41.95552604661767  38.412923242937694  120.000000
1.29  0.000000  0.000000  0.000000  -28.8412749618682  4.591619154782413  5.979959259109825  74.81255384220334  20.80501141216054  1.9801853413468695  22.163407730639513  56.51272744143039  -41.941972328654515  38.448499111143796  120.000000
1.3199999999999998  0.000000  0.000000  0.000000  -28.884964502040212  4.568948451541072  6.118704746559106  74.8961385733056  20.718528448044772  1.9490101017907069  22.059563816640864  56.51508728561976  -41.92774882092042  38.4918286462541  120.000000
1.3499999999999999  0.000000  0.000000  0.000000  -28.911644873033783  4.543132881402891  6.2524011181913215  74.95957274129675  20.62421735895573  1.9071427563086867  21.97750779040542  56.491420749159694  -41.91989782968563  38.54144708442511  120.000000
1.38  0.000000  0.000000  0.000000  -28.92313366264789  4.515496868313495  6.3785888576440435  74.99704408818747  20.528142471319388  1.8542619811881842  21.924583061273676  56.44567025821411  -41.925099754546274  38.59619265524932  120.000000
1.41  0.000000  0.000000  0.000000  -28.921605060285863  4.487104250713614  6.493903546050442  75.00437129915964  20.436738975113116  1.7904521054243254  21.906323440664956  56.38133617895514  -41.94898446497153  38.65496900137822  120.000000
1.44  0.000000  0.000000  0.000000  -28.909164529826928  4.458620309835892  6.594168248037374  74.98010646156351  20.355832546612927  1.716881857492931  21.925008886024234  56.30178790448235  -41.99496140540636  38.71658411204461  120.000000
1.47  0.000000  0.000000  0.000000  -28.887584542450572  4.430235046884543  6.6747317465739044  74.92641572626735  20.289787195875498  1.635767230319112  21.978801017247804  56.21041476763005  -42.06380544716474  38.7796075028227  120.000000
1.5  0.000000  0.000000  0.000000  -28.858290227727085  4.40166886878127  6.731066768588696  74.8487307241393  20.24087573836973  1.550346429276443  22.061974701472366  56.110380699819046  -42.15320739133784  38.84235187533653  120.000000
1.53  0.000000  0.000000  0.000000  -28.82248216132238  4.372261054721343  6.759377809085415  74.75484520063175  20.20911323970477  1.4641559375268047  22.166046866319057  56.00422734896563  -42.25811184966309  38.90289314055008  120.000000
1.56  0.000000  0.000000  0.000000  -28.781299513086775  4.341078470357722  6.75711360937081  74.65329933293636  20.19250571246409  1.3804568220400988  22.2814780793125  55.89314047344844  -42.37104092034881  38.95919396828578  120.000000
1.5899999999999999  0.000000  0.000000  0.000000  -28.735895534016628  4.307032584156905  6.7230817102359755  74.55187345196973  20.18760735623647  1.30147863643326  22.399387171281006  55.77639089190026  -42.482820060674015  39.00924599654105  120.000000
1.6199999999999999  0.000000  0.000000  0.000000  -28.687459131977224  4.26897056520571  6.657255944325733  74.45622144076664  20.19033036336226  1.2280877310750398  22.513001347688064  55.65083874702428  -42.58318657204427  39.0512532326467  120.000000
1.65  0.000000  0.000000  0.000000  -28.637047758894855  4.225740132398238  6.560259239794271  74.36920781574335  20.196719248539786  1.1597218978445891  22.618410398287903  55.510891489712826  -42.66159790529127  39.083750279384304  120.000000
1.68  0.000000  0.000000  0.000000  -28.585309075764666  4.176165101137937  6.4327835992602695  74.29101427616285  20.203551010548196  1.0946816827565569  22.71458191693464  55.34876940675043  -42.70802532321683  39.105628047402746  120.000000
1.71  0.000000  0.000000  0.000000  -28.532195569492806  4.11906067828394  6.27510719147201  74.21957409057623  20.208703270172677  1.0305792430952225  22.80279773354699  55.15509573183835  -42.71363331598798  39.11621110479499  120.000000
1.74  0.000000  0.000000  0.000000  -28.47683863876767  4.053265561211643  6.086992557362695  74.1511046304697  20.21141734971004  0.9647253542129703  22.8856876684601  54.91950401416506  -42.67115123809898  39.11532942829777  120.000000
1.77  0.000000  0.000000  0.000000  -28.41745837387267  3.9776214108596295  5.867736997167305  74.08055804992469  20.212295057377155  0.8944433328643125  22.966145728792288  54.631344092923975  -42.574872032345304  39.10333801769926  120.000000
1.7999999999999998  0.000000  0.000000  0.000000  -28.351455397476467  3.89096718481114  5.616297409426746  74.0022577659422  20.213122171329065  0.8171809662882454  23.046326395122698  54.280242348447125  -42.420312332646446  39.08113206989939  120.000000
1.8299999999999998  0.000000  0.000000  0.000000  -28.275613293856182  3.792174115174061  5.33124191031855  73.91020920961637  20.216332324560327  0.7307272134276175  23.127007549853545  53.856866956991254  -42.203273030895055  39.0501431898057  120.000000
1.8599999999999999  0.000000  0.000000  0.000000  -28.186373351641834  3.680161840991778  5.010722167529402  73.79862949686985  20.22451359431092  0.6332240223487178  23.207140340653524  53.35355064981618  -41.918936241595006  39.01219211058877  120.000000
1.89  0.000000  0.000000  0.000000  -28.079988774494687  3.5539167129698708  4.652261973664637  73.66209814766167  20.239723485627675  0.5233906617447897  23.28365723989445  52.76516272082089  -41.56078129503242  38.96934378241467  120.000000
1.92  0.000000  0.000000  0.000000  -27.952713212040937  3.4125313217892135  4.252707391108175  73.49592630818535  20.263084566097604  0.40058412787530734  23.35144460228728  52.08962247351279  -41.12002647490199  38.92375687033786  120.000000
1.95  0.000000  0.000000  0.000000  -27.80090691844311  3.2552549882524797  3.8082159981339325  73.2960655750362  20.29441854108452  0.26503076834564665  23.403647890545294  51.32835683025095  -40.5853524650324  38.87756982721845  120.000000
1.98  0.000000  0.000000  0.000000  -27.621260280030864  3.0815989258481444  3.3146213611303694  73.05921016561696  20.332397769601815  0.11785882520322279  23.432167671312406  50.48599129186342  -39.943522594995905  38.83282569980258  120.000000
2.01  0.000000  0.000000  0.000000  -27.411023021857456  2.891502401445565  2.7680989591957292  72.78250570906847  20.374607157232436  -0.03881616975503206  23.428600161394012  49.56979177989216  -39.180289246776866  38.79137153197015  120.000000
2.04  0.000000  0.000000  0.000000  -27.16832422727095  2.6853539111576934  2.1659133099251613  72.46371937176437  20.417944911721026  -0.20207056609455679  23.38519962899487  48.588594959584874  -38.28198078546824  38.7547615302346  120.000000
2.07  0.000000  0.000000  0.000000  -26.892506629747928  2.464031804427507  1.5064803727724219  72.10110220832908  20.459658155198312  -0.36812511987999397  23.29579307650587  47.55202258918476  -37.23713393174871  38.72402185671229  120.000000
2.1  0.000000  0.000000  0.000000  -26.584472471583663  2.2292635924315625  0.7897727124919118  71.6932244466935  20.498611034634674  -0.5323575894627778  23.156194662353915  46.46943922352576  -36.03813863961553  38.69946126893744  120.000000
2.13  0.000000  0.000000  0.000000  -26.24662645206192  1.9837590721216591  0.017884826955521443  71.23853026591885  20.53554167667669  -0.6897863728512986  22.964116386849575  45.34955492456168  -34.68268207475878  38.68064353983615  120.000000
2.16  0.000000  0.000000  0.000000  -25.882512706604846  1.7311775712601645  -0.8047253947862886  70.73506501860732  20.573034431611156  -0.8357198903062953  22.718786775646137  44.1998025752301  -33.174723594990034  38.66663821299775  120.000000
2.19  0.000000  0.000000  0.000000  -25.496234893047742  1.4765454899291812  -1.6708169379030675  70.18027714921395  20.613956251906586  -0.9660557445155218  22.42092087735434  43.02579778486953  -31.524659549156844  38.65682441200546  120.000000
2.2199999999999998  0.000000  0.000000  0.000000  -25.091482957187413  1.2254869456675708  -2.570113219063482  69.57185979464424  20.65937474378071  -1.0779249853641626  22.072668299748113  41.83106239787482  -29.748966349482675  38.6516066418661  120.000000
2.25  0.000000  0.000000  0.000000  -24.670404994253843  0.9837592860702071  -3.491407668367758  68.90863457394529  20.709092026506074  -1.1692798179665578  21.676659705722052  40.61698552889885  -27.869183961701513  38.65278546264397  120.000000
2.28  0.000000  0.000000  0.000000  -24.234220685210826  0.7580471673808751  -4.424466917453471  68.19027106129619  20.762702681952916  -1.2375021494978704  21.234975565488632  39.38351058917501  -25.908382076944836  38.66376397948809  120.000000
2.31  0.000000  0.000000  0.000000  -23.78343619533151  0.5546046214318373  -5.35951363646998  67.41795095414108  20.819119684892183  -1.2806790599498425  20.74704250126294  38.13008569705614  -23.887137915899743  38.68877358478543  120.000000
2.34  0.000000  0.000000  0.000000  -23.317039763927568  0.3785293989051076  -6.287414251548152  66.59467490502642  20.875519558018002  -1.297666868635723  20.207399968844882  36.85739753625802  -21.81890134470094  38.73051147166146  120.000000
2.37  0.000000  0.000000  0.000000  -22.833545746821027  0.23469843473798196  -7.199343456583232  65.72601579513935  20.92770921419615  -1.2871535013125355  19.60485868380295  35.5681195047777  -19.70475946261083  38.78886650774806  120.000000
2.4  0.000000  0.000000  0.000000  -22.330427241282383  0.12794663810603568  -8.086456794441876  64.81900207617173  20.969961626505864  -1.2480349351747417  18.923025837935995  34.268280185890724  -17.529867999487436  38.86065909839346  120.000000
2.4299999999999997  0.000000  0.000000  0.000000  -21.80433158067354  0.06167084592234333  -8.939401373629929  63.88256077538924  20.995477826049235  -1.1807883136592012  18.142091033670642  32.966324141821936  -15.263814132715677  38.93890393331579  120.000000
2.46  0.000000  0.000000  0.000000  -21.251586289261205  0.036989982850235796  -9.749361977355214  62.926367124509355  20.99601705122156  -1.0878254295591834  17.24217487029836  31.672492791600902  -12.86598280003674  39.0137533284497  120.000000
2.4899999999999998  0.000000  0.000000  0.000000  -20.67016858233021  0.05323097785516674  -10.507917777047862  61.95968730758498  20.96349512917278  -0.9714920910032491  16.20670121308609  30.395875841531048  -10.293368909045348  39.07416186657627  120.000000
2.52  0.000000  0.000000  0.000000  -20.063479735770134  0.10564700510054713  -11.207974839642796  60.99314721415067  20.89204654961132  -0.8369843193191981  15.024455277589267  29.147239629221147  -7.513042442370637  39.11178740443861  120.000000
2.55  0.000000  0.000000  0.000000  -19.439950001762515  0.18676568622116752  -11.844892712129065  60.04034304243923  20.778887524562627  -0.6938906107382649  13.688810153968056  27.939547126852837  -4.5128671453637885  39.122928417217  120.000000
2.58  0.000000  0.000000  0.000000  -18.813017454290087  0.2887797690997348  -12.41608189932309  59.11701540076553  20.623504927411588  -0.552913521663372  12.198575194524082  26.78500644657673  -1.3053641157655524  39.106581566401864  120.000000
2.61  0.000000  0.000000  0.000000  -18.202203011404677  0.40234541419577774  -12.921062340958269  58.23745368061038  20.42805836907924  -0.42385441378938166  10.558529620985437  25.694423637704116  2.0757924981323206  39.066179030109225  120.000000
2.6399999999999997  0.000000  0.000000  0.000000  -17.63002206683061  0.5176716468582936  -13.360388228547238  57.41578119302195  20.199490246226134  -0.31745334141202397  8.777950135542314  24.675612013086027  5.581840871008229  39.0081155870087  120.000000
2.67  0.000000  0.000000  0.000000  -17.118324223105326  0.6255293476810162  -13.734287139120035  56.661624764907785  19.9470241732492  -0.24327471264358344  6.870046102509322  23.735367195039387  9.158059274056061  38.93803937944172  120.000000
2.6999999999999997  0.000000  0.000000  0.000000  -16.683049157052235  0.7179865819642037  -14.042359911150204  55.979677125375744  19.679736625583722  -0.20955894410352524  4.850483122952302  22.879403049935533  12.750326757651907  38.86117059943487  120.000000
2.73  0.000000  0.000000  0.000000  -16.32932522214539  0.7889648410766519  -14.28475581408848  55.37063182237512  19.402676548224353  -0.22231173093271184  2.738429556365529  22.11297637501544  16.31183566553042  38.78131873738434  120.000000
2.76  0.000000  0.000000  0.000000  -16.05320981104509  0.8330663628143433  -14.46382588972403  54.83443647759569  19.116868189942213  -0.2834377285771165  0.5555140655277735  21.439619811371948  19.805564582098416  38.70097027177609  120.000000
2.79  0.000000  0.000000  0.000000  -15.84578951957014  0.8458696606416726  -14.584720589336154  54.3722778960701  18.821208092659447  -0.39056196480160116  -1.6755485404466677  20.86089509818754  23.204138520374187  38.623463128104625  120.000000
2.82  0.000000  0.000000  0.000000  -15.698271627885203  0.8248491048196281  -14.653027359780424  53.98828124724318  18.513638780033812  -0.536551228725365  -3.933635870390159  20.374275396093527  26.48915620637069  38.553033207236616  120.000000
2.85  0.000000  0.000000  0.000000  -15.60541445005197  0.7671325256828309  -14.67384843709161  53.693032405759304  18.1919418822562  -0.7120662173471184  -6.201034503467918  19.97249172453993  29.64864626853148  38.49518571468727  120.000000
2.88  0.000000  0.000000  0.000000  -15.563736950460287  0.6690860940819939  -14.652112295866303  53.50083128305374  17.853508568141038  -0.90544994215303  -8.46380980636923  19.639030840705495  32.680087107628445  38.45624244460614  120.000000
2.9099999999999997  0.000000  0.000000  0.000000  -15.57702453116566  0.5235130218654859  -14.596051049794495  53.43328800239266  17.494130431673764  -1.104268479667937  -10.714076392928776  19.3483760455864  35.585437856431504  38.44435315887527  120.000000
2.94  0.000000  0.000000  0.000000  -15.65086559311341  0.31895945753376553  -14.518232099840015  53.50531349968494  17.106494164209103  -1.2959412921858022  -12.947693010881718  19.065872435277118  38.37813320586411  38.470298382679836  120.000000
2.9699999999999998  0.000000  0.000000  0.000000  -15.780242998996775  0.04567429349950812  -14.436343519115262  53.72230229752093  16.67824255812203  -1.4693336747313528  -15.163520261338952  18.751977513276213  41.08369397530639  38.543996939794695  120.000000
3.0  0.000000  0.000000  0.000000  -15.972501874627778  -0.30422454029202417  -14.368391199318928  54.085873842434516  16.19485401626887  -1.6119280596332395  -17.369217291462366  18.375165207405836  43.717178329490885  38.68468245933557  120.000000
