Simulation
nRows=268
nColumns=15
endheader
time  TH_x TH_y TH_z SC_y  SC_z  SC_x  AC_y  AC_z  AC_x  GH_y  GH_z  GH_yy  EL_x  PS_y
0.0  0.000000  0.000000  0.000000  -21.516919879377145  6.5719154840982155  -9.481595459690265  55.66509847264771  8.532759191954053  10.346910173330146  -167.61143535679693  3.188044907695587  -154.74973835983806  21.05487030906883  120.000000
0.04016479400749064  0.000000  0.000000  0.000000  -21.518508061533982  6.5791857750482965  -9.491048074969255  55.622512326431156  8.57527863430115  10.329331063871207  -166.76636893779246  3.0406132047682646  -155.7012127512108  20.414756451056174  120.000000
0.08032958801498127  0.000000  0.000000  0.000000  -21.52025586415635  6.600202208604357  -9.513551151156978  55.488897511573285  8.700607238130448  10.274988289318117  -163.52729453286938  2.595315178727393  -159.26953784426817  19.82998169530186  120.000000
0.12049438202247191  0.000000  0.000000  0.000000  -21.525243860798494  6.638444415186113  -9.54720674761137  55.25939668538429  8.896635536851791  10.183687866700785  -154.68176788234365  1.8794947811062523  -168.6838860688169  19.27239107092197  120.000000
0.16065917602996255  0.000000  0.000000  0.000000  -21.54371016178454  6.693836729164482  -9.599868222734429  54.93493930860613  9.14335802558878  10.057663180857181  -123.96955176366569  1.0902111158754462  159.79082502617652  18.719994623567157  120.000000
0.20082397003745317  0.000000  0.000000  0.000000  -21.592796357041884  6.762891528069561  -9.67918940077491  54.51809817253266  9.421782677792509  9.899812301686799  -54.2054597728328  1.2903618166676443  88.97387884363945  18.1545563186301  120.000000
0.24098876404494382  0.000000  0.000000  0.000000  -21.69829549914823  6.84409121642121  -9.788880342446992  54.018028755668944  9.716815339714827  9.715905722908785  -27.572673738778157  2.668283638564015  61.062502900338494  17.567847156463458  120.000000
0.28115355805243447  0.000000  0.000000  0.000000  -21.882622230700836  6.93422172226794  -9.924327449535697  53.448454580368384  10.018149938196391  9.51463774117245  -19.304701020112578  4.445304663315261  51.31453963416891  16.95950451576839  120.000000
0.3213183520599251  0.000000  0.000000  0.000000  -22.166348173137923  7.032862500010917  -10.073470984425846  52.8297390225459  10.32218964056111  9.30288141384632  -15.66210346878534  6.460021268831044  46.019701601634374  16.3357179870475  120.000000
0.3614831460674157  0.000000  0.000000  0.000000  -22.561334393054665  7.1418205557401695  -10.218669824260932  52.1847680583361  10.63127083260732  9.084044602317457  -13.724383759614557  8.663564926139664  42.28981988201814  15.706455482507568  120.000000
0.40164794007490634  0.000000  0.000000  0.000000  -23.068113224634605  7.263942043926374  -10.339094563813187  51.53412704810665  10.94954483833772  8.860723010948428  -12.609997206014889  11.02522221126734  39.27692843493138  15.081505678865394  120.000000
0.441812734082397  0.000000  0.000000  0.000000  -23.681988377635165  7.4012823319785594  -10.412712146449913  50.89612923534285  11.280756076531828  8.635370834532816  -11.969644427704166  13.519144456675285  36.66587404567235  14.470922990513543  120.000000
0.48197752808988764  0.000000  0.000000  0.000000  -24.39253382839534  7.554660017411507  -10.417131510639656  50.286941199136024  11.625517981842421  8.408201847744337  -11.638694582772994  16.120327642297973  34.32505114777435  13.88264306980334  120.000000
0.5221423220973783  0.000000  0.000000  0.000000  -25.18722383478123  7.724883012081441  -10.331603618645994  49.72198881093344  11.979722237445023  8.177023365409351  -11.524721978820521  18.803920639165415  32.1936727041082  13.322940504010756  120.000000
0.5623071161048689  0.000000  0.000000  0.000000  -26.052343343165706  7.911559138761358  -10.138391831155259  49.21391449362418  12.334970519318091  7.9393087624943535  -11.565068483770784  21.544264265441484  30.23827816596989  12.795857173113111  120.000000
0.6024719101123596  0.000000  0.000000  0.000000  -26.973399180283582  8.111956391441042  -9.823141432316524  48.77391670438208  12.680210465280428  7.6922547847811975  -11.707698445758819  24.315419223677864  28.433015677984848  12.302821733916138  120.000000
0.6426367041198502  0.000000  0.000000  0.000000  -27.935857550933214  8.32277155271102  -9.378840334422668  48.411522367147334  13.005675062200957  7.435851022544726  -11.906544183657251  27.09184992660047  26.753817794865675  11.843294821923743  120.000000
0.6828014981273408  0.000000  0.000000  0.000000  -28.926374025820486  8.541088127551284  -8.806236228464257  48.134065551925154  13.304049754212778  7.172894438426076  -12.119770231555732  29.85046939432079  25.17597376415841  11.414271518619408  120.000000
0.7229662921348314  0.000000  0.000000  0.000000  -29.933562466594868  8.764550681753018  -8.109573050526407  47.946262789728074  13.568730138923568  6.906210370555155  -12.31144573694905  32.57160055767904  23.674776904542227  11.010487155404363  120.000000
0.7631310861423221  0.000000  0.000000  0.000000  -30.948065446069997  8.991545313763798  -7.2950041933793734  47.84918174727353  13.793673079043831  6.638091875600871  -12.453045561702334  35.23877506853379  22.227058430007276  10.62446103602519  120.000000
0.8032958801498127  0.000000  0.000000  0.000000  -31.962486695386456  9.221071617609873  -6.371456709576787  47.8394846345685  13.974871033813557  6.370972292479587  -12.524391254819651  37.838477036672685  20.8125891720328  10.247764872861342  120.000000
0.8434606741573034  0.000000  0.000000  0.000000  -32.96989186122578  9.452677157701812  -5.352746364261153  47.909527854499764  14.112013595010255  6.1088177031700015  -12.513454899248911  40.359703832205156  19.415304817061568  9.872480692389614  120.000000
0.883625468164794  0.000000  0.000000  0.000000  -33.962136657497965  9.68591964402704  -4.255751542939188  48.04831399723413  14.207094887047113  5.85652732795442  -12.415068143017201  42.79381912478788  18.02379950321987  9.493145684880181  120.000000
0.9237902621722847  0.000000  0.000000  0.000000  -34.92927283129478  9.920165060225242  -3.0980313352995186  48.242309724634225  14.262683126547817  5.618244654212391  -12.231138939832373  45.13401588262662  16.63315881369675  9.108105807362557  120.000000
0.9639550561797753  0.000000  0.000000  0.000000  -35.860578737325326  10.155222225238303  -1.8986849305102325  48.47542891841623  14.281536905585522  5.396917190444544  -11.9719263581438  47.37473042797112  15.247111331458091  8.720205768184446  120.000000
1.004119850187266  0.000000  0.000000  0.000000  -36.74581426505123  10.391278194707558  -0.6789007734948437  48.72917445770119  14.266475306587346  5.194050855298593  -11.654804483307204  49.51031231335848  13.87770640897982  8.336409756981835  120.000000
1.0442846441947566  0.000000  0.000000  0.000000  -37.575005964451826  10.628093386767341  0.53851136182111  48.984426462198755  14.219593675797636  5.00928469636091  -11.301504262802645  51.5335211916982  12.543204522303212  7.966726021247646  120.000000
1.0844494382022472  0.000000  0.000000  0.000000  -38.33847044688759  10.864112723367912  1.7300788487487875  49.22383155677352  14.142366994827757  4.84043485157902  -10.935061889000297  53.43491166251117  11.26548274571124  7.622992418248598  120.000000
1.1246142322097379  0.000000  0.000000  0.000000  -39.02796512979776  11.09731371111414  2.873220902332258  49.43341837772173  14.035678120607454  4.684232026254492  -10.57694579611627  55.204394203512905  10.067219741077341  7.31729894348615  120.000000
1.1647790262172284  0.000000  0.000000  0.000000  -39.638395877818205  11.325982346865294  3.948156377556665  49.603859882123714  13.900095121521561  4.5366260702841  -10.244935463715448  56.83312731156563  8.969479178153476  7.060550970567328  120.000000
1.2049438202247191  0.000000  0.000000  0.000000  -40.16887259862426  11.547948653856704  4.939094551351625  49.73133606084667  13.736066492827613  4.39293730826795  -9.952142688496535  58.31450040279173  7.9900775071487855  6.86111660553213  120.000000
1.2451086142322096  0.000000  0.000000  0.000000  -40.62259712794147  11.760224045554137  5.834325735488545  49.8174111809613  13.543690333136624  4.248230935657029  -9.707213591642907  59.644164166078546  7.142552306617027  6.723941512493685  120.000000
1.2852734082397004  0.000000  0.000000  0.000000  -41.00582136224103  11.958879660490393  6.626605366265256  49.86784600583579  13.323625894375011  4.0976754871288374  -9.514924928000081  60.819693363521544  6.435646293430935  6.6500295842752  120.000000
1.325438202247191  0.000000  0.000000  0.000000  -41.32588276823101  12.139650249519415  7.313597536425336  49.89063680681945  13.078039311953301  3.9373101753577573  -9.376348162725012  61.841117175212126  5.872390667998601  6.635761922076432  120.000000
1.3656029962546816  0.000000  0.000000  0.000000  -41.58971250055918  12.29869115543667  7.8981748262411475  49.89405129480056  12.81157193216269  3.765306890507126  -9.289249202549705  62.7114263350792  5.449788845934823  6.672602907612533  120.000000
1.4057677902621724  0.000000  0.000000  0.000000  -41.80330564836995  12.433015213634198  8.388063960932204  49.885360456427954  12.531863130505384  3.5822251610326763  -9.249028743085262  63.43657189255646  5.1589605620125765  6.747252049971094  120.000000
1.4459325842696629  0.000000  0.000000  0.000000  -41.97180981027217  12.540793717139286  8.794695031158914  49.87001027730576  12.249163174198737  3.390665112625319  -9.24954518646943  64.02490355084046  4.985903544541047  6.842568985753417  120.000000
1.4860973782771536  0.000000  0.000000  0.000000  -42.099552959781896  12.621416845740564  9.131604293269831  49.85134455136635  11.975328987833324  3.194649433717333  -9.28389994429378  64.48586958736271  4.912858983255059  6.939604268923779  120.000000
1.5262621722846441  0.000000  0.000000  0.000000  -42.1900707086021  12.675268165135135  9.41244268107992  49.83102033399554  11.722328739204004  2.998649793391878  -9.344686681633705  64.82840725809609  4.919844952023077  7.02023710345914  120.000000
1.5664269662921348  0.000000  0.000000  0.000000  -42.24578245277532  12.703405682924146  9.649065819678405  49.809516939047  11.50059296750778  2.806903736178583  -9.424172259626314  65.05894964921053  4.986337918669306  7.070141646056513  120.000000
1.6065917602996254  0.000000  0.000000  0.000000  -42.267511420314555  12.707097611688534  9.84983809927309  49.78684215899784  11.317609702475506  2.622783238993226  -9.514371041976453  65.17958118954695  5.092710991548125  7.081305816953559  120.000000
1.646756554307116  0.000000  0.000000  0.000000  -42.25392465481328  12.687443515885745  10.018632593203826  49.7630246146671  11.176943256247142  2.448574628139736  -9.607185612845129  65.18647963591945  5.221299306964164  7.053583981863505  120.000000
1.6869213483146068  0.000000  0.000000  0.000000  -42.200932164934514  12.645070206956596  10.15441828072351  49.73856564093495  11.07793888378091  2.2853847690332025  -9.694757656615087  65.06882649718926  5.356895930002868  6.994780578548771  120.000000
1.7270861423220973  0.000000  0.000000  0.000000  -42.1012662932101  12.579859797137255  10.251334049531751  49.714709745700624  11.015966241367499  2.1333749521822107  -9.769845998937448  64.80825063631448  5.486913763136089  6.919508953396252  120.000000
1.767250936329588  0.000000  0.000000  0.000000  -41.944494215364614  12.490880257344156  10.299077005016265  49.693614737733206  10.982897448088949  1.9921065592262046  -9.826282351972639  64.3790538119222  5.601335111706396  6.847337396803775  120.000000
1.8074157303370786  0.000000  0.000000  0.000000  -41.71794245517699  12.376489026036753  10.283648746253514  49.6783541377944  10.967708259368287  1.8608357187856528  -9.859234357399215  63.749483982280545  5.692908686418176  6.800585677615455  120.000000
1.8475805243445693  0.000000  0.000000  0.000000  -41.408172297964725  12.234604772122863  10.188266961519247  49.6725780147935  10.957070214191976  1.738668838003578  -9.865507864431846  62.88383561482347  5.757693284026191  6.801953064884744  120.000000
1.8877453183520598  0.000000  0.000000  0.000000  -41.003096291728454  12.062814627040497  9.994351847849108  49.6801092385226  10.93587596676668  1.62471085944744  -9.84335854396262  61.745448291950304  5.796122419626972  6.87192633634639  120.000000
1.9279101123595506  0.000000  0.000000  0.000000  -40.493725434653406  11.858375203433805  9.682878088102942  49.70417817671743  10.88798659742308  1.5182809728384956  -9.791873698687224  60.300406158996026  5.814465806740699  7.026032849294392  120.000000
1.9680749063670413  0.000000  0.000000  0.000000  -39.875306714062525  11.618059819664836  9.236468858139801  49.74676765181836  10.797684899833337  1.4195653506834454  -9.710335081781153  58.52178628014696  5.826512829392045  7.27227200408414  120.000000
2.008239700374532  0.000000  0.000000  0.000000  -39.14712406288055  11.338593908957074  8.641632380688389  49.80804269785303  10.65156545139346  1.3307589998411522  -9.59697544025455  56.3942005086419  5.854561994799542  7.60873469210121  120.000000
2.0484044943820225  0.000000  0.000000  0.000000  -38.31131371118757  11.017119068970088  7.892051997427988  49.88673168131989  10.441103300145297  1.257445444332326  -9.447785053821471  53.91734369614396  5.929458227929662  8.022271835465151  120.000000
2.0885692883895133  0.000000  0.000000  0.000000  -37.37171405616966  10.65120965066194  6.99082320724416  49.98166013180992  10.164844414132283  1.2095254090220535  -9.256845175987072  51.10835646621551  6.090023511970527  8.489131744919183  120.000000
2.1287340823970036  0.000000  0.000000  0.000000  -36.33377510074736  10.239444353372228  5.950811643188527  50.09316611377148  9.82870522776633  1.2007174215305803  -9.018588032789403  48.00091844978512  6.381567102990185  8.977644292497438  120.000000
2.1688988764044943  0.000000  0.000000  0.000000  -35.20582681675864  9.78213804412582  4.793796037934633  50.2238098689676  9.446293473034546  1.2465205727052882  -8.730743549236355  44.64190379185429  6.8530000248693055  9.453533144029267  120.000000
2.209063670411985  0.000000  0.000000  0.000000  -34.000989920741056  9.28298345771407  3.5504573931005448  50.37856073736891  9.038413977411427  1.3615473222273236  -8.397700186095951  41.08805985439729  7.553831906300705  9.886930017628142  120.000000
2.2492284644194758  0.000000  0.000000  0.000000  -32.73883328529202  8.7504935021269  2.2580387387898266  50.56457673528625  8.633440237608443  1.5579746140102222  -8.032890501014645  37.40296466699393  8.530551583423435  10.25947757048825  120.000000
2.2893932584269665  0.000000  0.000000  0.000000  -31.44527968727863  8.199048500459861  0.9572943817802729  50.79058498050782  8.265309278198476  1.8437698389088888  -7.659924154286571  33.65344529707773  9.823443466337196  10.5699774004899  120.000000
2.329558052434457  0.000000  0.000000  0.000000  -30.151463587994733  7.648426704097989  -0.3087737760814022  51.06587676070568  7.96843201242886  2.2201399560466353  -7.311533357086248  29.904972798059926  11.463254260837843  10.836136166688673  120.000000
2.3697228464419475  0.000000  0.000000  0.000000  -28.890195856575428  7.120456673492562  -1.5038767046140702  51.39890461426309  7.777701505200898  2.684035887217909  -7.02511912064112  26.218420362973983  13.467220151143863  11.091574313703404  120.000000
2.4098876404494383  0.000000  0.000000  0.000000  -27.692122950460654  6.636286173002365  -2.594445357907228  51.79848861322373  7.71978524057988  3.2255670502840377  -6.831322420461823  22.646172644834312  15.830082728403653  11.378789776023506  120.000000
2.450052434456929  0.000000  0.000000  0.000000  -26.584661597591936  6.214891076752538  -3.5390485476325564  52.27196929276929  7.800858302327149  3.8213923684747595  -6.744458365343133  19.228133584286574  18.516776647382937  11.739643231129707  120.000000
2.4902172284644193  0.000000  0.000000  0.000000  -25.595953687230217  5.871584436895541  -4.301307223137332  52.8177887442782  8.012863327620016  4.441077855017435  -6.7627792294710245  15.98950353105332  21.46504131141936  12.204462162512712  120.000000
2.53038202247191  0.000000  0.000000  0.000000  -24.75490855390883  5.616278294927034  -4.859978792208326  53.42348038511654  8.337370809403126  5.053266377585036  -6.872101309258881  12.939845878156193  24.59228499174372  12.783884039429237  120.000000
2.5705468164794008  0.000000  0.000000  0.000000  -24.086468510245975  5.45025547078808  -5.2117695051581965  54.06971921959802  8.747069040139419  5.631343818620151  -7.039403582939199  10.073982798679971  27.795263642585393  13.468174670340069  120.000000
2.6107116104868915  0.000000  0.000000  0.000000  -23.608705399849505  5.364098613337942  -5.37735679460391  54.7324901228484  9.213273846785144  6.161296577273276  -7.202972064503975  7.3753645209571745  30.94545154541821  14.231643144326759  120.000000
2.650876404494382  0.000000  0.000000  0.000000  -23.327782359818944  5.340874441466675  -5.393260150158569  55.3808955580162  9.703057699439242  6.639199833120379  -7.331519943094368  4.820951199794984  33.95372459299791  15.03633990098947  120.000000
2.6910411985018725  0.000000  0.000000  0.000000  -23.237735703616714  5.361519911925454  -5.302088225015992  55.98372378338735  10.180663655073886  7.0610978291970925  -7.674559283653774  2.3880610084910376  37.02410245230988  15.838815542597441  120.000000
2.7312059925093632  0.000000  0.000000  0.000000  -23.31268372755951  5.410863850912457  -5.150173639137363  56.52369577974277  10.617720951053347  7.419021941391424  -47.91216022241323  0.07940656970091192  79.80563713434358  16.596753974234904  120.000000
2.771370786516854  0.000000  0.000000  0.000000  -23.50796541808272  5.479070043755653  -4.976835998232981  56.990961687991415  10.99694274053531  7.710151894294335  176.5341712337686  2.172935535371637  -142.29323734950773  17.272511335195524  120.000000
2.8115355805243447  0.000000  0.000000  0.000000  -23.77930771560121  5.55936763885659  -4.807073604747893  57.377532369075425  11.314456240125445  7.937714413165863  177.11582419060161  4.301690229857367  -140.7254599430517  17.836733107765944  120.000000
2.851700374531835  0.000000  0.000000  0.000000  -24.08958404833555  5.648034346686147  -4.651921249576429  57.68270349515337  11.577597811983093  8.10791619763124  178.4339865559474  6.314779829177387  -140.08787039536705  18.271318369619998  120.000000
2.8918651685393257  0.000000  0.000000  0.000000  -24.413071541192227  5.741726011657436  -4.5111299126839945  57.910932662566694  11.798502680146614  8.232412391998684  -179.9615317939855  8.195704389130492  -139.9243167357977  18.57189828276552  120.000000
2.9320299625468165  0.000000  0.000000  0.000000  -24.73473185664483  5.837258373472549  -4.3803861890419995  58.068766489006315  11.99001760694676  8.32549833588844  -178.22862862598805  9.929823781078026  -140.07328226095768  18.74537930980389  120.000000
2.972194756554307  0.000000  0.000000  0.000000  -25.044412047785457  5.934659769994674  -4.256233476356383  58.16336262440649  12.162909192276386  8.397286009157014  -176.44664292705713  11.507455624118647  -140.451373698946  18.806578118856155  120.000000
3.012359550561798  0.000000  0.000000  0.000000  -25.336227169800797  6.03648009551982  -4.1392023341936985  58.203074177026714  12.324235703642723  8.45210359284993  -174.6735730990551  12.924929501945325  -140.99513718439894  18.775841855607197  120.000000
3.0525243445692882  0.000000  0.000000  0.000000  -25.605846052007532  6.143744386583028  -4.032757298667226  58.195096988460136  12.47596919263553  8.493886075962305  -172.9537008806745  14.184004755414778  -141.65301608259304  18.676990573338806  120.000000
3.092689138576779  0.000000  0.000000  0.000000  -25.848637694682544  6.25447408863046  -3.941340073865618  58.146452775240625  12.616399130763313  8.526363309342496  -171.32279973978072  15.288879159781441  -142.38104471360163  18.534866579591  120.000000
3.1328539325842697  0.000000  0.000000  0.000000  -26.060592227615214  6.3660614103379825  -3.869893906993353  58.064471575055435  12.742354030583627  8.552767905365553  -169.810907820845  16.2443136128383  -143.14022463241332  18.371872365206077  120.000000
3.1730187265917604  0.000000  0.000000  0.000000  -26.238557591565844  6.4759964981338705  -3.82336465378289  57.95607514335391  12.850356339622708  8.575770165305647  -168.44183490701903  17.054548078029814  -143.8975327512513  18.205676590837378  120.000000
3.2131835205992507  0.000000  0.000000  0.000000  -26.38018933981075  6.581832287564121  -3.806116317949347  57.82762016163737  12.937304211050773  8.597797377365694  -167.23350311313104  17.72265332596511  -144.6252887371469  18.04766844674606  120.000000
3.2533483146067415  0.000000  0.000000  0.000000  -26.48379173951289  6.681331694863872  -3.8217515161715223  57.68464679443847  13.000601843355438  8.62112495613247  -166.19828203816166  18.250626977917296  -145.3012452640444  17.903304092334338  120.000000
3.293513108614232  0.000000  0.000000  0.000000  -26.54833528174513  6.772765675824182  -3.8732017382066375  57.53245377375381  13.038086598921266  8.647341525749537  -165.3445603805827  18.639463458322243  -145.90713472279865  17.773474425299693  120.000000
3.333677902621723  0.000000  0.000000  0.000000  -26.57341493324284  6.855041233683971  -3.9625514742046275  57.37587241034945  13.048479139050205  8.677696430009803  -164.6777803305369  18.88905392625241  -146.4280611441376  17.656274082689144  120.000000
3.3738426966292137  0.000000  0.000000  0.000000  -26.559327073736846  6.927212763071637  -4.090424490788936  57.21854220717595  13.03186899667929  8.713737442189107  -164.1998097059718  18.997727439878318  -146.85318429129615  17.548753169817473  120.000000
3.414007490636704  0.000000  0.000000  0.000000  -26.5070566308385  6.98880615157138  -4.255583054973395  57.063286769266156  12.989413786954607  8.756911974843971  -163.91034175753057  18.96244386624797  -147.17462699954535  17.44826674450991  120.000000
3.4541722846441947  0.000000  0.000000  0.000000  -26.41828512267537  7.040000464021452  -4.455648679705407  56.91240708527839  12.923132305358676  8.808048403980735  -163.807314251761  18.779102949354765  -147.3872055317884  17.35333648437162  120.000000
3.4943370786516854  0.000000  0.000000  0.000000  -26.295570367714983  7.081505961777503  -4.687312857423741  56.76727791563886  12.83578416257637  8.867811680655898  -163.88562164521426  18.44308570402854  -147.48956392425475  17.26346655406974  120.000000
3.534501872659176  0.000000  0.000000  0.000000  -26.14236811847674  7.114553030077954  -4.946366764427388  56.62872387278873  12.730878048760852  8.93648078417408  -164.1398666252512  17.949084866950876  -147.48184434887298  17.17854984081376  120.000000
3.574666666666667  0.000000  0.000000  0.000000  -25.962925394632272  7.140849706971552  -5.227192822365591  56.496993246239235  12.612604094849415  9.01398274122849  -164.56494313959382  17.29117287004677  -147.36490724953518  17.09788480905911  120.000000
3.614831460674157  0.000000  0.000000  0.000000  -25.76229399144552  7.162553436256525  -5.522740108534322  56.37116037981703  12.485403389637213  9.100023873301195  -165.15403946746147  16.463449584895713  -147.14229270131895  17.01886372847786  120.000000
3.654996254681648  0.000000  0.000000  0.000000  -25.54604080715254  7.18206322942368  -5.82674480182555  56.24900727608937  12.353861415923253  9.194049196631989  -165.89735463089738  15.461503978855845  -146.82083442086932  16.9363419061311  120.000000
3.6951610486891386  0.000000  0.000000  0.000000  -25.318664593317315  7.200941449210252  -6.136117026540897  56.12827124365314  12.221885723975637  9.294941829445479  -166.78658824373605  14.283730255862222  -146.40578103813237  16.84268365848836  120.000000
3.7353258426966294  0.000000  0.000000  0.000000  -25.08231929331739  7.217916893362816  -6.451997366595428  56.007234109064015  12.09158903803293  9.401904889501054  -167.81870033322272  12.932367607149422  -145.89708351740865  16.728833286780393  120.000000
3.7754906367041197  0.000000  0.000000  0.000000  -24.835473111651275  7.228868471281025  -6.7802634656933325  55.88620195517224  11.962126143214599  9.514374434386513  -169.0053641074286  11.413830883586163  -145.2807194459204  16.58568573159499  120.000000
3.8156554307116104  0.000000  0.000000  0.000000  -24.571861572012587  7.226898432390136  -7.13054683901694  55.766632626803776  11.828832698459003  9.631656554084334  -170.3775131755764  9.738973003852529  -144.52383462850344  16.404727899558512  120.000000
3.855820224719101  0.000000  0.000000  0.000000  -24.28223715006523  7.201782575445352  -7.515457171424397  55.64934126818998  11.6852246498846  9.752788546307256  -171.9946695116  7.922349528310854  -143.56571862850768  16.178097507305147  120.000000
3.895985018726592  0.000000  0.000000  0.000000  -23.956172906591465  7.142567439885993  -7.948876189599889  55.53436823671553  11.525154167605551  9.876848464102935  -174.00030317742275  5.98089047931342  -142.2624663175073  15.89940048711536  120.000000
3.9361498127340826  0.000000  0.000000  0.000000  -23.582730473413193  7.039830837277277  -8.443048657356515  55.42105612424553  11.34420638906057  10.003123849561716  -176.89012633659226  3.9326236123970197  -140.11853678562363  15.565224945239507  120.000000
3.976314606741573  0.000000  0.000000  0.000000  -23.156744460965285  6.886287117575635  -9.00588790640867  55.3082387385426  11.14261006368467  10.13129490684686  176.19085052974856  1.7998084522592408  -133.99136638353156  15.176552376322213  120.000000
4.016479400749064  0.000000  0.000000  0.000000  -22.686905258762476  6.67871901418622  -9.637796239987704  55.194194666074864  10.92795500971482  10.26128541717498  40.51048194652089  0.5742160746990074  0.8444447620911719  14.74026656178778  120.000000
4.056644194756554  0.000000  0.000000  0.000000  -22.195097695546643  6.420143584747145  -10.329436107796443  55.07610433771033  10.717321073458717  10.393023243463984  11.378526208512948  2.8266566187150692  29.070013880048222  14.269152401981488  120.000000
4.096808988764045  0.000000  0.000000  0.000000  -21.710627206714104  6.120642879431357  -11.062488522113807  54.950940140636284  10.536480942868849  10.525725678873869  7.549206769890038  5.262678501340112  31.923171366380988  13.780831651517458  120.000000
4.136973782771536  0.000000  0.000000  0.000000  -21.2670136295797  5.795554266350826  -11.81318180532454  54.81686176290214  10.415026130153036  10.657107956316437  5.835295860685908  7.829250294438219  32.586207789583725  13.296126706583125  120.000000
4.177138576779027  0.000000  0.000000  0.000000  -20.89840131864036  5.462766262719126  -12.556104005513587  54.67272980373693  10.379716473273245  10.78433880011588  4.869743611365098  10.537232764358876  32.42548282091039  12.837595356593045  120.000000
4.217303370786517  0.000000  0.000000  0.000000  -20.635620947571983  5.14071470004127  -13.266716033147793  54.5182332587694  10.450211907566551  10.903380658758929  4.32201435613682  13.39472144085691  31.774554533607226  12.426784890733366  120.000000
4.257468164794007  0.000000  0.000000  0.000000  -20.50344720097725  4.845772841031812  -13.923284791809072  54.354183488131085  10.638346154251913  11.007755147769288  4.05735706355233  16.402415482027525  30.772446788391992  12.079186731072927  120.000000
4.297632958801498  0.000000  0.000000  0.000000  -20.517474246217915  4.59118590076552  -14.508489612465562  54.18083812959685  10.947446220390846  11.091101268943866  3.9967075913656767  19.551827233630558  29.502450504597654  11.801661962953931  120.000000
4.337797752808989  0.000000  0.000000  0.000000  -20.683823667730742  4.386049496872617  -15.01008950116333  53.997744549926935  11.372492161476073  11.150254206099325  4.087777858450131  22.8256727037747  28.02020108865627  11.591406478953882  120.000000
4.377962546816479  0.000000  0.000000  0.000000  -21.000755960332143  4.234476969702122  -15.420421750632176  53.80534498861806  11.90078207898398  11.184270008687992  4.295785341915676  26.200537349122186  26.363010837637017  11.436727110400321  120.000000
4.41812734082397  0.000000  0.000000  0.000000  -21.459171176112207  4.1377954969243875  -15.734344781065683  53.6075054811661  12.512029266357345  11.191757719012115  4.598891835792227  29.648696682784625  24.555062918853316  11.320569463310793  120.000000
4.458292134831461  0.000000  0.000000  0.000000  -22.042735321056  4.09269676207228  -15.946762136791769  53.4105442160674  13.180343218413393  11.172826305193565  4.984386357530554  33.139523963960734  22.612999476323065  11.224624056498977  120.000000
4.4984569288389515  0.000000  0.000000  0.000000  -22.729550237802755  4.091500872027629  -16.0527600183029  53.222385420008074  13.877295494062505  11.129994344066967  5.4425526828617485  36.64202866542089  20.553145710438017  11.133795704265838  120.000000
4.538621722846442  0.000000  0.000000  0.000000  -23.49593814879995  4.128075528023519  -16.049019349105503  53.050981166327546  14.574181744070291  11.065613253227374  5.96082853348612  40.12631785935626  18.39738335351296  11.038085676528114  120.000000
4.578786516853933  0.000000  0.000000  0.000000  -24.318856233071838  4.198219025589989  -15.933884922094697  52.89979908747304  15.244851618832136  10.97982155400481  6.5213503344028245  43.56386261266831  16.17486161427606  10.932288379381276  120.000000
4.618951310861423  0.000000  0.000000  0.000000  -25.176898902479156  4.299770168162191  -15.706805994543627  52.76873964729647  15.866376909899756  10.870615128282564  7.103916859706373  46.92735952398211  13.918351487874167  10.816678197594344  120.000000
4.659116104868914  0.000000  0.000000  0.000000  -26.051270829994543  4.432701563654095  -15.36781530541341  52.65591800665713  16.41914293539633  10.735676418121336  7.690276158830776  50.19128368415571  11.659940011934234  10.69700089547541  120.000000
4.699280898876404  0.000000  0.000000  0.000000  -26.9255845263518  4.597235922164476  -14.917464895082851  52.55766929378973  16.888635868330795  10.572083119894213  8.26514577133604  53.33331618032766  9.42847876338126  10.582428999484813  120.000000
4.739445692883895  0.000000  0.000000  0.000000  -27.786521488061805  4.793594494984737  -14.357012598365317  52.46871691884631  17.26619611847595  10.376762258411174  8.815273902514614  56.3345015784048  7.24882452515413  10.483642260557161  120.000000
4.779610486891386  0.000000  0.000000  0.000000  -28.624961127755494  5.021247453349691  -13.688843303237979  52.38320256180108  17.548382640702492  10.147437282003763  9.329452971501395  59.17908441861915  5.140534879078445  10.411115538789952  120.000000
4.8197752808988765  0.000000  0.000000  0.000000  -29.435621111179994  5.278222826053738  -12.917256522134565  52.29606218102295  17.736108854619886  9.882999142516574  9.798415572714307  61.854326408355575  3.117481418763646  10.374230336930218  120.000000
4.859940074906367  0.000000  0.000000  0.000000  -30.215858473509684  5.560728622933016  -12.048831005272302  52.203948488103  17.834264911590207  9.583617133075368  10.214888482274029  64.35055673928004  1.1883107060613358  10.380851567513801  120.000000
4.900104868913858  0.000000  0.000000  0.000000  -30.964367253408625  5.863323584207207  -11.092462129184932  52.10584962864504  17.851219413512755  9.250948274115325  10.573672891093038  66.66125518967424  -0.6426293782085283  10.436894481632198  120.000000
4.940269662921349  0.000000  0.000000  0.000000  -31.68013386376516  6.179065303525612  -10.059697470206224  52.00311003390484  17.797893186563666  8.888194690945268  10.871447871043395  68.7827879579487  -2.3739075008862414  10.546195914113039  120.000000
4.980434456928839  0.000000  0.000000  0.000000  -32.36176294005313  6.499713677110646  -8.964319997889739  51.89930397980049  17.68592686396491  8.499595168426652  11.106686867896089  70.71377340732913  -4.005493397554466  10.710148794184965  120.000000
5.020599250936329  0.000000  0.000000  0.000000  -33.00683507868722  6.816101008780243  -7.821848949295298  51.79968630052968  17.526460938145235  8.09004111488904  11.279746700827145  72.45450966084309  -5.537317503065091  10.92746579796241  120.000000
5.06076404494382  0.000000  0.000000  0.000000  -33.611287184410685  7.118735709005296  -6.649438529124232  51.71026852990304  17.330187264358603  7.66505941868354  11.393040809303766  74.00658099230036  -6.967734880273954  11.193749988556002  120.000000
5.100928838951311  0.000000  0.000000  0.000000  -34.16909537981466  7.398646388360323  -5.465745499771204  51.63698979936253  17.107319253344663  7.230950853374608  11.451118670282693  75.37240452206149  -8.292231970511239  11.501056510566402  120.000000
5.1410936329588015  0.000000  0.000000  0.000000  -34.67238895204345  7.647871759452832  -4.2907234680953925  51.584847219105235  16.867242777795244  6.794262419917762  11.460680828413299  76.55474449298157  -9.502599034662898  11.837525190466962  120.000000
5.181258426966292  0.000000  0.000000  0.000000  -35.112219362105996  7.859870385239927  -3.145537654145019  51.55713589738227  16.617903672819423  6.361486837398971  11.430210011531475  77.55617263698426  -10.586256396997808  12.187244566390799  120.000000
5.221423220973783  0.000000  0.000000  0.000000  -35.479555020781916  8.02978083657797  -2.052467311742008  51.55496795006874  16.36533319799249  5.938736922434726  11.369678778574063  78.37850373522507  -11.526589709295589  12.53051226460855  120.000000
5.261588014981274  0.000000  0.000000  0.000000  -35.765821161030495  8.154412581203692  -1.0345025203479554  51.577501918285726  16.113346738779992  5.531403454882802  11.28989590288126  79.02208603513668  -12.304978279201551  12.845105966847644  120.000000
5.301752808988764  0.000000  0.000000  0.000000  -35.963293074279406  8.232072101227951  -0.11484360364677187  51.6224600836851  15.863551566195774  5.144005618812248  11.201801948744379  79.48510805380029  -12.902828909840764  13.108564749518566  120.000000
5.341917602996254  0.000000  0.000000  0.000000  -36.065435396796225  8.26233605662828  0.683675099152179  51.68694585565621  15.615504687603725  4.780394924518279  11.11566106892598  79.76288628478049  -13.304271509313756  13.301455865332372  120.000000
5.382082397003745  0.000000  0.000000  0.000000  -36.066995573939195  8.24553578494084  1.3392505502770982  51.76828785997631  15.367111024231129  4.444164577407134  11.040094663434092  79.84725098761984  -13.499166814732177  13.410909854031864  120.000000
5.422247191011236  0.000000  0.000000  0.000000  -35.96418807133194  8.182385114867506  1.8317702265153846  51.864583212353566  15.115081237138945  4.139057050842172  10.981134571305189  79.72622548952297  -13.48518522851256  13.433240504006761  120.000000
5.4624119850187265  0.000000  0.000000  0.000000  -35.75489104846749  8.073440716123265  2.143555769336504  51.974784655618365  14.85550795628173  3.8694985250509335  10.941400913171876  79.38414525041587  -13.26896823378515  13.375048623562312  120.000000
5.502576779026217  0.000000  0.000000  0.000000  -35.43882998178765  7.918832941362842  2.2599652153284184  52.09833920509487  14.584740874272962  3.6408926400771215  10.919894461326471  78.8026009337208  -12.8649933918174  13.252216477398541  120.000000
5.542741573033708  0.000000  0.000000  0.000000  -35.01794252366583  7.718607806995536  2.170577426213423  52.234413045151506  14.300141317589322  3.459851952915716  10.912323783301185  77.96221703041739  -12.29323693966795  13.087040342942554  120.000000
5.582906367041199  0.000000  0.000000  0.000000  -34.49676480717331  7.473099461371541  1.8709198110428915  52.38098155061357  14.001129801191588  3.3338624031668216  10.911501222099778  76.84506769885476  -11.576885872392177  12.90399479041783  120.000000
5.623071161048689  0.000000  0.000000  0.000000  -33.88271021393238  7.183595436394571  1.3638709539828608  52.533988603455725  13.690192997886  3.2708443190192305  10.908019955655188  75.43712462906886  -10.738979507443032  12.725455410434813  120.000000
5.66323595505618  0.000000  0.000000  0.000000  -33.18593063235221  6.853066939868843  0.6602105253773769  52.68737106508717  13.373396437325285  3.2782809652805334  10.891255699837908  73.73026455028388  -9.799418621792503  12.56827114612305  120.000000
5.70340074906367  0.000000  0.000000  0.000000  -32.418806886716254  6.4866712567524045  -0.2214519571996452  52.83393427330346  13.059763814033413  3.362173381243944  10.85066480700486  71.72334178947509  -8.773174371486128  12.442011925425321  120.000000
5.743565543071161  0.000000  0.000000  0.000000  -31.59486878572124  6.091898200891413  -1.2555689306958613  52.96661285790054  12.760041609174623  3.52596109511616  10.777203809668817  69.42239974783622  -7.669637138482843  12.349011923209522  120.000000
5.7837303370786515  0.000000  0.000000  0.000000  -30.727690936650664  5.678538465711441  -2.4110999975217493  53.080032858604355  12.485144968835165  3.7698998524865655  10.664451099936986  66.84025866339216  -6.493015521806877  12.285743152010276  120.000000
5.823895131086142  0.000000  0.000000  0.000000  -29.830284373733683  5.258139080820162  -3.6533501138095676  53.17165454144264  12.244549001445174  4.090675101904471  10.509317706971656  63.99587551638123  -5.2433618000020195  12.24505446554208  120.000000
5.864059925093633  0.000000  0.000000  0.000000  -28.915305849303788  4.84332338721289  -4.946346893429401  53.24214330489705  12.04501882058985  4.481899435024723  10.312393523886453  60.913442483035624  -3.917899308188675  12.218137485706166  120.000000
5.904224719101124  0.000000  0.000000  0.000000  -27.995745616013604  4.446890276770359  -6.255290060525606  53.29493510920055  11.890301215292501  4.9348361420580735  10.077270041582155  57.621928949646346  -2.512104830781289  12.196373756893287  120.000000
5.944389513108614  0.000000  0.000000  0.000000  -27.08596948756568  4.081734533435299  -7.547180509915092  53.335344752769466  11.780374369659247  5.43830371548336  9.809432073195271  54.154920239014444  -1.0204428043652036  12.172741512137238  120.000000
5.984554307116105  0.000000  0.000000  0.000000  -26.202661455328794  3.760375839987803  -8.79141543185316  53.36882163361007  11.712064298182082  5.979743457735789  9.515050080044348  50.54978472444782  0.5629779429265594  12.14225930654533  120.000000
6.024719101123596  0.000000  0.000000  0.000000  -25.364245718793207  3.494029179661601  -9.96076807680685  53.39939112265007  11.681022167641052  6.545716513793686  9.198660959095607  46.84677343168568  2.2447573127817853  12.102395083422833  120.000000
6.064883895131086  0.000000  0.000000  0.000000  -24.58923148210072  3.293629444538046  -11.029740316879687  53.43059349757685  11.68140600240099  7.120887020713293  8.863226654686924  43.0880078193027  4.03145537536577  12.053398783078  120.000000
6.1050486891385765  0.000000  0.000000  0.000000  -23.89339858628412  3.167827198272519  -11.974859676501778  53.466509437439846  11.708612236359334  7.688980626285044  8.511892975779274  39.31577069971679  5.92759934575515  11.999277023556278  120.000000
6.145213483146067  0.000000  0.000000  0.000000  -23.288717107845876  3.121002348802105  -12.775519805358059  53.51190158917094  11.76074454258512  8.235384534299133  8.147453720117843  35.56956349602932  7.935849137995486  11.948379951344021  120.000000
6.185378277153558  0.000000  0.000000  0.000000  -22.784513601218684  3.154491811553603  -13.415701945331886  53.57153124082197  11.837897064406075  8.747997449437145  7.772075926920825  31.884771148266072  10.056904394947233  11.91195078531478  120.000000
6.225543071161049  0.000000  0.000000  0.000000  -22.387072394135025  3.2667008441957197  -13.884839790000127  53.64956293128928  11.94291235217143  9.216798907210963  7.38596304779908  28.29229727811663  12.290131624327248  11.902662417530491  120.000000
6.265707865168539  0.000000  0.000000  0.000000  -22.099025218407704  3.4527229228314362  -14.175769005850915  53.74989738935831  12.079180177347833  9.633374835896037  6.9878192894486535  24.818367407300823  14.633388900092633  11.934019450388101  120.000000
6.30587265917603  0.000000  0.000000  0.000000  -21.918934533968997  3.703978314152913  -14.285113986447085  53.876162304612784  12.249190074484538  9.991314203996835  6.576247568813741  21.483854089703527  17.081955108636848  12.01940514630435  120.000000
6.346037453183521  0.000000  0.000000  0.000000  -21.841539454437598  4.008075363355725  -14.214376761949417  54.032030689484685  12.453814946930143  10.286614744443527  6.150521588854586  18.304231856959788  19.62754077426389  12.170629099636308  120.000000
6.386202247191012  0.000000  0.000000  0.000000  -21.858800298032047  4.349009131040553  -13.97022243025027  54.22088939694237  12.691314315183728  10.517871001313674  5.71200543433866  15.289637684643736  22.25647743469516  12.39699654017514  120.000000
6.426367041198501  0.000000  0.000000  0.000000  -21.95948828332307  4.707669080822211  -13.564342007540343  54.443620980119526  12.956321170202877  10.686177208086175  5.257538041839029  12.44390378518031  24.95554511525332  12.703601094306851  120.000000
6.466531835205992  0.000000  0.000000  0.000000  -22.13124290660063  5.063104464221094  -13.013508366985862  54.696378892750296  13.239911015497254  10.7949689792319  4.763960254364092  9.765182466512407  27.726496185895964  13.089656119573544  120.000000
6.506696629213483  0.000000  0.000000  0.000000  -22.360483322604576  5.395730781227147  -12.340774747133848  54.97286749175977  13.531720796743448  10.847893641577631  4.156500119697917  7.2481993758334395  30.616624438565534  13.547600891257247  120.000000
6.546861423220974  0.000000  0.000000  0.000000  -22.63145016112068  5.690954559973589  -11.57499283706318  55.26732966216351  13.819665384812374  10.845751198457263  3.204572929445035  4.886554654453885  33.82367567672198  14.062332127038918  120.000000
6.587026217228464  0.000000  0.000000  0.000000  -22.93168098422757  5.939394920179198  -10.748247266060632  55.57102668199466  14.089567614729125  10.788801613916734  0.90256166389357  2.6745576557543496  38.31629580293392  14.611728203614032  120.000000
6.627191011235955  0.000000  0.000000  0.000000  -23.252789302470894  6.136047658914301  -9.89331467652986  55.87170996040096  14.327384201078223  10.678026815947433  -16.5547798628163  0.6350666767258296  57.86028614132491  15.167936410868833  120.000000
6.667355805243446  0.000000  0.000000  0.000000  -23.58759109852334  6.28045007151071  -9.040056945064299  56.15812616353554  14.521819223065858  10.514965410874721  -162.92075874218133  1.3832735252390072  -153.82914150502813  15.700971007477948  120.000000
6.707520599250937  0.000000  0.000000  0.000000  -23.92881145862237  6.375316708117631  -8.212181465943573  56.42224581065301  14.666286644597308  10.30349118966255  -168.43778643248874  3.1863907601381323  -146.5428509284674  16.182680485462555  120.000000
6.747685393258427  0.000000  0.000000  0.000000  -24.267806678926043  6.4241368051214  -7.426511901311416  56.66028406722772  14.760036488626968  10.050977242670548  -169.60034882310956  4.871552758876252  -143.81147512273915  16.590449187580273  120.000000
6.787850187265918  0.000000  0.000000  0.000000  -24.596692022714905  6.431931943879811  -6.693936674782457  56.870244990723485  14.806372113749841  9.769943908293868  -169.8989037778003  6.4334082423321455  -142.15816692886236  16.910822752573242  120.000000
6.828014981273408  0.000000  0.000000  0.000000  -24.908983681986467  6.40579057759129  -6.019359429603675  57.05040430723381  14.81029508842012  9.474471166089854  -169.86220341997677  7.87260774277641  -141.0545643705173  17.14072981013203  120.000000
6.868179775280899  0.000000  0.000000  0.000000  -25.19942124595761  6.35352435779772  -5.402496214428896  57.20175703185712  14.779249869825557  9.173668604657976  -169.6412045263552  9.188647901637509  -140.33792859073628  17.28824807562174  120.000000
6.908344569288389  0.000000  0.000000  0.000000  -25.466257113161856  6.28393349147129  -4.841085110292667  57.327906116961316  14.722265871118994  8.872757815943007  -169.31036239053145  10.38015881575311  -139.91428334061413  17.37073762453366  120.000000
6.94850936329588  0.000000  0.000000  0.000000  -25.709512557913232  6.2046543258823865  -4.332849800444388  57.43243155202198  14.647099708784722  8.57684520765487  -168.92460372936287  11.446827884426842  -139.706924889676  17.409224691588385  120.000000
6.988674157303371  0.000000  0.000000  0.000000  -25.928372947452168  6.120317530676194  -3.8756284306121738  57.51813939251474  14.559122379607649  8.290684837261301  -168.5245984041484  12.389771964086435  -139.6540162746528  17.42307668852597  120.000000
7.028838951310862  0.000000  0.000000  0.000000  -26.121907535570585  6.033812901182561  -3.4676459468944296  57.58739983160048  14.46175231565125  8.018237730261891  -168.13798006665527  13.211252309037473  -139.70728596680777  17.42745013466722  120.000000
7.069003745318352  0.000000  0.000000  0.000000  -26.28931705224511  5.947074302660078  -3.1078180472759054  57.64236129164009  14.356787554490761  7.762366223334419  -167.78085330420467  13.914473399518918  -139.83050943058504  17.432394881993268  120.000000
7.109168539325843  0.000000  0.000000  0.000000  -26.43007058868587  5.861503834630981  -2.795504834587746  57.684883081647676  14.244555441449132  7.524936927544889  -167.459314482541  14.503342731753209  -139.99811563601114  17.443141370018186  120.000000
7.149333333333334  0.000000  0.000000  0.000000  -26.54402040151915  5.778182397719078  -2.5302466149206286  57.71645614155247  14.124538909408544  7.307061627357424  -167.17138082709513  14.981935309348135  -140.19344985321024  17.461246289967743  120.000000
7.189498127340824  0.000000  0.000000  0.000000  -26.63124433219259  5.698035467987155  -2.3113062205404136  57.738232332363246  13.99584608559424  7.1093133104825705  -166.90820473522646  15.354048780188942  -140.40767726786476  17.485832194410914  120.000000
7.229662921348314  0.000000  0.000000  0.000000  -26.692070102602734  5.622063365072807  -2.137343107711043  57.751174489929895  13.857520839007332  6.931872623840748  -166.65630073544978  15.622913214521356  -140.63792500943134  17.514955384932588  120.000000
7.269827715355805  0.000000  0.000000  0.000000  -26.727259928115775  5.5513596237083  -2.006308883166904  57.756070971923336  13.708687229700908  6.774834007759854  -166.39974526770004  15.79090839120133  -140.88530510058243  17.546480104341917  120.000000
7.309992509363296  0.000000  0.000000  0.000000  -26.73795950986413  5.487081264772049  -1.915404955534284  57.75354199496598  13.548817887420682  6.638395268511052  -166.1213337461133  15.859346321558387  -141.1534959955685  17.578851364887957  120.000000
7.3501573033707865  0.000000  0.000000  0.000000  -26.725449824822878  5.430576271915517  -1.8611281276902334  57.74425521275895  13.378040463167629  6.522783869777119  -165.80309119429657  15.82839928732563  -141.44819913652734  17.611411329862086  120.000000
7.390322097378277  0.000000  0.000000  0.000000  -26.691360517491987  5.383433752471464  -1.839234211603486  57.7285550395021  13.197078740314849  6.428303931051987  -165.42415780971209  15.697317608655997  -141.77945902307698  17.64424381730307  120.000000
7.430486891385768  0.000000  0.000000  0.000000  -26.6374696067196  5.347729182227177  -1.8448318872814178  57.70663517825728  13.00719297339961  6.3551049625383085  -164.959276831841  15.464614841138065  -142.16328537683802  17.678069346776155  120.000000
7.470651685393259  0.000000  0.000000  0.000000  -26.565512408837158  5.326072091064907  -1.8727673926033004  57.678757184339304  12.810400332685854  6.303250696988465  -164.37882300152816  15.1283048674022  -142.6219675716194  17.71405879205042  120.000000
7.5108164794007495  0.000000  0.000000  0.000000  -26.477309753507214  5.320793193205062  -1.9178812707425714  57.64502024308201  12.609119554826426  6.273119306566514  -163.64815596372944  14.686338710014036  -143.18486764373446  17.753536800012146  120.000000
7.550981273408239  0.000000  0.000000  0.000000  -26.37437370799982  5.333846185191139  -1.9755464950311181  57.60613332864147  12.405381586994737  6.265620600427836  -162.73001074926046  14.137366254259277  -143.8862319920571  17.797794011433133  120.000000
7.59114606741573  0.000000  0.000000  0.000000  -26.257763710082983  5.366755315957486  -2.0423607385845735  57.56415474066102  12.200655917714077  6.281729155908393  -161.58592602909712  13.480863018424564  -144.764437712011  17.84783282382361  120.000000
7.631310861423221  0.000000  0.000000  0.000000  -26.128156248785395  5.420132262090976  -2.115843068631264  57.521478940528894  11.99620480387905  6.322457218638666  -160.16812880001225  12.71735128081613  -145.87003249893803  17.903417156591654  120.000000
7.6714756554307115  0.000000  0.000000  0.000000  -25.98579729040763  5.493665951702725  -2.1947041159074376  57.48060967627295  11.792922584366398  6.389041115934157  -158.41029566797988  11.849199304268321  -147.27515200244878  17.962083218878725  120.000000
7.711640449438202  0.000000  0.000000  0.000000  -25.83035794481513  5.585830129798237  -2.2802460616067717  57.444655979606424  11.590127348739234  6.482629046511713  -156.21833337782002  10.882096807355195  -149.08361985422  18.019194432774345  120.000000
7.751805243445693  0.000000  0.000000  0.000000  -25.660947390823615  5.693311953119205  -2.3771530169967865  57.41730263769298  11.384559488336297  6.603655612460705  -153.45712078476217  9.826471756965091  -151.44430503028335  18.068068317897886  120.000000
7.791970037453184  0.000000  0.000000  0.000000  -25.475916447541298  5.81043135223657  -2.4933268652874285  57.402152504537284  11.17051896404421  6.7520679535792105  -149.9201577953025  8.698422457811233  -154.5819605672644  18.099777850560237  120.000000
7.8321348314606745  0.000000  0.000000  0.000000  -25.272881073740347  5.929608096208761  -2.6393088204543695  57.40224238464621  10.940653002499339  6.9273154440359725  -145.2745657319455  7.52088203410785  -158.8530943062859  18.103342347727203  120.000000
7.872299625468165  0.000000  0.000000  0.000000  -25.04989301774502  6.041658522539103  -2.8271460151630685  57.4182020194583  10.686268079378836  7.12859552814639  -138.9446879674551  6.327492022660964  -164.86316690684902  18.064923483206513  120.000000
7.912464419475655  0.000000  0.000000  0.000000  -24.80565145041043  6.13622754954743  -3.0702884652458744  57.44670046779509  10.399081056809411  7.3546252785820885  -129.8903911443441  5.172096061273387  -173.68874535200757  17.96746829586549  120.000000
7.952629213483146  0.000000  0.000000  0.000000  -24.539984326790314  6.204813809377755  -3.3815596578145684  57.48485133805112  10.072373436233898  7.60322924741869  -116.28280467449412  4.148254552860908  172.80407506214857  17.794198131722176  120.000000
7.9927940074906365  0.000000  0.000000  0.000000  -24.251812544031832  6.240523038945163  -3.768305052208686  57.53484114039605  9.702340615436587  7.872144649313336  -95.74228331462108  3.4296648434862367  152.20833841465475  17.534940037746377  120.000000
8.032958801498127  0.000000  0.000000  0.000000  -23.937869867353356  6.236168031754601  -4.229577081293984  57.60527800716868  9.292409931292518  8.161514223661294  -69.18166973810571  3.2705201314851395  125.42178837387549  17.188927949452342  120.000000
8.073123595505619  0.000000  0.000000  0.000000  -23.598519642098815  6.188634520883984  -4.754560795267742  57.707810270904886  8.854511218893123  8.476221222343264  -44.68490892865534  3.7810276042739632  100.51704254490282  16.762099344945867  120.000000
8.113288389513109  0.000000  0.000000  0.000000  -23.240275355358897  6.101363798151901  -5.321987752396402  57.8529415149273  8.408736284784473  8.82293485746672  -27.493381183168655  4.795377506172939  82.72861982173443  16.26570255973105  120.000000
8.153453183520599  0.000000  0.000000  0.000000  -22.873302908654484  5.983238676460105  -5.90265595057175  58.05008259281073  7.983186015952028  9.205410907403811  -16.199539953530998  6.129525982174033  70.6490217145478  15.716111542265365  120.000000
8.19361797752809  0.000000  0.000000  0.000000  -22.5119281487606  5.850093402182824  -6.464283309267653  58.30686482030443  7.609678239530818  9.623854046436925  -8.457437207770214  7.698655317651252  61.936240744330895  15.133160606281123  120.000000
8.23378277153558  0.000000  0.000000  0.000000  -22.173553476546633  5.723549888814806  -6.9747917374630894  58.62830988436112  7.318706313623289  10.074832118303519  -2.8148199118723967  9.478725129833844  55.146157776920354  14.538595764830736  120.000000
8.273947565543072  0.000000  0.000000  0.000000  -21.873726022243805  5.626816475833981  -7.405523576643917  59.01624549218739  7.135586766285722  10.552225769082716  1.506946371815338  11.467556826394937  49.51270213450973  13.954106428780356  120.000000
8.314112359550561  0.000000  0.000000  0.000000  -21.62348196818552  5.580233987290989  -7.733952506219952  59.4694761456679  7.0783738506426666  11.04922564993476  4.932668570809091  13.665086933534969  44.62824658469933  13.399110906180878  120.000000
8.354277153558053  0.000000  0.000000  0.000000  -21.428123273016094  5.596753516954301  -7.943669533462346  59.98311600531313  7.155411320164953  11.56013308096202  7.706268604799783  16.06397084093148  40.270408197313174  12.888786024725702  120.000000
8.394441947565543  0.000000  0.000000  0.000000  -21.286117195113363  5.681402969779984  -8.024650135644036  60.54936846311629  7.3642832333231425  12.079833744625843  9.980029658148258  18.64578092701282  36.312847885347196  12.432680371113458  120.000000
8.434606741573035  0.000000  0.000000  0.000000  -21.191230747516983  5.834722839611653  -7.972685058809355  61.15938342324827  7.6937107643594205  12.601074987317771  11.860326857269433  21.382331642517354  32.67767227613406  12.035118282033197  120.000000
8.474771535580524  0.000000  0.000000  0.000000  -21.136097617625435  6.054354277518009  -7.788214602442505  61.80156580212409  8.126238217477937  13.114728109959772  13.42365717454923  24.23951550210683  29.317071271351402  11.695069588432524  120.000000
8.514936329588014  0.000000  0.000000  0.000000  -21.113434073736084  6.333461485144478  -7.4744709028756295  62.461527525201944  8.640473240227314  13.611208237536722  14.72472068636918  27.179878765647647  26.20258126313209  11.407169560041998  120.000000
8.555101123595506  0.000000  0.000000  0.000000  -21.117329278853656  6.662793680914813  -7.035649108225426  63.125757280377336  9.212385532322811  14.083922348315992  15.808405612286244  30.165278222833976  23.311980054424314  11.164555173510989  120.000000
8.595265917602996  0.000000  0.000000  0.000000  -21.143234888596005  7.032323062084791  -6.476294929818645  63.78304391569479  9.817551449647834  14.529200408627796  16.714461361955028  33.16044201897502  20.624147304292016  10.96077944666969  120.000000
8.635430711610487  0.000000  0.000000  0.000000  -21.18818710247662  7.430467250102157  -5.801951029669456  64.42205124253192  10.43206589791432  14.943783403400309  17.472519184161264  36.13413597074879  18.122633646125607  10.789907668095708  120.000000
8.675595505617977  0.000000  0.000000  0.000000  -21.25289280982219  7.846208520535154  -5.019844055400866  65.03054164855745  11.03262591870503  15.324727401699702  18.10250849060089  39.058030343783855  15.79529416258139  10.647063307680897  120.000000
8.715760299625469  0.000000  0.000000  0.000000  -21.340494425223923  8.269917574969138  -4.138779839801914  65.59607915422066  11.597738565969188  15.669404363538217  18.619016690441914  41.906603640938336  13.631197865397016  10.528946587184162  120.000000
8.755925093632959  0.000000  0.000000  0.000000  -21.45445470207426  8.693216799929328  -3.1691912632230923  66.10824093355568  12.109098487433624  15.97609273598808  19.03398522163888  44.65728535962069  11.619003766364436  10.432771574080164  120.000000
8.79608988764045  0.000000  0.000000  0.000000  -21.597431505668382  9.10921959595144  -2.122984698893811  66.5594278731543  12.55164798937503  16.2440479389351  19.35693518216092  47.29022876775595  9.747489780157562  10.356818127384544  120.000000
8.83625468164794  0.000000  0.000000  0.000000  -21.77050941596355  9.512554083618422  -1.01344517980591  66.94428242141447  12.91401520571497  16.473191658056933  19.5953282866463  49.78791671035796  8.006305753353429  10.300200466758527  120.000000
8.87641947565543  0.000000  0.000000  0.000000  -21.97271764853016  9.899232819822096  0.14489042157839624  67.2602165126045  13.189153466628277  16.664031403823873  19.755558904329284  52.13572092698535  6.385870720871297  10.262118614120437  120.000000
8.916584269662922  0.000000  0.000000  0.000000  -22.200871453589006  10.266456420994816  1.3367609834951397  67.50759876432957  13.374683901630151  16.81770794041759  19.844164858611137  54.32225261608375  4.877564674308167  10.241551181787287  120.000000
8.956749063670411  0.000000  0.000000  0.000000  -22.449920412040473  10.612393385013618  2.546595210144032  67.68959809331956  13.472892554734551  16.93599038758935  19.868251714758294  56.33936377957758  3.4743825822555925  10.236908534827261  120.000000
8.996913857677903  0.000000  0.000000  0.000000  -22.713865678968812  10.935900746414148  3.758971054017177  67.81151073563925  13.490230667022844  17.02119056547525  19.835728798418202  58.18194899691166  2.171746345853015  10.24567547309842  120.000000
9.037078651685393  0.000000  0.000000  0.000000  -22.986683170427323  11.236297095469398  4.959110237155979  67.88008877517527  13.436477218219173  17.076064632817094  19.755466037066828  59.848037541546866  0.9679758056369988  10.2642923580157  120.000000
9.077243445692885  0.000000  0.000000  0.000000  -23.262892852040334  11.513116762381815  6.133397950246404  67.90286877647297  13.323962102491896  17.103694750863713  19.637406868017443  61.338787035943795  -0.13571769451117333  10.288325132696917  120.000000
9.117408239700374  0.000000  0.000000  0.000000  -23.537883231143255  11.766003095157233  7.269620977654  67.88773063355863  13.166634142750073  17.10750012808884  19.49231343859188  62.65803214647533  -1.1358010699128689  10.312869994492342  120.000000
9.157573033707866  0.000000  0.000000  0.000000  -23.807892484039254  11.994507515614483  8.3567883154031  67.84263923067212  12.97874504005858  17.09102041858587  19.331324326777974  63.81142284683072  -2.0273784606064087  10.333288538093436  120.000000
9.197737827715356  0.000000  0.000000  0.000000  -24.06952823006962  12.197833699784441  9.384651749802215  67.77580050074931  12.773363707265746  17.057673945891672  19.165641724054186  64.80508925821972  -2.8054407432729396  10.345963389688766  120.000000
9.237902621722846  0.000000  0.000000  0.000000  -24.31888632407792  12.37458323236494  10.343074005883688  67.69591736239242  12.561122832835547  17.010449309424462  19.00633236864521  65.64427184991835  -3.4660526283743267  10.348952957129944  120.000000
9.278067415730337  0.000000  0.000000  0.000000  -24.550960559967308  12.522839308692834  11.221686298218986  67.6123544004869  12.349398096690429  16.951640823872214  18.86419302711577  66.3321606832653  -4.0071714513351875  10.342227191208632  120.000000
9.318232209737827  0.000000  0.000000  0.000000  -24.759420681465034  12.640312623481437  12.009907763826927  67.53497997410045  12.142059994996519  16.882625855010602  18.749444746726297  66.86916129420125  -4.4288804119549905  10.327438930827755  120.000000
9.358397003745319  0.000000  0.000000  0.000000  -24.93677852152657  12.72458527658139  12.697220450368096  67.47363946653513  11.93974834913491  16.803682030418116  18.671429453540153  67.2526267763625  -4.732944637082195  10.307071802605837  120.000000
9.398561797752809  0.000000  0.000000  0.000000  -25.074889565793427  12.773332419735315  13.273668024401978  67.4372545062947  11.740440631633058  16.7139568807588  18.63809270958373  67.47693069646287  -4.921971999475673  10.283502518069664  120.000000
9.4387265917603  0.000000  0.000000  0.000000  -25.165835129834115  12.784490113124656  13.730108311301093  67.43281500421854  11.540452990151365  16.611513841301498  18.655517575935704  67.5338319963199  -4.998402308839708  10.257826249562152  120.000000
9.47889138576779  0.000000  0.000000  0.000000  -25.20255213324519  12.756314293617859  14.058331975856138  67.46430198406605  11.335132298912614  16.49362941416062  18.727499140212785  67.41276282854058  -4.963585450947826  10.2294135836627  120.000000
9.519056179775282  0.000000  0.000000  0.000000  -25.179151027363034  12.68727574878149  14.251344376289934  67.53229444302262  11.11885997271362  16.356940496777778  18.855578327475012  67.10107946576699  -4.81706185764082  10.195988087970134  120.000000
9.559220973782772  0.000000  0.000000  0.000000  -25.0911848410342  12.576138050051535  14.302903590592402  67.63380840335178  10.885811404987683  16.198022422970194  19.039134047027073  66.5844842825771  -4.556339620121929  10.154115701550875  120.000000
9.599385767790261  0.000000  0.000000  0.000000  -24.935974511850137  12.421999325300263  14.207009409956036  67.76164877065845  10.631272638467564  16.014112650887242  19.27514728076266  65.84755414749299  -4.177078891202127  10.100659842656292  120.000000
9.639550561797753  0.000000  0.000000  0.000000  -24.713230242880524  12.224172153269427  13.958344561918244  67.90437228361104  10.3519088841509  15.80350194881391  19.5578397196448  64.87469087111099  -3.6730933273867996  10.0342900715675  120.000000
9.679715355805243  0.000000  0.000000  0.000000  -24.42578003863512  11.982162172003903  13.553216237353334  68.04652263286061  10.046095738162876  15.565588364423594  19.878329368005186  63.65118110858938  -3.036520881280004  9.956842173589296  120.000000
9.719880149812735  0.000000  0.000000  0.000000  -24.080486132293025  11.696182377972683  12.990267507098775  68.16910617365134  9.714446497780116  15.300564724626874  20.223957801497964  62.164703939290085  -2.2577722253866797  9.874291610862004  120.000000
9.760044943820224  0.000000  0.000000  0.000000  -23.689030378130553  11.36741890218608  12.270889407392536  68.25011143389844  9.360017564126537  15.009183928935347  20.57794824885736  60.406350106637234  -1.3254767026666605  9.796662240212727  120.000000
9.800209737827716  0.000000  0.000000  0.000000  -23.26774859600987  10.997964416578359  11.400241480751205  68.26588431950223  8.987577861104123  14.692722715463486  20.919939777469843  58.37203036910235  -0.22655798115008927  9.737618741279299  120.000000
9.840374531835206  0.000000  0.000000  0.000000  -22.836101678855847  10.59124740661151  10.389280580113786  68.19434635366548  8.603892034367682  14.353033515512047  21.22773241049843  56.064237293826636  1.0531124332446629  9.713765578198277  120.000000
9.880539325842697  0.000000  0.000000  0.000000  -22.41456083564167  10.152765158410983  9.25517533525413  68.01832594161742  8.219276306737324  13.99329552109372  21.478368118798016  53.49379978051129  2.528061191600882  9.74319392765586  120.000000
9.920704119850187  0.000000  0.000000  0.000000  -22.023308566290453  9.690010703613849  8.02117560474384  67.72705226981697  7.847153774219988  13.617993184222776  21.64762594994002  50.68065017484546  4.2132949795727495  9.844092780528708  120.000000
9.960868913857677  0.000000  0.000000  0.000000  -21.68113375567811  9.212320182437205  6.71604868301102  67.31723496128006  7.502322559735524  13.231689899355846  21.709400825863305  47.65351529875836  6.123971618268871  10.032997463974805  120.000000
10.001033707865169  0.000000  0.000000  0.000000  -21.403784601202762  8.730947986083466  5.371900163348888  66.79417888062338  7.2000589462630415  12.838891100016516  21.63590142813174  44.44865427747695  8.274503001854303  10.323042243709674  120.000000
10.041198501872659  0.000000  0.000000  0.000000  -21.202030471215465  8.257999412609882  4.021612226261643  66.17214911982981  6.954757137059119  12.44396224947976  21.398238188896222  41.10857199035595  10.677062821306988  10.722778420952357  120.000000
10.08136329588015  0.000000  0.000000  0.000000  -21.081016681706505  7.805037132848678  2.6971334581410114  65.47340157306766  6.777756457322689  12.05167126472561  20.967028909736847  37.679655129688015  13.340796707237553  11.234921191757973  120.000000
10.12152808988764  0.000000  0.000000  0.000000  -21.03984721823886  7.381443208362126  1.427622727016347  64.72597051930417  6.676145558442268  11.667338833187507  20.312479463216636  34.2098945527937  16.271254304919648  11.854859711741797  120.000000
10.161692883895132  0.000000  0.000000  0.000000  -21.07220521488994  6.993561764134112  0.2382350029997455  63.96108975084792  6.652737168785081  11.296838905527476  19.40378670713251  30.746793588360298  19.47104371731963  12.569406663435288  120.000000
10.201857677902622  0.000000  0.000000  0.000000  -21.16837827937243  6.645950347512351  -0.8507110498196724  63.20914853316598  6.705588259925894  10.946268541765244  18.20944248512869  27.335877927736647  22.940222858585592  13.357038991418401  120.000000
10.242022471910113  0.000000  0.000000  0.000000  -21.316531924189643  6.340860762796974  -1.8238246992712246  62.49563829727478  6.8291737848359295  10.620200843957276  16.694832019739653  24.019317940189058  26.679864542915848  14.18883235294399  120.000000
10.282187265917603  0.000000  0.000000  0.000000  -21.504234921193806  6.078405828820418  -2.6707742205123943  61.83979296049375  7.015795367477555  10.32088923725156  14.818276564121197  20.836649623470528  30.69680694973937  15.029416388811681  120.000000
10.322352059925093  0.000000  0.000000  0.000000  -21.720786638845325  5.8580730395344345  -3.386128785753784  61.2542594692633  7.25708984377991  10.04896181211414  12.525226600598605  17.824398368097437  35.0108341663931  15.839439387287676  120.000000
10.362516853932584  0.000000  0.000000  0.000000  -21.958075275286017  5.678972857095346  -3.969397372513915  60.744414097926125  7.543958919570347  9.803557059658901  9.738846191573854  15.016733300947644  39.66598733127908  16.577770581737557  120.000000
10.402681647940074  0.000000  0.000000  0.000000  -22.210999153074294  5.540322059787244  -4.424412994598481  60.30943101208535  7.867034021650338  9.583359745754768  6.3520603159219275  12.445329999340432  44.7401290337064  17.20470968538288  120.000000
10.442846441947566  0.000000  0.000000  0.000000  -22.47598211393502  5.44089043292227  -4.759332508097304  59.944206945270764  8.216483474930918  9.387013319731263  2.2155967105515693  10.140442446306576  50.35835553150377  17.685482696703964  120.000000
10.483011235955056  0.000000  0.000000  0.000000  -22.749822328687337  5.378514355869828  -4.986012155026759  59.63992132989119  8.58107113509708  9.213578165378614  -2.8770388644274507  8.13002936201449  56.709637125646594  17.994224908322916  120.000000
10.523176029962547  0.000000  0.000000  0.000000  -23.028853186558845  5.350355125563172  -5.119409552797355  59.3869174127064  8.945838109394678  9.06183353971224  -9.167811932334399  6.440020351828858  64.02709412350181  18.119292066202526  120.000000
10.563340823970037  0.000000  0.000000  0.000000  -23.30354644695867  5.351340498437491  -5.177518841261857  59.177488586217926  9.293590808032098  8.930748811650552  -16.820291351223712  5.090966218642047  72.47508052768538  18.06788416410531  120.000000
10.603505617977529  0.000000  0.000000  0.000000  -23.55973386277888  5.373199535370664  -5.18006019252576  59.008928256400615  9.605409348066638  8.821277254328205  -25.589710153556442  4.092851648179677  81.81985145899777  17.871027039785506  120.000000
10.643670411985019  0.000000  0.000000  0.000000  -23.781209000647074  5.404931569792932  -5.147633147116521  58.87842934890859  9.859352936127923  8.739839268567295  -34.34030177747168  3.4325375799587223  90.94553076444254  17.58178118816767  120.000000
10.683835205992509  0.000000  0.000000  0.000000  -23.93440156045209  5.429791603580977  -5.104358694103474  58.78711175536126  10.033877856535677  8.691672018194833  -41.07473251454133  3.0729143336068954  97.88571778282908  17.27608890739425  120.000000
10.724  0.000000  0.000000  0.000000  -23.98779375452807  5.437875647249231  -5.083519681260248  58.752407360428926  10.09859210208011  8.675771228416462  -43.63909871125082  2.9630328993991064  100.51538667733824  17.0363025043848  120.000000
