simulation
nRows=100
nColumns=15
endheader
time  TH_x TH_y TH_z SC_y  SC_z  SC_x  AC_y  AC_z  AC_x  GH_y  GH_z  GH_yy  EL_x  PS_y
0.000000  0.000000  0.000000  0.000000  -15.050622  -0.191458  -4.513174  56.191635  9.862733  -3.368006  -0.677115  18.335665  32.579515  29.907603  90.727504
0.030303  0.000000  0.000000  0.000000  -15.209160  -0.009114  -3.761271  56.474796  9.755248  -3.094301  -0.214481  18.219301  31.277410  30.003620  90.726793
0.060606  0.000000  0.000000  0.000000  -15.462241  0.146142  -3.187908  56.845872  9.802561  -2.829334  0.823478  18.344910  29.214934  30.195759  90.587935
0.090909  0.000000  0.000000  0.000000  -15.793354  0.277722  -2.786063  57.300748  10.000074  -2.567595  2.328628  18.696000  26.509687  30.474380  90.330037
0.121212  0.000000  0.000000  0.000000  -16.185989  0.389038  -2.543763  57.835268  10.339615  -2.307370  4.192834  19.256079  23.279266  30.829845  89.972207
0.151515  0.000000  0.000000  0.000000  -16.623632  0.483501  -2.445552  58.445272  10.810434  -2.049606  6.307962  20.008657  19.641270  31.252512  89.533553
0.181818  0.000000  0.000000  0.000000  -17.089773  0.564525  -2.483069  59.125722  11.408007  -1.792027  8.565877  20.937239  15.713298  31.732744  89.033181
0.212121  0.000000  0.000000  0.000000  -17.567900  0.635521  -2.642167  59.872112  12.122971  -1.535906  10.858446  22.025335  11.612948  32.260901  88.490199
0.242424  0.000000  0.000000  0.000000  -18.041501  0.699901  -2.911980  60.679696  12.948702  -1.281052  13.077534  23.256453  7.457819  32.827342  87.923714
0.272727  0.000000  0.000000  0.000000  -18.494066  0.761078  -3.277474  61.544420  13.874761  -1.029500  15.115007  24.614100  3.365509  33.422429  87.352834
0.303030  0.000000  0.000000  0.000000  -18.909081  0.822463  -3.732616  62.461505  14.898318  -0.778816  16.862731  26.081785  -0.546383  34.036523  86.796666
0.333333  0.000000  0.000000  0.000000  -19.271365  0.887264  -4.259353  63.426744  16.006117  -0.532451  18.219552  27.642288  -4.166314  34.659996  86.274167
0.363636  0.000000  0.000000  0.000000  -19.587358  0.955365  -4.829284  64.417405  17.183258  -0.299533  19.198005  29.266547  -7.481367  35.283443  85.801851
0.393939  0.000000  0.000000  0.000000  -19.881098  1.023945  -5.387836  65.397731  18.396975  -0.099014  19.903121  30.915862  -10.558865  35.897632  85.394245
0.424242  0.000000  0.000000  0.000000  -20.177131  1.090105  -5.876080  66.331969  19.609366  0.053746  20.442613  32.551254  -13.468459  36.493338  85.065818
0.454545  0.000000  0.000000  0.000000  -20.500004  1.150946  -6.219918  67.186137  20.767490  0.142663  20.924195  34.133746  -16.279800  37.061339  84.831039
0.484848  0.000000  0.000000  0.000000  -20.873887  1.203607  -6.361225  67.924011  21.831875  0.163320  21.454112  35.624823  -19.061399  37.592445  84.704029
0.515152  0.000000  0.000000  0.000000  -21.305068  1.247119  -6.270709  68.538594  22.768027  0.120047  22.069077  37.007976  -21.827891  38.079249  84.682543
0.545455  0.000000  0.000000  0.000000  -21.774596  1.283176  -6.006677  69.058089  23.592613  0.042479  22.707634  38.297765  -24.517837  38.516851  84.741227
0.575758  0.000000  0.000000  0.000000  -22.261611  1.313673  -5.628826  69.514312  24.322053  -0.043856  23.300912  39.511094  -27.064056  38.900543  84.852978
0.606061  0.000000  0.000000  0.000000  -22.745253  1.340508  -5.204985  69.937998  24.980799  -0.113226  23.780040  40.664867  -29.399363  39.225615  84.990697
0.636364  0.000000  0.000000  0.000000  -23.204678  1.365574  -4.801700  70.360245  25.592368  -0.142602  24.076229  41.775980  -31.456650  39.487366  85.127300
0.666667  0.000000  0.000000  0.000000  -23.624991  1.390422  -4.467667  70.800566  26.175612  -0.118409  24.151886  42.857017  -33.197089  39.683365  85.242775
0.696970  0.000000  0.000000  0.000000  -24.006252  1.415739  -4.204865  71.249119  26.735703  -0.047790  24.047834  43.909737  -34.652937  39.816900  85.334877
0.727273  0.000000  0.000000  0.000000  -24.350830  1.442077  -3.994908  71.693491  27.263303  0.054661  23.817022  44.934222  -35.867445  39.892141  85.404110
0.757576  0.000000  0.000000  0.000000  -24.661098  1.469985  -3.824338  72.120298  27.753742  0.176817  23.512396  45.930557  -36.883861  39.913259  85.450978
0.787879  0.000000  0.000000  0.000000  -24.939425  1.500018  -3.679383  72.516018  28.202065  0.307065  23.186905  46.898825  -37.745436  39.884426  85.475984
0.818182  0.000000  0.000000  0.000000  -25.188394  1.532308  -3.542367  72.870806  28.599406  0.434003  22.885036  47.837924  -38.489912  39.810814  85.477832
0.848485  0.000000  0.000000  0.000000  -25.411567  1.565037  -3.408897  73.187744  28.948605  0.555506  22.611639  48.741196  -39.129234  39.702297  85.446795
0.878788  0.000000  0.000000  0.000000  -25.612796  1.595814  -3.289373  73.472125  29.266366  0.675389  22.359966  49.600360  -39.667798  39.570120  85.370681
0.909091  0.000000  0.000000  0.000000  -25.795933  1.622247  -3.169133  73.733414  29.545362  0.788948  22.123268  50.407133  -40.110000  39.425532  85.237294
0.939394  0.000000  0.000000  0.000000  -25.964829  1.641944  -3.071404  73.975189  29.814580  0.903543  21.894794  51.153231  -40.460233  39.279780  85.034441
0.969697  0.000000  0.000000  0.000000  -26.123241  1.652697  -2.979330  74.206940  30.064057  1.013206  21.668654  51.830831  -40.723627  39.143491  84.752672
1.000000  0.000000  0.000000  0.000000  -26.274074  1.653950  -2.909174  74.427625  30.311435  1.120762  21.446773  52.436273  -40.911996  39.021645  84.407493
1.030303  0.000000  0.000000  0.000000  -26.419774  1.646033  -2.848977  74.637797  30.544962  1.219252  21.235248  52.968122  -41.040720  38.916207  84.027733
1.060606  0.000000  0.000000  0.000000  -26.562785  1.629283  -2.807761  74.834677  30.773069  1.308279  21.040217  53.424964  -41.125213  38.829117  83.642343
1.090909  0.000000  0.000000  0.000000  -26.705549  1.604037  -2.777114  75.018206  30.987381  1.382096  20.867815  53.805383  -41.180890  38.762310  83.280278
1.121212  0.000000  0.000000  0.000000  -26.850319  1.570631  -2.758923  75.186854  31.189461  1.438405  20.723624  54.108194  -41.222536  38.717604  82.969569
1.151515  0.000000  0.000000  0.000000  -26.995437  1.529398  -2.759069  75.341493  31.384988  1.481090  20.601918  54.336857  -41.252116  38.694336  82.719457
1.181818  0.000000  0.000000  0.000000  -27.135602  1.480665  -2.781284  75.486177  31.577811  1.517928  20.486409  54.499170  -41.259627  38.689526  82.521639
1.212121  0.000000  0.000000  0.000000  -27.265369  1.424758  -2.808089  75.628387  31.751262  1.550479  20.360406  54.603098  -41.234606  38.700108  82.367141
1.242424  0.000000  0.000000  0.000000  -27.379295  1.362003  -2.866946  75.768762  31.932201  1.593286  20.207220  54.656606  -41.166590  38.723014  82.246989
1.272727  0.000000  0.000000  0.000000  -27.471976  1.292747  -2.951752  75.913094  32.115051  1.650694  20.010429  54.667645  -41.045341  38.755190  82.152246
1.303030  0.000000  0.000000  0.000000  -27.540680  1.218610  -3.049135  76.060396  32.288840  1.719338  19.772031  54.643212  -40.875910  38.794402  82.076591
1.333333  0.000000  0.000000  0.000000  -27.587016  1.143285  -3.148962  76.196160  32.448375  1.788289  19.523946  54.588757  -40.688189  38.839752  82.017948
1.363636  0.000000  0.000000  0.000000  -27.612989  1.070655  -3.224631  76.306989  32.572626  1.841924  19.300836  54.509588  -40.514344  38.890463  81.974631
1.393939  0.000000  0.000000  0.000000  -27.620606  1.004603  -3.272624  76.375801  32.662883  1.871891  19.137365  54.411011  -40.386543  38.945760  81.944953
1.424242  0.000000  0.000000  0.000000  -27.611874  0.949011  -3.258951  76.390030  32.690729  1.861778  19.068181  54.298334  -40.336939  39.004866  81.927228
1.454545  0.000000  0.000000  0.000000  -27.589234  0.906478  -3.171484  76.342587  32.646205  1.804999  19.112655  54.176556  -40.384168  39.066684  81.919267
1.484848  0.000000  0.000000  0.000000  -27.556397  0.875859  -3.044243  76.245165  32.556265  1.718034  19.245460  54.049772  -40.507298  39.129181  81.917411
1.515152  0.000000  0.000000  0.000000  -27.517304  0.855324  -2.891394  76.117172  32.427218  1.613156  19.433134  53.921914  -40.678200  39.190150  81.917734
1.545455  0.000000  0.000000  0.000000  -27.475898  0.843044  -2.744354  75.975323  32.282226  1.507260  19.642218  53.796914  -40.868745  39.247389  81.916311
1.575758  0.000000  0.000000  0.000000  -27.436121  0.837190  -2.625982  75.837486  32.136220  1.414854  19.839249  53.678703  -41.050804  39.298692  81.909216
1.606061  0.000000  0.000000  0.000000  -27.401536  0.835922  -2.558304  75.718556  32.004135  1.348351  19.996167  53.569494  -41.199647  39.341961  81.893472
1.636364  0.000000  0.000000  0.000000  -27.373629  0.837332  -2.546948  75.619675  31.889141  1.304412  20.114598  53.462061  -41.309235  39.375692  81.871316
1.666667  0.000000  0.000000  0.000000  -27.353174  0.839493  -2.588606  75.537869  31.787118  1.273382  20.206309  53.345947  -41.379916  39.398581  81.846768
1.696970  0.000000  0.000000  0.000000  -27.340945  0.840476  -2.688076  75.468951  31.701764  1.248051  20.283078  53.210696  -41.412042  39.409325  81.823847
1.727273  0.000000  0.000000  0.000000  -27.337716  0.838351  -2.850552  75.408697  31.637130  1.221384  20.356684  53.045849  -41.405966  39.406621  81.806576
1.757576  0.000000  0.000000  0.000000  -27.343867  0.831229  -3.063405  75.355339  31.580286  1.181537  20.438374  52.840866  -41.361936  39.389359  81.799260
1.787879  0.000000  0.000000  0.000000  -27.355462  0.817633  -3.328882  75.301074  31.535831  1.125932  20.533616  52.584309  -41.279071  39.358554  81.809337
1.818182  0.000000  0.000000  0.000000  -27.365914  0.796343  -3.633911  75.238205  31.495457  1.050431  20.644316  52.264186  -41.155792  39.316528  81.846170
1.848485  0.000000  0.000000  0.000000  -27.368596  0.766143  -3.959071  75.160020  31.444732  0.949019  20.772330  51.868497  -40.990508  39.265619  81.919149
1.878788  0.000000  0.000000  0.000000  -27.356880  0.725815  -4.299262  75.057607  31.383040  0.819955  20.919515  51.385243  -40.781630  39.208169  82.037666
1.909091  0.000000  0.000000  0.000000  -27.324185  0.674198  -4.629434  74.925336  31.290152  0.655600  21.087383  50.802872  -40.527122  39.146516  82.210662
1.939394  0.000000  0.000000  0.000000  -27.265130  0.611568  -4.957677  74.754932  31.169889  0.462475  21.268532  50.121542  -40.213262  39.082973  82.435330
1.969697  0.000000  0.000000  0.000000  -27.175624  0.539738  -5.282238  74.542471  31.008029  0.248535  21.446004  49.353955  -39.813810  39.019825  82.696283
2.000000  0.000000  0.000000  0.000000  -27.051635  0.460598  -5.603891  74.283973  30.792341  0.022466  21.602374  48.513426  -39.301917  38.959355  82.977516
2.030303  0.000000  0.000000  0.000000  -26.889133  0.376039  -5.934343  73.973921  30.521068  -0.203872  21.720217  47.613271  -38.650731  38.903847  83.263023
2.060606  0.000000  0.000000  0.000000  -26.684120  0.287951  -6.274413  73.608858  30.181966  -0.422353  21.782146  46.666782  -37.833463  38.855573  83.536820
2.090909  0.000000  0.000000  0.000000  -26.435912  0.198322  -6.612645  73.188596  29.757951  -0.628803  21.774915  45.684735  -36.830237  38.815652  83.785003
2.121212  0.000000  0.000000  0.000000  -26.150040  0.109322  -6.953549  72.712289  29.260255  -0.813165  21.693034  44.673197  -35.634116  38.783044  83.997574
2.151515  0.000000  0.000000  0.000000  -25.832715  0.023140  -7.282933  72.182449  28.683636  -0.971731  21.531863  43.637712  -34.239585  38.756469  84.164960
2.181818  0.000000  0.000000  0.000000  -25.490151  -0.058033  -7.589271  71.601207  28.025487  -1.100338  21.286765  42.583828  -32.641131  38.734650  84.277590
2.212121  0.000000  0.000000  0.000000  -25.128561  -0.132007  -7.860798  70.970722  27.283087  -1.195333  20.953102  41.517090  -30.833241  38.716307  84.325895
2.242424  0.000000  0.000000  0.000000  -24.750866  -0.196697  -8.079617  70.289858  26.451820  -1.258435  20.532939  40.438824  -28.821519  38.701424  84.310376
2.272727  0.000000  0.000000  0.000000  -24.348750  -0.250369  -8.211714  69.545614  25.524849  -1.307503  20.051248  39.335930  -26.649555  38.694294  84.265955
2.303030  0.000000  0.000000  0.000000  -23.911496  -0.291365  -8.218368  68.722747  24.493965  -1.366421  19.537888  38.192230  -24.369046  38.700130  84.234900
2.333333  0.000000  0.000000  0.000000  -23.428388  -0.318027  -8.083457  67.802282  23.372464  -1.452833  19.022720  36.991546  -22.031690  38.724145  84.259477
2.363636  0.000000  0.000000  0.000000  -22.888710  -0.328698  -7.764734  66.769473  22.149936  -1.597983  18.535604  35.717699  -19.689184  38.771551  84.381955
2.393939  0.000000  0.000000  0.000000  -22.283334  -0.321597  -7.256142  65.611416  20.845372  -1.821147  18.092304  34.360157  -17.377286  38.845542  84.634879
2.424242  0.000000  0.000000  0.000000  -21.613403  -0.294144  -6.614778  64.356014  19.503835  -2.110500  17.617424  32.944906  -15.028665  38.936247  84.987920
2.454545  0.000000  0.000000  0.000000  -20.884149  -0.243444  -5.904846  63.049163  18.163653  -2.442938  16.999295  31.512460  -12.534973  39.028594  85.385732
2.484848  0.000000  0.000000  0.000000  -20.100814  -0.166601  -5.186533  61.736342  16.858445  -2.788911  16.126159  30.103371  -9.787757  39.107500  85.772906
2.515152  0.000000  0.000000  0.000000  -19.268639  -0.060717  -4.502490  60.464989  15.604896  -3.119640  14.886255  28.758190  -6.678565  39.157882  86.094031
2.545455  0.000000  0.000000  0.000000  -18.394249  0.076386  -3.890738  59.280487  14.415995  -3.403814  13.177372  27.515343  -3.109301  39.165751  86.296611
2.575758  0.000000  0.000000  0.000000  -17.502577  0.237356  -3.362386  58.200501  13.303032  -3.638991  11.023747  26.385094  0.880990  39.131600  86.366698
2.606061  0.000000  0.000000  0.000000  -16.631527  0.408099  -2.914332  57.222993  12.280567  -3.843535  8.539174  25.357762  5.156136  39.066182  86.317653
2.636364  0.000000  0.000000  0.000000  -15.819275  0.574375  -2.550197  56.345491  11.368722  -4.033336  5.839342  24.423243  9.577908  38.980466  86.163414
2.666667  0.000000  0.000000  0.000000  -15.103998  0.721944  -2.282940  55.565352  10.594878  -4.219656  3.039938  23.571435  14.008078  38.885422  85.917917
2.696970  0.000000  0.000000  0.000000  -14.523159  0.836760  -2.122509  54.880984  9.982989  -4.415501  0.255407  22.792407  18.309930  38.791890  85.595181
2.727273  0.000000  0.000000  0.000000  -14.089643  0.911432  -2.073414  54.290555  9.536286  -4.621901  -2.442714  22.082179  22.398833  38.706300  85.212038
2.757576  0.000000  0.000000  0.000000  -13.786126  0.946749  -2.126452  53.792013  9.227444  -4.829750  -5.035623  21.444082  26.254183  38.629654  84.788774
2.787879  0.000000  0.000000  0.000000  -13.593430  0.944003  -2.279134  53.382176  9.034093  -5.026303  -7.507756  20.881897  29.859304  38.562626  84.345888
2.818182  0.000000  0.000000  0.000000  -13.492375  0.904485  -2.528651  53.057649  8.934193  -5.200233  -9.843551  20.399405  33.197521  38.505886  83.903880
2.848485  0.000000  0.000000  0.000000  -13.463782  0.829486  -2.855324  52.816492  8.892793  -5.351585  -12.027443  20.000387  36.252159  38.460105  83.483249
2.878788  0.000000  0.000000  0.000000  -13.488471  0.720297  -3.265179  52.654335  8.895933  -5.465633  -14.043869  19.688624  39.006543  38.425955  83.104493
2.909091  0.000000  0.000000  0.000000  -13.547264  0.578210  -3.752827  52.567960  8.920827  -5.535230  -15.877266  19.467896  41.443997  38.404107  82.788113
2.939394  0.000000  0.000000  0.000000  -13.620982  0.404517  -4.310458  52.554521  8.943003  -5.555200  -17.512069  19.341985  43.547847  38.395232  82.554606
2.969697  0.000000  0.000000  0.000000  -13.690444  0.200508  -4.936297  52.610758  8.942902  -5.516961  -18.932717  19.314671  45.301418  38.400002  82.424473
3.000000  0.000000  0.000000  0.000000  -13.736474  -0.032525  -5.624013  52.733986  8.897383  -5.414863  -20.123644  19.389735  46.688035  38.419087  82.418211
