Simulation
nRows=101
nColumns=15
endheader
time  TH_x TH_y TH_z SC_y  SC_z  SC_x  AC_y  AC_z  AC_x  GH_y  GH_z  GH_yy  EL_x  PS_y
0.0  0.000000  0.000000  0.000000  -16.895646807033785  0.1133255181251057  -0.919211440802061  59.12398471231152  6.203182674604916  -6.781471541139945  3.4007409926393803  18.110817774561145  27.704060264736608  29.93777144718923  120.000000
0.03  0.000000  0.000000  0.000000  -17.181066079533814  0.2827952077418152  -0.7685950238480131  59.48425318234118  6.602813508064263  -6.602153020687576  5.006738849682905  18.561920785763675  24.880617093165515  30.008032187183538  120.000000
0.06  0.000000  0.000000  0.000000  -17.48964112645648  0.439992439944305  -0.6176852858877254  59.89346420170909  6.962367581905675  -6.392500316497177  6.622012995798077  19.038482372648932  22.026299122803177  30.18777808449917  120.000000
0.09  0.000000  0.000000  0.000000  -17.820743919689253  0.5753555389304735  -0.45714219523071187  60.365090441165044  7.302468008368813  -6.1570666482196685  8.233998834315011  19.587003281298788  19.11398045017181  30.46045084787216  120.000000
0.12  0.000000  0.000000  0.000000  -18.179807270813164  0.693708376779562  -0.28802815322691633  60.90635491065924  7.641271648518446  -5.893713436986024  9.828966475402625  20.24856883510934  16.125901756115702  30.82108569522361  120.000000
0.15  0.000000  0.000000  0.000000  -18.557181773612783  0.7953105385962237  -0.11463972369927823  61.507405615005474  7.994015483275072  -5.609093748240192  11.391284442057866  21.046766554918555  13.063650204271708  31.256366323042567  120.000000
0.18  0.000000  0.000000  0.000000  -18.946676141022714  0.886280742264077  0.05850161292076278  62.15177827420174  8.365235880328834  -5.3054741742432885  12.904576226220357  21.990034503378578  9.941033958434462  31.756146902305883  120.000000
0.21  0.000000  0.000000  0.000000  -19.330802745776886  0.9691999525685077  0.22667949876334967  62.82249476215109  8.757112102416546  -4.99077255596031  14.352129477176378  23.072548888686196  6.78336320183188  32.301513353860265  120.000000
0.24  0.000000  0.000000  0.000000  -19.695652445052705  1.0491974722543895  0.38968668151102104  63.50231765767101  9.167921785041294  -4.668112512341652  15.71956498152377  24.278989937039572  3.622905403912564  32.872712212038365  120.000000
0.27  0.000000  0.000000  0.000000  -20.02632692345166  1.1299772230361642  0.549777376501245  64.17758949730538  9.597604673480301  -4.343696061213759  16.99374088831604  25.58882516277578  0.49326814784606837  33.44091101310217  120.000000
0.3  0.000000  0.000000  0.000000  -20.316468230837806  1.2176645685052787  0.7124521752410351  64.8369750611235  10.046255196916455  -4.022506034271934  18.165731948307148  26.978796232063928  -2.5736032917057274  33.97185380450773  120.000000
0.32999999999999996  0.000000  0.000000  0.000000  -20.567497956600818  1.3149440754567696  0.8849499806639834  65.47167622583828  10.515018945392065  -3.709730188927827  19.229702695628966  28.42568947748885  -5.554361845985432  34.42346778380239  120.000000
0.36  0.000000  0.000000  0.000000  -20.79064947325515  1.4242522178631993  1.0744954375242888  66.07956696630782  11.004225379188256  -3.409518831118232  20.1848950658061  29.90894713607107  -8.43691501172495  34.7557966567027  120.000000
0.39  0.000000  0.000000  0.000000  -21.003746647262577  1.5438948779809711  1.2874024445720431  66.66155190489884  11.513147263922964  -3.125016795381509  21.033876186787495  31.410056237663486  -11.221391039250118  34.94284116027303  120.000000
0.42  0.000000  0.000000  0.000000  -21.229872827638193  1.6718704830288103  1.5276842306477436  67.22058617842565  12.039578711349375  -2.859626099942218  21.781548501257962  32.91222511104042  -13.916066610187718  35.00000056640262  120.000000
0.44999999999999996  0.000000  0.000000  0.000000  -21.492940566386007  1.805604488803696  1.7968626850475766  67.75502260458566  12.58054541405346  -2.6185642874894577  22.431727191682146  34.39836365409138  -16.531616648048818  35.00000057180365  120.000000
0.48  0.000000  0.000000  0.000000  -21.808658084870924  1.9428667586359734  2.0944729153408606  68.26561567389804  13.132249945524585  -2.403853242220277  22.990429956168292  35.85473996695498  -19.073846426440962  34.99936030088392  120.000000
0.51  0.000000  0.000000  0.000000  -22.178350076778628  2.080053896051169  2.4183616541884185  68.75494145913784  13.689770848451339  -2.212367531242114  23.465402481946615  37.271522051023105  -21.538635464233995  35.00000057192795  120.000000
0.54  0.000000  0.000000  0.000000  -22.594147981212554  2.21495014261907  2.7632316096752025  69.22368964806775  14.246557407647341  -2.039791028820941  23.861440283174968  38.64171036668227  -23.911721025140235  35.00000056788282  120.000000
0.57  0.000000  0.000000  0.000000  -23.040355056253492  2.3459875143893676  3.1212301410052694  69.67095436439696  14.794860647742803  -1.879903546260345  24.180591606694062  39.96162459486069  -26.17053404540972  35.00000057206708  120.000000
0.6  0.000000  0.000000  0.000000  -23.497926245997984  2.4720361795500536  3.4820382827490204  70.0964201370943  15.32607722684388  -1.7253450860269983  24.423348983289348  41.230674282928106  -28.288819358928432  35.00000056981806  120.000000
0.63  0.000000  0.000000  0.000000  -23.94716068662846  2.5929587830614613  3.8344512340674743  70.50086130958279  15.8309320484062  -1.569699126808579  24.590167473926762  42.45022266939417  -30.24172225619109  35.00000057215599  120.000000
0.6599999999999999  0.000000  0.000000  0.000000  -24.373246937482072  2.7085132371564917  4.168802406438778  70.88551225044871  16.30189716271392  -1.4074336098604192  24.682692947728032  43.62348627499912  -32.01051076629367  35.00000057036343  120.000000
0.69  0.000000  0.000000  0.000000  -24.767697349458178  2.8197245783042084  4.478298583740084  71.25064060659392  16.734796627302806  -1.2358376464093304  24.70388019247028  44.75482591375261  -33.58590053060731  35.0000005722078  120.000000
0.72  0.000000  0.000000  0.000000  -25.12797882479251  2.9279919444773967  4.7591224667571135  71.59641835526281  17.128592093624476  -1.0547741303808351  24.659560926896336  45.84851884654443  -34.96794886608521  35.00000057046887  120.000000
0.75  0.000000  0.000000  0.000000  -25.45475768012004  3.033985098677258  5.009860422998917  71.92255080967833  17.484424425269037  -0.8655431812651684  24.5586427227088  46.9071131196867  -36.164558548866076  35.00000057223442  120.000000
0.78  0.000000  0.000000  0.000000  -25.750884272041354  3.137870931031408  5.2308785752098315  72.22940755468235  17.805152080989952  -0.6708896974939721  24.412488434986315  47.93127868422287  -37.18902273592117  35.00000057029263  120.000000
0.8099999999999999  0.000000  0.000000  0.000000  -26.019669074976292  3.2390433513963868  5.423923159712808  72.51737974309322  18.0947338548064  -0.47396194644581113  24.23339264975208  48.919430137568284  -38.057641216774144  35.00000057224244  120.000000
0.84  0.000000  0.000000  0.000000  -26.264651316858593  3.336424740903578  5.591492959339763  72.78763239234308  18.35777174880285  -0.278194174282005  24.033320891806948  49.86821360632077  -38.78763812037089  35.00000056976202  120.000000
0.87  0.000000  0.000000  0.000000  -26.48885280830832  3.4286515683830276  5.736501570157916  73.041415467676  18.599008221600766  -0.08678616054984799  23.822662000778156  50.77269286442577  -39.395810538524834  35.000000572236786  120.000000
0.8999999999999999  0.000000  0.000000  0.000000  -26.695316156786753  3.5141210380191494  5.861796089138064  73.28013339445702  18.822964422103187  0.09730902189877307  23.609628858102397  51.62703297796757  -39.897814914292084  35.0000005686614  120.000000
0.9299999999999999  0.000000  0.000000  0.000000  -26.886712613061455  3.5913814464664973  5.969842027175737  73.50478226177988  19.03360467838143  0.2715548142491971  23.400077502954286  52.424886772297185  -40.30791071086572  35.000000572225225  120.000000
0.96  0.000000  0.000000  0.000000  -27.065595654002124  3.6591443820079412  6.062448088870461  73.71632344207109  19.23414141311314  0.4338469995910956  23.197945542944183  53.16017978415952  -40.638933271816924  35.00000056637231  120.000000
0.99  0.000000  0.000000  0.000000  -27.234135959466865  3.7165384068586262  6.14060071710265  73.915384603657  19.426920435402007  0.5826827161183149  23.005651220318285  53.827578314330744  -40.90236425182059  35.00000057221214  120.000000
1.02  0.000000  0.000000  0.000000  -27.394403102506963  3.7629882690455196  6.2043867811725475  74.10241900676232  19.613416340998615  0.7170189850783462  22.82435888839492  54.42294596169771  -41.10851781867714  35.00000056117326  120.000000
1.05  0.000000  0.000000  0.000000  -27.548098087730825  3.7983495196224974  6.2531416065522905  74.27754874003529  19.794402905859233  0.8363457919046858  22.6541549509397  54.94360306792994  -41.26652854012292  35.00000057220193  120.000000
1.08  0.000000  0.000000  0.000000  -27.696525687713475  3.8227656646289385  6.2857472290764616  74.44099778261919  19.97020422659706  0.9406183729329368  22.494226841471914  55.3886575082515  -41.38436455074409  35.00000054508936  120.000000
1.1099999999999999  0.000000  0.000000  0.000000  -27.84008738407447  3.8366608552920614  6.301029805319718  74.59305827054416  20.140964067530263  1.030419241539807  22.343007668004997  55.75915778635969  -41.468704871745345  35.000000572196484  120.000000
1.14  0.000000  0.000000  0.000000  -27.978085464697397  3.840620181510229  6.298175883643971  74.73447506424115  20.30685532306865  1.1068754511755383  22.198462080564376  56.058214844211285  -41.525049348662165  35.00000045262703  120.000000
1.17  0.000000  0.000000  0.000000  -28.10840207727318  3.8353941667023754  6.277056049241653  74.86617909975183  20.468193405872405  1.1716398998042008  22.058493494478387  56.29077237658404  -41.55788117454723  35.00000057219736  120.000000
1.2  0.000000  0.000000  0.000000  -28.22792652519392  3.821895999285116  6.23833512459339  74.989174174656  20.625360294440675  1.226527824015421  21.92152877798876  56.46316671409691  -41.57123102401022  34.99995728590103  120.000000
1.23  0.000000  0.000000  0.000000  -28.333199122266166  3.8011569980266695  6.183424844482899  75.10375474552421  20.7785816132262  1.2732420400472793  21.787218266209667  56.58242265766122  -41.56911224924151  35.00000057220395  120.000000
1.26  0.000000  0.000000  0.000000  -28.421234879923695  3.774401076455543  6.114471903401974  75.2091189473931  20.927795456353085  1.3128662999485676  21.657067253667194  56.65562347011606  -41.556099045690345  34.999999840660884  120.000000
1.29  0.000000  0.000000  0.000000  -28.490243389604395  3.7430400085988103  6.034326804291185  75.30275875568275  21.072515842597788  1.3456145528101533  21.53479659895202  56.68931692800506  -41.537435226199555  35.00000057221357  120.000000
1.3199999999999998  0.000000  0.000000  0.000000  -28.540091818387513  3.708660900391126  5.946546828541161  75.3806937270525  21.211801086292002  1.370686884576768  21.426174822958547  56.68925592509305  -41.51907441785125  35.000000497315575  120.000000
1.3499999999999999  0.000000  0.000000  0.000000  -28.572157147091346  3.6728760815701293  5.855296909987252  75.43799705540637  21.34420336098724  1.3865660225216145  21.338188533738123  56.66039444313373  -41.50719360095843  35.0000005722215  120.000000
1.38  0.000000  0.000000  0.000000  -28.588857028999936  3.6371747014771976  5.765077448192581  75.47008398297064  21.467783134881863  1.391409123526154  21.27763927481669  56.60709605033667  -41.50771047952625  35.00000054608293  120.000000
1.41  0.000000  0.000000  0.000000  -28.592983954544113  3.6027165270635804  5.680256497201575  75.47387315902758  21.580104304093577  1.3836836406018151  21.249656636638413  56.533427168693485  -41.52540584930921  35.0000005722269  120.000000
1.44  0.000000  0.000000  0.000000  -28.58716969295132  3.5702053346912077  5.6044413788484855  75.44899176747916  21.678360153143807  1.362638604255752  21.256340016417308  56.44334501330042  -41.5633329016968  35.000000559174595  120.000000
1.47  0.000000  0.000000  0.000000  -28.573485432880133  3.5397919648921423  5.539896876817842  75.39821822123582  21.75957978063851  1.3286731408818693  21.296091554127425  56.34074106744239  -41.62215305713406  35.00000057222904  120.000000
1.5  0.000000  0.000000  0.000000  -28.5534123417463  3.511116544877928  5.487174112193511  75.32732432970417  21.82107928200121  1.2832959319868453  21.36374176898035  56.22919203241884  -41.70003773329416  35.00000056446763  120.000000
1.53  0.000000  0.000000  0.000000  -28.528013909986928  3.483384430687184  5.4450753164282615  75.24395481927814  21.860884124641096  1.2288467348276226  21.45162568408411  56.11150909533175  -41.79259437425664  35.000000572226526  120.000000
1.56  0.000000  0.000000  0.000000  -28.498218737455524  3.4555236051500744  5.410808974524292  75.15631953184898  21.878071275789218  1.1679437188430282  21.551040452547763  55.989084848354395  -41.893318156557  35.00000056707938  120.000000
1.5899999999999999  0.000000  0.000000  0.000000  -28.465017879739182  3.426275916308001  5.380299853665638  75.07160197635486  21.87282686539481  1.1029661778640938  21.65392332147193  55.86124400594987  -41.99387505378732  35.00000057221751  120.000000
1.6199999999999999  0.000000  0.000000  0.000000  -28.429570416398317  3.394344432778247  5.348526617086999  74.9949014444201  21.846343393690308  1.0355573294183233  21.754140095013298  55.724756614766676  -42.08478822101337  35.000000568531135  120.000000
1.65  0.000000  0.000000  0.000000  -28.39306514789044  3.358421127148928  5.309966423802861  74.92852830779373  21.800593000824776  0.9664451231218651  21.84822593084955  55.573738290138046  -42.15594960832842  35.000000572199546  120.000000
1.68  0.000000  0.000000  0.000000  -28.35642170743658  3.3172486702425035  5.259049390506609  74.8722178258479  21.738081710009595  0.8954117747753932  21.935262692991845  55.39997181118299  -42.19754149120332  35.000000569425545  120.000000
1.71  0.000000  0.000000  0.000000  -28.31991268040661  3.269572693812456  5.190705799615425  74.82346550993532  21.661620115102778  0.8215064869097194  22.016309351290147  55.19352322298412  -42.20053356280214  35.000000572170485  120.000000
1.74  0.000000  0.000000  0.000000  -28.282894074072576  3.214174921734466  5.100819277627625  74.77825396820533  21.574106164018605  0.7431779819339066  22.093445896562923  54.94349537204231  -42.15725316732813  35.000000570016326  120.000000
1.77  0.000000  0.000000  0.000000  -28.24360822630633  3.149829305782057  4.986631492687064  74.7314565914212  21.478276550487518  0.6584882562111863  22.168843423642127  54.638781609404724  -42.06130236814404  35.00000057212701  120.000000
1.7999999999999998  0.000000  0.000000  0.000000  -28.19924308166434  3.0753717723905627  4.846826331116623  74.67745012043379  21.37639067240573  0.5651601478006396  22.24390244368562  54.26882833697783  -41.907389532476806  35.00000057042851  120.000000
1.8299999999999998  0.000000  0.000000  0.000000  -28.146095292447015  2.9897060864815725  4.681404003925569  74.6102920011575  21.269798675445433  0.4607518373653183  22.318719239192212  53.82436392987467  -41.69052789151448  35.00000057206567  120.000000
1.8599999999999999  0.000000  0.000000  0.000000  -28.07997089400324  2.8918976010200534  4.491217683568185  74.52414880268549  21.158547329486684  0.34272139095972814  22.391796891211833  53.298174589341706  -41.40531193257444  35.00000057073704  120.000000
1.89  0.000000  0.000000  0.000000  -27.99637336447012  2.7812058733113334  4.277518431500994  74.41330493033098  21.041045502311444  0.2086869731321873  22.459985253916276  52.685799577201685  -41.04503013742624  35.000000571982824  120.000000
1.92  0.000000  0.000000  0.000000  -27.890835762215783  2.6571641393224597  4.0414182853082155  74.27253169712735  20.913984372109358  0.056596115660877286  22.51864162549458  51.98613503694226  -40.601229689631374  35.00000057098919  120.000000
1.95  0.000000  0.000000  0.000000  -27.759024948768356  2.519642704767082  3.783628350860554  74.09701392069225  20.772443751457537  -0.11494134584832444  22.562006093896247  51.201628192521305  -40.0635436006318  35.000000571872924  120.000000
1.98  0.000000  0.000000  0.000000  -27.597052004228686  2.368832356170399  3.5043607410164426  73.88264945963854  20.610371903113908  -0.3064709204580808  22.583817858675612  50.33805459564072  -39.42019907516864  35.000000571207245  120.000000
2.01  0.000000  0.000000  0.000000  -27.40175313585999  2.2054658144801977  3.2035608354969995  73.62586310224079  20.42126837863778  -0.5176318102943837  22.577970379819654  49.40375984935761  -38.65888619274536  35.00000057172354  120.000000
2.04  0.000000  0.000000  0.000000  -27.171467189815793  2.0305725080896786  2.8812930742100136  73.3234364595989  20.198977530890797  -0.7472822510532765  22.538911704008004  48.40858004764043  -37.768150818316464  35.0000005714119  120.000000
2.07  0.000000  0.000000  0.000000  -26.90607593433785  1.8458153361280212  2.5384469178057554  72.97257460333425  19.938621726793233  -0.9935465545653036  22.462347898878367  47.36281802998174  -36.738613873171786  35.00000057153166  120.000000
2.1  0.000000  0.000000  0.000000  -26.607434873617024  1.6534822864806136  2.1772283577022065  72.57162929194237  19.63735263852308  -1.2539392749324252  22.34595904787529  46.276593742934445  -35.56413546432046  35.00000057157999  120.000000
2.13  0.000000  0.000000  0.000000  -26.278937447699544  1.4565804452565347  1.8013241979329555  72.11971987338703  19.294453242439353  -1.525540196406317  22.189188426494464  45.15895830478706  -34.24292106481756  35.000000571285604  120.000000
2.16  0.000000  0.000000  0.000000  -25.925462058800136  1.2586337554368519  1.415694788595357  71.61689413320376  18.9110562422123  -1.8053941817762633  21.992941026964985  44.017393261821695  -32.77800665550348  35.000000571722126  120.000000
2.19  0.000000  0.000000  0.000000  -25.551902201737157  1.063845409539342  1.0262585376085114  71.06376590955696  18.48973259885709  -2.0907091422662143  21.75866689856025  42.85724405008347  -31.177416822230704  35.000000570955045  120.000000
2.2199999999999998  0.000000  0.000000  0.000000  -25.162767622802292  0.8766931625688675  0.6395530887262307  70.4618365026484  18.03409922472332  -2.379055750349025  21.48726873646384  41.6815989697117  -29.45379371529068  35.00000057183978  120.000000
2.25  0.000000  0.000000  0.000000  -24.760746822413072  0.7020541178060683  0.26244419992610146  69.81317039422214  17.54835105824102  -2.6684240899317087  21.17748494074896  40.491259711129544  -27.623318564162993  35.00000057048994  120.000000
2.28  0.000000  0.000000  0.000000  -24.347000639654183  0.5447224780326935  -0.09817856309243905  69.12090075428746  17.03673508478279  -2.957218581080063  20.824668857422683  39.28548489362523  -25.703362549193873  35.0000005719378  120.000000
2.31  0.000000  0.000000  0.000000  -23.920626993962006  0.40960082586186036  -0.43592838578333826  68.38850187451669  16.502926059523865  -3.2443379898421645  20.4194450263429  38.06261192730396  -23.7089895828415  35.000000569852304  120.000000
2.34  0.000000  0.000000  0.000000  -23.479920701673404  0.30127778411495487  -0.7449392476081143  67.6200350105817  15.949741271926468  -3.529159829216106  19.947254363058555  36.82187803039829  -21.649034452193145  35.00000057202973  120.000000
2.37  0.000000  0.000000  0.000000  -23.020997618589835  0.2234389500990979  -1.0189637008928731  66.81943990884011  15.379491572453455  -3.8101236190010233  19.389434160039027  35.56487661025631  -19.52173993864344  35.000000569082005  120.000000
2.4  0.000000  0.000000  0.000000  -22.53737821735804  0.17987775437105774  -1.2521974050088238  65.99299195659367  14.794282656061348  -4.085500923047765  18.72563818425736  34.2972220425188  -17.31241128251382  35.000000572105705  120.000000
2.4299999999999997  0.000000  0.000000  0.000000  -22.021681872279725  0.17307887945144443  -1.4402331830835753  65.14513679737624  14.196255215021111  -4.353997066438326  17.934592459457907  33.026254826401036  -14.994252098587518  35.00000056848784  120.000000
2.46  0.000000  0.000000  0.000000  -21.46739919558929  0.20471545015597953  -1.5812896459221268  64.2806555046123  13.58737427782709  -4.616210914583839  16.99686393121619  31.76065968584191  -12.53325262449139  35.00000057217934  120.000000
2.4899999999999998  0.000000  0.000000  0.000000  -20.869995954949115  0.27444401300377524  -1.6770027618220251  63.40593565821329  12.970396540489816  -4.872449187948585  15.898287970653913  30.510140469421696  -9.895690766967816  35.00000056732852  120.000000
2.52  0.000000  0.000000  0.000000  -20.230381625557154  0.3791065149491859  -1.7318623225606424  62.529120568711946  12.348858920910624  -5.12373929746503  14.631237873622958  29.284663686510505  -7.056525283226226  35.00000057223411  120.000000
2.55  0.000000  0.000000  0.000000  -19.55706444727428  0.5122481975157125  -1.7515355219276196  61.66006288202523  11.726227353366006  -5.3718487253217475  13.19489952298971  28.09435365736115  -4.007247342248809  35.00000056396144  120.000000
2.58  0.000000  0.000000  0.000000  -18.86770381018173  0.6642711593934497  -1.741290100760959  60.81093126429758  11.106747889111627  -5.618426661629705  11.594974899484797  26.950172593892194  -0.7598448727086607  35.00000057226064  120.000000
2.61  0.000000  0.000000  0.000000  -18.186276001400252  0.8235110717297446  -1.7038872222855679  59.99423029943581  10.494606704884639  -5.867130595097741  9.84219235372111  25.863187086749843  2.6544967102298007  35.00000054932843  120.000000
2.6399999999999997  0.000000  0.000000  0.000000  -17.540400436682262  0.9793736921438553  -1.6423980580923911  59.22358546123666  9.894693260667472  -6.121750354574044  7.951854604713791  24.844202710252123  6.190442441861012  35.000000572258145  120.000000
2.67  0.000000  0.000000  0.000000  -16.95563386035699  1.1218749894592466  -1.5623815534840642  58.50955957517787  9.31497630205372  -6.386180000693701  5.941679470234459  23.902507517958092  9.796036429787991  35.00000031482873  120.000000
2.6999999999999997  0.000000  0.000000  0.000000  -16.45364271141352  1.2427046459793298  -1.4702771279471982  57.858429120371795  8.763582831670796  -6.660711528477173  3.8312713585040004  23.045767023226368  13.419319295460122  35.000000572239536  120.000000
2.73  0.000000  0.000000  0.000000  -16.046124331672274  1.334498450509183  -1.37357565989406  57.27248529353928  8.247942163926659  -6.944048507696457  1.6408500268166617  22.28004635853238  17.01390567004677  34.99970233547352  120.000000
2.76  0.000000  0.000000  0.000000  -15.736024295641188  1.3941717245644243  -1.2808286358093097  56.753956980100725  7.7726507857485325  -7.23083327766759  -0.6085346655113542  21.60921378542263  20.54200417320023  35.00000057221151  120.000000
2.79  0.000000  0.000000  0.000000  -15.518630111394373  1.41768369385557  -1.2008960118819758  56.304099961075494  7.33954245489342  -7.513139865244918  -2.897378949026586  21.033910137179724  23.975066809366087  34.99967732710333  120.000000
2.82  0.000000  0.000000  0.000000  -15.38476843868965  1.4050358178061357  -1.1424132069703554  55.928449845310965  6.946401968071202  -7.778229001894378  -5.2064008985963195  20.54919858205235  27.294903627354266  35.000000572173974  120.000000
2.85  0.000000  0.000000  0.000000  -15.323072684354416  1.3530496377510008  -1.1118897144126338  55.634355944552595  6.589222915036277  -8.01140652035858  -7.5207738047552395  20.1448462400377  30.49111985605119  34.99926947710893  120.000000
2.88  0.000000  0.000000  0.000000  -15.322050188504386  1.2653985846673421  -1.1130576943807404  55.43268450277641  6.2613039263246035  -8.194658736898917  -9.827635900904696  19.803201860955046  33.564024506042955  35.000000572148586  120.000000
2.9099999999999997  0.000000  0.000000  0.000000  -15.366169251638437  1.14328915402585  -1.1474299028423474  55.33850520978503  5.956745673532136  -8.311693698854517  -12.11925181850841  19.50192473511412  36.5213105069128  34.99978803236268  120.000000
2.94  0.000000  0.000000  0.000000  -15.446663805657334  0.9922734253228745  -1.2096173521365796  55.35796924415594  5.665990729011991  -8.341970092303455  -14.390666997334714  19.212747903139086  39.38101638444807  35.00000057215067  120.000000
2.9699999999999998  0.000000  0.000000  0.000000  -15.53889671336036  0.8189524504855508  -1.2981972423461723  55.50484852595389  5.380492310352938  -8.27950675528251  -16.636304380508097  18.908046639275092  42.17104637172327  34.996557299265454  120.000000
3.0  0.000000  0.000000  0.000000  -15.624971932435008  0.6244171558787825  -1.3976171190416502  55.78903714888251  5.088431960077665  -8.107229807736394  -18.85063272853705  18.56281869457705  44.915583895846545  35.00000057198169  120.000000
