Simulation
nRows=75
nColumns=15
endheader
time  TH_x TH_y TH_z SC_y  SC_z  SC_x  AC_y  AC_z  AC_x  GH_y  GH_z  GH_yy  EL_x  PS_y
0.0  0.000000  0.000000  0.000000  -18.749322950774257  -1.2071810186006513  0.12992834611634735  60.36605527405199  5.5061930987733785  -7.902199313353662  -1.8834214877937698  15.942525873976509  34.24871527127295  29.867833241822627  120.000000
0.04054054054054054  0.000000  0.000000  0.000000  -18.706251798791644  -0.719019928178566  -0.4978859845314276  60.90846414383921  7.117567626738957  -6.979927290855579  2.580400343910427  17.323623367343494  27.543355185612103  30.119437225041874  120.000000
0.08108108108108109  0.000000  0.000000  0.000000  -18.785074126952264  -0.34320794192033677  -1.2474931336927761  61.4225145138759  8.642258748727224  -6.071472584140444  6.154794379934753  18.718941803039655  21.71572750754748  30.43871550947904  120.000000
0.12162162162162163  0.000000  0.000000  0.000000  -18.956056209989978  -0.04688746714068604  -2.073566698775553  61.93397856970103  10.115569435232892  -5.175814007137627  9.051259474202242  20.109335194188635  16.56251555836168  30.86846652687361  120.000000
0.16216216216216217  0.000000  0.000000  0.000000  -19.21317530408171  0.18298641485047326  -2.9420406112339688  62.46665247046021  11.566014648930881  -4.302632839441692  11.480571810851465  21.50883555829318  11.848589949096384  31.421612891534735  120.000000
0.20270270270270271  0.000000  0.000000  0.000000  -19.52049450861041  0.3677193560868953  -3.8006720002631873  63.03515123251305  12.993827611959071  -3.4613406353279794  13.598467900392649  22.952555206443005  7.4019433068538465  32.08082068167255  120.000000
0.24324324324324326  0.000000  0.000000  0.000000  -19.846823426248722  0.5282232188154868  -4.592641331805077  63.64976050143907  14.382531427367647  -2.6584792567941227  15.487610689035865  24.485395805546776  3.1301381934238885  32.82458551836546  120.000000
0.28378378378378377  0.000000  0.000000  0.000000  -20.162365688590157  0.6895200280757098  -5.265160591995307  64.31014623977396  15.702212968058399  -1.901529693474151  17.173945855336555  26.138192645459085  -0.9986590735464371  33.62532338169472  120.000000
0.32432432432432434  0.000000  0.000000  0.000000  -20.458298732914884  0.8731411620252919  -5.774640816096631  65.0075811833891  16.924531646592346  -1.1987488110339855  18.653031653038898  27.915586946637248  -4.972334611627722  34.454741513434044  120.000000
0.3648648648648649  0.000000  0.000000  0.000000  -20.755289585788933  1.0900288387614163  -6.091580832123065  65.7271324194565  18.031151050198638  -0.5628687228863021  19.931155853195495  29.798525348801725  -8.78746552755949  35.28851044031805  120.000000
0.40540540540540543  0.000000  0.000000  0.000000  -21.090199943265304  1.3453586352149345  -6.199775813121663  66.44810580254715  19.013977712640376  -0.004719807795376385  21.035307023107226  31.749300957075253  -12.458557595054597  36.102976797610744  120.000000
0.44594594594594594  0.000000  0.000000  0.000000  -21.50049507138301  1.6368954698156437  -6.09637804150383  67.14995202046964  19.873615287182705  0.46638511042121117  22.00015040091267  33.724002092095084  -16.0065254688843  36.87766389833525  120.000000
0.4864864864864865  0.000000  0.000000  0.000000  -22.007769896111956  1.956562759846486  -5.789245277864236  67.81692068568124  20.613620455669288  0.8470051468272245  22.84868465334202  35.68214630360909  -19.437126572004203  37.59367289952494  120.000000
0.5270270270270271  0.000000  0.000000  0.000000  -22.604500718150828  2.2946237140012333  -5.297036467257322  68.44020497559734  21.235114399942805  1.1449745405863379  23.57859480531503  37.59136759703719  -22.725909052432517  38.232859849050094  120.000000
0.5675675675675675  0.000000  0.000000  0.000000  -23.258399748475703  2.639061279100056  -4.649169285345445  69.0204908253639  21.738395429472746  1.3766568138668682  24.167467468745663  39.43003975703736  -25.820746974162372  38.77839472634643  120.000000
0.6081081081081081  0.000000  0.000000  0.000000  -23.925014919930234  2.9776840481471574  -3.883933031252588  69.56642366150115  22.123462994945356  1.5632714915283408  24.586376353877164  41.18657519167459  -28.658584858879614  39.21714978472923  120.000000
0.6486486486486487  0.000000  0.000000  0.000000  -24.562662404087618  3.301621994109933  -3.04342402049691  70.08844875165516  22.392014867469097  1.7255632707449184  24.81918840574148  42.856844881667854  -31.1868193798415  39.541592745686195  120.000000
0.6891891891891893  0.000000  0.000000  0.000000  -25.14324167658139  3.6060431641610333  -2.1680160642558595  70.59385930012361  22.55017034081209  1.8801980328219536  24.871522088303525  44.439993911737226  -33.37524367564902  39.751445580427365  120.000000
0.7297297297297298  0.000000  0.000000  0.000000  -25.655299657331735  3.8896052327550374  -1.2920945685124794  71.08407095713493  22.609794731455736  2.0365519193671977  24.771892369134132  45.9367672856207  -35.22176401845287  39.85292075282882  120.000000
0.7702702702702703  0.000000  0.000000  0.000000  -26.100879689635967  4.152858915667844  -0.4414605623913287  71.55556683037528  22.58807561777028  2.198309731739522  24.56152468986837  47.34675105213957  -36.74523175892321  39.85748185711043  120.000000
0.8108108108108109  0.000000  0.000000  0.000000  -26.488888845721018  4.3965502762741915  0.36645185603939284  72.00273187193083  22.505739260625507  2.3636770054398015  24.28349230178906  48.66822062418667  -37.97797475625211  39.78068093731583  120.000000
0.8513513513513514  0.000000  0.000000  0.000000  -26.829686870234333  4.620344153163516  1.1213899467185267  72.42062717410185  22.384123283798086  2.5288017366430524  23.973006195428624  49.89639174206418  -38.95692489067906  39.64226453902934  120.000000
0.8918918918918919  0.000000  0.000000  0.000000  -27.13204931039777  4.822607157363113  1.8181387370193616  72.80679722301517  22.242298897751287  2.687877924448483  23.65474924819088  51.02464909875819  -39.719870141128816  39.46494746076972  120.000000
0.9324324324324325  0.000000  0.000000  0.000000  -27.40261728885649  5.001285507707748  2.455142946798137  73.16082201397846  22.094922649483074  2.8360271083990125  23.342893713882855  52.044526751206085  -40.30110873620078  39.27230389368357  120.000000
0.972972972972973  0.000000  0.000000  0.000000  -27.64650881170809  5.154961111705688  3.0328762410842187  73.48375415870336  21.951623633937153  2.9689026448579634  23.04466330753161  52.94808174088233  -40.732355201774084  39.085262103648624  120.000000
1.0135135135135136  0.000000  0.000000  0.000000  -27.868350436603667  5.283509611544739  3.552876252868483  73.77698005525151  21.81750829613311  3.0843086927393535  22.76278945880737  53.72893038834096  -41.04133981397345  38.920029387683954  120.000000
1.0540540540540542  0.000000  0.000000  0.000000  -28.072140834421297  5.388007728510327  4.016672263762554  74.04213562346159  21.694382303326254  3.181047699941791  22.49772039610608  54.384207970721164  -41.252956641986806  38.78733228599939  120.000000
1.0945945945945947  0.000000  0.000000  0.000000  -28.260402557711753  5.470270277561366  4.425582431512463  74.28114664999129  21.58205720703905  3.259744302583242  22.247946622016425  54.91476008207238  -41.387922140652805  38.692699538012626  120.000000
1.135135135135135  0.000000  0.000000  0.000000  -28.433000073577386  5.5323193034566085  4.780542930193754  74.49682229202463  21.479459843456898  3.321981396399174  22.01047963006028  55.32594896289473  -41.46315094556454  38.637005434975876  120.000000
1.1756756756756757  0.000000  0.000000  0.000000  -28.586992478543525  5.575940810853497  5.0826999876878345  74.69279404140107  21.385524366322972  3.37036789386788  21.78148956088257  55.62700228652012  -41.49147911494303  38.61734560560153  120.000000
1.2162162162162162  0.000000  0.000000  0.000000  -28.71743517650564  5.602694819408905  5.3338508058943725  74.87222480935364  21.299461647293914  3.4074235591218565  21.55830475523512  55.830588778742744  -41.48355805181149  38.6278616230109  120.000000
1.2567567567567568  0.000000  0.000000  0.000000  -28.819649341483462  5.614286080959346  5.537131272729213  75.03576020675146  21.22103671870659  3.434768385807393  21.341914473322007  55.950974796964395  -41.45001968428899  38.66151270214999  120.000000
1.2972972972972974  0.000000  0.000000  0.000000  -28.891758691041673  5.61295609288734  5.697198670813666  75.17955696224443  21.150374119129292  3.452194137552351  21.139368568143418  56.002726127922614  -41.403410213303395  38.71198004991131  120.000000
1.337837837837838  0.000000  0.000000  0.000000  -28.9362191751115  5.601525941279645  5.820263892814643  75.29561110765287  21.087972049157482  3.4572584709958103  20.96395570580738  55.99921138728873  -41.358886679840076  38.774685445753704  120.000000
1.3783783783783785  0.000000  0.000000  0.000000  -28.95893684250961  5.582897290745389  5.9132514483849  75.37388998803186  21.034058818831316  3.446264637000015  20.832233915526245  55.95221636862298  -41.33232065671805  38.84669334314193  120.000000
1.418918918918919  0.000000  0.000000  0.000000  -28.96679043459262  5.559143534895378  5.982697223138986  75.40696231718476  20.988197742008527  3.4152786185627364  20.75856615921072  55.87168284560537  -41.337555574983746  38.92565073756169  120.000000
1.4594594594594597  0.000000  0.000000  0.000000  -28.964817487923487  5.530670558388462  6.0332332402643445  75.39342397805541  20.948456799660413  3.3620876589341697  20.749744053668714  55.76598309452702  -41.38222964599457  39.00875654457774  120.000000
1.5  0.000000  0.000000  0.000000  -28.954811372787503  5.495907469869915  6.066717988718928  75.3399762462473  20.91149348413915  3.2863985267937785  20.802242830974148  55.64143550873927  -41.465929970200406  39.092095484946796  120.000000
1.5405405405405406  0.000000  0.000000  0.000000  -28.935663492828407  5.451707115673716  6.081972618695598  75.25904519714705  20.87272911871037  3.1901270455277375  20.903740967501385  55.50145260991721  -41.57911878785913  39.17080658985214  120.000000
1.5810810810810811  0.000000  0.000000  0.000000  -28.90513038535558  5.394236590227724  6.075506343598973  75.16510775651666  20.82747819584171  3.075580424298768  21.03778476668221  55.34505851544215  -41.705509406106756  39.239610838909186  120.000000
1.6216216216216217  0.000000  0.000000  0.000000  -28.86150964353985  5.319905238786305  6.0425261741445295  75.06947960840895  20.77163374307159  2.944756918715273  21.18911960276669  55.16584115469353  -41.82397049149436  39.29365168995943  120.000000
1.6621621621621623  0.000000  0.000000  0.000000  -28.804381027124425  5.225880949982728  5.97803169313609  74.9777457903702  20.702496694675823  2.7977224407315333  21.347350590197205  54.95168649670717  -41.91215000404136  39.328926376100696  120.000000
1.7027027027027029  0.000000  0.000000  0.000000  -28.734049002709178  5.109992073889985  5.877564643831546  74.88865406467812  20.61882195296562  2.6328742788306663  21.507786201752236  54.68547499832571  -41.94813059071181  39.34262536591537  120.000000
1.7432432432432434  0.000000  0.000000  0.000000  -28.65025577417273  4.970306733278147  5.7375234587676385  74.79580549328516  20.520719305792923  2.4465988372508654  21.669976720913862  54.34675537460209  -41.9124248251599  39.33337465287608  120.000000
1.7837837837837838  0.000000  0.000000  0.000000  -28.55103161506309  4.804710968978597  5.555170046046036  74.68935360880457  20.40912524514656  2.2343527028764147  21.835223246885228  53.913573178113985  -41.787593955779144  39.301759952075045  120.000000
1.8243243243243243  0.000000  0.000000  0.000000  -28.432034648560723  4.610725964867637  5.328148760709814  74.55826591519067  20.285243464731572  1.9909975446045347  22.003857506667398  53.36505652220387  -41.557589725963396  39.25049749328461  120.000000
1.864864864864865  0.000000  0.000000  0.000000  -28.286818311878815  4.385718665313947  5.053940330561544  74.39167545826167  20.149957905067712  1.7121138008279946  22.172780549646518  52.68389049748267  -41.20528894494814  39.18415017446963  120.000000
1.9054054054054055  0.000000  0.000000  0.000000  -28.107385944502724  4.127204070924773  4.729066825921507  74.1800424909986  20.003512560202694  1.3946630452294448  22.333440916794984  51.85909338015612  -40.7104257386896  39.108473185543396  120.000000
1.945945945945946  0.000000  0.000000  0.000000  -27.885030375127783  3.833348959143706  4.348556935480913  73.91561154183593  19.845535760511666  1.0380766542834419  22.470737351763482  50.88767321464545  -40.04794894839571  39.029728450031  120.000000
1.9864864864864866  0.000000  0.000000  0.000000  -27.611243764768865  3.5035429013498245  3.9056293508608806  73.59221964906861  19.675462660721642  0.6450265932081093  22.563941515410757  49.77500721730652  -39.18877791552084  38.953847459174156  120.000000
2.027027027027027  0.000000  0.000000  0.000000  -27.278826731033362  3.138583841084966  3.392419720888144  73.20485072957662  19.493349716927447  0.22147983104417274  22.589206912011658  48.53348546518698  -38.102759150940706  38.88556209206101  120.000000
2.0675675675675675  0.000000  0.000000  0.000000  -26.88360971885917  2.7417949887815665  2.8017093335051966  72.74871579991974  19.300620811187283  -0.2228171611802158  22.52376388303477  47.179970174496056  -36.76338889829293  38.82776329211075  120.000000
2.1081081081081083  0.000000  0.000000  0.000000  -26.425965621074234  2.320034603642516  2.1287310778118704  72.21880981817041  19.101082412796174  -0.6748354742878756  22.350450696412373  45.73325690684292  -35.15351387910712  38.78088824671444  120.000000
2.1486486486486487  0.000000  0.000000  0.000000  -25.91113185233845  1.8834765648683949  1.3726957380495346  71.60923401092636  18.90169047182225  -1.1194518639791884  22.061111026544047  44.21123596603302  -33.27014093152096  38.74356008819813  120.000000
2.1891891891891895  0.000000  0.000000  0.000000  -25.348637042788646  1.4462463124088922  0.5369039712975224  70.91271557497288  18.711872169615795  -1.540855353091583  21.658125170939933  42.62934148807459  -31.127071435555244  38.71473895286298  120.000000
2.22972972972973  0.000000  0.000000  0.000000  -24.75093416698224  1.0257539556859956  -0.3718481111017852  70.1209983089276  18.542747630244758  -1.9235279218217352  21.154679337076747  40.99824587496089  -28.755446394847894  38.69625331079488  120.000000
2.27027027027027  0.000000  0.000000  0.000000  -24.130667595163413  0.639857960945847  -1.3447992010456724  69.22594117200185  18.40493491583396  -2.253921482439877  20.5704111665787  39.32447778640908  -26.199814661701858  38.69420079521147  120.000000
2.310810810810811  0.000000  0.000000  0.000000  -23.499495979125314  0.30634048187085394  -2.3714333329909136  68.22165395723644  18.307876706462526  -2.5199335127286306  19.923407680143573  37.61074117081687  -23.505222650122345  38.717603927642244  120.000000
2.3513513513513513  0.000000  0.000000  0.000000  -22.865011582619715  0.04167447749746771  -3.4421091512679225  67.10957899377954  18.25981480121464  -2.7105584525512043  19.216585789611326  35.86026551912486  -20.70046721329097  38.77429793654525  120.000000
2.391891891891892  0.000000  0.000000  0.000000  -22.227354315918657  -0.14443001389480076  -4.548528178137623  65.90371939389244  18.26734288303767  -2.8157780514105144  18.42492486606311  34.08144861953313  -17.778622322634803  38.86415320461112  120.000000
2.4324324324324325  0.000000  0.000000  0.000000  -21.575349327085217  -0.24950759534032532  -5.684378182646885  64.63149870090247  18.333970950351404  -2.8250436909674823  17.488718447051617  32.29072851782642  -14.687075328951103  38.97237147244715  120.000000
2.4729729729729732  0.000000  0.000000  0.000000  -20.891035146198572  -0.2784977909775729  -6.847628993695887  63.32789734632062  18.461118945171197  -2.7254040870409137  16.315965820958798  30.514715466991227  -11.332443582610505  39.07248007625405  120.000000
2.5135135135135136  0.000000  0.000000  0.000000  -20.166751578920536  -0.24804460413237228  -8.03856661040307  62.0330726295556  18.649881404813055  -2.51273759055579  14.804376344515164  28.79294166226431  -7.612469539080184  39.13640855678146  120.000000
2.5540540540540544  0.000000  0.000000  0.000000  -19.40906554175901  -0.17585438686056643  -9.25613512370495  60.77971456270191  18.894477116960235  -2.1922991657969044  12.87394800354903  27.171252272254783  -3.4591910762112095  39.14448995277651  120.000000
2.5945945945945947  0.000000  0.000000  0.000000  -18.63995434202164  -0.0743030454114962  -10.49603806396154  59.586321981990714  19.18699864037242  -1.776713470174125  10.502447749104448  25.686575380379463  1.1229934858662223  39.09327693230935  120.000000
2.635135135135135  0.000000  0.000000  0.000000  -17.902847138801885  0.040336494805232194  -11.751568795093286  58.46285645592366  19.52482505105818  -1.2886025270035555  7.74020480477913  24.364625564616617  6.044478870559604  38.99597008983379  120.000000
2.675675675675676  0.000000  0.000000  0.000000  -17.249540308561315  0.14999595613440153  -13.012515566019102  57.41418571805877  19.908176982395847  -0.7564535778598509  4.698443270309559  23.21554059160485  11.147656689011722  38.874342870811745  120.000000
2.7162162162162162  0.000000  0.000000  0.000000  -16.719851483746396  0.23895335312220709  -14.265181795603777  56.4429805090426  20.334846044887477  -0.20950445742530954  1.514196725022035  22.230986995736373  16.255331312855922  38.75036040564139  120.000000
2.756756756756757  0.000000  0.000000  0.000000  -16.33401248287748  0.2902197568368405  -15.494553678139095  55.55428226215301  20.795413469621877  0.32685908681018716  -1.6903074703684096  21.387983454679432  21.22031285628099  38.63962146387011  120.000000
2.7972972972972974  0.000000  0.000000  0.000000  -16.091480735407963  0.28270942104558394  -16.6908270465397  54.75745499743793  21.273456521170107  0.8307390774857804  -4.8276035094082275  20.65368044555888  25.947642375590902  38.549946452782116  120.000000
2.837837837837838  0.000000  0.000000  0.000000  -15.976708741990409  0.19130459420290893  -17.855433655533485  54.06343812405753  21.748672930599607  1.2882357740772628  -7.858427631910565  19.989522972019586  30.407074928099153  38.48392185822639  120.000000
2.8783783783783785  0.000000  0.000000  0.000000  -15.974316863533321  -0.011801623188461422  -19.00150836438356  53.4838002992291  22.199409899774356  1.6901575283971597  -10.774063640620104  19.358299928473148  34.60977241241482  38.441600309577595  120.000000
2.9189189189189193  0.000000  0.000000  0.000000  -16.067486285747286  -0.3467418464793783  -20.152049419267303  53.020446361262756  22.604065909396326  2.0390895783078142  -13.601722003485456  18.723988686313966  38.61186175173952  38.4301092473272  120.000000
2.9594594594594597  0.000000  0.000000  0.000000  -16.24365212964512  -0.8257760073132899  -21.337364947173963  52.67079035007397  22.94128797959648  2.3433964959134586  -16.366157630563762  18.059376046699782  42.47022862617121  38.45485821614396  120.000000
3.0  0.000000  0.000000  0.000000  -16.50756230969728  -1.4802847854507586  -22.588001209721373  52.430423024424314  23.20497561378522  2.6022732580984314  -19.06102469933598  17.351402001711115  46.19446615247912  38.5001358549725  120.000000
