Simulation
nRows=101
nColumns=15
endheader
time  TH_x TH_y TH_z SC_y  SC_z  SC_x  AC_y  AC_z  AC_x  GH_y  GH_z  GH_yy  EL_x  PS_y
0.0  0.000000  0.000000  0.000000  -40.05759967764543  -7.191713661212307  -6.754287939176945  45.979490559908406  17.17708495148272  -1.7992330740461266  22.54011913738814  3.7050917175864893  -0.7562356504621668  22.683973723765956  120.000000
0.028900000000000006  0.000000  0.000000  0.000000  -40.141843578151466  -6.203941895166104  -9.34498514861692  45.95911675024561  18.383500624166587  1.307499828430937  -41.08539319228383  0.19812106430547627  60.35650260105309  22.05384870392446  120.000000
0.05780000000000001  0.000000  0.000000  0.000000  -40.24686001157598  -5.096041170016183  -11.590930034505842  45.97731949039951  19.346497419503194  4.202907565603148  -154.7347522756691  3.518975521610252  171.5119382160866  21.491312092178653  120.000000
0.08670000000000001  0.000000  0.000000  0.000000  -40.27893199987618  -4.101631013791188  -13.472245783531417  46.09722158531142  20.143500875520406  6.753479110600137  -157.10785862012418  7.048073309588984  171.41254911065872  20.937757500260158  120.000000
0.11560000000000002  0.000000  0.000000  0.000000  -40.24189095163499  -3.2545212057105406  -15.022845383442444  46.34644389441188  20.796910749705372  8.954927111635367  -158.62039389950957  10.459080763944595  170.4839019059452  20.38344796655814  120.000000
0.14450000000000002  0.000000  0.000000  0.000000  -40.1722079329609  -2.5353308634270717  -16.275372215662006  46.71863949299241  21.304159828890935  10.840709645183889  -160.00538305996096  13.7218209155991  169.47416443862866  19.852002790883745  120.000000
0.17340000000000003  0.000000  0.000000  0.000000  -40.08774345171664  -1.9280162457961092  -17.265944395602276  47.19468634121585  21.660838038760176  12.441262802644848  -161.3809665430855  16.820275458984412  168.5105180346937  19.35647883281144  120.000000
0.20230000000000004  0.000000  0.000000  0.000000  -39.99990827767471  -1.4168317494292741  -18.029004656421794  47.75408133821241  21.868577469277046  13.783893046472018  -162.7748859412374  19.74322146032231  167.63477118238498  18.903457212581557  120.000000
0.23120000000000004  0.000000  0.000000  0.000000  -39.91397460074436  -0.9848019758074045  -18.5951131365257  48.36914408792302  21.93144363096942  14.899235628448743  -164.18063837092723  22.48051588823778  166.85257266405137  18.50012213487396  120.000000
0.26010000000000005  0.000000  0.000000  0.000000  -39.829997962884434  -0.6165889229663163  -18.991251378406798  49.01184690848272  21.85904775493612  15.814537690636651  -165.5958576892079  25.019971577687382  166.1708891724958  18.14962532036639  120.000000
0.28900000000000003  0.000000  0.000000  0.000000  -39.74585052739538  -0.29943002830388676  -19.24072058879146  49.653497094897176  21.66371794323429  16.55547386440139  -167.01192792598658  27.34758141668616  165.58979082854472  17.854988689684824  120.000000
0.31790000000000007  0.000000  0.000000  0.000000  -39.65735309740712  -0.023253962507254287  -19.3651408804189  50.26840330406793  21.360907440129207  17.142435610842362  -168.4262849696109  29.446279928163733  165.11196874367715  17.617899210201674  120.000000
0.34680000000000005  0.000000  0.000000  0.000000  -39.56058918444829  0.2186636740537739  -19.383789280788466  50.833056624002595  20.967892773561836  17.591793102612154  -169.83446342995617  31.297233876237538  164.7380842263241  17.439629971853805  120.000000
0.3757000000000001  0.000000  0.000000  0.000000  -39.452312031109656  0.430096268068074  -19.314934552582972  51.32922152006941  20.502651804988  17.915161192184776  -171.2359495575257  32.87779053701112  164.47009527976584  17.320875139325594  120.000000
0.40460000000000007  0.000000  0.000000  0.000000  -39.3309040056288  0.6122123184738726  -19.175553567462632  51.74305923703845  19.983829943341824  18.121141364632273  -172.6330541852326  34.16320420251713  164.31219014485217  17.26237024714525  120.000000
0.4335000000000001  0.000000  0.000000  0.000000  -39.19533728039016  0.7630218303136598  -18.98138909701205  52.06570318783986  19.42992178972029  18.215037389510364  -174.0336620144105  35.12516523315338  164.27224846051934  17.265600404599592  120.000000
0.4624000000000001  0.000000  0.000000  0.000000  -39.04527867198063  0.8768614809392865  -18.745788288623146  52.29253364282251  18.858512343713333  18.202689009010175  -175.44554897423757  35.73248651237397  164.35728913013844  17.33026959433136  120.000000
0.49130000000000007  0.000000  0.000000  0.000000  -38.88089927615778  0.9454451910108644  -18.480066549165816  52.419196409207956  18.2852349015575  18.091407256341768  -176.87413692721387  35.95469872105803  164.5723220667504  17.45580143307424  120.000000
0.5202000000000001  0.000000  0.000000  0.000000  -38.702578865036834  0.9611490423138278  -18.19471704415108  52.44703086078388  17.72169500797208  17.888657078146238  -178.32701258581048  35.76370169616735  164.92291103536982  17.64196766362343  120.000000
0.5491000000000001  0.000000  0.000000  0.000000  -38.51013023066924  0.9188716167754407  -17.902397742910956  52.38433986922314  17.175791168507935  17.598953614414455  -179.8241592056593  35.134141666187894  165.42565643825824  17.888648915094166  120.000000
0.5780000000000001  0.000000  0.000000  0.000000  -38.3041132233784  0.8160014025197437  -17.613808673683994  52.24517120546605  16.65206044332825  17.22525445970012  178.6035538586243  34.04580180625238  166.10654641189188  18.19586918648723  120.000000
0.6069000000000001  0.000000  0.000000  0.000000  -38.085993307342825  0.6532596495094879  -17.33657779123607  52.042593016357195  16.15272704569998  16.77536053856123  176.9171595679887  32.485595120249464  167.00156244784148  18.562665305040625  120.000000
0.6358000000000001  0.000000  0.000000  0.000000  -37.858166080436504  0.4377025312654093  -17.074638599772  51.788389025026845  15.677344587214398  16.263268066350467  175.0570082803694  30.449459916313142  168.16569016003564  18.985998831948184  120.000000
0.6647000000000002  0.000000  0.000000  0.000000  -37.62183389639169  0.18294936482767055  -16.828981116935353  51.491764508226716  15.225030982307844  15.7063902192929  172.92492550299707  27.94724842818352  169.6922385727211  19.46220105801205  120.000000
0.6936000000000001  0.000000  0.000000  0.000000  -37.3753612407225  -0.09208137497941084  -16.59821807545661  51.16354465339385  14.796293903338237  15.124767163467904  170.3586309100535  25.002758613071034  171.73805694146446  19.984564345745795  120.000000
0.7225000000000001  0.000000  0.000000  0.000000  -37.1205558915304  -0.36095048876206826  -16.37803754811063  50.81244467348677  14.392670309336609  14.540549617506334  167.0702590895741  21.65956215748106  174.58440724945535  20.54166671563978  120.000000
0.7514000000000002  0.000000  0.000000  0.000000  -36.86677301761657  -0.5907703718137373  -16.16540356201536  50.44596433178115  14.01540074264971  13.978777812965625  162.50017293738782  17.98903512764629  178.78332496173914  21.121624693625748  120.000000
0.7803000000000001  0.000000  0.000000  0.000000  -36.630423960318595  -0.7501247648545531  -15.958744993013553  50.071383007725984  13.66178811407552  13.465146542647636  155.42763376672175  14.114196891658548  -174.4490981079118  21.711908414874927  120.000000
0.8092000000000001  0.000000  0.000000  0.000000  -36.43723724936128  -0.8189720553023844  -15.756627345242597  49.69163629773895  13.32811884187222  13.020888991436903  142.81966842198244  10.298547111473464  -162.08075453512242  22.29865456239167  120.000000
0.8381000000000002  0.000000  0.000000  0.000000  -36.32336050078116  -0.7879487003994876  -15.555407613816891  49.312101610812945  13.012164812804848  12.660741528146465  117.16056872624245  7.28111620645326  -136.59616874808657  22.86736051953086  120.000000
0.8670000000000002  0.000000  0.000000  0.000000  -36.32480078643028  -0.647238112414336  -15.349472828106824  48.94861032056837  12.715717407825721  12.392275671713698  75.27696814870478  6.875367777973066  -94.82410484552955  23.404615495639234  120.000000
0.8959000000000001  0.000000  0.000000  0.000000  -36.46857568305482  -0.3851962075054971  -15.128857390767745  48.62333611138064  12.442304353071036  12.218661844158664  44.197825428884705  9.689145222723596  -63.794186715405004  23.898741138254792  120.000000
0.9248000000000002  0.000000  0.000000  0.000000  -36.77281445313325  0.0011090753514074218  -14.879288685302985  48.35416400525283  12.197651893860945  12.13971068550236  29.11754798456745  13.982112538940562  -48.699147847592975  24.336702091324266  120.000000
0.9537000000000002  0.000000  0.000000  0.000000  -37.24455817460714  0.49932031398046395  -14.583289675108356  48.155821965085366  11.991100235757031  12.14631730632179  21.24091688263188  18.776758999489058  -40.745039526842355  24.70244118519881  120.000000
0.9826000000000001  0.000000  0.000000  0.000000  -37.87757885032757  1.0852235575715552  -14.222417363970122  48.03811358075526  11.834868218169525  12.220718991635584  16.52796029802254  23.738570311357993  -35.89381006082553  24.978321839772388  120.000000
1.0115000000000003  0.000000  0.000000  0.000000  -38.65345172924321  1.730613523752768  -13.779463224402527  48.00431945822494  11.738697825519315  12.340435878483355  13.39609725009838  28.72218628293998  -32.566043368666016  25.147194822311565  120.000000
1.0404000000000002  0.000000  0.000000  0.000000  -39.546000711144764  2.4057352902377214  -13.240308844004442  48.05179995066217  11.707841414214478  12.478293864686774  11.147724214517996  33.64430534250334  -30.0680546049834  25.19453612479624  120.000000
1.0693000000000001  0.000000  0.000000  0.000000  -40.524619521778156  3.079193319589951  -12.593967843155976  48.170332327103964  11.742272343851743  12.602747851361814  9.43664746571096  38.44706195787798  -28.05909324830699  25.108555957880565  120.000000
1.0982000000000003  0.000000  0.000000  0.000000  -41.553350460604655  3.722434235281266  -11.835714859424941  48.34295200077165  11.836084903793795  12.68457150347846  8.07358612180718  43.084957194936756  -26.357754986759147  24.878226586713378  120.000000
1.1271000000000002  0.000000  0.000000  0.000000  -42.590718021588664  4.309760097628635  -10.965738550068178  48.54963527783577  11.980276424511631  12.698319800487841  6.950536865206274  47.51914017568453  -24.862921676239516  24.500963423405206  120.000000
1.1560000000000001  0.000000  0.000000  0.000000  -43.59388517077167  4.817000222945019  -9.98874572298596  48.774270180212376  12.165294092451154  12.623327310342383  6.006284426397642  51.71717091610318  -23.516406425533127  23.989538214551214  120.000000
1.1849000000000003  0.000000  0.000000  0.000000  -44.52394475393876  5.226285156901219  -8.91348695084647  49.00768589439795  12.378422722677188  12.446014925860556  5.207925226082742  55.6496973549699  -22.28427451281995  23.366273472238674  120.000000
1.2138000000000002  0.000000  0.000000  0.000000  -45.34733950759467  5.5279409637256665  -7.755035014253302  49.24313360308703  12.6032928161365  12.161105998799119  4.5372426555541745  59.28765164728263  -21.147087712382138  22.65581248226067  120.000000
1.2427000000000001  0.000000  0.000000  0.000000  -46.037853517484706  5.719040081788223  -6.536740904948241  49.47519949769735  12.822423654072121  11.770563729411489  3.981029634634054  62.60168867159587  -20.09403608925545  21.882977069755846  120.000000
1.2716000000000003  0.000000  0.000000  0.000000  -46.57962297919551  5.802309164279411  -5.290243234061702  49.69966312711598  13.018446454683884  11.283326348623058  3.5289630451006415  65.56137408127528  -19.12048997586649  21.075149399251476  120.000000
1.3005000000000002  0.000000  0.000000  0.000000  -46.96687924997741  5.785362093582898  -4.054059734983701  49.913520195656425  13.174085801766536  10.715390314846035  3.1716304970753857  68.13466523155917  -18.22763798085663  20.262807227596696  120.000000
1.3294000000000004  0.000000  0.000000  0.000000  -47.202497823879085  5.6808445331712605  -2.8709355480911345  50.114840992459456  13.272003472504844  10.088669026176378  2.8997520062273403  70.28682510648277  -17.422418655345545  19.476855255098087  120.000000
1.3583000000000003  0.000000  0.000000  0.000000  -47.29615863379878  5.505734922689217  -1.7855078744989978  50.30160638407118  13.295266716202608  9.430601269072145  2.703351983975124  71.9808888472435  -16.71744851126765  18.748289410471177  120.000000
1.3872000000000002  0.000000  0.000000  0.000000  -47.261834374745504  5.279461360989206  -0.8405674090740866  50.471489343937115  13.229263400404232  8.772316414218356  2.5712581362568105  73.17901378391417  -16.131505382207678  18.10775296816526  120.000000
1.4161000000000004  0.000000  0.000000  0.000000  -47.11579121106881  5.025727865258635  -0.07432515628641294  50.62121858555264  13.061420228685334  8.150517163893415  2.4920021348543004  73.84318608872327  -15.689854413167907  17.58454415707073  120.000000
1.4450000000000003  0.000000  0.000000  0.000000  -46.87319018534178  4.772569577733884  0.4827088231166828  50.74491445395401  12.782792332722575  7.607244263031861  2.4540967824302835  73.93661811554543  -15.423226201547426  17.20616224644928  120.000000
1.4739000000000002  0.000000  0.000000  0.000000  -46.5428606985298  4.536893047603899  0.8091886523682157  50.83468608242664  12.400219619582517  7.174403123405035  2.4503830677346037  73.43760821116933  -15.350915851249274  16.983496106501505  120.000000
1.5028000000000004  0.000000  0.000000  0.000000  -46.12550491585975  4.311566822892922  0.8945435871100259  50.88510666063265  11.942760680904247  6.859104997546854  2.482459374488312  72.35262050039339  -15.466515812452675  16.898023019299295  120.000000
1.5317000000000003  0.000000  0.000000  0.000000  -45.61740026163078  4.076959909272447  0.7407380883875697  50.89370965195796  11.450904391901409  6.652026992209015  2.5589240460906137  70.70640119149309  -15.751901243064212  16.917496908627886  120.000000
1.5606000000000002  0.000000  0.000000  0.000000  -45.01491670771323  3.816917048086799  0.36066117110295975  50.859931610852776  10.962847196277664  6.5413568243748355  2.691379229610004  68.52805122075242  -16.191948286918965  17.01140705999477  120.000000
1.5895000000000004  0.000000  0.000000  0.000000  -44.317248572967095  3.5201823604513063  -0.2239768035268253  50.78480217317331  10.509668069124931  6.515527086873369  2.8937922482697256  65.84754606571991  -16.775331484635647  17.15041158039268  120.000000
1.6184000000000003  0.000000  0.000000  0.000000  -43.52943305036378  3.1777725160084875  -0.9848898480622683  50.6718845480638  10.114987360736603  6.562097346793636  3.183152556974579  62.69592274638091  -17.49492907028173  17.306930376075016  120.000000
1.6473000000000002  0.000000  0.000000  0.000000  -42.66533133148861  2.783520322765154  -1.8892937473918265  50.52837153756185  9.79428071353884  6.667399165322569  3.5803924986386226  59.10580680579649  -18.349104147750104  17.458526411604545  120.000000
1.6762000000000004  0.000000  0.000000  0.000000  -41.747488394489025  2.3361443500871464  -2.9017947490443343  50.36372129880671  9.554921629827458  6.818004042000486  4.111989527223863  55.11146145800631  -19.34434595292353  17.585313509010962  120.000000
1.7051000000000003  0.000000  0.000000  0.000000  -40.80556342537006  1.8417224099557066  -3.986319005604248  50.18944540630652  9.396701044592904  7.0042816818655265  4.813165016595119  50.74866436654469  -20.5000228527256  17.665933460399707  120.000000
1.7340000000000004  0.000000  0.000000  0.000000  -39.87410485926375  1.3123279303440358  -5.10887057280512  50.01908284490756  9.31559078360357  7.221266482435251  5.73583039682086  46.056429299514704  -21.854467882223855  17.684861580835438  120.000000
1.7629000000000004  0.000000  0.000000  0.000000  -38.99020488310743  0.763451520867651  -6.2367678562180755  49.869082018549186  9.305780687508674  7.466294255941242  6.9602647467370495  41.07952024191713  -23.473937718921075  17.63800219248334  120.000000
1.7918000000000003  0.000000  0.000000  0.000000  -38.19077830201182  0.2150654674022602  -7.3388315309260115  49.75786862742876  9.358986982355749  7.740819986029933  8.614292297277581  35.86997630918939  -25.473250040848868  17.52574551762601  120.000000
1.8207000000000004  0.000000  0.000000  0.000000  -37.506454861880414  -0.30633093581194054  -8.386627110860612  49.69964577867577  9.463041431035158  8.050952689635107  10.911801301691941  30.487916823696054  -28.056795929577905  17.350295379629422  120.000000
1.8496000000000004  0.000000  0.000000  0.000000  -36.96163836264028  -0.7712768838787138  -9.355915132804974  49.70360868849566  9.603942505501857  8.40415729942754  14.24494692345013  25.009236368209734  -31.609943017487844  17.11774074289171  120.000000
1.8785000000000003  0.000000  0.000000  0.000000  -36.57535968204102  -1.1540414845834566  -10.228151796976215  49.77770590061603  9.768875085683494  8.802883168019058  19.425327079006742  19.54624809466801  -36.942047728105564  16.83546138541337  120.000000
1.9074000000000004  0.000000  0.000000  0.000000  -36.34811859158688  -1.4353375335500256  -10.99017419757642  49.9229851642883  9.946802560726756  9.244659629205056  28.348206191072336  14.292937109072835  -45.94980725450716  16.51145830363843  120.000000
1.9363000000000004  0.000000  0.000000  0.000000  -36.258651848676024  -1.6023174720718674  -11.629830273241609  50.13119641053883  10.127815556318506  9.724576589339831  46.01052835881751  9.704521295254901  -63.63212881231093  16.154860524915115  120.000000
1.9652000000000003  0.000000  0.000000  0.000000  -36.28086126857225  -1.6468645219721532  -12.135351461303612  50.394781386729  10.304691145367906  10.23539205885912  82.04849193635845  7.131653455513955  -99.63031052441315  15.77492372358808  120.000000
1.9941000000000004  0.000000  0.000000  0.000000  -36.390777015908654  -1.5648518654658636  -12.497300187645004  50.70894479755095  10.472914099502143  10.767579181640945  123.27820737137877  8.394739052047296  -140.76768387580628  15.384600301784479  120.000000
2.0230000000000006  0.000000  0.000000  0.000000  -36.562040467816665  -1.3605711003458218  -12.710936395971581  51.06917736753072  10.628296517443884  11.311027718981563  145.5000847029785  12.084451709157188  -162.84942546105768  15.000482987714053  120.000000
2.0519000000000003  0.000000  0.000000  0.000000  -36.77170466568805  -1.0512598424435367  -12.77788147539539  51.47202538443718  10.765079327189962  11.853579612732036  156.39361217314868  16.359276034490527  -173.55748117646525  14.63634776957212  120.000000
2.0808000000000004  0.000000  0.000000  0.000000  -37.0100477050605  -0.6648553463282814  -12.706260864956894  51.91312327364964  10.878354230361218  12.379723027939125  162.58232611244347  20.565857304229628  -179.5181226000069  14.302354796758568  120.000000
2.1097000000000006  0.000000  0.000000  0.000000  -37.276065500099236  -0.23424450269421954  -12.508580944750497  52.38738466448835  10.965932753174203  12.87232545916269  166.57170579790525  24.46020737765784  176.7591915403548  14.007548293774233  120.000000
2.1386000000000003  0.000000  0.000000  0.000000  -37.56791294100068  0.20860894872925426  -12.19871154579981  52.88920375930936  11.02749661953367  13.315064335967401  169.38643392233976  27.92424498151822  174.24530221615274  13.758146377833066  120.000000
2.1675000000000004  0.000000  0.000000  0.000000  -37.88115725706698  0.637289491935106  -11.791281658813451  53.41176105770907  11.06361462481897  13.695524969612642  171.50652162344  30.89409061522737  172.45639650195707  13.556722693451729  120.000000
2.1964000000000006  0.000000  0.000000  0.000000  -38.211312858391516  1.0318531069015318  -11.301088386202021  53.94588616687718  11.076217169715543  14.004702509928121  173.18384500081967  33.33599043732814  171.13825897638964  13.403366397200069  120.000000
2.2253000000000003  0.000000  0.000000  0.000000  -38.55549995096706  1.3793841035770982  -10.741267512515524  54.47836133556524  11.069844118208014  14.236647876488112  174.56622998728724  35.23653972661664  170.14272095109985  13.295706173368165  120.000000
2.2542000000000004  0.000000  0.000000  0.000000  -38.911156965551825  1.6747510687222855  -10.123554850051246  54.99257885364501  11.051737042708828  14.388526229874119  175.74851979284134  36.59787900413834  169.37613113661027  13.230064690772908  120.000000
2.2831000000000006  0.000000  0.000000  0.000000  -39.275064185703535  1.9191233081455104  -9.459284743048377  55.47271246123153  11.031097646835585  14.459750125676553  176.79389620898502  37.43503339261465  168.77751545352322  13.202119176952772  120.000000
2.3120000000000003  0.000000  0.000000  0.000000  -39.64212493093954  2.1180101263869524  -8.760211706330905  55.90551107353573  11.017049257960382  14.45098543806972  177.74462730955764  37.77401520797261  168.30745666160607  13.207866892824839  120.000000
2.3409000000000004  0.000000  0.000000  0.000000  -40.00503092498046  2.2791707836425927  -8.038250602310208  56.28012306636041  11.017235780683105  14.365535734059556  178.63210331742224  37.64986026184142  167.93773364279997  13.243807836903526  120.000000
2.3698000000000006  0.000000  0.000000  0.000000  -40.355065792575  2.410363339750839  -7.304765025886984  56.587439717883704  11.036749335409148  14.209591915794281  179.48292880705856  37.10354211203357  167.6460343094257  13.305730849048906  120.000000
2.3987000000000003  0.000000  0.000000  0.000000  -40.68288970792944  2.5189958072237175  -6.5710489310941025  56.820867456343564  11.078113644152403  13.991272363867223  -179.6800662727655  36.17968774425932  167.41412745564185  13.389219647359196  120.000000
2.4276000000000004  0.000000  0.000000  0.000000  -40.97983311467893  2.612623455777937  -5.848343137466879  56.976615157831866  11.14049607549365  13.71987599018461  -178.83649046056084  34.92466326289603  167.22682516691313  13.490105189261758  120.000000
2.4565000000000006  0.000000  0.000000  0.000000  -41.23892350253073  2.698314228092396  -5.1479906607599855  57.053330213866644  11.21991825325223  13.406005828981353  -177.96557041176865  33.38513015944618  167.06905776676373  13.604237922198605  120.000000
2.4854000000000003  0.000000  0.000000  0.000000  -41.45498330495262  2.781732429970549  -4.481061304565841  57.05174360989988  11.309658115798067  13.061123969323033  -177.04422006816347  31.60701648589565  166.92376910868578  13.727547212876027  120.000000
2.5143000000000004  0.000000  0.000000  0.000000  -41.62435962484456  2.866792195810433  -3.858144624169382  56.97514881121388  11.401194425125835  12.696626898512935  -176.04731873920687  29.63490331078825  166.77161860271985  13.856030745858527  120.000000
2.5432000000000006  0.000000  0.000000  0.000000  -41.74496559414003  2.9558293739037915  -3.289296842012541  56.829125543706475  11.48489174347475  12.323646194790333  -174.94667895139702  27.51120382881257  166.58984377791356  13.985920924385907  120.000000
2.5721000000000003  0.000000  0.000000  0.000000  -41.81613621505799  3.0497658043621327  -2.783364958218443  56.62145306861274  11.550336969772971  11.952298230302093  -173.70906087785795  25.275506008410172  166.3495438908117  14.114074280290575  120.000000
2.6010000000000004  0.000000  0.000000  0.000000  -41.83803899338865  3.148207815382336  -2.3477350447292986  56.36135880181707  11.586919185110837  11.591199148566979  -172.29314121527608  22.964080186306788  166.01301010877515  14.237984859665614  120.000000
2.6299000000000006  0.000000  0.000000  0.000000  -41.811391105699485  3.2500419751337355  -1.9878664876684116  56.059368793741434  11.584189809858044  11.247678639143567  -170.64393354055855  20.609612964151335  165.5277643633167  14.35593507221501  120.000000
2.6588000000000007  0.000000  0.000000  0.000000  -41.73685343307268  3.3533840110108892  -1.707334013820455  55.72682297184013  11.533178402539477  10.927158781247511  -168.6877000488058  18.240924770377262  164.82090026011085  14.467064739049059  120.000000
2.6877000000000004  0.000000  0.000000  0.000000  -41.61487805915193  3.4550602615960972  -1.507693404998963  55.376035094799114  11.427058986821375  10.633622026697733  -166.3169240928679  15.88296273729486  163.7842203952615  14.571041750430965  120.000000
2.7166000000000006  0.000000  0.000000  0.000000  -41.44541900826146  3.550468205079243  -1.3894582374666886  55.0197805146856  11.261669890573838  10.369134411733707  -163.36922394218183  13.558327334788666  162.25169475546718  14.668885258813038  120.000000
2.7455000000000007  0.000000  0.000000  0.000000  -41.22913090900131  3.632571349159745  -1.3528088958589812  54.66953622705777  11.034697817312015  10.135758740444322  -159.5675400966266  11.289096559828028  159.94111865579765  14.762379182254938  120.000000
2.7744000000000004  0.000000  0.000000  0.000000  -40.96871617081385  3.690503482728211  -1.396325869496662  54.33390275184267  10.746407631962533  9.934644298453227  -154.4037294440294  9.101455981270405  156.33509864041892  14.853090965436884  120.000000
2.8033000000000006  0.000000  0.000000  0.000000  -40.66533256583515  3.714007111631052  -1.516733139486207  54.01628768694736  10.396657051852342  9.769795547578804  -146.8259738758494  7.037104752511924  150.37306409977214  14.942983707891427  120.000000
2.8322000000000007  0.000000  0.000000  0.000000  -40.31694687386536  3.6966213183479035  -1.7085764897806863  53.725670293375366  9.98742753906955  9.638554004609704  -134.57666256463514  5.180893124791105  139.78430987412608  15.03849662377133  120.000000
2.8611000000000004  0.000000  0.000000  0.000000  -39.93550263033537  3.6276968135390235  -1.968011499271155  53.47930561497453  9.522466911259388  9.531106259962932  -112.85955767728103  3.729358005876915  119.75611378781852  15.14534764730848  120.000000
2.8900000000000006  0.000000  0.000000  0.000000  -39.56093833550187  3.495308459629421  -2.285596187808722  53.2724032517608  8.999533099873027  9.447966684404145  -77.67055245585391  3.143594245816425  86.25631146134283  15.271828227562048  120.000000
