Simulation
nRows=92
nColumns=15
endheader
time  TH_x TH_y TH_z SC_y  SC_z  SC_x  AC_y  AC_z  AC_x  GH_y  GH_z  GH_yy  EL_x  PS_y
0.0  0.000000  0.000000  0.000000  -25.4385105423058  3.71243803864263  4.215254029590197  54.20603316672515  6.141800183112959  -1.794763663706197  5.325519272848945  10.185246690935585  35.422620723287764  27.167338671850807  120.000000
0.04065934065934069  0.000000  0.000000  0.000000  -23.996601748008793  4.212860220873575  4.310574579297514  53.90644928905269  6.164674479747849  -1.4094257066951086  0.27623747136170346  10.279624373992435  41.183306485502  26.30141360544956  120.000000
0.08131868131868138  0.000000  0.000000  0.000000  -22.756680042965773  4.522311598878414  4.303857263111306  53.69231235992339  6.056441773375589  -1.0518517783586427  -3.890106750326878  10.332865133677393  45.69340524751779  25.89410585044344  120.000000
0.12197802197802207  0.000000  0.000000  0.000000  -21.82759338931857  4.706790631268196  4.211490125220893  53.574638886276105  5.899503076124681  -0.7327468560070969  -7.058592915234524  10.357853642614597  48.47624529026952  26.245155553608473  120.000000
0.16263736263736275  0.000000  0.000000  0.000000  -21.241699963134216  4.8169443305614505  4.043521892066186  53.540834419093535  5.7610814638913554  -0.44094812784890536  -9.203474354178141  10.390715017530768  49.24564688556881  27.411551639834855  120.000000
0.20329670329670343  0.000000  0.000000  0.000000  -20.968477480220265  4.883060856434688  3.8090179943818976  53.570779661889055  5.702463708713638  -0.15300406371766734  -10.210722701358106  10.498809422000198  47.830435168713535  29.23635541363067  120.000000
0.24395604395604414  0.000000  0.000000  0.000000  -20.948418854468073  4.915933792170196  3.52427027771462  53.64951107909602  5.776405600082417  0.14009859829410665  -9.801700114347978  10.76953038303342  44.07464600668642  31.440477413696122  120.000000
0.2846153846153848  0.000000  0.000000  0.000000  -21.122037418870818  4.916357104676537  3.2177549902140674  53.762301263518424  6.020510824735331  0.4263604169025857  -7.653611844835964  11.30620680927041  37.90448526275387  33.71543403040714  120.000000
0.3252747252747255  0.000000  0.000000  0.000000  -21.43291393903723  4.87873178267442  2.920253524483436  53.89198010409955  6.4545968410920445  0.6835805932107453  -3.6778418525180823  12.23144252556812  29.546549943486163  35.7574973830568  120.000000
0.3659340659340662  0.000000  0.000000  0.000000  -21.821336052847737  4.790913612096133  2.6580163084087993  54.02879975749548  7.073931389269129  0.8848115362792045  1.7846777568740386  13.680110148018409  19.67461669104147  37.27691472489174  120.000000
0.40659340659340687  0.000000  0.000000  0.000000  -22.214391582138266  4.636291511098544  2.4490838046050767  54.166777898834646  7.840001238393083  1.0089632934828532  8.016685226724208  15.764889322264661  9.325356669052175  38.036186435576894  120.000000
0.44725274725274755  0.000000  0.000000  0.000000  -22.52647981518383  4.4051400868410076  2.2953536661996945  54.307177000595274  8.68434901075335  1.0529565803116239  14.206986426716409  18.520803394662558  -0.4090226603139848  37.88596962333569  120.000000
0.4879120879120883  0.000000  0.000000  0.000000  -22.67035737309159  4.107762630866547  2.1812647898283615  54.446515550742646  9.523814353682997  1.035788879325717  19.73842834525097  21.857588017726574  -8.681531558658406  36.75921454239751  120.000000
0.5285714285714289  0.000000  0.000000  0.000000  -22.57564125969446  3.777100944869707  2.0796844082101265  54.56447673466607  10.283030504890174  0.986590303296795  24.30026291205128  25.551617086126793  -15.021231399181103  34.671458220735616  120.000000
0.5692307692307697  0.000000  0.000000  0.000000  -22.216397106180846  3.4625816705348824  1.9624708896034577  54.628744907425954  10.908532022809581  0.941191409976692  27.827476403432616  29.27903240233378  -19.296508056339174  31.750359971320023  120.000000
0.6098901098901103  0.000000  0.000000  0.000000  -21.6283529070955  3.2148881061622534  1.8060538361377725  54.611492464451786  11.371530589369948  0.9314572567185216  30.40213776974131  32.68276712383661  -21.66047515330144  28.281251790812203  120.000000
0.650549450549451  0.000000  0.000000  0.000000  -20.90268133115119  3.0649987265965115  1.5925006585511494  54.501234297359794  11.66522651286429  0.9753359222474027  32.151507855055975  35.4468945597659  -22.49076258385886  24.738832349065834  120.000000
0.6912087912087918  0.000000  0.000000  0.000000  -20.17239924011971  3.0212696452660013  1.3094060386205746  54.307961492708316  11.801714778721339  1.0807178102980879  33.177970580678576  37.348664680892426  -22.31427975452423  21.751961344362787  120.000000
0.7318681318681324  0.000000  0.000000  0.000000  -19.59467802761148  3.085395354313737  0.9507838320875351  54.052315504194866  11.808751747023631  1.2480424245575552  33.54378874865643  38.28047533362098  -21.706844306940823  20.000812474943164  120.000000
0.7725274725274731  0.000000  0.000000  0.000000  -19.30700879743569  3.2537977657315347  0.5167430395071205  53.74585966390029  11.72970534751304  1.4664198847233432  33.28463417479507  38.24430530867343  -21.173039765685612  20.04808639976639  120.000000
0.8131868131868137  0.000000  0.000000  0.000000  -19.37368119421193  3.5058594004574726  0.010666238767216979  53.39075718542506  11.62374101056314  1.7154277325242409  32.42735851630689  37.3221466959039  -21.022799221052754  22.171106649619844  120.000000
0.8538461538461545  0.000000  0.000000  0.000000  -19.766419082796027  3.8038355996547817  -0.5642980460519476  52.991519714635324  11.554038948210103  1.9767137685038711  31.004766705866704  35.649301318805165  -21.289654113804243  26.314208175495224  120.000000
0.8945054945054951  0.000000  0.000000  0.000000  -20.382498591392665  4.102912599770154  -1.20384675732558  52.56320704937466  11.573167539143872  2.2422150368130365  29.060212355584543  33.41169367332357  -21.752066307917502  32.14877742447253  120.000000
0.9351648351648358  0.000000  0.000000  0.000000  -21.07896949230625  4.364396671048016  -1.8944181028695413  52.12736980021111  11.714982239747838  2.5133299642716094  26.624690023383057  30.849960616907175  -22.037867592998378  39.18755874469198  120.000000
0.9758241758241766  0.000000  0.000000  0.000000  -21.72023396079609  4.568989359422739  -2.6064032297206605  51.704577489242  11.99581594299555  2.794729159769429  23.711275690580234  28.246733599051776  -21.775471848449754  46.90968101402386  120.000000
1.0164835164835173  0.000000  0.000000  0.000000  -22.21905586259004  4.722091075265013  -3.2985292345630675  51.30816142788851  12.417745838497803  3.093990846201488  20.37647979907173  25.889402386050808  -20.771505733029475  54.855198429474804  120.000000
1.0571428571428578  0.000000  0.000000  0.000000  -22.550134969612632  4.848104885212545  -3.9259340817568438  50.945875457177586  12.972970578963182  3.4210750748628858  16.839041199753822  24.016325621718455  -19.17503813648227  62.667504769515084  120.000000
1.0978021978021986  0.000000  0.000000  0.000000  -22.737934140343082  4.979926392442391  -4.441578134436779  50.625448266273565  13.645266670860458  3.7873295987808278  13.559922011572889  22.77032386153378  -17.526237734856675  70.08151668164867  120.000000
1.1384615384615393  0.000000  0.000000  0.000000  -22.829753196452664  5.150422419559166  -4.79889940637232  50.357678191012354  14.414433209859524  4.204942045368758  11.155169694648503  22.185099826710925  -16.602810229614896  76.88819024572477  120.000000
1.17912087912088  0.000000  0.000000  0.000000  -22.869075470523235  5.387721803799052  -4.958526572378562  50.151457164118284  15.257863466554275  4.688293546577766  10.141676938912095  22.218885222353194  -17.09253153936299  82.90638955474301  120.000000
1.2197802197802206  0.000000  0.000000  0.000000  -22.878495013478044  5.712734211163005  -4.8918126624117395  50.00619114716399  16.14444160980691  5.248959997567644  10.70415085862513  22.813149578333984  -19.305275876795285  87.9716770283053  120.000000
1.2604395604395613  0.000000  0.000000  0.000000  -22.858203942122454  6.137350675393551  -4.585842095333913  49.907450516369366  17.030337837517752  5.8933949957610965  12.638353263995194  23.93272923011896  -23.086988263035416  91.93509529387107  120.000000
1.301098901098902  0.000000  0.000000  0.000000  -22.79635377824056  6.662888383481997  -4.046528245182652  49.830261999187556  17.863554274457233  6.621633311448842  15.471083808497063  25.562963654256755  -27.938385372877683  94.66618651104768  120.000000
1.3417582417582428  0.000000  0.000000  0.000000  -22.680418773575393  7.279601393306106  -3.2943096143962345  49.74843875237996  18.59263295023025  7.426149001032014  18.648642272521734  27.680977220338256  -33.22191793712369  96.06144232703323  120.000000
1.3824175824175835  0.000000  0.000000  0.000000  -22.50625737973809  7.967262254055469  -2.3565168170898327  49.64599772559525  19.176590511041695  8.290861305507121  21.703167470411344  30.231971355656622  -38.35397854554661  96.06383195625278  120.000000
1.423076923076924  0.000000  0.000000  0.000000  -22.282613314484337  8.696795034492272  -1.2603135301770438  49.52454744806763  19.590020912222545  9.191705323547925  24.336321667140453  33.126792296955756  -42.91179720916644  94.6909254859555  120.000000
1.4637362637362648  0.000000  0.000000  0.000000  -22.02873455560483  9.43470579899455  -0.028771752358638755  49.404560064586704  19.823376480337068  10.099312652497453  26.417678141924082  36.258404063248484  -46.649606680473774  92.03559859132645  120.000000
1.5043956043956055  0.000000  0.000000  0.000000  -21.766459403399104  10.148789111484787  1.3192728028150462  49.316802157336966  19.880081343088058  10.984663756766171  27.935234655328856  39.52233681978311  -49.45724551772668  88.23807780248754  120.000000
1.5450549450549462  0.000000  0.000000  0.000000  -21.514060461223206  10.814066809938128  2.765303909583117  49.29062478637406  19.771426229291837  11.8231621192341  28.941663734053687  42.8294384213735  -51.30832424389837  83.46459383733348  120.000000
1.5857142857142867  0.000000  0.000000  0.000000  -21.284842931767734  11.417113909753681  4.287764444789733  49.347251051916935  19.51075306859653  12.596064165090025  29.5215273676588  46.11147190193293  -52.22528112711299  77.89199862685926  120.000000
1.6263736263736275  0.000000  0.000000  0.000000  -21.08417798283596  11.957814806357462  5.859267168744089  49.49630485315767  19.10984341745485  13.291385805775684  29.773177451157352  49.320099915022816  -52.26038484725671  71.6988724294061  120.000000
1.6670329670329682  0.000000  0.000000  0.000000  -20.909643229912845  12.447873134386267  7.44575224557011  49.73696889414454  18.57869403680386  13.903151025243924  29.798570452760455  52.4219870966934  -51.483792326320945  65.06472056985766  120.000000
1.707692307692309  0.000000  0.000000  0.000000  -20.754670040342816  12.906530190600865  9.009130128831009  50.06063911655978  17.928349473157493  14.429655471784544  29.696996585602715  55.391709597686514  -49.976477327704366  58.16996355989255  120.000000
1.7483516483516497  0.000000  0.000000  0.000000  -20.61146166842042  13.353768430019967  10.511333569865169  50.45276013605091  17.17512214126726  14.872894039377869  29.558603339208165  58.20389265332396  -47.82622595411414  51.194920231072416  120.000000
1.7890109890109902  0.000000  0.000000  0.000000  -20.474562512004287  13.803271831857074  11.91851237571532  50.89463650822042  16.343933630283615  15.238472201232023  29.457150715827215  60.827191544528056  -45.124007312146475  44.319306612838496  120.000000
1.829670329670331  0.000000  0.000000  0.000000  -20.344103896441602  14.258740542117614  13.204334813724316  51.36491261140689  15.468217287716195  15.534427532585392  29.4444852975104  63.22318642787521  -41.96355887043762  37.72226950345075  120.000000
1.8703296703296717  0.000000  0.000000  0.000000  -20.227037553191664  14.713878458894607  14.351831235521928  51.840885387128594  14.586661370071289  15.769444334350581  29.547746763449766  65.35157277003702  -38.44647175116915  31.57843030014997  120.000000
1.9109890109890124  0.000000  0.000000  0.000000  -20.13597747240916  15.15635778495046  15.3540462763132  52.30013924381389  13.738441220679082  15.952065585278339  29.769555013194108  67.17790491580999  -34.691642348077664  26.048119087301504  120.000000
1.9516483516483532  0.000000  0.000000  0.000000  -20.084247775511596  15.571991552923858  16.213335538019656  52.72331116891693  12.957779361694516  16.090916717916254  30.090725547275675  68.68294202402845  -30.847625496725794  21.259318929847712  120.000000
1.9923076923076937  0.000000  0.000000  0.000000  -20.07953842855185  15.946507998428595  16.94004276369427  53.09712457333668  12.270533181767584  16.194426614879298  30.476666845602924  69.86879151758211  -27.10222581423652  17.287567811870467  120.000000
2.0329670329670346  0.000000  0.000000  0.000000  -20.119214654171554  16.266790411674098  17.548804467320856  53.41591687193083  11.691780821902176  16.269098546069326  30.885864744930146  70.7596453169193  -23.67988975747608  14.150002288255639  120.000000
2.073626373626375  0.000000  0.000000  0.000000  -20.18716671015793  16.522561762026445  18.053650593843802  53.68052162605243  11.224380802186591  16.31787183170133  31.27691619737508  71.39474436667274  -20.825322023126226  11.819924979628087  120.000000
2.1142857142857157  0.000000  0.000000  0.000000  -20.256684334471256  16.707370818610872  18.465200377279675  53.89346456260815  10.859559928514097  16.33836803340681  31.6138371696459  71.81605464542433  -18.77182721391058  10.254877326343532  120.000000
2.1549450549450566  0.000000  0.000000  0.000000  -20.301534062132394  16.81854053125335  18.791037158075554  54.05483046876479  10.581304643481992  16.32031145564385  31.866687279809536  72.05587281522905  -17.707235682360324  9.428966161741613  120.000000
2.195604395604397  0.000000  0.000000  0.000000  -20.30668691728523  16.857753303518113  19.03667834406679  54.157896458114166  10.371336364164339  16.246380611737262  32.00971257618987  72.12866335606628  -17.746270374253115  9.355563537945814  120.000000
2.2362637362637376  0.000000  0.000000  0.000000  -20.270809962801632  16.83087324527919  19.20574591420361  54.18769357085176  10.214139917102008  16.095299831681437  32.01956528654236  72.0260992774865  -18.915872418704684  10.089879494805416  120.000000
2.2769230769230786  0.000000  0.000000  0.000000  -20.20009325007646  16.744862730835035  19.298461376027916  54.124180716382504  10.100143566734715  15.846302594430838  31.875886910198105  71.7149174727311  -21.155137792362137  11.712508711547386  120.000000
2.317582417582419  0.000000  0.000000  0.000000  -20.09997379844304  16.603480182058618  19.309142144980246  53.94882162980397  10.028117737309431  15.482209032027008  31.565833333938905  71.13886676144017  -24.32222676049954  14.300547932489312  120.000000
2.35824175824176  0.000000  0.000000  0.000000  -19.970803763640216  16.404976491425476  19.223872790213342  53.651653323958406  10.005034728755959  14.992975388712622  31.090392932705875  70.2283507395613  -28.204387394163472  17.89571260434504  120.000000
2.3989010989011006  0.000000  0.000000  0.000000  -19.809523992203196  16.143736360654966  19.021433461519706  53.23559358241884  10.04398593303789  14.37856590875394  30.46693519062564  68.9166994293347  -32.53125530814394  22.480001828323026  120.000000
2.439560439560441  0.000000  0.000000  0.000000  -19.61565250120626  15.814023276457156  18.678486014454048  52.71729920070604  10.158820335443071  13.648952937829764  29.72322976345839  67.15856319676692  -36.99568621972706  27.972136598622697  120.000000
2.480219780219782  0.000000  0.000000  0.000000  -19.39677567024693  15.414519394610387  18.17823957037742  52.12575247561864  10.355309043547333  12.81973374744546  28.886155863389806  64.94263001914479  -41.283524466936264  34.24288787214198  120.000000
2.5208791208791226  0.000000  0.000000  0.000000  -19.168353845976792  14.95229390245657  17.518089650113804  51.49925774219508  10.622900929527116  11.90565236325372  27.97038830188751  62.29502489796  -45.10594697582571  41.12645934642317  120.000000
2.5615384615384635  0.000000  0.000000  0.000000  -18.95038291951619  14.441015764898037  16.709485131198843  50.8785275814198  10.93544007455326  10.9190056422951  26.97062208409059  59.27228452291095  -48.228877495889854  48.418198036086714  120.000000
2.602197802197804  0.000000  0.000000  0.000000  -18.76749238501422  13.895326202388555  15.771302044764594  50.2993996331539  11.257778836799968  9.869783765599982  25.859123588082728  55.95154546229693  -50.482840473245055  55.87570431621144  120.000000
2.6428571428571446  0.000000  0.000000  0.000000  -18.650124946643274  13.327230152662036  14.724666077538844  49.79004105327486  11.551861220645508  8.764230814043886  24.590249787702195  52.42303865891394  -51.75500846381914  63.228722003011654  120.000000
2.6835164835164855  0.000000  0.000000  0.000000  -18.630328817265934  12.744148581320312  13.5896647514708  49.36963139127678  11.781035950204675  7.610895141383119  23.107429245209318  48.78450974469956  -51.97324900246675  70.19389605511685  120.000000
2.724175824175826  0.000000  0.000000  0.000000  -18.734846207401286  12.146918625914122  12.383341398150755  49.05010055256122  11.915065711675664  6.428060905299986  21.348748169048342  45.138229222106546  -51.09129535967544  76.49767403655176  120.000000
2.764835164835167  0.000000  0.000000  0.000000  -18.981401321011063  11.528036116850402  11.124327845491012  48.839392058392384  11.937601557211899  5.248903527059723  19.25219602050098  41.58557734798171  -49.075769185424804  81.8986176389384  120.000000
2.8054945054945075  0.000000  0.000000  0.000000  -19.37623127894613  10.874722124785448  9.836784576047293  48.745554993394194  11.85119419747047  4.119894338341268  16.764663924978684  38.22514399198099  -45.90974763852212  86.19755064667315  120.000000
2.846153846153848  0.000000  0.000000  0.000000  -19.915180946500122  10.174411110987272  8.553398396095028  48.7792139546204  11.680285157794197  3.094064950791574  13.859268178357993  35.14660054639787  -41.611000262092055  89.23579413509128  120.000000
2.886813186813189  0.000000  0.000000  0.000000  -20.586541499936292  9.421566192345711  7.311014421431469  48.954474967017724  11.466961770169947  2.220241140197373  10.564123967724823  32.423196963147966  -36.264271917599764  90.89206149399479  120.000000
2.9274725274725295  0.000000  0.000000  0.000000  -21.37286443345521  8.622766219263122  6.141864030993588  49.28590256207658  11.259376654364141  1.5344712524788624  7.001547801872181  30.099064061543686  -30.063851594236805  91.0882319168818  120.000000
2.9681318681318705  0.000000  0.000000  0.000000  -22.251244427317083  7.795001401113123  5.06687742654239  49.784098666031326  11.101154210966293  1.0562092249662558  3.414018798963887  28.169872770265158  -23.34158869952977  89.80193397297016  120.000000
3.008791208791211  0.000000  0.000000  0.000000  -23.192615702637745  6.9614172839683865  4.090630805995932  50.44894647608792  11.024319899521302  0.7888585658250368  0.14397201098680612  26.574280349246518  -16.541728113300945  87.07154167191705  120.000000
3.0494505494505515  0.000000  0.000000  0.000000  -24.162431901023606  6.1474105434171165  3.2066571745554646  51.26528638916925  11.04707403831214  0.7215251002840617  -2.437893722702357  25.2018787057503  -10.134866635654536  82.98909837921721  120.000000
3.0901098901098925  0.000000  0.000000  0.000000  -25.12052562332957  5.378055904970067  2.4034384698037874  52.20095895498381  11.172738159114212  0.8306550220790444  -4.018133291454963  23.926650033955543  -4.514438135026773  77.69879740645166  120.000000
3.130769230769233  0.000000  0.000000  0.000000  -26.018847586567144  4.678159053283377  1.6666563658686662  53.20382815066767  11.39242070101479  1.0839059741702393  -4.402118684562151  22.64630404558985  0.0839923224381137  71.41214278408947  120.000000
3.1714285714285735  0.000000  0.000000  0.000000  -26.798560024543495  4.072262139710127  0.9800371955896255  54.20337886952263  11.685836903405312  1.4434139129249592  -3.541944311353615  21.312172891469256  3.6179326769064923  64.42627906177661  120.000000
3.2120879120879144  0.000000  0.000000  0.000000  -27.392347447544065  3.582112792088405  0.3290681573072696  55.11778385042214  12.023972845000136  1.8703053358091  -1.534555177673438  19.932418089388158  6.229973274437079  57.124840089479704  120.000000
3.252747252747255  0.000000  0.000000  0.000000  -27.731760542778773  3.224615099492856  -0.2948404384553167  55.870007162733664  12.37409466489079  2.3299273026559977  1.3885758012729195  18.550326279456378  8.209235741293508  49.94034642209824  120.000000
3.293406593406596  0.000000  0.000000  0.000000  -27.760829495132015  3.010303636966646  -0.8911671974795594  56.40228481895269  12.705489246955343  2.797863097714959  4.882570518228873  17.21358627346809  9.93218156323135  43.28738918231331  120.000000
3.3340659340659364  0.000000  0.000000  0.000000  -27.4514107381604  2.940911792839419  -1.4510278569178257  56.68491245518119  12.995695571552766  3.256266208291442  8.551008635411073  15.952798462253899  11.76508670935774  37.493228945951955  120.000000
3.374725274725277  0.000000  0.000000  0.000000  -26.81227550822593  3.0062681074740856  -1.9599489138866053  56.71924565179286  13.232271093334317  3.691750239858075  12.021395109071701  14.774545363903776  13.965257910470491  32.74326032798436  120.000000
3.415384615384618  0.000000  0.000000  0.000000  -25.8967703249869  3.180057415363319  -2.4047818865536916  56.53235462014951  13.412710589709915  4.087848539286542  15.02763853172462  13.668843428045161  16.593744059284933  29.08258252901707  120.000000
3.4560439560439584  0.000000  0.000000  0.000000  -24.805281315341688  3.424228624194373  -2.7784059303935473  56.167376003264856  13.54157971197891  4.4247530947720985  17.448791340237015  12.619404743661336  19.507958046864776  26.468574871934635  120.000000
3.4967032967032994  0.000000  0.000000  0.000000  -23.670800031316876  3.6994812214481088  -3.081455107517801  55.671301399878715  13.628804113203127  4.684774912393634  19.331081989769395  11.612293515396667  22.383660050802067  24.822441477999565  120.000000
3.53736263736264  0.000000  0.000000  0.000000  -22.640706555676328  3.963589538090562  -3.322433422416405  55.0936204183701  13.693151464861241  4.845632827653408  20.974757093237987  10.649600860071747  24.666999160393768  24.053122100018154  120.000000
3.5780219780219804  0.000000  0.000000  0.000000  -21.847374836328985  4.1794753009435155  -3.514502605857507  54.484390651002975  13.758304647078283  4.887016501307441  22.993671228568548  9.74655970244204  25.578929140600238  24.056912220939612  120.000000
3.6186813186813214  0.000000  0.000000  0.000000  -21.360618976682847  4.325947070439068  -3.6779555278919025  53.87870069538173  13.83850144094658  4.8071095671048445  26.212801666062692  8.920708373746562  24.28315095156852  24.709562572289556  120.000000
3.659340659340662  0.000000  0.000000  0.000000  -21.150103189730324  4.376083384512186  -3.8407539141568057  53.314540296018  13.93345852308619  4.618234219134349  31.384530462087636  8.199726613119388  20.1941585843066  25.81514800592854  120.000000
3.700000000000003  0.000000  0.000000  0.000000  -21.124584679219158  4.286188362564915  -4.033955418026349  52.828603068203435  14.028324839022806  4.34197745178866  38.95309320698833  7.647953409562719  13.15737209602985  27.107782268336397  120.000000
