Simulation
nRows=92
nColumns=15
endheader
time  TH_x TH_y TH_z SC_y  SC_z  SC_x  AC_y  AC_z  AC_x  GH_y  GH_z  GH_yy  EL_x  PS_y
0.0  0.000000  0.000000  0.000000  -24.678379773778257  5.0276764007215515  1.8367282141642847  53.160477822238306  7.733266658132992  0.3056974867034315  5.626604746356952  11.036113728871657  34.83084088235293  27.088382675721753  120.000000
0.04065934065934069  0.000000  0.000000  0.000000  -23.703669941520417  5.089321465458639  1.681687341932925  53.302125057799174  7.8318015003614585  0.6618480045453653  1.465468273577761  10.887024905199462  39.91570294711827  26.248429924952507  120.000000
0.08131868131868138  0.000000  0.000000  0.000000  -22.867062118664126  5.069878545140828  1.4072276076862051  53.45415627659611  7.844257746298198  1.029888054232154  -2.3561966140639945  10.725747535711127  44.26255355027513  25.884734729105926  120.000000
0.12197802197802207  0.000000  0.000000  0.000000  -22.246068449342342  5.011602067889234  1.026122682630014  53.60392736456468  7.879368343802258  1.4056055770187872  -5.643956761279096  10.617961735868613  47.267756936284535  26.269695076397646  120.000000
0.16263736263736275  0.000000  0.000000  0.000000  -21.84906628209808  4.949049795009621  0.5490459321134961  53.742842118747575  8.007139961324489  1.7972873434796248  -8.218110605275735  10.620550852587154  48.49598550965536  27.44944101177543  120.000000
0.20329670329670343  0.000000  0.000000  0.000000  -21.64597691274804  4.881860697361018  -0.0010296106286315462  53.85789020099073  8.264380190404342  2.2097977541735756  -9.828610858565256  10.788041988171676  47.66200816811347  29.26573589697483  120.000000
0.24395604395604414  0.000000  0.000000  0.000000  -21.61131096899837  4.805736855657281  -0.5953107431161136  53.94512959629038  8.668637498144546  2.6321334354783756  -10.034604383128123  11.16671623061032  44.46214036204213  31.450304524774882  120.000000
0.2846153846153848  0.000000  0.000000  0.000000  -21.72400935476002  4.734763164653077  -1.1974375433925248  54.009973516922116  9.225448108529978  3.044341939622142  -8.411428417999257  11.812306544829722  38.73473201309325  33.702950887032216  120.000000
0.3252747252747255  0.000000  0.000000  0.000000  -21.958165350395618  4.685161175905459  -1.759497880900852  54.0557456592195  9.923813596065637  3.4288860367959897  -4.820584546912867  12.810815485085381  30.675711354684772  35.725582889507706  120.000000
0.3659340659340662  0.000000  0.000000  0.000000  -22.27628102099466  4.64935188111904  -2.2364621455943294  54.09187034430171  10.7350934788565  3.7689199949761396  0.46370656787310166  14.282780283693812  20.912970482609673  37.24175532742587  120.000000
0.40659340659340687  0.000000  0.000000  0.000000  -22.62278022956261  4.6005392108343415  -2.60582234886267  54.13814251602246  11.61488935386754  4.0550370867915095  6.742548307376765  16.35024576797462  10.479832598904814  38.01579253196736  120.000000
0.44725274725274755  0.000000  0.000000  0.000000  -22.928646126995055  4.518859977036106  -2.8685344984532524  54.21175249625491  12.50184779666382  4.285857034302225  13.124665477123731  19.069240416055745  0.5539250084983511  37.88009568933178  120.000000
0.4879120879120883  0.000000  0.000000  0.000000  -23.126090211273524  4.409035173548236  -3.0431205651697195  54.31076577081811  13.325987767872437  4.4693276661622345  18.8815529578919  22.36668176887824  -7.914173615943365  36.75789043719622  120.000000
0.5285714285714289  0.000000  0.000000  0.000000  -23.15118558250488  4.290677515247922  -3.159334801779128  54.4102971457346  14.02483467134797  4.619022254629848  23.633274592234695  26.024563244864137  -14.395023041167459  34.66996653979894  120.000000
0.5692307692307697  0.000000  0.000000  0.000000  -22.953865627222083  4.184916339693583  -3.250079388499661  54.47776028967329  14.556454316685286  4.7478251645618474  27.310421069643358  29.717505556848963  -18.76002306878808  31.747859801215164  120.000000
0.6098901098901103  0.000000  0.000000  0.000000  -22.53040115995613  4.111217941906856  -3.3496439286846655  54.48722121661677  14.906827674574668  4.868074073965703  30.01550262295418  33.08331656216458  -21.187570969189455  28.278224094154943  120.000000
0.650549450549451  0.000000  0.000000  0.000000  -21.943081284819897  4.076173733752595  -3.490545148635496  54.42308235502417  15.086020681151266  4.984237830595062  31.88677044637442  35.80275356535731  -22.072631997806173  24.737274728368433  120.000000
0.6912087912087918  0.000000  0.000000  0.000000  -21.30200357550137  4.07100963771569  -3.6985621811449128  54.27865662028564  15.121465280608385  5.088996237776058  33.020591661262394  37.65626730550257  -21.949569342527894  21.750190048554035  120.000000
0.7318681318681324  0.000000  0.000000  0.000000  -20.735806530991965  4.083787028438088  -3.9885027302150546  54.05276877249604  15.057934779366448  5.169239285170373  33.45654618101146  38.54600421504021  -21.39026341770589  19.986788207140574  120.000000
0.7725274725274731  0.000000  0.000000  0.000000  -20.365351327652096  4.106078298933219  -4.3645949553444385  53.742673929671255  14.957941602510404  5.213558842057577  33.203777469548896  38.487737220833544  -20.883130240714202  20.019935959095317  120.000000
0.8131868131868137  0.000000  0.000000  0.000000  -20.268489920012005  4.1330108476997625  -4.816802379148141  53.346769221775546  14.87954181934627  5.219648315098068  32.28553841449726  37.579682425995905  -20.72927566736695  22.143809388857896  120.000000
0.8538461538461545  0.000000  0.000000  0.000000  -20.447398560145526  4.152737841754618  -5.3205755600370646  52.8744740129258  14.854765448149667  5.19151731036316  30.755148540579587  35.96528235476302  -20.9684427143451  26.295611958556588  120.000000
0.8945054945054951  0.000000  0.000000  0.000000  -20.830894185981254  4.146517292565997  -5.857971925555038  52.35250752337954  14.905196415873426  5.138987204825648  28.683868438554708  33.817706547722054  -21.39125649267109  32.139593889151605  120.000000
0.9351648351648358  0.000000  0.000000  0.000000  -21.313851416410035  4.1114644630155714  -6.418997423836624  51.82087540257121  15.047403684347707  5.090046599357355  26.14279698036918  31.352308399420693  -21.64970225377106  39.18496094310155  120.000000
0.9758241758241766  0.000000  0.000000  0.000000  -21.790345045093062  4.063810317299241  -6.979552016742034  51.316280157102774  15.289095970201828  5.07614728866493  23.18181982367807  28.829455387686487  -21.399980921389847  46.90979917031535  120.000000
1.0164835164835173  0.000000  0.000000  0.000000  -22.177669259942608  4.026814893912218  -7.497057575342037  50.858952061096176  15.633674291033888  5.116192547454818  19.86759632988616  26.521356427283123  -20.456136802916745  54.85708978266322  120.000000
1.0571428571428578  0.000000  0.000000  0.000000  -22.44040212854209  4.028225654303931  -7.92185764737934  50.45897788873985  16.07754443181704  5.221431880134928  16.403769734219715  24.659507444671355  -18.95489940327013  62.66861447231946  120.000000
1.0978021978021986  0.000000  0.000000  0.000000  -22.59025549133097  4.096278444820847  -8.204939484168591  50.12361557334229  16.609414905064003  5.399517527517769  13.211642796991798  23.38819748184643  -17.403765642493802  70.07831023890455  120.000000
1.1384615384615393  0.000000  0.000000  0.000000  -22.66477226345382  4.255820877903458  -8.30109162115787  49.859813715286606  17.212559273304436  5.656690612739156  10.857506709364989  22.75019603049023  -16.534975707444758  76.87802559357246  120.000000
1.17912087912088  0.000000  0.000000  0.000000  -22.700826785347754  4.525687121132339  -8.173630265925503  49.67126367672815  17.864719012073902  6.000164211362209  9.837523382639302  22.715883410479428  -17.018107442060376  82.88940675745592  120.000000
1.2197802197802206  0.000000  0.000000  0.000000  -22.71408417729039  4.9156701501206825  -7.800930085225578  49.552635560927726  18.536314021429607  6.436056634429364  10.360083639896963  23.237694924964078  -19.187017749761804  87.95105804158658  120.000000
1.2604395604395613  0.000000  0.000000  0.000000  -22.696235014101674  5.4252819552541585  -7.182021080922732  49.485968765134416  19.190570188820022  6.965896246262202  12.261893108857494  24.288456350258045  -22.92869325196095  91.91499637453609  120.000000
1.301098901098902  0.000000  0.000000  0.000000  -22.629013199728547  6.0438484676393704  -6.335988411880164  49.442304284628456  19.7857836732123  7.5865057584132005  15.090835704867008  25.859739549162544  -27.76534643574374  94.64803654779907  120.000000
1.3417582417582428  0.000000  0.000000  0.000000  -22.49950745978402  6.752154148126463  -5.295223984231942  49.39157375355147  20.281390072068717  8.289208388100507  18.290373508461318  27.932186605862974  -33.05823392296959  96.04267607833413  120.000000
1.3824175824175835  0.000000  0.000000  0.000000  -22.308955033559975  7.523719585846962  -4.0961235657672415  49.31442956508147  20.645705460208642  9.057650839038716  21.3770010102255  30.450716294345987  -38.20938408392803  96.04490520162959  120.000000
1.423076923076924  0.000000  0.000000  0.000000  -22.072779575158776  8.327327900100792  -2.770521588385342  49.211310383023  20.85985895074674  9.86811396481017  24.040654116073494  33.3235964717698  -42.78525061002295  94.67482113612205  120.000000
1.4637362637362648  0.000000  0.000000  0.000000  -21.81182513593857  9.130240922372563  -1.3416226735817327  49.10193552942793  20.917892246336095  10.693242688140582  26.149234142233237  36.44070415187718  -46.53843622312569  92.02201908481362  120.000000
1.5043956043956055  0.000000  0.000000  0.000000  -21.545359130985116  9.901925914984949  0.1739169927425169  49.01689204132772  20.824672220691774  11.50632877981687  27.69464013854108  39.69433054108873  -49.36182159963983  88.2266581108818  120.000000
1.5450549450549462  0.000000  0.000000  0.000000  -21.289419014622805  10.619700544523667  1.7608345356976498  48.98641050365242  20.59034273265547  12.28554568519136  28.73596911860908  42.99250620205456  -51.23330343021313  83.45528584831087  120.000000
1.5857142857142867  0.000000  0.000000  0.000000  -21.05624885554278  11.273297409193505  3.3994290721886493  49.0321340623047  20.22546647334994  13.015548627404756  29.360136777601056  46.26386005360983  -52.17730489128617  77.88329131704809  120.000000
1.6263736263736275  0.000000  0.000000  0.000000  -20.853369212157705  11.86596401690107  5.063969203060573  49.163983686786366  19.736882826225447  13.685091852679806  29.663027050504752  49.45735315099309  -52.24386904906901  71.68978073181464  120.000000
1.6670329670329682  0.000000  0.000000  0.000000  -20.682352303216554  12.41250146646607  6.725763076379183  49.38322782630959  19.12693626926349  14.284209638906976  29.744340872919935  52.538305204315925  -51.501044476505456  65.05500738556553  120.000000
1.707692307692309  0.000000  0.000000  0.000000  -20.538485082151592  12.934348289012306  8.353526477419134  49.684955441306265  18.40043285453326  14.80600797776596  29.70164729934775  55.48091980846568  -50.029090039585974  58.15888298205935  120.000000
1.7483516483516497  0.000000  0.000000  0.000000  -20.413648977908725  13.450672759515752  9.914719972200437  50.05808091539892  17.57159751897995  15.248142279052644  29.620885814712928  58.26099925014686  -47.912803357672324  51.18211684729389  120.000000
1.7890109890109902  0.000000  0.000000  0.000000  -20.300712391493317  13.970835715891374  11.38012624804993  50.486042338083685  16.666109127182196  15.612366346570774  29.57094266453588  60.85013078297011  -45.23959827663277  44.30582372537951  120.000000
1.829670329670331  0.000000  0.000000  0.000000  -20.19561668130856  14.491636781740565  12.726726372657454  50.94812396982264  15.719458743521919  15.90427609333239  29.599522520120967  63.21399400907463  -42.10082635073566  37.7094533943003  120.000000
1.8703296703296717  0.000000  0.000000  0.000000  -20.100645269791197  14.999314694099331  13.938797158606187  51.42149862961904  14.773449641046641  16.131573422965243  29.730749020031745  65.31611282529376  -38.59712069178872  31.567091251759326  120.000000
1.9109890109890124  0.000000  0.000000  0.000000  -20.02698440875911  15.477216148941194  15.00821361917667  51.883156473580996  13.87027204900936  16.30239063145196  29.965332139320733  67.12549890662068  -34.847773090161596  26.038339478701662  120.000000
1.9516483516483532  0.000000  0.000000  0.000000  -19.989791131399766  15.912437661658418  15.935565872006311  52.31191724335627  13.0443124826166  16.424777453643017  30.2838359373026  68.62534824243272  -31.0023077518808  21.25058695477683  120.000000
1.9923076923076937  0.000000  0.000000  0.000000  -19.999409856137163  16.29614405817605  16.729703818479415  52.69313474712126  12.317905887830836  16.50683489277388  30.654427284565628  69.8179805963716  -27.251458270013487  17.279119854878665  120.000000
2.0329670329670346  0.000000  0.000000  0.000000  -20.05435083509222  16.622248176716568  17.402723054781525  53.02069666120045  11.701473348249378  16.556561873642035  31.04229817201964  70.72439110167119  -23.823678036304198  14.14088027632908  120.000000
2.073626373626375  0.000000  0.000000  0.000000  -20.139236621787628  16.886369880447052  17.96630988663648  53.29523445480852  11.194407006992948  16.57946227854685  31.415249776417898  71.37714308730399  -20.966624162629042  11.809394028874152  120.000000
2.1142857142857157  0.000000  0.000000  0.000000  -20.229427110015944  17.0834270816141  18.430830435424504  53.52062016179867  10.788120585735621  16.57461698386064  31.744437546298784  71.81020795400549  -18.916947961339968  10.243206959819393  120.000000
2.1549450549450566  0.000000  0.000000  0.000000  -20.300737078600392  17.20874267827238  18.80440692115673  53.69785369534576  10.469449470574036  16.53276785978279  32.00310415858254  72.05054485548001  -17.864307800098267  9.417262548802004  120.000000
2.195604395604397  0.000000  0.000000  0.000000  -20.33832570850015  17.261761409989052  19.092479643191414  53.81958521769702  10.224057029578281  16.437861994820977  32.16460500455978  72.11126214000515  -17.92309508553301  9.344878009278517  120.000000
2.2362637362637376  0.000000  0.000000  0.000000  -20.339069500159084  17.245809229556997  19.297662684871703  53.86935047804202  10.040625164240678  16.270144487178662  32.20184004261105  71.98629032054647  -19.118046843744956  10.080377578048223  120.000000
2.2769230769230786  0.000000  0.000000  0.000000  -20.307253354206445  17.16542577865315  19.419455828420173  53.825671840942974  9.912533875737612  16.009465012402895  32.08988980187895  71.6469640726664  -21.384822664367334  11.70354410600724  120.000000
2.317582417582419  0.000000  0.000000  0.000000  -20.246850793566924  17.02382058185632  19.453182684024142  53.66973142578241  9.83704383864233  15.637837022376067  31.81227216098041  71.0428558030024  -24.57788315589887  14.291155539304158  120.000000
2.35824175824176  0.000000  0.000000  0.000000  -20.15676679637693  16.820723219358403  19.387436320208938  53.39413516610727  9.815847634614338  15.142778546706191  31.368631702272303  70.1097082589068  -28.481976617562285  17.884745457861303  120.000000
2.3989010989011006  0.000000  0.000000  0.000000  -20.032228682327123  16.553863816078866  19.202403415776754  53.00648932621792  9.85491391462712  14.5219971491395  30.7768856748156  68.78588759452182  -32.82593479071337  22.467713954266273  120.000000
2.439560439560441  0.000000  0.000000  0.000000  -19.869542672639543  16.221390164458324  18.875300115241604  52.527400529752754  9.961350524640203  13.784866855380569  30.06390343847148  67.03042275832811  -37.30276521242292  27.960000704148012  120.000000
2.480219780219782  0.000000  0.000000  0.000000  -19.67172386020667  15.822406089924929  18.390158060917276  51.98643380001203  10.13808983210641  12.947886695147378  29.25005316889241  64.83480123824343  -41.597855520693194  34.23209042303574  120.000000
2.5208791208791226  0.000000  0.000000  0.000000  -19.452674659873974  15.359913763465178  17.74627577719383  51.418655494849155  10.377777270125746  12.025429852645626  28.336832377952632  62.22493265183664  -45.41978211313158  41.118437979834916  120.000000
2.5615384615384635  0.000000  0.000000  0.000000  -19.23602744860955  14.841670351030862  16.958160908016566  50.85923732152617  10.660841670487454  11.025583684161601  27.3028075198021  59.25384180981296  -48.52807744009479  48.41390936733307  120.000000
2.602197802197804  0.000000  0.000000  0.000000  -19.053212705098858  14.279630817592416  16.045849689771476  50.33912205002295  10.955612698360694  9.953178557259392  26.11072986312459  55.992310049704265  -50.74654025853491  55.87451595980745  120.000000
2.6428571428571446  0.000000  0.000000  0.000000  -18.938725245635084  13.686346659219465  15.027826436344249  49.88924906025302  11.221757090637004  8.81321380391457  24.72384236542272  52.522262569829  -51.963398655245  63.22751831475164  120.000000
2.6835164835164855  0.000000  0.000000  0.000000  -18.921002221146438  13.068676263377956  13.918806245102553  49.53776373718465  11.415811340660937  7.619424604949937  23.113854310945012  48.93509100029718  -52.11669675967835  70.18949811328362  120.000000
2.724175824175826  0.000000  0.000000  0.000000  -19.026164846155996  12.429775733204274  12.732273250686351  49.300300411614536  11.502227449994917  6.39884887627619  21.2532049751022  45.330481451664916  -51.17186320157894  76.4896127993955  120.000000
2.764835164835167  0.000000  0.000000  0.000000  -19.277895135160396  11.768035957783916  11.48470027362445  49.177953654036486  11.468089612352653  5.1906839938296345  19.096806935706116  41.81328664031821  -49.10223869134654  81.88777444534622  120.000000
2.8054945054945075  0.000000  0.000000  0.000000  -19.685561027046376  11.072694116050037  10.198125006672123  49.162277164182804  11.327530198554259  4.043978200044026  16.584857761561384  38.48727022962412  -45.89210416573316  86.18560183089879  120.000000
2.846153846153848  0.000000  0.000000  0.000000  -20.24364853815702  10.329918904611864  8.902380414845014  49.24936401719533  11.118359315634603  3.0097967464420674  13.676406297992525  35.44536430628734  -41.56285831705605  89.22357129334854  120.000000
2.886813186813189  0.000000  0.000000  0.000000  -20.933920015459716  9.532861565934542  7.6304316293484  49.44547468944042  10.892469188837406  2.1322174239019116  10.390495887897506  32.76278411495245  -36.203677415456845  90.87887903288821  120.000000
2.9274725274725295  0.000000  0.000000  0.000000  -21.727617984604727  8.685812542899498  6.410653101356962  49.763954203804296  10.70473494406453  1.4424811213050663  6.849885209681114  30.483515803439637  -30.01457695105959  91.07300744643662  120.000000
2.9681318681318705  0.000000  0.000000  0.000000  -22.587161684699005  7.803611690411392  5.260050330892346  50.21789457149214  10.602753303514818  0.9571311277308239  3.305174328545564  28.60237214057149  -23.335311958781375  89.78316994951493  120.000000
3.008791208791211  0.000000  0.000000  0.000000  -23.472070316973788  6.909945491031079  4.18191091527885  50.811315179027424  10.619183490723017  0.6795955925871536  0.11203377970906032  27.053525956732276  -16.621046829825016  87.04976582346345  120.000000
3.0494505494505515  0.000000  0.000000  0.000000  -24.34783237523271  6.0331598200223375  3.1696102071596144  51.53033218361715  10.767874506514204  0.6024300380604788  -2.3536447893042927  25.72166752185906  -10.345123508603754  82.96940554502329  120.000000
3.0901098901098925  0.000000  0.000000  0.000000  -25.179660155421605  5.2032818296198  2.2125709795445543  52.336454217116675  11.044135511697835  0.7063565175413091  -3.795624060163144  24.476669084284786  -4.879998379746158  77.68489966456643  120.000000
3.130769230769233  0.000000  0.000000  0.000000  -25.927982234028658  4.4518779300317375  1.3039663210807488  53.181531886206876  11.42592250331457  0.9615592868374806  -4.04607741951097  23.213588235027444  -0.431496524651336  71.40098364481425  120.000000
3.1714285714285735  0.000000  0.000000  0.000000  -26.548591576082682  3.8090848589725637  0.44192329164886557  54.013214230237  11.877815435772268  1.3332323540416788  -3.0705663834463395  21.880968100998803  2.9761691508846573  64.41653752984404  120.000000
3.2120879120879144  0.000000  0.000000  0.000000  -26.991537581945426  3.2985266214895828  -0.37202488238034476  54.77198126572084  12.359357233518343  1.7847754120616626  -0.9815927160389428  20.484506483550984  5.504205137073836  57.11836566370368  120.000000
3.252747252747255  0.000000  0.000000  0.000000  -27.20786221869637  2.93487173694243  -1.1327015308779949  55.400144178327  12.830333964742097  2.280022699579045  1.9687580584367215  19.067272112050134  7.46325739490587  49.93537150091251  120.000000
3.293406593406596  0.000000  0.000000  0.000000  -27.163462250291023  2.724020915646612  -1.830143662058726  55.85551051405343  13.25512457299049  2.7900439425941155  5.425594146007357  17.67841548449376  9.238756438976283  43.282166220356764  120.000000
3.3340659340659364  0.000000  0.000000  0.000000  -26.85127524363477  2.665928333673016  -2.4491755151985815  56.12437199226535  13.606525378852648  3.296929164918618  8.987971902950724  16.35175666882418  11.197768996961537  37.487688430586374  120.000000
3.374725274725277  0.000000  0.000000  0.000000  -26.293192213410325  2.7553537887300683  -2.9737533618357266  56.217181680741405  13.866185842099675  3.7922663487810144  12.289161095081404  15.101498463583248  13.589063096330591  32.73897314809938  120.000000
3.415384615384618  0.000000  0.000000  0.000000  -25.53896622164392  2.978186127204013  -3.393024822854818  56.16177545621385  14.026288234192297  4.268668922721102  15.082459434292232  13.929358689825893  16.454911442053785  29.082338070717164  120.000000
3.4560439560439584  0.000000  0.000000  0.000000  -24.670127957668342  3.30843195616613  -3.702153243478291  55.99506333965429  14.08999430905329  4.71453373680606  17.282168626580464  12.834739360292783  19.61902007312795  26.471188995456515  120.000000
3.4967032967032994  0.000000  0.000000  0.000000  -23.796592821940976  3.716195488586961  -3.9044899653827243  55.74205839445049  14.072753761662531  5.117344124786983  18.974059265270363  11.816496001977807  22.726743134878774  24.822641388408194  120.000000
3.53736263736264  0.000000  0.000000  0.000000  -23.038790852061766  4.172255447916761  -4.003446943495931  55.40811338510795  13.99089221376097  5.4577670725559155  20.401558495588837  10.867476772075255  25.306571903334845  24.045791606084208  120.000000
3.5780219780219804  0.000000  0.000000  0.000000  -22.51026945471179  4.639371862815555  -3.993184336042192  55.005706370528415  13.851893517609946  5.695175164195881  21.94503795231261  9.971645231068146  26.836405491867467  24.035431396328416  120.000000
3.6186813186813214  0.000000  0.000000  0.000000  -22.27443811556916  5.09149384856974  -3.8915990042501476  54.55734970922581  13.661117435015436  5.796231642186929  24.083456018420403  9.107178959976205  26.82691031865588  24.663634509026853  120.000000
3.659340659340662  0.000000  0.000000  0.000000  -22.315515021710794  5.5258271390601506  -3.7451547770118734  54.08718292555247  13.41868585602924  5.777173559947844  27.247952902025425  8.251181194787321  25.011611067058073  25.75320513022129  120.000000
3.700000000000003  0.000000  0.000000  0.000000  -22.569530514051667  5.929531297554952  -3.602455781993526  53.61189981534829  13.116701883757285  5.689232546753394  31.78100695375371  7.400748427236865  21.342175734062888  27.064568196470557  120.000000
