simulation
nRows=100
nColumns=15
endheader
time  TH_x TH_y TH_z SC_y  SC_z  SC_x  AC_y  AC_z  AC_x  GH_y  GH_z  GH_yy  EL_x  PS_y
0.000000  0.000000  0.000000  0.000000  -22.833240  5.310145  -0.428021  52.415895  9.418844  2.616388  0.279526  12.088391  35.104570  27.932410  73.834948
0.037374  0.000000  0.000000  0.000000  -22.470687  4.928843  -1.304470  52.393155  10.371043  2.154664  2.253279  11.925107  37.985819  26.005347  72.582574
0.074747  0.000000  0.000000  0.000000  -22.202601  4.700658  -1.820765  52.450086  10.848902  1.964778  2.268853  11.545048  40.699824  25.298377  71.853756
0.112121  0.000000  0.000000  0.000000  -22.018343  4.597151  -2.044135  52.577229  10.954487  1.999827  0.823479  11.054687  43.018267  25.595259  71.583683
0.149495  0.000000  0.000000  0.000000  -21.907277  4.589882  -2.036560  52.759642  10.784978  2.212060  -1.585613  10.560493  44.712828  26.679758  71.707547
0.186869  0.000000  0.000000  0.000000  -21.858766  4.650413  -1.845297  52.981437  10.425639  2.545553  -4.461193  10.168937  45.555188  28.335634  72.160536
0.224242  0.000000  0.000000  0.000000  -21.862172  4.750303  -1.516672  53.226418  9.961122  2.943674  -7.306031  9.986492  45.317029  30.346651  72.877842
0.261616  0.000000  0.000000  0.000000  -21.906859  4.861115  -1.099824  53.479110  9.478739  3.350653  -9.622896  10.119626  43.770031  32.496571  73.794655
0.298990  0.000000  0.000000  0.000000  -21.982190  4.954407  -0.652864  53.724967  9.073592  3.714920  -10.914558  10.674812  40.685877  34.569156  74.846165
0.336364  0.000000  0.000000  0.000000  -22.077527  5.001742  -0.234873  53.951219  8.842233  3.984261  -10.683786  11.758520  35.836247  36.348168  75.967562
0.373737  0.000000  0.000000  0.000000  -22.182233  4.974680  0.091202  54.145660  8.884908  4.107984  -8.433350  13.477222  28.992823  37.617370  77.094037
0.411111  0.000000  0.000000  0.000000  -22.285225  4.846612  0.266631  54.296688  9.293565  4.037394  -3.714624  15.926943  19.973015  38.168725  78.159345
0.448485  0.000000  0.000000  0.000000  -22.368147  4.620744  0.271061  54.411955  10.043664  3.774917  3.129482  19.033621  9.338975  37.927745  79.073875
0.485859  0.000000  0.000000  0.000000  -22.406727  4.324537  0.100176  54.513748  11.027988  3.373374  11.112087  22.584814  -1.741246  36.928597  79.729006
0.523232  0.000000  0.000000  0.000000  -22.376521  3.986157  -0.254566  54.624642  12.140792  2.889144  19.227611  26.364060  -12.082006  35.208602  80.015564
0.560606  0.000000  0.000000  0.000000  -22.253086  3.633770  -0.807808  54.768373  13.281673  2.380544  26.470475  30.154898  -20.497663  32.805081  79.824377
0.597980  0.000000  0.000000  0.000000  -22.012797  3.295535  -1.590324  54.968337  14.365447  1.913524  31.847558  33.741036  -25.821198  29.759713  79.050235
0.635354  0.000000  0.000000  0.000000  -21.670745  2.999348  -2.567067  55.217387  15.320664  1.534198  34.954222  36.914049  -27.765383  26.320155  77.775207
0.672727  0.000000  0.000000  0.000000  -21.296684  2.772729  -3.587000  55.467345  16.074191  1.251865  36.216735  39.476624  -27.285201  23.024882  76.345790
0.710101  0.000000  0.000000  0.000000  -20.964496  2.643171  -4.508428  55.665265  16.565255  1.087991  36.124120  41.232290  -25.429455  20.434336  75.128450
0.747475  0.000000  0.000000  0.000000  -20.748064  2.638166  -5.176558  55.760079  16.720491  1.059923  35.165400  41.984572  -23.246946  19.108959  74.489654
0.784848  0.000000  0.000000  0.000000  -20.721166  2.785148  -5.431514  55.699937  16.462086  1.182821  33.829164  41.537387  -21.785364  19.608539  74.795406
0.822222  0.000000  0.000000  0.000000  -20.917056  3.088297  -5.176341  55.452668  15.758481  1.440526  32.434449  39.846337  -21.657112  22.237722  76.231149
0.859596  0.000000  0.000000  0.000000  -21.267128  3.493362  -4.497403  55.036907  14.712952  1.755810  30.874145  37.248275  -22.380563  26.659885  78.528505
0.896970  0.000000  0.000000  0.000000  -21.687029  3.937051  -3.538495  54.475160  13.474534  2.057064  28.975251  34.138998  -23.304931  32.439251  81.348927
0.934343  0.000000  0.000000  0.000000  -22.092405  4.356075  -2.413913  53.797051  12.167428  2.255768  26.564767  30.914307  -23.779431  39.140047  84.353868
0.971717  0.000000  0.000000  0.000000  -22.398901  4.687144  -1.311090  53.027343  10.972204  2.311417  23.469693  27.970000  -23.153277  46.326495  87.204782
1.009091  0.000000  0.000000  0.000000  -22.542957  4.883435  -0.364843  52.207252  10.022559  2.190905  19.621442  25.639341  -20.989842  53.602799  89.622990
1.046465  0.000000  0.000000  0.000000  -22.558425  4.975273  0.402894  51.410548  9.360801  1.948844  15.440648  23.962603  -17.855903  60.760469  91.610327
1.083838  0.000000  0.000000  0.000000  -22.507666  5.015560  1.024520  50.720737  8.984777  1.655225  11.491104  22.894319  -14.611861  67.645825  93.250712
1.121212  0.000000  0.000000  0.000000  -22.453045  5.057199  1.547750  50.221103  8.879992  1.372359  8.336619  22.389011  -12.118153  74.105196  94.628073
1.158586  0.000000  0.000000  0.000000  -22.456926  5.153094  2.024874  49.994151  9.029199  1.158994  6.541004  22.401202  -11.235216  79.984911  95.826339
1.195960  0.000000  0.000000  0.000000  -22.573101  5.351675  2.509337  50.108853  9.410875  1.063978  6.596145  22.886430  -12.721689  85.134978  96.922797
1.233333  0.000000  0.000000  0.000000  -22.777379  5.660667  3.054488  50.514340  9.962456  1.073003  8.339660  23.809466  -16.410209  89.438895  97.934318
1.270707  0.000000  0.000000  0.000000  -23.003943  6.066066  3.694737  51.094041  10.613943  1.150480  11.259927  25.140009  -21.639117  92.798032  98.845521
1.308081  0.000000  0.000000  0.000000  -23.186588  6.553668  4.479625  51.732874  11.283081  1.252069  14.842045  26.847805  -27.742118  95.113930  99.640724
1.345455  0.000000  0.000000  0.000000  -23.259106  7.109264  5.448192  52.314669  11.895362  1.342606  18.571115  28.902601  -34.052915  96.288126  100.304245
1.382828  0.000000  0.000000  0.000000  -23.157990  7.718209  6.647712  52.728431  12.371164  1.382988  21.945406  31.272820  -39.920404  96.227636  100.822325
1.420202  0.000000  0.000000  0.000000  -22.874764  8.356877  8.074535  52.946703  12.686090  1.367999  24.731698  33.899918  -45.003218  94.951082  101.220433
1.457576  0.000000  0.000000  0.000000  -22.452329  8.993259  9.676145  53.019647  12.867831  1.323983  26.947461  36.700176  -49.249171  92.581293  101.560662
1.494949  0.000000  0.000000  0.000000  -21.935558  9.595026  11.407911  53.001138  12.938070  1.272050  28.619768  39.588907  -52.617152  89.245089  101.906508
1.532323  0.000000  0.000000  0.000000  -21.369321  10.129848  13.217483  52.943359  12.923438  1.239532  29.775689  42.481428  -55.066051  85.069289  102.321466
1.569697  0.000000  0.000000  0.000000  -20.798215  10.565766  15.059782  52.898498  12.842830  1.251683  30.442728  45.293562  -56.555634  80.180774  102.867861
1.607071  0.000000  0.000000  0.000000  -20.248091  10.896062  16.886576  52.897918  12.712549  1.320882  30.677829  47.975831  -57.105555  74.710748  103.528004
1.644444  0.000000  0.000000  0.000000  -19.714347  11.155028  18.639059  52.939182  12.551510  1.438408  30.585771  50.535129  -56.832764  68.797431  104.154221
1.681818  0.000000  0.000000  0.000000  -19.189593  11.380711  20.265965  53.017914  12.372224  1.588135  30.275714  52.983514  -55.863124  62.579686  104.586928
1.719192  0.000000  0.000000  0.000000  -18.666436  11.611160  21.705653  53.128488  12.195729  1.760000  29.856817  55.333045  -54.322497  56.196376  104.666541
1.756566  0.000000  0.000000  0.000000  -18.137493  11.884409  22.901519  53.266244  12.039418  1.940322  29.438219  57.595766  -52.336728  49.786364  104.233524
1.793939  0.000000  0.000000  0.000000  -17.601884  12.223598  23.818732  53.426571  11.917368  2.119546  29.104862  59.769532  -50.009918  43.486561  103.182585
1.831313  0.000000  0.000000  0.000000  -17.077779  12.608275  24.494670  53.605423  11.826198  2.296313  28.870883  61.810665  -47.382549  37.428174  101.567153
1.868687  0.000000  0.000000  0.000000  -16.586808  13.010057  24.978361  53.798929  11.760630  2.471544  28.737538  63.667933  -44.483531  31.741370  99.469536
1.906061  0.000000  0.000000  0.000000  -16.150604  13.400564  25.319463  54.003500  11.714872  2.645754  28.706084  65.290104  -41.341771  26.556319  96.972038
1.943434  0.000000  0.000000  0.000000  -15.790799  13.751412  25.567739  54.215650  11.682950  2.819540  28.777776  66.625946  -37.986178  22.003188  94.156966
1.980808  0.000000  0.000000  0.000000  -15.524253  14.038529  25.766848  54.431502  11.659449  2.993040  28.948521  67.637841  -34.472653  18.191663  91.120925
2.018182  0.000000  0.000000  0.000000  -15.341599  14.261514  25.927260  54.644907  11.642588  3.162517  29.184828  68.363008  -31.005463  15.118837  88.039118
2.055556  0.000000  0.000000  0.000000  -15.224506  14.428059  26.048109  54.848939  11.631898  3.322804  29.443156  68.864241  -27.839582  12.743329  85.113607
2.092929  0.000000  0.000000  0.000000  -15.154635  14.545861  26.128668  55.036687  11.626844  3.468583  29.679956  69.204355  -25.230026  11.023720  82.546480
2.130303  0.000000  0.000000  0.000000  -15.113647  14.622620  26.167700  55.201181  11.627341  3.594798  29.851680  69.446168  -23.431814  9.918594  80.539823
2.167677  0.000000  0.000000  0.000000  -15.084569  14.665598  26.164278  55.335144  11.632844  3.695572  29.918259  69.645598  -22.681531  9.392659  79.284865
2.205051  0.000000  0.000000  0.000000  -15.065334  14.677297  26.112652  55.426944  11.644439  3.761011  29.877595  69.783290  -23.014591  9.477490  78.854335
2.242424  0.000000  0.000000  0.000000  -15.063049  14.657291  26.004456  55.462295  11.663848  3.778648  29.750969  69.793551  -24.342577  10.245818  79.248017
2.279798  0.000000  0.000000  0.000000  -15.084957  14.605112  25.831428  55.426858  11.692548  3.736081  29.560001  69.610012  -26.575257  11.770975  80.464628
2.317172  0.000000  0.000000  0.000000  -15.138301  14.520289  25.583921  55.306092  11.732986  3.621934  29.326311  69.166303  -29.622401  14.126297  82.502885
2.354545  0.000000  0.000000  0.000000  -15.230248  14.402424  25.254718  55.086353  11.785058  3.424585  29.070780  68.397483  -33.389482  17.381806  85.354926
2.391919  0.000000  0.000000  0.000000  -15.366031  14.252926  24.836727  54.771413  11.839581  3.156790  28.794933  67.275972  -37.669751  21.521062  88.841131
2.429293  0.000000  0.000000  0.000000  -15.548804  14.075147  24.333219  54.385134  11.869431  2.851202  28.479565  65.814202  -42.136268  26.435017  92.597904
2.466667  0.000000  0.000000  0.000000  -15.781623  13.872534  23.749620  53.952872  11.845400  2.540249  28.104454  64.026569  -46.456194  32.010083  96.252632
2.504040  0.000000  0.000000  0.000000  -16.067541  13.648533  23.083023  53.499363  11.745239  2.261086  27.649380  61.927467  -50.296691  38.132670  99.432698
2.541414  0.000000  0.000000  0.000000  -16.409538  13.406575  22.341294  53.050948  11.538374  2.043872  27.094033  59.531456  -53.326008  44.688841  101.767351
2.578788  0.000000  0.000000  0.000000  -16.802586  13.148477  21.525160  52.616874  11.212948  1.899189  26.408779  56.870459  -55.328124  51.527473  103.084582
2.616162  0.000000  0.000000  0.000000  -17.226655  12.873034  20.625435  52.174160  10.788624  1.799615  25.546511  54.008942  -56.303822  58.427788  103.584706
2.653535  0.000000  0.000000  0.000000  -17.660069  12.578706  19.633724  51.696435  10.286634  1.712784  24.458204  51.014941  -56.277721  65.161349  103.508967
2.690909  0.000000  0.000000  0.000000  -18.081150  12.263955  18.538871  51.156984  9.729872  1.608508  23.094831  47.956499  -55.274440  71.499721  103.098609
2.728283  0.000000  0.000000  0.000000  -18.468221  11.927243  17.328346  50.528986  9.141629  1.457996  21.407368  44.901653  -53.318598  77.214470  102.594869
2.765657  0.000000  0.000000  0.000000  -18.809718  11.564075  15.999565  49.805577  8.547587  1.248191  19.357517  41.918162  -50.436503  82.103222  102.191826
2.803030  0.000000  0.000000  0.000000  -19.128635  11.159858  14.596024  49.048831  7.975155  1.009936  16.943646  39.072826  -46.660242  86.052657  101.922388
2.840404  0.000000  0.000000  0.000000  -19.455342  10.697844  13.174005  48.334923  7.451402  0.780390  14.171944  36.432239  -42.023132  88.968461  101.785070
2.877778  0.000000  0.000000  0.000000  -19.820209  10.161285  11.791169  47.738898  7.004431  0.594279  11.048604  34.062995  -36.558490  90.756321  101.778383
2.915152  0.000000  0.000000  0.000000  -20.253606  9.533433  10.503384  47.334335  6.665882  0.485785  7.579816  32.031689  -30.299637  91.321924  101.900840
2.952525  0.000000  0.000000  0.000000  -20.781373  8.802667  9.367255  47.185373  6.458986  0.477057  3.803204  30.385803  -23.319160  90.589950  102.134613
2.989899  0.000000  0.000000  0.000000  -21.400063  7.990536  8.375944  47.297128  6.390350  0.570234  -0.040315  29.049227  -15.943638  88.607922  102.356179
3.027273  0.000000  0.000000  0.000000  -22.094574  7.131787  7.498964  47.652036  6.458060  0.758485  -3.628941  27.896672  -8.600705  85.472237  102.399965
3.064646  0.000000  0.000000  0.000000  -22.849772  6.261198  6.704696  48.232905  6.660710  1.035012  -6.640668  26.802725  -1.718252  81.279418  102.100290
3.102020  0.000000  0.000000  0.000000  -23.650527  5.413550  5.957589  49.022600  6.999891  1.394609  -8.753487  25.641971  4.275827  76.125989  101.291473
3.139394  0.000000  0.000000  0.000000  -24.479267  4.623160  5.223136  50.000948  7.476137  1.829136  -9.665773  24.297593  8.983898  70.119373  99.821192
3.176768  0.000000  0.000000  0.000000  -25.286118  3.918226  4.479570  51.104856  8.071429  2.311400  -9.345757  22.766581  12.408914  63.511315  97.714024
3.214141  0.000000  0.000000  0.000000  -25.998328  3.322613  3.723168  52.241899  8.745480  2.799104  -7.952792  21.126529  14.837548  56.655775  95.119827
3.251515  0.000000  0.000000  0.000000  -26.542662  2.860097  2.961256  53.320593  9.445897  3.249524  -5.650281  19.456738  16.562478  49.908876  92.191113
3.288889  0.000000  0.000000  0.000000  -26.845883  2.554449  2.209140  54.250821  10.110487  3.622760  -2.601622  17.836509  17.876381  43.626743  89.080395
3.326263  0.000000  0.000000  0.000000  -26.836595  2.428724  1.495141  54.945934  10.664493  3.879122  1.029036  16.344076  19.067899  38.160239  85.939470
3.363636  0.000000  0.000000  0.000000  -26.506754  2.481201  0.842642  55.374468  11.068787  4.010294  5.051867  15.020921  20.286653  33.679076  82.895550
3.401010  0.000000  0.000000  0.000000  -25.926186  2.679702  0.274032  55.572863  11.326940  4.036032  9.245477  13.863358  21.511384  30.130302  80.045628
3.438384  0.000000  0.000000  0.000000  -25.169501  2.990182  -0.196013  55.580760  11.453109  3.978123  13.386532  12.864925  22.710342  27.447292  77.484838
3.475758  0.000000  0.000000  0.000000  -24.311305  3.378596  -0.559528  55.436848  11.468429  3.858857  17.251700  12.019160  23.851777  25.563422  75.308317
3.513131  0.000000  0.000000  0.000000  -23.426208  3.810895  -0.808106  55.179640  11.394763  3.698030  20.617649  11.319603  24.903937  24.412067  73.611202
3.550505  0.000000  0.000000  0.000000  -22.588816  4.253036  -0.932259  54.847548  11.253854  3.513569  23.261045  10.759790  25.835073  23.926602  72.488627
3.587879  0.000000  0.000000  0.000000  -21.873739  4.670971  -0.927350  54.478222  11.071880  3.325877  24.958558  10.333262  26.613433  24.040404  72.035729
3.625253  0.000000  0.000000  0.000000  -21.355584  5.030654  -0.780456  54.110133  10.868418  3.150775  25.486853  10.033556  27.207267  24.686848  72.347645
3.662626  0.000000  0.000000  0.000000  -21.108959  5.298040  -0.483482  53.781180  10.666877  3.007688  24.622599  9.854211  27.584826  25.799308  73.519509
3.700000  0.000000  0.000000  0.000000  -21.208472  5.439082  -0.020264  53.530299  10.483732  2.912262  22.142462  9.788766  27.714357  27.311161  75.646458
