Simulation
nRows=101
nColumns=15
endheader
time  TH_x TH_y TH_z SC_y  SC_z  SC_x  AC_y  AC_z  AC_x  GH_y  GH_z  GH_yy  EL_x  PS_y
0.0  0.000000  0.000000  0.000000  -21.29571779905723  0.7646941007878242  8.104992651640123  59.90961716940585  -3.895734659454807  -10.512961560836613  9.123587899070714  18.14374060120495  22.031204137818367  32.06133163700335  120.000000
0.025  0.000000  0.000000  0.000000  -21.517433311125323  0.7280819978362171  7.994582291410051  60.067813370522224  -3.4716136745813064  -10.504982001711625  8.43928267760541  18.368319715678027  22.510768920471122  31.834774629904135  120.000000
0.05  0.000000  0.000000  0.000000  -21.74710443986493  0.6755013050319126  7.879646924250628  60.230510848011676  -3.0820287807511044  -10.458117679848684  7.904746295751951  18.555338579775125  22.787818755028244  31.635642793859365  120.000000
0.07500000000000001  0.000000  0.000000  0.000000  -21.974234872098986  0.6217214436275602  7.762469338397721  60.39369551583322  -2.7168402216002114  -10.371565694104497  7.528445029206041  18.714583161986774  22.850429860060892  31.460489251163665  120.000000
0.1  0.000000  0.000000  0.000000  -22.200791991276336  0.5796821818265483  7.64304539569757  60.56002608703435  -2.3628170189315685  -10.247624528076935  7.322751502664748  18.861947134745833  22.68042147938995  31.30937875076755  120.000000
0.125  0.000000  0.000000  0.000000  -22.429329723901475  0.5589843289965373  7.522651346348839  60.736970606663824  -2.008141043140371  -10.09455941795832  7.282509678644396  19.015585447506947  22.277456866709997  31.180243912847946  120.000000
0.15000000000000002  0.000000  0.000000  0.000000  -22.664416773581166  0.5669659013458571  7.406287874263917  60.93055539767582  -1.6446490295480507  -9.922052102646203  7.382273382023339  19.194019433614184  21.662098869816838  31.072514275899245  120.000000
0.17500000000000002  0.000000  0.000000  0.000000  -22.91082141164134  0.6052099445334008  7.30426508591426  61.14289234003925  -1.2673502989870082  -9.738579797502638  7.573569166345458  19.41304146696649  20.879453783265472  30.984009464865018  120.000000
0.2  0.000000  0.000000  0.000000  -23.17203875486997  0.6728416100235826  7.227541053277321  61.3743116990009  -0.8741997857706576  -9.54903719357178  7.802012889974095  19.686442321990757  19.98111285848777  30.913953287770823  120.000000
0.225  0.000000  0.000000  0.000000  -23.44940699538314  0.7661319008233913  7.186177098409159  61.626349508397695  -0.46402669392898566  -9.356203844418847  8.014951930963404  20.024460206926985  19.017767928213466  30.86140937286365  120.000000
0.25  0.000000  0.000000  0.000000  -23.74316384192696  0.8819291943201756  7.186355040275779  61.90231954199992  -0.036301861581985236  -9.160676299920032  8.170203392293276  20.435282667487684  18.02923199903478  30.826589376107062  120.000000
0.275  0.000000  0.000000  0.000000  -24.052909323091704  1.0161104747350664  7.232321869740578  62.20618775584882  0.4094284664086856  -8.962769585198824  8.234483408526186  20.92377986559335  17.04613946921408  30.808789986534357  120.000000
0.30000000000000004  0.000000  0.000000  0.000000  -24.378648789443197  1.1648533837325905  7.325675148433604  62.541597014856585  0.8733888618177778  -8.76196500289931  8.186178514882993  21.492692540642953  16.086602674340977  30.806782100915655  120.000000
0.325  0.000000  0.000000  0.000000  -24.720580900434527  1.3235403374428492  7.466273613469506  62.91115307776447  1.356297267099418  -8.557933331120879  8.014064103356874  22.14249867014342  15.15827845524083  30.81774040495954  120.000000
0.35000000000000003  0.000000  0.000000  0.000000  -25.07871468239297  1.4878400677613464  7.651705304561762  63.315948300467355  1.8592706434428767  -8.350013963283233  7.717646817542038  22.87224811185631  14.258785649348601  30.837907351676236  120.000000
0.375  0.000000  0.000000  0.000000  -25.452617491425272  1.6529852446289401  7.8785797787037195  63.755028564649116  2.3831302317925656  -8.13843721256017  7.304717712772994  23.67989831253489  13.379542578110927  30.862215756201557  120.000000
0.4  0.000000  0.000000  0.000000  -25.84055244112298  1.8152118884952324  8.143254998688109  64.22526659630842  2.9276346694298505  -7.924458973551752  6.790289290684698  24.562708713803122  12.508152656715046  30.88472318186544  120.000000
0.42500000000000004  0.000000  0.000000  0.000000  -26.239363031801158  1.971562876056985  8.441093338940519  64.72123911743161  3.4919783967916604  -7.710383459976457  6.193874335260388  25.517754616206354  11.631708582119446  30.898434682810972  120.000000
0.45  0.000000  0.000000  0.000000  -26.64473853880972  2.1202298692301356  8.767415803875856  65.23522748274164  4.074306814987554  -7.499048498182733  5.538196809724752  26.541815916648645  10.738813617418327  30.895770096492495  120.000000
0.47500000000000003  0.000000  0.000000  0.000000  -27.051365366899194  2.260314035175141  9.116781194737888  65.7576101437576  4.672055303058189  -7.293232330473488  4.846416635012188  27.631718959195112  9.820852912863254  30.869107989367382  120.000000
0.5  0.000000  0.000000  0.000000  -27.453808221754613  2.391797280529066  9.484063203195063  66.27774913717205  5.281726327536989  -7.0952957917832595  4.141389848816634  28.783959199135438  8.87262122176379  30.812006576471358  120.000000
0.525  0.000000  0.000000  0.000000  -27.846669993004067  2.5155701404036352  9.863214945170919  66.78500663345864  5.899359323912615  -6.906657720755985  3.4431926788177565  29.994827922018803  7.891861022990779  30.720444198808327  120.000000
0.55  0.000000  0.000000  0.000000  -28.225585281415395  2.632698197699203  10.248855752913206  67.2692604114894  6.520180762085033  -6.727641853747688  2.768463534660496  31.259806421241507  6.879937196909138  30.594029379176806  120.000000
0.5750000000000001  0.000000  0.000000  0.000000  -28.587438018474526  2.7449087274105066  10.63593625284907  67.7216804394274  7.138460833739106  -6.557818323097216  2.128355379026685  32.573649820817536  5.841640241207029  30.436543037116106  120.000000
0.6000000000000001  0.000000  0.000000  0.000000  -28.930374133170734  2.8543167130004203  11.020643880867343  68.13507786984434  7.747699795026632  -6.396788947714309  1.528838359796323  33.92984174714832  4.785374593758124  30.254974360700192  120.000000
0.625  0.000000  0.000000  0.000000  -29.254454836033336  2.963517156981221  11.400071683068559  68.50436042535856  8.341011019424275  -6.244077928666149  0.9715140339052687  35.32101449872692  3.7212617436663935  30.057962057822515  120.000000
0.65  0.000000  0.000000  0.000000  -29.560631428351726  3.0746792296090475  11.772949329073029  68.82618969326658  8.911843871550733  -6.098879605912953  0.4553944028167953  36.7389541297677  2.660828373613262  29.853874887592006  120.000000
0.675  0.000000  0.000000  0.000000  -29.851372149666645  3.189650134079925  12.139269812212616  69.0993288440447  9.454386854583655  -5.9600739073210836  -0.02124642139549176  38.17505835405487  1.614681149280926  29.64903082516031  120.000000
0.7000000000000001  0.000000  0.000000  0.000000  -30.129275617956907  3.310053856869214  12.49988343678595  69.32439481962139  9.964238159954512  -5.8267736572884  -0.4602337303600092  39.62056678629106  0.5927254317034223  29.44645555159876  120.000000
0.7250000000000001  0.000000  0.000000  0.000000  -30.39806643362208  3.4373741712096035  12.856525592350089  69.50392705189137  10.438077709713978  -5.698559754554582  -0.8628040137878215  41.066900993651046  -0.39717179598026753  29.245740001612198  120.000000
0.75  0.000000  0.000000  0.000000  -30.660812867816507  3.572290740598655  13.21121817762501  69.64147923476433  10.87389297061442  -5.574988130100169  -1.229872732664848  42.50599775698696  -1.3487785082707422  29.043772356388427  120.000000
0.775  0.000000  0.000000  0.000000  -30.920750613879004  3.714614106476645  13.566231109445477  69.74161239124595  11.270367016558584  -5.455689665141995  -1.5620293897772375  43.93038849458663  -2.2583032391955875  28.835823404673697  120.000000
0.8  0.000000  0.000000  0.000000  -31.179767233762654  3.863607141935432  13.923071788888603  69.80947297849406  11.62699830253521  -5.340329582945053  -1.86032782752889  45.333439029012446  -3.1240412572768075  28.61653439707637  120.000000
0.8250000000000001  0.000000  0.000000  0.000000  -31.43927595689887  4.017880279300074  14.282789226998068  69.85076981125854  11.943800837058323  -5.228672961368939  -2.126492865736555  46.70926433977306  -3.9465634521320765  28.380627128329518  120.000000
0.8500000000000001  0.000000  0.000000  0.000000  -31.69914473689251  4.175761097315156  14.64549379790313  69.87147648521741  12.221386654210038  -5.120236457149259  -2.3632428481437793  48.05273165188095  -4.728483328438904  28.123537760834076  120.000000
0.875  0.000000  0.000000  0.000000  -31.958682669361707  4.335374646154234  15.010832826763755  69.8776032660041  12.460963208992311  -5.014412181364914  -2.5741510012508333  49.35908830128647  -5.4738158514373625  27.841802311405917  120.000000
0.9  0.000000  0.000000  0.000000  -32.21616801050297  4.49507690817483  15.377886626964454  69.87494942965597  12.664360369419342  -4.910125511567517  -2.7635574419041777  50.62381195467994  -6.187650072751954  27.533733561670875  120.000000
0.925  0.000000  0.000000  0.000000  -32.47001629683683  4.653586522515583  15.74571877401255  69.86871781525466  12.834116941472395  -4.806046819622163  -2.936236655847571  51.84213247899158  -6.87518816784674  27.199931857849194  120.000000
0.9500000000000001  0.000000  0.000000  0.000000  -32.71828251606967  4.8101218084383435  16.113441261598965  69.86354486346502  12.973546351330839  -4.700226550155128  -3.0970078460729464  53.00919836387628  -7.541730469358371  26.84409371385589  120.000000
0.9750000000000001  0.000000  0.000000  0.000000  -32.95949497759614  4.964481881141652  16.48102011951451  69.863447036515  13.086737476341494  -4.590274428843349  -3.2501036646743957  54.119891168192545  -8.192187776054192  26.473060560416073  120.000000
1.0  0.000000  0.000000  0.000000  -33.1923668683397  5.116854173426648  16.848793267260227  69.87183605065808  13.17810356148956  -4.473460404161823  -3.399373999328569  55.169287442525324  -8.831206730369475  26.096020076112232  120.000000
1.0250000000000001  0.000000  0.000000  0.000000  -33.41704416207701  5.267822725372152  17.21762148104145  69.89129140053234  13.251932392734428  -4.347206344460269  -3.5480407426949836  56.1523431055525  -9.463058689972506  25.723053987296662  120.000000
1.05  0.000000  0.000000  0.000000  -33.6339826154299  5.417893460611131  17.58810660252022  69.92362044030473  13.312219601942537  -4.209192180814674  -3.698610224921373  57.064879725835894  -10.091991699533764  25.364124894244885  120.000000
1.075  0.000000  0.000000  0.000000  -33.8450099203611  5.567590528645844  17.960939423558354  69.96991825628425  13.362401268505746  -4.057708277051083  -3.852388620707786  57.90330128945355  -10.722173403699191  25.027887440117713  120.000000
1.1  0.000000  0.000000  0.000000  -34.05199410770288  5.717077872660687  18.336123512419142  70.03044111840119  13.405295989319818  -3.8919114011762264  -4.009750313211555  58.66553099421526  -11.35742008568989  24.721163771508227  120.000000
1.125  0.000000  0.000000  0.000000  -34.2578553406626  5.866320841446903  18.713516456536023  70.10462713000817  13.443081829978967  -3.7120510466930403  -4.169912686917492  59.35030285418054  -12.000645517009351  24.448650068939482  120.000000
1.1500000000000001  0.000000  0.000000  0.000000  -34.4648612126925  6.0148227906755425  19.09227183508966  70.19088858658424  13.477285486198681  -3.5194991633366848  -4.3311876513816445  59.957950338724885  -12.652944700192357  24.21320086027266  120.000000
1.175  0.000000  0.000000  0.000000  -34.675204313272864  6.161990493044051  19.471479832446832  70.28685931124457  13.508961366270077  -3.3166955998998917  -4.490525677095508  60.489543630926384  -13.312987241698028  24.016048972466184  120.000000
1.2000000000000002  0.000000  0.000000  0.000000  -34.889394437992955  6.306929610094495  19.849513591838928  70.3893045353292  13.538672928625259  -3.1070087030237925  -4.643754380003594  60.94775710793066  -13.97604188157276  23.856904151888397  120.000000
1.225  0.000000  0.000000  0.000000  -35.10739316737377  6.448674315738305  20.22449371629192  70.49408937859849  13.566606707136874  -2.8948129292818163  -4.78619813105449  61.3357843719056  -14.633811047080586  23.73382537764568  120.000000
1.25  0.000000  0.000000  0.000000  -35.32771074812887  6.585872881587883  20.59368566339569  70.59638260617078  13.59227825109606  -2.685331780206404  -4.913397346335268  61.65812966339306  -15.274204902767956  23.6433276696716  120.000000
1.2750000000000001  0.000000  0.000000  0.000000  -35.54826842080703  6.717085416129468  20.95406232770387  70.69139227579228  13.61467501334821  -2.4844412723520315  -5.021548806726551  61.919503888358925  -15.88299990257162  23.580762648713602  120.000000
1.3  0.000000  0.000000  0.000000  -35.765438303502826  6.840504422923259  21.301714988421722  70.7749805345825  13.63203507335727  -2.298118511653861  -5.108014331338051  62.12561714497665  -16.444764942775638  23.540746433617283  120.000000
1.3250000000000002  0.000000  0.000000  0.000000  -35.97491275639765  6.954228839875916  21.6324159602749  70.84425963429806  13.642133127772436  -2.132072110495391  -5.171695842896379  62.28197281204222  -16.945100270481372  23.517439188732162  120.000000
1.35  0.000000  0.000000  0.000000  -36.17095536530259  7.056124836826594  21.94102984651059  70.89800417414665  13.642186959884624  -1.991219832162197  -5.213209155443591  62.39450017160948  -17.371650459177875  23.50483653288627  120.000000
1.375  0.000000  0.000000  0.000000  -36.34762074440775  7.144143357335356  22.22226257795314  70.93660148110858  13.629377783849792  -1.879486555110206  -5.234632072187058  62.46820284316302  -17.71547519598697  23.496995517604926  120.000000
1.4000000000000001  0.000000  0.000000  0.000000  -36.49845949387401  7.2162538137128625  22.47025757662674  70.96184600070691  13.600985521169404  -1.7996428438785963  -5.238975678115639  62.507562123240014  -17.971492317417663  23.48850644156252  120.000000
1.425  0.000000  0.000000  0.000000  -36.61821237133064  7.270735100917228  22.679686409116165  70.9763379473293  13.555016414328692  -1.7533912460466061  -5.229345743830316  62.51505316239062  -18.13865309885084  23.47495220818188  120.000000
1.4500000000000002  0.000000  0.000000  0.000000  -36.70243572871586  7.305981243095654  22.8454630643281  70.98302626628312  13.490442587102619  -1.7414607155036483  -5.208255233094105  62.491489220246926  -18.22013881821919  23.453633322352776  120.000000
1.475  0.000000  0.000000  0.000000  -36.74917640104991  7.320721319283785  22.964017449668887  70.98475921938206  13.407545631141117  -1.7637292568771312  -5.176934736072439  62.43472700741021  -18.22271310610775  23.424016907307973  120.000000
1.5  0.000000  0.000000  0.000000  -36.75785042116608  7.313772560971039  23.032637616037416  70.98398177474742  13.307936553821815  -1.8193293533829655  -5.1351648982417455  62.34057498527475  -18.156435665702276  23.387979448945146  120.000000
1.5250000000000001  0.000000  0.000000  0.000000  -36.73046764144237  7.284383122298027  23.050475268912425  70.9827598111117  13.194223469346122  -1.906621280105924  -5.081224455025907  62.202325359657195  -18.032937349853533  23.349302611794155  120.000000
1.55  0.000000  0.000000  0.000000  -36.66972096540584  7.23204282376302  23.017218846362347  70.98269424840669  13.069719354112708  -2.023234340673694  -5.012387290503352  62.01252412608912  -17.86440687903843  23.31299639216191  120.000000
1.5750000000000002  0.000000  0.000000  0.000000  -36.579945461180316  7.156891455298826  22.933870319323393  70.98520943126267  12.937768517779435  -2.1659953303897255  -4.925293104448467  61.76294625563645  -17.66154043359474  23.284372077991737  120.000000
1.6  0.000000  0.000000  0.000000  -36.46506013746857  7.059432265373621  22.801159611722678  70.99150995452644  12.801542165558772  -2.331066208633155  -4.81662040938049  61.44655864098339  -17.432639669346738  23.268449659271734  120.000000
1.625  0.000000  0.000000  0.000000  -36.32959727685145  6.9408350473445815  22.620388374414933  71.0028410401229  12.663552298803102  -2.514040045886003  -4.6834215814802524  61.057208714662664  -17.182684095164877  23.2693379114231  120.000000
1.6500000000000001  0.000000  0.000000  0.000000  -36.176939677679236  6.802320146248405  22.391997234164158  71.0203865195946  12.525726072759829  -2.7102496623092525  -4.52361077137925  60.59120283861733  -16.913641753504166  23.290005670679815  120.000000
1.675  0.000000  0.000000  0.000000  -36.010544968884915  6.645278603240788  22.116624861148964  71.04536065337707  12.38928583374973  -2.915073472482195  -4.336004415386911  60.04646358172905  -16.625078742760177  23.331935808846584  120.000000
1.7000000000000002  0.000000  0.000000  0.000000  -35.832523881954415  6.470650221022621  21.793913478433076  71.07883120597026  12.25497090366423  -3.1243350547652757  -4.1205222017453815  59.42377594234117  -16.315224268660366  23.394841825040906  120.000000
1.725  0.000000  0.000000  0.000000  -35.64495306324578  6.279067827479214  21.4236773362204  71.12163823797974  12.123034573836044  -3.33459273993774  -3.877930113925676  58.72567141106215  -15.98183086895143  23.476206079035382  120.000000
1.75  0.000000  0.000000  0.000000  -35.44867715336986  6.070520193068275  21.0047403342436  71.17414581292691  11.993284637250666  -3.5433738679367335  -3.6098145367835923  57.957365860218346  -15.62285962131124  23.571114637491444  120.000000
1.7750000000000001  0.000000  0.000000  0.000000  -35.244671833665684  5.8445073142412145  20.53617011923824  71.23594505006741  11.865097415628389  -3.749043322711918  -3.3182323769408173  57.125341676531534  -15.236507670515142  23.67247509189482  120.000000
1.8  0.000000  0.000000  0.000000  -35.032779571465106  5.600156638055412  20.01650588626921  71.30571988080885  11.737716974905226  -3.9505314258366537  -3.0054028484074977  56.238151623502866  -14.82101836447792  23.772015098591485  120.000000
1.8250000000000002  0.000000  0.000000  0.000000  -34.81280841955355  5.3369072684779715  19.445391257946948  71.3813114293603  11.610495718020177  -4.1472210881117215  -2.6733624106791223  55.30488548132381  -14.373880670484812  23.861413148361674  120.000000
1.85  0.000000  0.000000  0.000000  -34.58382868643124  5.054486988784012  18.82284108930769  71.45928978782325  11.482812167436707  -4.338660590850677  -2.324269060961527  54.335485957697934  -13.891178127106079  23.933244189604753  120.000000
1.875  0.000000  0.000000  0.000000  -34.34560240737649  4.75332521372701  18.150489995898038  71.53484607934321  11.35404420438755  -4.524532683362934  -1.9605443358475787  53.33904404039626  -13.367032526395283  23.98167968419948  120.000000
1.9000000000000001  0.000000  0.000000  0.000000  -34.097544629366894  4.434684442140907  17.43080463837298  71.602069776962  11.223733868140094  -4.704550118616147  -1.5848533348328864  52.324301087914755  -12.79419415685537  24.002984183980626  120.000000
1.925  0.000000  0.000000  0.000000  -33.83993721428005  4.10072138404766  16.668334974168303  71.65450866536429  11.091501502923409  -4.878354100739557  -1.199928285309745  51.29846207443109  -12.16513683264132  23.995395367918757  120.000000
1.9500000000000002  0.000000  0.000000  0.000000  -33.57297622910136  3.7542522825431965  15.868713717893076  71.68577016337342  10.957051885256483  -5.04543651151271  -0.8083231981480211  50.26784617227076  -11.474131823214272  23.959023622907043  120.000000
1.975  0.000000  0.000000  0.000000  -33.298087349181124  3.3985357500952236  15.039370699179765  71.69031481289655  10.820069248646758  -5.205226163017183  -0.41204673662199737  49.23710584395308  -10.718970866856052  23.895691065689373  120.000000
2.0  0.000000  0.000000  0.000000  -33.01701536341505  3.037102593867813  14.188320050666157  71.66384896641208  10.680279024911826  -5.357112282594063  -0.012242944717732756  48.210024887047034  -9.90283091283684  23.809032781487197  120.000000
2.025  0.000000  0.000000  0.000000  -32.73300497353566  2.67342967368291  13.324514241719502  71.60370852178896  10.53742168929797  -5.500594201229175  0.39105294650841754  47.18927773885101  -9.034365880337802  23.704331638180296  120.000000
2.0500000000000003  0.000000  0.000000  0.000000  -32.44943088398012  2.31107658524896  12.456677824601776  71.50861798174482  10.39122184159861  -5.635248379398165  0.7990012956727253  46.1773737520217  -8.127231741589076  23.588237457142835  120.000000
2.075  0.000000  0.000000  0.000000  -32.170447009266795  1.9533616633966167  11.593417258994968  71.37856206248907  10.24138261105912  -5.7608959237316  1.2136972240211057  45.17672839084085  -7.197524813344786  23.46813219407907  120.000000
2.1  0.000000  0.000000  0.000000  -31.899066724205493  1.6036518937237765  10.742435560625411  71.21412803553223  10.08748770690677  -5.877454970093777  1.6377037102115972  44.19029096712324  -6.261512062487329  23.351502004056353  120.000000
2.125  0.000000  0.000000  0.000000  -31.63755746988931  1.26498681799217  9.910717455106605  71.01648138584778  9.92913443654971  -5.985281162749275  2.0733138056513054  43.22143914702276  -5.332567519993156  23.245315862620764  120.000000
2.15  0.000000  0.000000  0.000000  -31.385744356173742  0.9403052553725585  9.104382563227944  70.78674989558645  9.765883865215018  -6.0848016177349225  2.5220111550870135  42.27396822346722  -4.419742668303581  23.155591141961715  120.000000
2.1750000000000003  0.000000  0.000000  0.000000  -31.142412411750705  0.6318194456319428  8.329261153504449  70.52601105734381  9.597827909442525  -6.176962318226156  2.9835413024163615  41.35173414733441  -3.526622141199678  23.087144430495457  120.000000
2.2  0.000000  0.000000  0.000000  -30.904719178093405  0.3425475747843723  7.590894610360921  70.2353722968527  9.42543255379678  -6.263769849730901  3.455844647828453  40.45820212142165  -2.6524173312019443  23.043497697762433  120.000000
2.225  0.000000  0.000000  0.000000  -30.66976550346223  0.07486907934502318  6.89486222562573  69.91641427802384  9.249822290639795  -6.348319928553701  3.9355600424198562  39.59571394461145  -1.793397918515353  23.02682486514727  120.000000
2.25  0.000000  0.000000  0.000000  -30.433731594507535  -0.16939488314467052  6.2466321265119635  69.5708516167595  9.072214741373855  -6.433868771723423  4.4195781765207105  38.76463499033508  -0.9457133560436468  23.037819910388514  120.000000
2.275  0.000000  0.000000  0.000000  -30.19362814174269  -0.3895646215122917  5.65120333960692  69.20142214576087  8.89409023332394  -6.524057836890357  4.9062442802390684  37.96301808390606  -0.10717218176513237  23.075775825393347  120.000000
2.3000000000000003  0.000000  0.000000  0.000000  -29.94603437820671  -0.5853654873482729  5.112798664155859  68.81211409883008  8.716755067681047  -6.621950306901774  5.397733394553904  37.18643053579925  0.7201684381690197  23.139055511882123  120.000000
2.325  0.000000  0.000000  0.000000  -29.688553978860938  -0.757598613153993  4.6335805033735005  68.40906690888788  8.541274005589017  -6.730421011664287  5.9006094583538164  36.42796633393372  1.5298540311618496  23.22561311014116  120.000000
2.35  0.000000  0.000000  0.000000  -29.41891126382196  -0.9082436873083695  4.212880305690236  67.99906961987931  8.36743006589202  -6.851570693557668  6.424653664567452  35.67772695954268  2.3122353697814235  23.333301362557677  120.000000
2.375  0.000000  0.000000  0.000000  -29.13657481492358  -1.041878322357295  3.8464172579121976  67.58947894530635  8.192892465164915  -6.986152662046813  6.981762574284587  34.92343484422624  3.0561779525983264  23.460341917503236  120.000000
2.4000000000000004  0.000000  0.000000  0.000000  -28.84064999010766  -1.1647028893818405  3.5253008003308848  67.1878230742987  8.011984641345107  -7.132781884770476  7.586281305104106  34.15125409517646  3.749043448391719  23.6061052381286  120.000000
2.4250000000000003  0.000000  0.000000  0.000000  -28.530218643803344  -1.28543154142711  3.2348061389449203  66.8023900974227  7.815480579710379  -7.288332378835825  8.254046933493713  33.347294569786776  4.378029574041536  23.771466551371955  120.000000
2.45  0.000000  0.000000  0.000000  -28.20394232504025  -1.4166709667234105  2.9542617056171436  66.4377015449693  7.590269277259223  -7.445259064314456  8.999390524366918  32.4974444684658  4.932359414891659  23.958229671178547  120.000000
2.475  0.000000  0.000000  0.000000  -27.864170298236147  -1.5763554576207623  2.658444327714937  66.09224721667621  7.320556513648602  -7.592985587468887  9.829578538103858  31.588407338395072  5.408557888060623  24.16854416473484  120.000000
2.5  0.000000  0.000000  0.000000  -27.51081355263782  -1.7829834115137349  2.318314230842343  65.76537315638197  6.986954071903431  -7.721267360995229  10.75574985231119  30.609289080463512  5.800899056470664  24.40579455817115  120.000000
