Simulation
nRows=201
nColumns=15
endheader
time  TH_x TH_y TH_z SC_y  SC_z  SC_x  AC_y  AC_z  AC_x  GH_y  GH_z  GH_yy  EL_x  PS_y
0.0  0.000000  0.000000  0.000000  -40.97484877243665  6.2938575664631875  5.290427962726946  46.899472435100506  0.889237841516903  1.1592010958831025  -30.292040685912905  1.3094831117891625  52.842599592033686  22.6064459577846  120.000000
0.05745  0.000000  0.000000  0.000000  -40.38974533395504  5.3705741972066425  3.3034907705424637  46.42014194690098  1.979908665931825  1.3005803281488078  -21.508105939519094  3.198521724092493  43.906240399078996  22.034273993268346  120.000000
0.1149  0.000000  0.000000  0.000000  -39.843683653810324  4.361044440884896  1.471553020552258  46.03109740774692  2.924978478963364  1.458460173753891  -17.270745593694574  5.0083929562213045  39.48133827098561  21.6388234800544  120.000000
0.17235  0.000000  0.000000  0.000000  -39.395789594211166  3.378164363649353  -0.184565421795224  45.73892525762275  3.7082155713952045  1.6285877996500848  -13.716240669728501  6.7854859227395945  35.67277772364883  21.499607050004915  120.000000
0.2298  0.000000  0.000000  0.000000  -39.10081844857348  2.484675782301938  -1.6519260493667778  45.53047955645236  4.348370406496288  1.8301787293455567  -10.610158227490828  8.628195615306211  32.21218503901549  21.621749855140628  120.000000
0.28725  0.000000  0.000000  0.000000  -38.97976328974231  1.7360797449527616  -2.917657407747911  45.401428491234725  4.893946028980101  2.0739946328610923  -8.047852428475743  10.639720327524584  29.162598335186107  21.945793164992978  120.000000
0.3447  0.000000  0.000000  0.000000  -39.05548840607243  1.1826937701401694  -3.957174613715448  45.3422636125449  5.388355570487258  2.3578879149365015  -6.080056976667453  12.899227822304228  26.542283699212916  22.37265973316795  120.000000
0.40215  0.000000  0.000000  0.000000  -39.35022194853202  0.8619400430942967  -4.732915684693882  45.34371726550964  5.852475806414063  2.672869248862827  -4.649142038285796  15.45071806008322  24.266610109537428  22.792769240047352  120.000000
0.4596  0.000000  0.000000  0.000000  -39.879000432989535  0.8099675482685657  -5.207133842260308  45.4036601907766  6.282090269911371  3.010294775134968  -3.6335296235999004  18.29478852980326  22.19648447628739  23.114013841179094  120.000000
0.51705  0.000000  0.000000  0.000000  -40.63154883854021  1.0571799628312157  -5.368382930656113  45.51969228276962  6.677446667814165  3.3879924748180827  -2.934755346143505  21.38361645704397  20.229292969289585  23.277227072717928  120.000000
0.5745  0.000000  0.000000  0.000000  -41.56649449600862  1.618992925740112  -5.230338418685638  45.69383064380546  7.060140344514984  3.845768417742539  -2.4759170858848876  24.622446522501843  18.296504425376916  23.263323858982332  120.000000
0.63195  0.000000  0.000000  0.000000  -42.610987717910476  2.483992462445711  -4.7931887031598395  45.93873139662139  7.4572668279288  4.412921667974621  -2.2001272565203855  27.87408662252853  16.36033646864484  23.08669833749099  120.000000
0.6894  0.000000  0.000000  0.000000  -43.687061506173855  3.6076145361469947  -4.045515759614647  46.2599613377677  7.899758388329509  5.11122680330358  -2.0689787965551485  30.976364525398225  14.404062590419707  22.77703055703202  120.000000
0.74685  0.000000  0.000000  0.000000  -44.7350958850696  4.929548145630312  -2.9775690202343266  46.656155588498635  8.418140094687699  5.938667288979838  -2.0610130264674424  33.77858115003108  12.426837130948053  22.367371698491667  120.000000
0.8043  0.000000  0.000000  0.000000  -45.73164535112078  6.384861628095592  -1.5845498525557873  47.11519301753518  9.031093265673823  6.876101832973845  -2.15497723722491  36.17884289911864  10.427263411739519  21.889471490514538  120.000000
0.86175  0.000000  0.000000  0.000000  -46.68025073092981  7.905722852714214  0.13295388505557618  47.61787936159909  9.735883408923591  7.899949486532308  -2.3201103768794105  38.1409494070775  8.404512235171392  21.374891163363667  120.000000
0.9192  0.000000  0.000000  0.000000  -47.60116740541583  9.430201295436692  2.1619241319441547  48.14224821419681  10.508744538167909  8.984810587826066  -2.517781105166665  39.691006071400906  6.371126491351591  20.855884527392178  120.000000
0.97665  0.000000  0.000000  0.000000  -48.51653105887791  10.89816880731556  4.471146700888833  48.65828823499807  11.312578387481523  10.108002546297222  -2.722115249566276  40.90182400772163  4.37788990215949  20.357411101203777  120.000000
1.0341  0.000000  0.000000  0.000000  -49.44106474892453  12.256471360618875  7.005934926290637  49.13795394478314  12.103971585367647  11.245620301997079  -2.9222448877326084  41.86914255351074  2.5151892943335996  19.893408622352602  120.000000
1.09155  0.000000  0.000000  0.000000  -50.37499135893808  13.457682313240456  9.688714525323222  49.561145744488975  12.838333024609566  12.374344429886964  -3.1213146095436057  42.69384982329448  0.8984845928898004  19.465325728238888  120.000000
1.149  0.000000  0.000000  0.000000  -51.305145075144985  14.466096034178824  12.424082606388952  49.92245022371778  13.475314042816175  13.468593253480147  -3.325006175591122  43.46345645652615  -0.3672040937802891  19.06761203520973  120.000000
1.20645  0.000000  0.000000  0.000000  -52.20872167355073  15.263198434918014  15.105398279114471  50.23293635841027  13.985140324193996  14.497738401657736  -3.532478686161749  44.24201027281849  -1.2239351958119453  18.694117795478807  120.000000
1.2639  0.000000  0.000000  0.000000  -53.057137694340085  15.84685576230446  17.626332466124552  50.51225389518506  14.354050872149813  15.427369934141417  -3.731918266314327  45.05927574823973  -1.6854791492666437  18.342657152875137  120.000000
1.32135  0.000000  0.000000  0.000000  -53.818104787712784  16.23169130679447  19.887701002382336  50.7817810206025  14.58748074284  16.219081718589376  -3.902563069939857  45.90822837873074  -1.838126026196362  18.01667993619561  120.000000
1.3788  0.000000  0.000000  0.000000  -54.45649060930283  16.442450575308676  21.80321921298739  51.05184395475746  14.706389735912362  16.836640319722047  -4.022425386876196  46.74867251535843  -1.8168240285426491  17.723687578950504  120.000000
1.43625  0.000000  0.000000  0.000000  -54.93627948414478  16.510326568968658  23.29908333848811  51.318409743919  14.73954262156076  17.248833472112874  -4.075383679295005  47.517642572904606  -1.7697895231614031  17.472920782781017  120.000000
1.4937  0.000000  0.000000  0.000000  -55.22366451594765  16.46984336733459  24.311846321105858  51.56574678687771  14.71246998799243  17.434058965453957  -4.053660890707741  48.14405670430431  -1.8280288143441248  17.272984466005017  120.000000
1.55115  0.000000  0.000000  0.000000  -55.293183001755345  16.354655542943018  24.786433429589607  51.77624084698768  14.638857008833961  17.382350708345694  -3.957269042462676  48.56352914021559  -2.08479802432663  17.13089641808226  120.000000
1.6086  0.000000  0.000000  0.000000  -55.133495318702025  16.192748974281578  24.67710794666325  51.93999323525673  14.515635127599534  17.097449650826864  -3.792190494150692  48.732427863698796  -2.588318002325651  17.05063848924535  120.000000
1.66605  0.000000  0.000000  0.000000  -54.74949970948595  15.996351937462602  23.95458089924481  52.056769871322814  14.325837538622132  16.599590151562037  -3.565358409280241  48.63604229869861  -3.343375791424323  17.0321911164904  120.000000
1.7235  0.000000  0.000000  0.000000  -54.15879861955735  15.752597986670082  22.61693481393524  52.129336706808864  14.047598475869263  15.926742486917961  -3.2781486770723576  48.288888144114985  -4.319797680551416  17.06867388375707  120.000000
1.78095  0.000000  0.000000  0.000000  -53.388863609056756  15.420912342682033  20.700025485747396  52.15649642235189  13.665065555981696  15.131296870692413  -2.923756594210244  47.72959262761502  -5.461202069511377  17.144204736355558  120.000000
1.8384  0.000000  0.000000  0.000000  -52.476949049961405  14.942930083812794  18.281170231504653  52.12979353451765  13.177102979589968  14.26920837510865  -2.492674202321737  47.00803205643334  -6.694399980403966  17.234534296131457  120.000000
1.89585  0.000000  0.000000  0.000000  -51.47253768282746  14.26050364116382  15.475007067203077  52.033612025734946  12.600241770497144  13.388412971935866  -1.9816864372101655  46.16863761711548  -7.938464033955849  17.31271400758046  120.000000
1.9533  0.000000  0.000000  0.000000  -50.43422267616499  13.33675100270362  12.421326712304591  51.848332024738426  11.967660680768539  12.520181921978548  -1.4007211385013631  45.23547574420791  -9.118771709077041  17.356181249623404  120.000000
2.01075  0.000000  0.000000  0.000000  -49.42137858481644  12.169049739416943  9.270072051302032  51.55298354833113  11.325025005127532  11.67809110968619  -0.772846351474929  44.20286617712951  -10.18117242929474  17.35359901168675  120.000000
2.0682  0.000000  0.000000  0.000000  -48.48127169499179  10.793262936630951  6.164570559754898  51.13048377545042  10.725739667998686  10.860903560579683  -0.12898923394446987  43.03388854927291  -11.103346726888956  17.304923108266607  120.000000
2.1256500000000003  0.000000  0.000000  0.000000  -47.63730126314061  9.276443538788902  3.2283184820561464  50.57328199805215  10.22441657609062  10.059094179302358  0.5011297020988479  41.665004773872646  -11.892953325576041  17.21560831583807  120.000000
2.1831  0.000000  0.000000  0.000000  -46.882560780918666  7.702337019439444  0.5562998247143919  49.88867949778862  9.868578144354819  9.264608885473312  1.0977609808402142  40.01806094469511  -12.572098043069923  17.087505855979696  120.000000
2.24055  0.000000  0.000000  0.000000  -46.181000777972656  6.157730152027908  -1.7889024834029381  49.10140994372558  9.68959716181129  8.477121599945631  1.6549879600044022  38.018791508806444  -13.149791453578393  16.91144910146438  120.000000
2.298  0.000000  0.000000  0.000000  -45.48192964082182  4.716752398887842  -3.774239746067023  48.25022057419376  9.694759400626433  7.710941804259795  2.1810795571891277  35.623293313579616  -13.601997674621085  16.668226741774955  120.000000
2.3554500000000003  0.000000  0.000000  0.000000  -44.7403690600366  3.4364188942048  -5.397006905802455  47.38659046280433  9.861145963978716  6.9911471679948125  2.696249563844861  32.8426591240127  -13.869476997451697  16.337110988180225  120.000000
2.4129  0.000000  0.000000  0.000000  -43.93864100652685  2.345674064852223  -6.680237732892753  46.56459354737115  10.138637347079953  6.351312168091943  3.223748665497345  29.754370918260587  -13.86982813537573  15.911056087247571  120.000000
2.47035  0.000000  0.000000  0.000000  -43.09422950662894  1.4502404087099108  -7.665597187359876  45.83726751207234  10.465244437427621  5.819795403774886  3.774540896301065  26.49601530150583  -13.511664490304502  15.410219208056704  120.000000
2.5278  0.000000  0.000000  0.000000  -42.24629891914697  0.73740595082106  -8.401876451307077  45.25531230198738  10.785571053883707  5.405205340849045  4.324753540438738  23.232702350836487  -12.699462204316394  14.883305323813149  120.000000
2.5852500000000003  0.000000  0.000000  0.000000  -41.436228994724814  0.1708462349770471  -8.928924725441652  44.859840316463604  11.059860183893825  5.1063099886075864  4.814272981218812  20.11523039933678  -11.347005543285384  14.395261354906939  120.000000
2.6427  0.000000  0.000000  0.000000  -40.68960810649192  -0.29110645977081917  -9.271811809471341  44.68164595541756  11.27260390374655  4.915781335495859  5.174724497667322  17.254793079418015  -9.416106342427426  14.009051612488193  120.000000
2.70015  0.000000  0.000000  0.000000  -40.021630759264305  -0.6779428064714893  -9.445268709513355  44.73383916965983  11.42986569428101  4.8202723291933145  5.377578622737664  14.718377332867115  -6.972164750691737  13.769637052289381  120.000000
2.7576  0.000000  0.000000  0.000000  -39.4494388932452  -1.0053006864337337  -9.463537880957668  44.99995950813063  11.545853373269443  4.804248278150428  5.486781143816572  12.528621439824077  -4.2330150339948105  13.696228027381467  120.000000
2.8150500000000003  0.000000  0.000000  0.000000  -38.99246713802662  -1.276862425770735  -9.350357092871251  45.437780863490424  11.635012839269093  4.847541268880148  5.702260628741297  10.671719757906642  -1.5887326236770398  13.787009446652782  120.000000
2.8725  0.000000  0.000000  0.000000  -38.66697189891206  -1.4904658337838481  -9.133040883393429  45.986163823446745  11.704688970312288  4.9262171025951105  6.346526769972569  9.111349731284502  0.44922844311963317  14.027891982273031  120.000000
2.92995  0.000000  0.000000  0.000000  -38.47641871795018  -1.6426684227041513  -8.83428852068787  46.577732891655266  11.751632459089848  5.012734866904706  7.775166396916371  7.804299045766914  1.3743773258029082  14.39289273039701  120.000000
2.9874  0.000000  0.000000  0.000000  -38.40645295941573  -1.7296544507186713  -8.474792181011267  47.152164735027036  11.768583974284592  5.083096453735736  10.241837777915581  6.713545976397038  0.8450464073005151  14.844024531971343  120.000000
3.0448500000000003  0.000000  0.000000  0.000000  -38.42941553794482  -1.7503395836876787  -8.07524146015842  47.66358936994081  11.752944235995642  5.125397699463099  13.789237530531704  5.816059875039645  -1.2048632218952842  15.335111063466455  120.000000
3.1023  0.000000  0.000000  0.000000  -38.51326487239338  -1.706324362982041  -7.655068013859913  48.08809810440874  11.709355713881848  5.137792686590751  18.211583155671864  5.100877148776368  -4.542387424567979  15.82280919145882  120.000000
3.15975  0.000000  0.000000  0.000000  -38.62817557802913  -1.6044544595092647  -7.234342626308172  48.42254145255021  11.64926848631302  5.127038881840691  23.05732091185062  4.559494912259519  -8.655792776491452  16.277060156489597  120.000000
3.2172  0.000000  0.000000  0.000000  -38.74828934267881  -1.4601283557328069  -6.835039226979633  48.67783974399784  11.58654051518297  5.106968562246658  27.70977850358408  4.175605694417903  -12.849292928797627  16.687640492265537  120.000000
3.2746500000000003  0.000000  0.000000  0.000000  -38.85155875371847  -1.295331308413155  -6.4773756288931885  48.87165783793795  11.52977493944273  5.09189654699026  31.57932133138829  3.922088167037148  -16.44746103274174  17.06183059802895  120.000000
3.3321  0.000000  0.000000  0.000000  -38.91989079850887  -1.1316746734503653  -6.177691541155014  49.02360363280724  11.480687061720669  5.091804111249126  34.329597655909765  3.7680170494624674  -19.032891924114924  17.41554417341105  120.000000
3.38955  0.000000  0.000000  0.000000  -38.94143863205988  -0.9854510057068218  -5.946314803453193  49.14954668673561  11.43829753150355  5.113588025331562  35.96563447330735  3.6883461135063733  -20.54401482539499  17.764670903768362  120.000000
3.447  0.000000  0.000000  0.000000  -38.91467574917872  -0.8677506556740868  -5.787095962399329  49.25758969165025  11.402337861811535  5.16174538485328  36.739708209277666  3.668253830978679  -21.18872198794591  18.118662051794672  120.000000
3.5044500000000003  0.000000  0.000000  0.000000  -38.847581500389005  -0.7832135911577223  -5.701126494732403  49.35047064403736  11.37384425859353  5.236532589626807  37.011545502916675  3.7009643808778487  -21.304047306827197  18.480165012622933  120.000000
3.5619  0.000000  0.000000  0.000000  -38.75424499677495  -0.7303184449757577  -5.688787019255818  49.4272097083105  11.354675681117008  5.3348359600207935  37.10651918582392  3.7842989523401993  -21.208685529512792  18.8479987370986  120.000000
3.61935  0.000000  0.000000  0.000000  -38.64942183827967  -0.7038972668057827  -5.750437591656939  49.483566552739866  11.347478289178849  5.451775524994603  37.21665795645929  3.917842597188087  -21.09643580959134  19.21953040756639  120.000000
3.6768  0.000000  0.000000  0.000000  -38.54418011356075  -0.698190186810344  -5.886880412855475  49.512662188981345  11.355163296297537  5.582414309157415  37.39355112652676  4.101316167371834  -21.023466286832384  19.5925887970437  120.000000
3.7342500000000003  0.000000  0.000000  0.000000  -38.44296900665624  -0.7090683495880696  -6.099109420055714  49.506372097060236  11.379699590418976  5.723139806531094  37.59735651649224  4.334053149424255  -20.95353502311674  19.96629032463279  120.000000
3.7917  0.000000  0.000000  0.000000  -38.343587472814335  -0.7350174982324955  -6.387863545543277  49.45803597187982  11.421474462604083  5.871505091900036  37.748816675306834  4.616362953616187  -20.808735078937623  20.34118327948352  120.000000
3.84915  0.000000  0.000000  0.000000  -38.23861396413545  -0.7773164452073049  -6.752676775742662  49.36386227110811  11.479249817303398  6.0263675538156996  37.74452202221024  4.950510370784475  -20.483591288346954  20.718077032081286  120.000000
3.9066  0.000000  0.000000  0.000000  -38.11882879633469  -0.8400990102549185  -7.191108458363331  49.22261591724382  11.550512592296036  6.188320244029103  37.453750981993224  5.341212517276068  -19.84182440264108  21.096704747206033  120.000000
3.9640500000000003  0.000000  0.000000  0.000000  -37.97500690795617  -0.9277703399970382  -7.6991785539001825  49.0372436796244  11.632143176104202  6.358463410662529  36.74167555117198  5.796805912870036  -18.740896945615958  21.474864150549436  120.000000
4.0215  0.000000  0.000000  0.000000  -37.80020589915145  -1.0415744935865157  -8.271086016916657  48.81531964241178  11.721730088280166  6.537227406320868  35.52350399232497  6.331864098471924  -17.09210789654229  21.84835659863128  120.000000
4.07895  0.000000  0.000000  0.000000  -37.59152368729767  -1.1778645336129085  -8.898093481962462  48.56745042955195  11.817365201863227  6.725422076740131  33.83341922047565  6.967577607434576  -14.93819252065415  22.209927743856408  120.000000
4.1364  0.000000  0.000000  0.000000  -37.35346288800052  -1.330095500105125  -9.5675544837251  48.30579657127154  11.91664543631094  6.925607711442919  31.867457993628186  7.7287913804922015  -12.506249005085415  22.546917420076465  120.000000
4.19385  0.000000  0.000000  0.000000  -37.09611749869388  -1.4819153332104085  -10.2618247811194  48.049112315468065  12.018102895851058  7.140821182941031  29.963554729473152  8.638114532998989  -10.191984173604848  22.841340997491432  120.000000
4.2513000000000005  0.000000  0.000000  0.000000  -36.829600643085186  -1.604216145215239  -10.952385028304919  47.82626191069995  12.127929592670194  7.375658630036084  28.494704699241915  9.710522587019655  -8.44902970047542  23.073571431576106  120.000000
4.30875  0.000000  0.000000  0.000000  -36.56094827281073  -1.6591256319206507  -11.59008688631084  47.66219139223328  12.264269147375058  7.645915012162214  27.711580014529204  10.943509630625659  -7.61859375568799  23.228782348427803  120.000000
4.3662  0.000000  0.000000  0.000000  -36.3012326539008  -1.6094840883544437  -12.105360554802964  47.56091190701686  12.45542391099246  7.979561350069943  27.63908960324638  12.310677640623712  -7.810253730282203  23.30597000722031  120.000000
4.42365  0.000000  0.000000  0.000000  -36.07057039430861  -1.4155718816443925  -12.418125456276426  47.520407763762535  12.736013017037065  8.402048446808164  28.16236794797505  13.779573461084645  -8.974859781022927  23.330795080653722  120.000000
4.4811  0.000000  0.000000  0.000000  -35.89087753960169  -1.0212820897933217  -12.450305850907316  47.55894957729234  13.14061970077639  8.916386433446865  29.134580163651197  15.3355641438804  -11.001101367629726  23.357695569273073  120.000000
4.53855  0.000000  0.000000  0.000000  -35.797520411173195  -0.3712542164915049  -12.135663551473357  47.698850221437155  13.691257828497035  9.498920351589527  30.348444512026802  16.98084233746  -13.68051819476707  23.44634371596417  120.000000
4.596  0.000000  0.000000  0.000000  -35.836544178588994  0.5703200099002498  -11.41831343437824  47.93378446140089  14.377877547241816  10.12508580216806  31.54365096726465  18.708035293684535  -16.706102636489568  23.63260687885293  120.000000
4.65345  0.000000  0.000000  0.000000  -36.042355442010866  1.8057085534266863  -10.252137523190067  48.230562308516745  15.150876247077786  10.786252184756929  32.49202692153387  20.485226149891666  -19.753275968260205  23.908624786030177  120.000000
4.7109000000000005  0.000000  0.000000  0.000000  -36.42620644578156  3.3053966719091714  -8.609054284821983  48.55103549714185  15.931418538836434  11.482846201391315  33.05393340520833  22.2587394034377  -22.548281487719173  24.22182689050025  120.000000
4.76835  0.000000  0.000000  0.000000  -36.99042186180022  5.02198956786328  -6.482565163804687  48.8605377949964  16.627744149879728  12.22049903640238  33.18106118033309  23.966029664297714  -24.896771757863867  24.49464591416545  120.000000
4.8258  0.000000  0.000000  0.000000  -37.74822966448771  6.895319655640962  -3.8865463812307506  49.13502349776156  17.154869889373966  13.00601304565403  32.89686636186827  25.557237257823836  -26.698077497652875  24.651690855353294  120.000000
4.88325  0.000000  0.000000  0.000000  -38.72885036219447  8.85128003664005  -0.8528994114481809  49.37067538619724  17.452495398750223  13.843890704022993  32.27413319842594  27.012742346882558  -27.950450243136583  24.6426094958254  120.000000
4.9407  0.000000  0.000000  0.000000  -39.96724213898162  10.800661540074428  2.5685222271507855  49.58683137271627  17.498240398620716  14.733167161403257  31.40355000721386  28.34713539275156  -28.730880611183206  24.448666337674123  120.000000
4.99815  0.000000  0.000000  0.000000  -41.4857108552146  12.646891608725934  6.3063926288786964  49.81949592096321  17.309307454846614  15.66638118787716  30.365963581232993  29.59980187070646  -29.155524724744055  24.075701241787574  120.000000
5.0556  0.000000  0.000000  0.000000  -43.27763310171231  14.296531361407892  10.26595263879135  50.10796333766812  16.932164731326743  16.63204378148013  29.218962131819755  30.819420162962246  -29.341414331454903  23.545380599931587  120.000000
5.11305  0.000000  0.000000  0.000000  -45.29782511380544  15.673195962553374  14.32863730822464  50.482205974090775  16.427625945214796  17.612494188725773  27.992539662191696  32.049506215868426  -29.378057447998117  22.892241509639547  120.000000
5.1705000000000005  0.000000  0.000000  0.000000  -47.465740039561176  16.728235456169088  18.3576021670474  50.95550832783811  15.855118745626399  18.582741718124524  26.70194323861202  33.31798690272331  -29.32465928559961  22.164049205318705  120.000000
5.22795  0.000000  0.000000  0.000000  -49.67209193757738  17.449068630547796  22.207239916152776  51.5253632281399  15.264662142292595  19.509156643769888  25.374089539476067  34.630933322698304  -29.23083837291747  21.41842655492182  120.000000
5.2854  0.000000  0.000000  0.000000  -51.79120419967373  17.859773581604614  25.73430168895647  52.17328977709589  14.695597240380202  20.348186202886374  24.059660640923486  35.96855508929805  -29.14997123460401  20.71230944954259  120.000000
5.34285  0.000000  0.000000  0.000000  -53.697446338773915  18.012084818908846  28.808664042585278  52.859822013678965  14.176828548582336  21.047760540501873  22.824672134004523  37.28389665737679  -29.134012658837584  20.08755719030654  120.000000
5.4003  0.000000  0.000000  0.000000  -55.27647313812881  17.972569139003717  31.320618340406945  53.52608396055797  13.727679678108228  21.553175706460166  21.73984676771901  38.506275489702595  -29.224686036992345  19.56257429338361  120.000000
5.45775  0.000000  0.000000  0.000000  -56.43062995029478  17.81004274923686  33.18317511896654  54.103742892158465  13.360069686762827  21.813868045578076  20.87278985284002  39.54999584731345  -29.450729471622278  19.136973128509172  120.000000
5.5152  0.000000  0.000000  0.000000  -57.08405676881015  17.584295974361495  34.330579859913264  54.52945252247558  13.079838405871763  21.789482571571757  20.277173773820497  40.328733469392176  -29.82912178900976  18.804201827601258  120.000000
5.57265  0.000000  0.000000  0.000000  -57.18706213384565  17.337309092509354  34.71517777507016  54.76160193544308  12.887295091648484  21.454352781701168  19.98213440432112  40.77215373971865  -30.36869577562754  18.564118232007953  120.000000
5.6301000000000005  0.000000  0.000000  0.000000  -56.72004801810597  17.088453664257404  34.304887142557085  54.79286281256689  12.777139754458787  20.800086293499962  19.985023492232028  40.83912117837893  -31.070750227854596  18.430095622506165  120.000000
5.68755  0.000000  0.000000  0.000000  -55.69490021764301  16.828884581086307  33.083805092155686  54.6484340368829  12.737744878372967  19.83820097326507  20.252520115420534  40.52079324784941  -31.922666586601277  18.4263970912212  120.000000
5.745  0.000000  0.000000  0.000000  -54.15423774584921  16.515774354680797  31.057800556404565  54.36941421756017  12.750944004492961  18.603228912532238  20.728304641973764  39.8347239486601  -32.885935455765775  18.574512886199347  120.000000
5.80245  0.000000  0.000000  0.000000  -52.17344755270004  16.073217254750336  28.26534668894896  53.993493615507234  12.794896778009365  17.153449164010365  21.340326203046057  38.817257270802415  -33.884060290477166  18.87099219456962  120.000000
5.8599  0.000000  0.000000  0.000000  -49.8636364498277  15.403741255264602  24.78961116018225  53.54059136133218  12.849719473925237  15.570287815007164  22.005453882906362  37.51770784342148  -34.7992276911715  19.267885334447442  120.000000
5.91735  0.000000  0.000000  0.000000  -47.369844527058156  14.415662399814702  20.76252612908018  53.013208980344196  12.903909033386988  13.953011545079013  22.64034987826098  35.992373091084886  -35.48826177303312  19.673933205049313  120.000000
5.9748  0.000000  0.000000  0.000000  -44.855277501631136  13.056001341830132  16.35565214705071  52.408703849684144  12.95834052691526  12.408811927333922  23.182035930400772  34.29837244110766  -35.81789032564102  19.979682730968104  120.000000
6.03225  0.000000  0.000000  0.000000  -42.481988963463856  11.331282177620688  11.760775286426123  51.729516912768936  13.024389245342919  11.041667822486712  23.60705193647793  32.49220550125355  -35.703083999663804  20.092023956072662  120.000000
6.089700000000001  0.000000  0.000000  0.000000  -40.39368035976799  9.312664152260144  7.165864857793157  50.98850116974327  13.119941805156262  9.935175237510013  23.934718417919438  30.630019170991602  -35.127834233478914  19.96153170742928  120.000000
6.14715  0.000000  0.000000  0.000000  -38.69925252355312  7.1236169248627  2.7362545597743893  50.2104330729394  13.26445012318158  9.138625775969443  24.22198760911856  28.766143685433292  -34.14981017779458  19.58882098921485  120.000000
6.2046  0.000000  0.000000  0.000000  -37.45859036662846  4.915332188239387  -1.394776314581649  49.43126030442402  13.47383440233705  8.66287618355885  24.557627771005407  26.947304018676956  -32.89391170647996  19.010907329620803  120.000000
6.26205  0.000000  0.000000  0.000000  -36.67573089117973  2.838505612816948  -5.127439575113764  48.69440156983078  13.756022627556248  8.483997881972373  25.05515357755318  25.202398084974337  -31.535154382864928  18.285515804258125  120.000000
6.3195  0.000000  0.000000  0.000000  -36.297536108444255  1.0189321195687888  -8.392200750321006  48.045283870532  14.108151309389763  8.552535785183293  25.840954509252953  23.533601027214495  -30.27132749426146  17.48451673635578  120.000000
6.37695  0.000000  0.000000  0.000000  -36.22302019879638  -0.46068803930095725  -11.143475997995337  47.524832632868495  14.516631738527627  8.806979074155667  27.036597432363155  21.918048161806865  -29.291083700991578  16.691317197415778  120.000000
6.4344  0.000000  0.000000  0.000000  -36.327705842058364  -1.566671493456603  -13.355530230454864  47.16037036968751  14.960094611094098  9.18501752390269  28.732993684647962  20.322713504688743  -28.742465006872347  15.992814420878432  120.000000
6.49185  0.000000  0.000000  0.000000  -36.4992146486139  -2.3061494781187117  -15.023264954961737  46.95751206464278  15.411578746868512  9.630840202677659  30.97081827446585  18.72581949697787  -28.7159568105091  15.465687733477791  120.000000
6.549300000000001  0.000000  0.000000  0.000000  -36.66248760018071  -2.7154470729338467  -16.167208585158026  46.90007811827092  15.839915909906402  10.095678048525611  33.7354349120145  17.130400761725145  -29.24680704467884  15.1597096985123  120.000000
6.60675  0.000000  0.000000  0.000000  -36.78767347614928  -2.851073480547468  -16.83597066735713  46.959813413996756  16.21272934698346  10.534973532349314  36.958892438696  15.56563078629961  -30.322956526095595  15.087817715033474  120.000000
6.6642  0.000000  0.000000  0.000000  -36.88467807092632  -2.770774268258544  -17.099142287132782  47.10842939296201  16.501004419158427  10.912563946254389  40.5331496117573  14.080248995004101  -31.894506106499087  15.233869793760633  120.000000
6.72165  0.000000  0.000000  0.000000  -36.97866506019958  -2.533031452057648  -17.03689626453906  47.32111716577131  16.681881670911086  11.202138485514748  44.30351956771993  12.720764068657049  -33.85710218995393  15.560692979991614  120.000000
6.7791  0.000000  0.000000  0.000000  -37.091467683004446  -2.2052849513012314  -16.73149169210084  47.57600336117859  16.736473306665705  11.388286706495498  48.075338780259564  11.50635060889566  -36.04743964176167  16.01075420480848  120.000000
6.83655  0.000000  0.000000  0.000000  -37.226064559342376  -1.848073856262326  -16.255724933906244  47.85468613402573  16.654996167136094  11.468899243047074  51.65633667295809  10.424937596508135  -38.280107262016706  16.507382833923614  120.000000
6.894  0.000000  0.000000  0.000000  -37.36469516683568  -1.5039765586983398  -15.666391481605418  48.14528644031216  16.442080184002265  11.451647220780135  54.88774102714743  9.450265084777543  -40.383682719849105  16.96261806028609  120.000000
6.95145  0.000000  0.000000  0.000000  -37.481931494858756  -1.1983510199914482  -15.005955734750499  48.44243002969776  16.112965023414116  11.350089709221482  57.669020173289226  8.556646273360913  -42.236477274044624  17.296138396921595  120.000000
7.008900000000001  0.000000  0.000000  0.000000  -37.55821155400302  -0.9422241650723276  -14.305404552083262  48.74259554283225  15.68906460469499  11.18062836561535  59.95435210319901  7.727007575756093  -43.77435667531333  17.461819048047893  120.000000
7.06635  0.000000  0.000000  0.000000  -37.59093255908706  -0.7361792216166843  -13.586431542115694  49.03963921171533  15.195466445755915  10.959506138116037  61.7205283501295  6.956623898847337  -44.96585447864185  17.468723172093533  120.000000
7.1238  0.000000  0.000000  0.000000  -37.595008057146515  -0.5744201453158537  -12.863657946879261  49.323958818616816  14.65839014362092  10.700419364604912  62.94021739797836  6.251268427518114  -45.78503936754165  17.378238546393924  120.000000
7.18125  0.000000  0.000000  0.000000  -37.59455392424712  -0.448761414754794  -12.147153121270508  49.58560900932029  14.101787865105381  10.414363241424935  63.57687122448633  5.621725722473151  -46.19898497762897  17.276301413016256  120.000000
7.2387  0.000000  0.000000  0.000000  -37.61092853565484  -0.3510624372213619  -11.444237514080298  49.81778021983129  13.546011424009118  10.110027782123579  63.59054642324138  5.077368398277625  -46.16462897810178  17.237766412242372  120.000000
7.29615  0.000000  0.000000  0.000000  -37.6533784613279  -0.27436114627776015  -10.760284731397906  50.01884286932206  13.007215871498957  9.795087888041806  62.94869381127123  4.620953578616384  -45.63213721866355  17.299325125795573  120.000000
7.3536  0.000000  0.000000  0.000000  -37.716154904004924  -0.21357929410708182  -10.099575445651224  50.192077931642984  12.497079805059467  9.477148021524783  61.64408447160036  4.246624360428795  -44.56171135072299  17.454301478937516  120.000000
7.41105  0.000000  0.000000  0.000000  -37.78423780407735  -0.16448936479523418  -9.466369528348691  50.343214158254916  12.023033844552613  9.163359597171334  59.700359148002256  3.941650642213088  -42.93528250201398  17.66889558589024  120.000000
7.468500000000001  0.000000  0.000000  0.000000  -37.8418363572019  -0.12340330972345309  -8.865660396874885  50.477338359798026  11.5893133632407  8.859302639273668  57.16857822464012  3.6903809610623504  -40.762771413262456  17.9047246824976  120.000000
7.52595  0.000000  0.000000  0.000000  -37.87944068932944  -0.08782662805600353  -8.302979310854155  50.59654675428916  11.197965147331429  8.568768186839122  54.124246769129584  3.4786224963704586  -38.0872543795879  18.135369559822585  120.000000
7.5834  0.000000  0.000000  0.000000  -37.89658034857395  -0.05687402424945201  -7.783691034063679  50.699286600296816  10.849770326331162  8.293983124916826  50.67201871427479  3.2958931082755716  -34.9935300155515  18.352028165646463  120.000000
7.64085  0.000000  0.000000  0.000000  -37.89962266504602  -0.03157438750717326  -7.31234007016408  50.782060997221826  10.545429892128494  8.035547615720441  46.93869977086204  3.135010496188317  -31.59916738768042  18.558483281614564  120.000000
7.6983  0.000000  0.000000  0.000000  -37.89790105145762  -0.01396370439218725  -6.892233706888367  50.841520055712365  10.286472313040973  7.792453404684783  43.05920933092724  2.9909000188778787  -28.03633812132913  18.762384383286367  120.000000
7.75575  0.000000  0.000000  0.000000  -37.900519818224836  -0.006339057060064484  -6.525442051097309  50.87580465907622  10.075734013198968  7.562337229907869  39.15389190181385  2.859902644266074  -24.42506175635719  18.968367280660146  120.000000
7.8132  0.000000  0.000000  0.000000  -37.91482149902123  -0.011156751557554473  -6.213047575488613  50.88471460865004  9.916806735070383  7.342105576906613  35.331908396846124  2.7397647178853664  -20.8743661611914  19.175505245708347  120.000000
7.87065  0.000000  0.000000  0.000000  -37.94544142144452  -0.0319919069256736  -5.9555378264946945  50.86946109272366  9.812902937711579  7.128722770231772  31.718154571698484  2.6294738290906503  -17.507767480556005  19.379128437866438  120.000000
7.928100000000001  0.000000  0.000000  0.000000  -37.993518754652676  -0.0741743035458329  -5.753255577593012  50.83250264794727  9.765653615988228  6.919658332691354  28.50180023069247  2.5286009981704565  -14.511164307911821  19.575744485285814  120.000000
7.98555  0.000000  0.000000  0.000000  -38.05596373013473  -0.1446067155810193  -5.606560519188103  50.7771414192436  9.77446396002292  6.712818152653561  25.946131766512227  2.4362495788213288  -12.141584114609325  19.76830372260352  120.000000
8.043  0.000000  0.000000  0.000000  -38.12582928538618  -0.24978260489084608  -5.515461177472788  50.70536812237462  9.837181638025502  6.505847352378794  24.32006612015044  2.351021730917213  -10.658808261913268  19.96861331875426  120.000000
8.10045  0.000000  0.000000  0.000000  -38.19486562368544  -0.3921999701750299  -5.478446532078048  50.61203868481192  9.952070337888323  6.295703259787965  23.706586894758498  2.2726929046166338  -10.135840738063164  20.192674871757585  120.000000
8.1579  0.000000  0.000000  0.000000  -38.25827165066855  -0.5655876619239004  -5.492527085976872  50.47819230864373  10.120182674156336  6.07798913314491  23.778716642528163  2.2042626812664023  -10.240327678185901  20.449448746421112  120.000000
8.21535  0.000000  0.000000  0.000000  -38.31552722169912  -0.7551404949581665  -5.557775628450511  50.275135956237875  10.343048740747701  5.847901560340715  23.877288318119298  2.152233534905499  -10.317746801336465  20.729152384174867  120.000000
8.2728  0.000000  0.000000  0.000000  -38.36514135833875  -0.9434245754553563  -5.683086724462514  49.978401100951785  10.616126128977296  5.602316877469613  23.464659973438298  2.126597256348526  -9.848021098136048  20.997470213097017  120.000000
8.33025  0.000000  0.000000  0.000000  -38.40449391508917  -1.1143219284864352  -5.8850953311907706  49.571327150693996  10.928121562010167  5.341007160778829  22.389424625855913  2.1414825641279416  -8.70778656973828  21.200839823320226  120.000000
8.3877  0.000000  0.000000  0.000000  -38.430014821853526  -1.2576488186314438  -6.181229603388557  49.04387568286282  11.265810228970887  5.06962858829605  20.94589839524852  2.2153428084112083  -7.220677310544833  21.284458883133457  120.000000
8.44515  0.000000  0.000000  0.000000  -38.429904549787125  -1.375163976361873  -6.58193988911989  48.40311166282062  11.618791532740786  4.799979673652167  19.926769666868868  2.3711143969596877  -6.19432460336055  21.219584598830252  120.000000
8.502600000000001  0.000000  0.000000  0.000000  -38.387309011427334  -1.481406598411449  -7.083884395971757  47.67450253754379  11.980035352317383  4.550130771794365  20.250066317058938  2.633413335943449  -6.534948241517755  21.02678315325902  120.000000
8.56005  0.000000  0.000000  0.000000  -38.287499456097066  -1.5905858746475818  -7.670619737403712  46.90585843674  12.34357908066058  4.337630827210767  22.50194676152875  3.0310152171468623  -8.789958417729832  20.77864716724174  120.000000
8.6175  0.000000  0.000000  0.000000  -38.12230181295426  -1.7116495452411793  -8.314462047329268  46.167616900862214  12.700093722811586  4.175846660928938  26.78826131172384  3.6029964907630867  -13.01812656929963  20.575102673148532  120.000000
8.67495  0.000000  0.000000  0.000000  -37.89322612073538  -1.8484827323670312  -8.974851534172316  45.53743785047918  13.034356931762778  4.082178970930671  32.77191374755556  4.400763102414838  -18.854265615260374  20.505520831332696  120.000000
8.7324  0.000000  0.000000  0.000000  -37.61299221551968  -1.9824843989915006  -9.596516984371553  45.0828780805508  13.3393360698674  4.075657263390122  39.75814585630441  5.491334027801369  -25.620127704967615  20.613666670984415  120.000000
8.78985  0.000000  0.000000  0.000000  -37.306613087833064  -2.060834055947171  -10.111906685654834  44.83778740898086  13.626879586985327  4.173980717131266  46.89672338879474  6.9395927974221605  -32.53332290890228  20.88102244328764  120.000000
8.8473  0.000000  0.000000  0.000000  -37.008185479314285  -2.020369438537744  -10.451425077992576  44.79240323294032  13.915778356641422  4.398037885032132  53.5640531849169  8.774662034179833  -39.0711736672785  21.24224964352614  120.000000
8.90475  0.000000  0.000000  0.000000  -36.749571778461956  -1.8019354763641782  -10.55165139364708  44.912298074939294  14.217791205348183  4.7697070403520705  59.52599440478487  10.984809634134582  -45.10578437561712  21.6185162899012  120.000000
8.9622  0.000000  0.000000  0.000000  -36.554861240158424  -1.3418620331443287  -10.358801371553326  45.16418308539286  14.53485640771524  5.2999390464307  64.77295256027563  13.536482646332265  -50.716863345484  21.94719613646325  120.000000
9.01965  0.000000  0.000000  0.000000  -36.44298697945142  -0.5867150992842892  -9.829345190188747  45.52663198494175  14.857830219470598  5.984212067467839  69.35156181061248  16.38476370524692  -56.008837165374004  22.193958606969893  120.000000
9.0771  0.000000  0.000000  0.000000  -36.43234745989688  0.49619876444795874  -8.925066358477348  45.98935583603052  15.164443532047873  6.812398811356474  73.31277308753135  19.4792286186883  -61.05362409941033  22.35053119290731  120.000000
9.13455  0.000000  0.000000  0.000000  -36.552107935770195  1.9160853313307142  -7.605780646187344  46.54441318862799  15.427623211152117  7.774455114948466  76.67671124938214  22.764718906815325  -65.85732130347795  22.421971188481475  120.000000
9.192  0.000000  0.000000  0.000000  -36.84757263632986  3.65722138825671  -5.8271720517411545  47.180411121401384  15.622328020839515  8.860167797519264  79.44312540136089  26.176321617549892  -70.37671108509706  22.412218522109907  120.000000
9.24945  0.000000  0.000000  0.000000  -37.375707468683736  5.676789049756022  -3.5426543840900933  47.88192343995357  15.726832059150409  10.060825974474357  81.62056662575351  29.637889847169138  -74.5543805240592  22.31640977440371  120.000000
9.3069  0.000000  0.000000  0.000000  -38.19401808971545  7.903783306719725  -0.710937760546138  48.6340342522252  15.723193054833079  11.368535901435795  83.24275095825337  33.06717046186077  -78.342464965063  22.12277487921931  120.000000
9.36435  0.000000  0.000000  0.000000  -39.350439705145796  10.236866335141832  2.690503506936506  49.423296760800795  15.59612268752318  12.776294931003163  84.36548760710346  36.383773378899946  -81.70847871717592  21.82061738537194  120.000000
9.421800000000001  0.000000  0.000000  0.000000  -40.87505053164325  12.547559809122205  6.649658912504321  50.23416446485472  15.332692981364495  14.274180093875998  85.0544524935543  39.51266437131563  -84.6350610348541  21.410920700069205  120.000000
9.47925  0.000000  0.000000  0.000000  -42.77438089254301  14.697333356520739  11.104017363137828  51.05173905686053  14.925867870340383  15.837770054085297  85.36934687052258  42.39144450682689  -87.11533241686135  20.915137162011757  120.000000
9.5367  0.000000  0.000000  0.000000  -45.01940116878041  16.551590853298087  15.932541739100994  51.85881612541098  14.375782675204073  17.425366388400978  85.35729389841492  44.97129520625618  -89.15020658119042  20.372516075882707  120.000000
9.59415  0.000000  0.000000  0.000000  -47.53426865061713  18.006946619503875  20.961153760758602  52.64102324042997  13.696275562460997  18.974956686244262  85.05833527821764  47.21990707080489  -90.74737921399772  19.82979668518591  120.000000
9.6516  0.000000  0.000000  0.000000  -50.19153163205495  19.012938351602195  25.975366590131323  53.387662549098  12.915301444077356  20.411413780541906  84.5157625902528  49.12228590134661  -91.9205021553594  19.330352421037798  120.000000
9.70905  0.000000  0.000000  0.000000  -52.82141681307927  19.58214263479274  30.743738469754238  54.08947913180389  12.069480210682727  21.66022900774441  83.7938835131849  50.676759514224464  -92.69553548112954  18.905388857663773  120.000000
9.7665  0.000000  0.000000  0.000000  -55.237139737226755  19.790434941606915  35.04239271573845  54.73647883770611  11.199970502207693  22.65498661722237  82.98141619426721  51.89137083118136  -93.11379903923827  18.574219627508377  120.000000
9.82395  0.000000  0.000000  0.000000  -57.267545233669985  19.754587171793037  38.67736548625293  55.31028592946538  10.34676795373354  23.344159293483077  82.1854477457932  52.77732963797069  -93.23449385717632  18.346722533620195  120.000000
9.8814  0.000000  0.000000  0.000000  -58.77761540793803  19.60319497417782  41.498095776594575  55.78174712701938  9.550745064555295  23.69057983756282  81.51554470762417  53.34508020187732  -93.13073607915672  18.224483591758947  120.000000
9.93885  0.000000  0.000000  0.000000  -59.67473539438307  19.443258036282323  43.396437766225006  56.11446601495559  8.848192363082587  23.674987833210608  81.06715719658811  53.60393728516109  -92.88073271413494  18.19753624172466  120.000000
9.9963  0.000000  0.000000  0.000000  -59.90503643971112  19.3431091138126  44.301246617003294  56.278813978075576  8.26920440931901  23.296109240460872  80.9024588147136  53.56484901312201  -92.55231074524374  18.244378881546346  120.000000
10.05375  0.000000  0.000000  0.000000  -59.45491829316238  19.326698145650816  44.17178495481565  56.266635647471745  7.834581927881867  22.570451572387277  81.02983612984532  53.24317914401023  -92.18085759728545  18.3368870925224  120.000000
10.1112  0.000000  0.000000  0.000000  -58.353878758530364  19.37051580915031  43.00048455309971  56.09051283791171  7.560176612878856  21.53084786066507  81.39982881778754  52.65543105007468  -91.751514897341  18.446022785655373  120.000000
10.16865  0.000000  0.000000  0.000000  -56.67599625623516  19.397027189528785  40.825146151632566  55.77096923422263  7.459447629228719  20.229556940190694  81.9240475745087  51.81326727698525  -91.19335009262979  18.544942053535287  120.000000
10.2261  0.000000  0.000000  0.000000  -54.537745912839185  19.280783299562536  37.74026593401545  55.32642722442154  7.54287667295972  18.738361325032344  82.49437816151642  50.72196390659978  -90.38872101332629  18.61251401854878  120.000000
10.28355  0.000000  0.000000  0.000000  -52.09652992010747  18.883609899368697  33.90433639726103  54.77374640669813  7.8242145947393  17.135960467614282  82.99591885652136  49.38002637100411  -89.1978443206476  18.635479139615022  120.000000
10.341000000000001  0.000000  0.000000  0.000000  -49.5361135477583  18.094627522031278  29.52182096062442  54.12906205364884  8.312549979304148  15.50018727621997  83.32046923151734  47.78344340020603  -87.49577711885703  18.614795981559105  120.000000
10.39845  0.000000  0.000000  0.000000  -47.03717162245559  16.864854329072525  24.80914443867127  53.41289669056704  9.008256872830904  13.901420528139177  83.3779199309982  45.933883796116746  -85.20171412483502  18.578404913135316  120.000000
10.4559  0.000000  0.000000  0.000000  -44.7483522216131  15.213399639383535  19.958067357767742  52.643877743446566  9.896133804771612  12.404141039075942  83.10621518384644  43.840598720952926  -82.29477363350418  18.586271813398525  120.000000
10.51335  0.000000  0.000000  0.000000  -42.77088389069565  13.215312064142328  15.114112653619802  51.833050010098724  10.948914283273007  11.063690750094272  82.46403549886506  41.52182332861158  -78.80134134005968  18.71951828646795  120.000000
10.5708  0.000000  0.000000  0.000000  -41.161780984917094  10.980502803145272  10.378735099593367  50.97756237828722  12.13451464870388  9.925969252187118  81.4202243349785  39.00409800054572  -74.77404917835396  19.051900422787355  120.000000
10.62825  0.000000  0.000000  0.000000  -39.9398631113217  8.63190604122972  5.816930884054154  50.06342212742327  13.423177505240387  9.027014481377954  79.938573717859  36.326500851831014  -70.26656337126109  19.615859090696073  120.000000
10.6857  0.000000  0.000000  0.000000  -39.091988442033205  6.292973316910256  1.4680734612740327  49.078987998080635  14.790028026364666  8.391740490280062  77.9808502680101  33.54597383609949  -65.32869183073208  20.380495834948736  120.000000
10.74315  0.000000  0.000000  0.000000  -38.575795807469774  4.066532666455645  -2.6472733326203595  48.02052739679977  16.21156135684787  8.037031800385678  75.51936662770883  30.731076473243068  -60.011870291591535  21.258677098121787  120.000000
10.8006  0.000000  0.000000  0.000000  -38.32873088981837  2.029630523528162  -6.522812116776113  46.90046584070508  17.663139048593017  7.96774998745549  72.55627295985776  27.955139217107686  -54.38759857070716  22.1385742207685  120.000000
10.85805  0.000000  0.000000  0.000000  -38.27535155569059  0.22794462091152148  -10.159574902168854  45.74303074200203  19.120426683377445  8.177587886047524  69.13906475114604  25.27906850592482  -48.559139467980245  22.91634738678724  120.000000
10.9155  0.000000  0.000000  0.000000  -38.34274910368242  -1.3237436204538315  -13.560258866238517  44.57470563204437  20.560418472095474  8.653892662875485  65.36125839463645  22.74390364971672  -42.66359497054775  23.516303036745335  120.000000
10.97295  0.000000  0.000000  0.000000  -38.46999474756912  -2.6306669201875503  -16.724992179818898  43.41920158277711  21.969182571774528  9.37633711623712  61.33809410646501  20.370053273064478  -36.844627733253105  23.892602706946075  120.000000
11.0304  0.000000  0.000000  0.000000  -38.61898715732608  -3.708055634731441  -19.648749981941585  42.28704932088769  23.344092259655056  10.32272443274506  57.172929221174726  18.169092384272403  -31.221514427441164  24.017202031672415  120.000000
11.08785  0.000000  0.000000  0.000000  -38.771736804589665  -4.572034286942877  -22.324309245077803  41.18406826617382  24.69514379035971  11.467859311386368  52.94708945444546  16.162141046583063  -25.876583892708556  23.870368905546464  120.000000
11.1453  0.000000  0.000000  0.000000  -38.92586764898435  -5.234052095450714  -24.750176441719216  40.117255781921465  26.041369891604717  12.779738184176205  48.7486718298353  14.384777814590825  -20.887623498265476  23.434200605977257  120.000000
11.20275  0.000000  0.000000  0.000000  -39.09221040493373  -5.709203615284284  -26.93896626013703  39.09665639577975  27.409074463817216  14.210566113911703  44.67397834498606  12.875833213016659  -16.332135468418027  22.68515441177887  120.000000
11.260200000000001  0.000000  0.000000  0.000000  -39.293518311074564  -6.013525230431795  -28.915731587989296  38.127740681379166  28.81687130966335  15.713078116188013  40.85722651513922  11.660909511565407  -12.317713769180283  21.597291106027534  120.000000
11.31765  0.000000  0.000000  0.000000  -39.55123553458699  -6.1875322184504284  -30.716525008653274  37.21326437759579  30.264619068039423  17.25539202803244  37.47473826012083  10.737998468366595  -8.98480249771307  20.150069698759577  120.000000
11.3751  0.000000  0.000000  0.000000  -39.87002552269642  -6.288894387932432  -32.39135912220732  36.36860932960502  31.725184240458855  18.825605425254334  34.78154277264267  10.063703567055018  -6.539359465606756  18.356297367103938  120.000000
11.43255  0.000000  0.000000  0.000000  -40.227462126840884  -6.40070707635872  -34.001631981207325  35.619796095708146  33.15568885302593  20.422078153630327  33.018053999123076  9.553497365882707  -5.160755791047844  16.2888797213886  120.000000
11.49  0.000000  0.000000  0.000000  -40.58155842249672  -6.609206823024661  -35.60356677962326  34.97947375773998  34.49684702355209  22.066379155848168  32.39340053343871  9.093372414439711  -4.985143180027401  14.101797202801803  120.000000
