Simulation
nRows=201
nColumns=15
endheader
time  TH_x TH_y TH_z SC_y  SC_z  SC_x  AC_y  AC_z  AC_x  GH_y  GH_z  GH_yy  EL_x  PS_y
0.0  0.000000  0.000000  0.000000  -40.97484877243665  6.293857566463187  5.290427962726946  44.211623860749036  7.6381686228586245  0.07113506971443347  175.60301835748007  6.731797898963363  -150.41252003754857  22.642338426103674  120.000000
0.05745  0.000000  0.000000  0.000000  -38.98095273760024  5.6589354690850024  3.072208224410923  43.63159211139732  7.795033424824396  0.39863832980519137  175.90981583591093  3.418517639612092  -152.13612245021727  22.05537666482119  120.000000
0.1149  0.000000  0.000000  0.000000  -37.143776439122995  4.864753178199484  0.8439588134518518  43.13999997188077  7.772862228555394  0.7672177926180083  176.6971032461338  0.27285793050879203  -154.3309248391947  21.65181768647665  120.000000
0.17235  0.000000  0.000000  0.000000  -35.56241055805045  3.977985469724627  -1.3037540749941334  42.7682496797057  7.633468570171181  1.1997298555196958  -2.597308744332477  2.7530847879588745  23.551604859803184  21.510407574478453  120.000000
0.2298  0.000000  0.000000  0.000000  -34.27791879334896  3.0842728473413743  -3.304500218290531  42.529202866877505  7.466213736972755  1.7136266323787128  -1.9800373818418102  5.72818762224298  21.511080571993308  21.63874658368309  120.000000
0.28725  0.000000  0.000000  0.000000  -33.29477594880409  2.2751159461885107  -5.121366666544031  42.40361899238588  7.37012142289523  2.321225253196342  -1.7469565514284517  8.724762692797203  19.829302924626127  21.972329012594653  120.000000
0.3447  0.000000  0.000000  0.000000  -32.6122132232098  1.6363070814389546  -6.740637093373115  42.35206687814444  7.424354983325523  3.025123870916072  -1.880848100290171  11.805133714131504  18.470812904287623  22.410155341451258  120.000000
0.40215  0.000000  0.000000  0.000000  -32.24105325181752  1.2324684252775022  -8.147590078115345  42.333815194786894  7.661157807641776  3.8048043363074617  -2.2586680142437956  15.020339184571101  17.296542251948793  22.84134525839917  120.000000
0.4596  0.000000  0.000000  0.000000  -32.19319006901845  1.1092406930271381  -9.304731264312833  42.31862050717858  8.053760817331355  4.61855051141583  -2.7431285139938226  18.396439951551347  16.1662186030124  23.173279340647237  120.000000
0.51705  0.000000  0.000000  0.000000  -32.46635401874862  1.2899534719418713  -10.173879383810139  42.29385023817363  8.545893773746847  5.433430324669185  -3.2260901081383975  21.92302299428016  14.986371378309396  23.344173364931596  120.000000
0.5745  0.000000  0.000000  0.000000  -33.045365034250025  1.7733871936481727  -10.758678160621423  42.26712081890529  9.091863858932518  6.258942940071397  -3.6139729063714197  25.558948322508016  13.69493818050102  23.332669527328626  120.000000
0.63195  0.000000  0.000000  0.000000  -33.9147328717396  2.5293096512840734  -11.092709165543317  42.26900249536156  9.65920275029888  7.131068933847871  -3.809357794187043  29.252578089104393  12.232857072697374  23.15134973905445  120.000000
0.6894  0.000000  0.000000  0.000000  -35.05820287815989  3.503392152778639  -11.20474090760555  42.34604551260333  10.216944235358225  8.07791359478046  -3.7265475963748025  32.951095471250106  10.545268524829462  22.83234376088445  120.000000
0.74685  0.000000  0.000000  0.000000  -36.4511658548532  4.62948747282282  -11.110162337152488  42.54659035694435  10.743877657707166  9.104850963050467  -3.3199354383301394  36.59963325039037  8.596167258676727  22.413917370865928  120.000000
0.8043  0.000000  0.000000  0.000000  -38.052925280127276  5.838504137736995  -10.812584395747711  42.901227722635234  11.23690474052393  10.191467219059671  -2.602539628802812  40.13772610056693  6.380565514113771  21.933015175447  120.000000
0.86175  0.000000  0.000000  0.000000  -39.80089853887283  7.059385067631162  -10.306610997042347  43.407754347742085  11.713870631007092  11.292951857743791  -1.6475524604019098  43.49956194781865  3.931089827911501  21.421901989226978  120.000000
0.9192  0.000000  0.000000  0.000000  -41.608249194497816  8.234322361607617  -9.579921067096715  44.03376040868703  12.2013738484167  12.35291324490061  -0.5563226075461122  46.6198651039817  1.306443076517601  20.90755079423425  120.000000
0.97665  0.000000  0.000000  0.000000  -43.37426040012871  9.328208165221023  -8.613592096305352  44.72177945265356  12.718335186506021  13.318042288658958  0.5700248219775322  49.448010218675826  -1.410018800650251  20.410922225107623  120.000000
1.0341  0.000000  0.000000  0.000000  -45.006846706321454  10.331779427114604  -7.394033393894199  45.40296251676936  13.264933111726569  14.143697293271181  1.6463150586121995  51.95748690743356  -4.106642482781797  19.944077249899344  120.000000
1.09155  0.000000  0.000000  0.000000  -46.444627861624134  11.247498688867145  -5.923966316302112  46.01251449597514  13.819021109417122  14.804499116233961  2.6112508285503426  54.14688266327936  -6.649838458618863  19.50904270540047  120.000000
1.149  0.000000  0.000000  0.000000  -47.6639975312688  12.076489465658694  -4.233119076110105  46.50783291020248  14.345363312710665  15.293218459530092  3.4311875728567425  56.032729812532644  -8.90734732141  19.102206025413228  120.000000
1.20645  0.000000  0.000000  0.000000  -48.672771467741995  12.812121485860812  -2.382434173864634  46.877000150750504  14.806914153687554  15.618515879285257  4.100447006340234  57.64459949504026  -10.780802137554023  18.71942969582757  120.000000
1.2639  0.000000  0.000000  0.000000  -49.49503009248927  13.439799056058861  -0.46091947971483266  47.132449034614034  15.174124892109143  15.798015988602433  4.634155351206677  59.01862295283182  -12.23066810642617  18.36080294374128  120.000000
1.32135  0.000000  0.000000  0.000000  -50.15501000265828  13.943052442661646  1.4214996197816527  47.303048493667745  15.429437017777731  15.849501350676933  5.056878015119104  60.190297503855824  -13.283358216467038  18.030589033967626  120.000000
1.3788  0.000000  0.000000  0.000000  -50.66556295771816  14.30725545166583  3.146488383472844  47.422206021673176  15.566857571554475  15.78831878609813  5.393504327090922  61.18621097455856  -14.017150653070717  17.736320832670227  120.000000
1.43625  0.000000  0.000000  0.000000  -51.025340465814324  14.52533733592247  4.595844591172042  47.520687645423614  15.588371016418098  15.625695785903053  5.663889847987016  62.01952320882125  -14.535102089979672  17.48604679489863  120.000000
1.4937  0.000000  0.000000  0.000000  -51.223323290058424  14.597453192574756  5.661480669693336  47.61977043391094  15.499229019489306  15.373237570066447  5.881242869811028  62.68687916171576  -14.93587192024132  17.28724460145946  120.000000
1.55115  0.000000  0.000000  0.000000  -51.246556722032246  14.529899340893357  6.2518297075519325  47.72916380688961  15.305201779837365  15.046345628972938  6.052797893277989  63.168710006932734  -15.292437704528497  17.145583159782596  120.000000
1.6086  0.000000  0.000000  0.000000  -51.08629090525322  14.329200640416648  6.300276355915255  47.84532257176432  15.013577536939618  14.669274200944265  6.180817501656757  63.43136953202517  -15.643014579651222  17.06502574364936  120.000000
1.66605  0.000000  0.000000  0.000000  -50.74045008423186  13.996816546762224  5.772706816066208  47.95212824482332  14.639093646305016  14.276563021188203  6.263629074020041  63.43169330871725  -15.993739292567636  17.046328746300535  120.000000
1.7235  0.000000  0.000000  0.000000  -50.21182800988351  13.526508819813985  4.673489002394794  48.02280214320816  14.211889887859131  13.909591393209597  6.295051128049433  63.12308258024684  -16.32881468888152  17.083652378692822  120.000000
1.78095  0.000000  0.000000  0.000000  -49.50565090280556  12.905574964393432  3.0484055165243333  48.02315545814322  13.7835420077037  13.6092464779196  6.264439960348542  62.46056261495911  -16.623304246542254  17.161466785161036  120.000000
1.8384  0.000000  0.000000  0.000000  -48.62713190959472  12.123976213627792  0.9793610781713691  47.917324352083284  13.425257656646721  13.404637444836073  6.156629638582106  61.404076780616464  -16.855380252536644  17.255059762086283  120.000000
1.89585  0.000000  0.000000  0.000000  -47.58244520614176  11.18108536015497  -1.4241943279103129  47.67192040050389  13.217401891248876  13.307508612761128  5.955675230340215  59.919367467590874  -17.014866702730394  17.336589361031344  120.000000
1.9533  0.000000  0.000000  0.000000  -46.38251842972066  10.092295840325725  -4.039920513670934  47.2617901951137  13.233587226020816  13.309394340621258  5.650754356943903  57.98235159584271  -17.108474506071882  17.382606336988005  120.000000
2.01075  0.000000  0.000000  0.000000  -45.05305241407705  8.887947720678081  -6.744913988325614  46.67400238012051  13.523201320035596  13.387511430544949  5.244765294350332  55.58588198497388  -17.16042898842447  17.38071232596622  120.000000
2.0682  0.000000  0.000000  0.000000  -43.64257310759206  7.609573555655711  -9.427766952524411  45.912610883187725  14.098996993334728  13.514117722762425  4.764113464950527  52.747870460443266  -17.209330220076502  17.33069601417255  120.000000
2.1256500000000003  0.000000  0.000000  0.000000  -42.22370781361378  6.306002513729624  -11.998352120308182  45.00127120921152  14.932356013660458  13.665763499192897  4.264232480244161  49.5132963546602  -17.29923358025865  17.237864921243386  120.000000
2.1831  0.000000  0.000000  0.000000  -40.884421746196224  5.0279657487176825  -14.391607775485934  43.97656062104158  15.959165047144284  13.832558487053928  3.827557395404758  45.95070248717076  -17.464437439149624  17.105490823335696  120.000000
2.24055  0.000000  0.000000  0.000000  -39.70210605148588  3.830658309465049  -16.568371364718754  42.887552185584305  17.09321042765009  14.018210849469359  3.5601278580141886  42.146092197192694  -17.718095134273167  16.927287426708997  120.000000
2.298  0.000000  0.000000  0.000000  -38.71872766243861  2.7629087081557957  -18.508200507704192  41.79083994469028  18.24131836354416  14.232548489927145  3.5761036481363204  38.18850987688345  -18.04481082828234  16.686418664723167  120.000000
2.3554500000000003  0.000000  0.000000  0.000000  -37.93768562367077  1.8547114323966178  -20.201040236033364  40.739838834388856  19.319197277837027  14.47856285556287  3.964447887326184  34.15796451187846  -18.393578327849635  16.36317823627166  120.000000
2.4129  0.000000  0.000000  0.000000  -37.33294341968282  1.118506151538685  -21.640667249996966  39.7810640807883  20.269436418835255  14.748050634139789  4.769775748526683  30.12564141101934  -18.687762545552392  15.947260475311285  120.000000
2.47035  0.000000  0.000000  0.000000  -36.86134607607376  0.5514466986786306  -22.820637831098534  38.95349031391323  21.06986974501968  15.024434399508557  5.99516092860369  26.161960540511473  -18.84785215628206  15.452807715187737  120.000000
2.5278  0.000000  0.000000  0.000000  -36.480256172532336  0.13502747561466216  -23.737679881623208  38.286850995419286  21.728674503851  15.288056602870544  7.6199215663810005  22.341457742005716  -18.817740781699264  14.924534635474211  120.000000
2.5852500000000003  0.000000  0.000000  0.000000  -36.16037675560161  -0.16177615533230463  -24.400366324856382  37.801372762870486  22.27300336173403  15.521508715793116  9.63996724204648  18.745805540405254  -18.60524708680289  14.427721016120984  120.000000
2.6427  0.000000  0.000000  0.000000  -35.89183061655965  -0.37513676602094975  -24.824692502994548  37.50837589629047  22.731865032030942  15.709627296091085  12.134933421051443  15.463897210073071  -18.350428036121357  14.030148392747035  120.000000
2.70015  0.000000  0.000000  0.000000  -35.67720465587252  -0.5311872868793739  -25.01781185135441  37.41268979305285  23.115600146495805  15.82822597940403  15.347922877423002  12.574735260784111  -18.411724600351306  13.782940796233081  120.000000
2.7576  0.000000  0.000000  0.000000  -35.52329541358334  -0.6411911076628528  -24.970170992334737  37.5049729582995  23.415148318945842  15.846684421297672  19.734328232290988  10.121804882571583  -19.41627802036476  13.707917757734513  120.000000
2.8150500000000003  0.000000  0.000000  0.000000  -35.438830900521445  -0.703089790628741  -24.668321883417203  37.756885872482705  23.616443751448713  15.742846598553701  26.00450710122602  8.115347291225218  -22.283582788778702  13.800706331687241  120.000000
2.8725  0.000000  0.000000  0.000000  -35.43008306322496  -0.7034752610490131  -24.11752237018689  38.12483085117021  23.705718980667054  15.510270697991348  35.09111275256737  6.5677213255347215  -28.155779761017612  14.043431218603033  120.000000
2.92995  0.000000  0.000000  0.000000  -35.494962675381224  -0.6288682247592184  -23.3463251242338  38.55451725734872  23.669705989828408  15.1583513414944  47.63072043359786  5.515407395163073  -37.83963185329719  14.40849025294078  120.000000
2.9874  0.000000  0.000000  0.000000  -35.61881902474893  -0.4732620688314429  -22.39720641075924  38.99504186832028  23.500592837823216  14.704924896279556  62.75910194500501  4.987427201460146  -50.575357582506435  14.8574174189385  120.000000
3.0448500000000003  0.000000  0.000000  0.000000  -35.7771363544513  -0.24024518956428226  -21.320618472946837  39.410233367007514  23.203237502193883  14.172232573469655  77.70929598221551  4.929260154280337  -63.630854673407676  15.34495019175479  120.000000
3.1023  0.000000  0.000000  0.000000  -35.94454710186411  0.056863919032026304  -20.168732993604852  39.78135172204682  22.79631152559562  13.586266019192566  89.90720660542478  5.182980209733236  -74.41062394344146  15.82878223843202  120.000000
3.15975  0.000000  0.000000  0.000000  -36.101762635367145  0.3956695984540746  -18.989044120531783  40.104214346933944  22.307066907661895  12.973950236621905  98.66597305200916  5.56994799784011  -82.16766502962165  16.2796933717756  120.000000
3.2172  0.000000  0.000000  0.000000  -36.23547278168004  0.7491414046339645  -17.82250854840652  40.386036109454395  21.76546699312813  12.358499852789272  104.5134850627119  5.961685507417544  -87.34602144791158  16.687933155474646  120.000000
3.2746500000000003  0.000000  0.000000  0.000000  -36.33574937367176  1.0915936874199956  -16.703806362917543  40.640824741256694  21.199033256975287  11.757334624400398  108.20136506248866  6.290017601879037  -90.60327950815645  17.06091783194689  120.000000
3.3321  0.000000  0.000000  0.000000  -36.395370927109795  1.4009029340677388  -15.660042088982832  40.88226468803742  20.6291754612293  11.18308286039339  110.34639725083957  6.530925683885521  -92.46474014730207  17.41418507900136  120.000000
3.38955  0.000000  0.000000  0.000000  -36.412222508654  1.6606370093271496  -14.708966275747567  41.11840152205603  20.070782188586314  10.64556374723633  111.39737548378146  6.6889146110701425  -93.30200959021938  17.763172439587034  120.000000
3.447  0.000000  0.000000  0.000000  -36.391164851019674  1.8633397204689324  -13.85994214960722  41.351463951957285  19.534755625617265  10.15043188428621  111.66812532128742  6.784674305128219  -93.3750484421351  18.117297859236274  120.000000
3.5044500000000003  0.000000  0.000000  0.000000  -36.34278793481845  2.0100693098344236  -13.116615555897782  41.57902980162043  19.029495330395754  9.699776118169902  111.38288853767996  6.845534999326588  -92.87912687156273  18.479005189575624  120.000000
3.5619  0.000000  0.000000  0.000000  -36.28007868466709  2.1054849554790747  -12.478009565184996  41.7930331704184  18.560713844149575  9.297224073302235  110.71224038347907  6.8973461280292465  -91.97536884513686  18.846387943048242  120.000000
3.61935  0.000000  0.000000  0.000000  -36.213237939013894  2.1588740976768293  -11.941809991068865  41.984762391216734  18.133814188776338  8.945931281921897  109.77741061498702  6.959517465624168  -90.78650521766235  19.216820652539145  120.000000
3.6768  0.000000  0.000000  0.000000  -36.14730403064378  2.1849263894886692  -11.507877548639563  42.1481096033626  17.754267885391975  8.646039017419271  108.65190183533932  7.043918439513935  -89.39137398918325  19.58904692332183  120.000000
3.7342500000000003  0.000000  0.000000  0.000000  -36.08265982020948  2.1971661908275864  -11.178231319725596  42.27578999702766  17.424208378390375  8.398589713937977  107.37489476675366  7.153330094440542  -87.833793571796  19.962860832974204  120.000000
3.7917  0.000000  0.000000  0.000000  -36.01583974668411  2.2039997342292548  -10.95629184549142  42.35892797630949  17.14082676302485  8.207751499270303  105.9493153071353  7.282504715217056  -86.11877735800633  20.33857140432111  120.000000
3.84915  0.000000  0.000000  0.000000  -35.940279322416465  2.209460067617196  -10.846489933228348  42.39050719239521  16.89782812117474  8.079677056153852  104.32127141016512  7.420818481449094  -84.19163620664892  20.716233915186923  120.000000
3.9066  0.000000  0.000000  0.000000  -35.847370708059096  2.2160331771956225  -10.854030161955558  42.36912286709989  16.688102655172074  8.020551710863906  102.358749716241  7.55531926071702  -81.91731174707513  21.09506155214235  120.000000
3.9640500000000003  0.000000  0.000000  0.000000  -35.72661794101053  2.225686524806841  -10.985106347233756  42.300802092426466  16.505316726507612  8.035753547104012  99.84887869192082  7.674702524433267  -79.07941531037405  21.47275199701328  120.000000
4.0215  0.000000  0.000000  0.000000  -35.56790659929246  2.2372736393925576  -11.246907750109747  42.196409720905294  16.343952862501894  8.130807962496586  96.51182024504861  7.774954800437419  -75.39901373636947  21.844728417741702  120.000000
4.07895  0.000000  0.000000  0.000000  -35.36451329859874  2.2465335745325623  -11.647716410189204  42.07069254332818  16.19876328023975  8.31202729694569  92.03051043486137  7.871741648037996  -70.57165656055682  22.203618591638268  120.000000
4.1364  0.000000  0.000000  0.000000  -35.11671317261201  2.2464337343766587  -12.196563956658254  41.94509135228297  16.06497054335017  8.585955384459911  86.12924920399767  8.019175819900267  -64.35441379759685  22.53813188369381  120.000000
4.19385  0.000000  0.000000  0.000000  -34.83389709448474  2.2259279277012936  -12.899964051229508  41.84747697160556  15.938525327074558  8.961860331144269  78.76390635724348  8.32080499734083  -56.75966114280035  22.832290001832884  120.000000
4.2513000000000005  0.000000  0.000000  0.000000  -34.536005867586326  2.168571979964775  -13.755300089061649  41.80321161145144  15.817277605247927  9.457289565508212  70.34327044261889  8.913555857000063  -48.272465897078334  23.067089955837897  120.000000
4.30875  0.000000  0.000000  0.000000  -34.24475981909547  2.0615995754056704  -14.748218008890854  41.834175221903834  15.707234142727513  10.09187630664579  61.70327156816165  9.925445100419255  -39.8128709851065  23.226500903158172  120.000000
4.3662  0.000000  0.000000  0.000000  -33.9703758037213  1.9052364621271178  -15.85415282403554  41.972595107159286  15.631917139647513  10.869992786827002  53.71344261950356  11.440877954464442  -32.328520089094624  23.310290236877115  120.000000
4.42365  0.000000  0.000000  0.000000  -33.72334376316004  1.7145940758650209  -17.031937745428458  42.2491448193465  15.626660742500928  11.786524190494502  46.861566363169  13.490282790710493  -26.364515466392948  23.3441239889534  120.000000
4.4811  0.000000  0.000000  0.000000  -33.52576843164001  1.52678441784115  -18.221280438046893  42.67570140982661  15.726796519512668  12.834232985239419  41.18646629020441  16.0606724009635  -21.979352447817945  23.376942424088842  120.000000
4.53855  0.000000  0.000000  0.000000  -33.423858325951535  1.3993031995628342  -19.350849418068115  43.25311391060916  15.960985453379372  13.996157168969297  36.51241200583314  19.119095542047166  -18.976241505845017  23.464741539210586  120.000000
4.596  0.000000  0.000000  0.000000  -33.47506759837655  1.3956185350215409  -20.34455798235584  43.972974041968925  16.340394170034727  15.248631023035822  32.65049145558598  22.603455855787065  -17.100700705457964  23.646578074605706  120.000000
4.65345  0.000000  0.000000  0.000000  -33.70293804901878  1.5658236660659193  -21.12509635561886  44.825116462946916  16.862122654285873  16.55388341220569  29.454322753874347  26.403918610304572  -16.10267781499628  23.91884989839664  120.000000
4.7109000000000005  0.000000  0.000000  0.000000  -34.09061435904438  1.9413720348561427  -21.61016830313257  45.78537378162285  17.51598083056417  17.867774507120103  26.806177086493104  30.36213116262433  -15.74848708625802  24.232467715628644  120.000000
4.76835  0.000000  0.000000  0.000000  -34.59207272152549  2.5376257134968077  -21.719062132529416  46.80337546722437  18.28543934273828  19.14006824738349  24.592414808635763  34.290543976607196  -15.818722059798823  24.51114921529578  120.000000
4.8258  0.000000  0.000000  0.000000  -35.152862461867535  3.347076667130295  -21.38836472674788  47.82731472499729  19.141444636041243  20.298737110532347  22.72304219180234  38.02220262829513  -16.151819961722417  24.67560127300625  120.000000
4.88325  0.000000  0.000000  0.000000  -35.743360083778285  4.337420081489927  -20.569663897093868  48.81228449577901  20.02510811445108  21.273281167040906  21.14775347792982  41.44653544221419  -16.667405190281738  24.672806875230954  120.000000
4.9407  0.000000  0.000000  0.000000  -36.365115394930676  5.460835829528145  -19.230389107860834  49.723435277667384  20.8479365510694  22.01523294790209  19.840739177888896  44.51750663754712  -17.347614423032226  24.482445847475415  120.000000
4.99815  0.000000  0.000000  0.000000  -37.044679043685036  6.663272786789242  -17.357298810321993  50.5459693416407  21.515866607573013  22.496822506403724  18.788385475331186  47.24282706786512  -18.206727705170533  24.109380516332276  120.000000
5.0556  0.000000  0.000000  0.000000  -37.81751170776179  7.89178916451905  -14.961191826669024  51.27906823748061  21.95292408796847  22.712596377237865  17.978858845220664  49.66199688986423  -19.257394464556235  23.575114396767233  120.000000
5.11305  0.000000  0.000000  0.000000  -38.712697960734054  9.095245951573954  -12.09013386450392  51.92238269871003  22.11750630774869  22.680843112997387  17.394888989240865  51.822731749249456  -20.48932947881907  22.914394129800066  120.000000
5.1705000000000005  0.000000  0.000000  0.000000  -39.73872123642412  10.223767539842026  -8.84165098396317  52.46987700454071  22.01066423405383  22.43877431580925  17.01523349770073  53.76316832028687  -21.864967367721157  22.178922079523907  120.000000
5.22795  0.000000  0.000000  0.000000  -40.868295064081316  11.22643439063619  -5.365248177481183  52.91197891970227  21.672667534261738  22.034568465310556  16.814567691332744  55.50623526833165  -23.330348073010587  21.428926059105354  120.000000
5.2854  0.000000  0.000000  0.000000  -42.03818054624841  12.057335174826994  -1.8504607770889059  53.24136231802925  21.168268007889992  21.515361611350755  16.76007475808218  57.05808179667189  -24.82546294718107  20.720863476444848  120.000000
5.34285  0.000000  0.000000  0.000000  -43.161105811624154  12.686143029453268  1.4960573479948405  53.457695772125405  20.56710331882335  20.91803043841769  16.813674844416504  58.40951528594661  -26.292374207564574  20.094812552288833  120.000000
5.4003  0.000000  0.000000  0.000000  -44.14040317270597  13.102733386632158  4.477409717102615  53.569891692824356  19.930200590319078  20.265858316546243  16.93907747165752  59.53653602546208  -27.679570898816735  19.568496891741255  120.000000
5.45775  0.000000  0.000000  0.000000  -44.887237696914326  13.316174297979869  6.925707333988147  53.594340443124125  19.303245982163485  19.570171245161923  17.10893790527608  60.4023794729933  -28.946096219895104  19.14184152202959  120.000000
5.5152  0.000000  0.000000  0.000000  -45.33276972845689  13.345050631772263  8.712208802103616  53.54852159171704  18.717052823642188  18.835564894238413  17.306980439109182  60.96060777650749  -30.0652730792712  18.80860857912879  120.000000
5.57265  0.000000  0.000000  0.000000  -45.43501624662713  13.20797337167426  9.750264205807811  53.44501779713749  18.1904958527208  18.065909505845998  17.528175417582197  61.160344896030445  -31.028275599884388  18.568747742373116  120.000000
5.6301000000000005  0.000000  0.000000  0.000000  -45.18088009827877  12.915329120144317  9.995004226603584  53.28580970740735  17.733063273035036  17.269976790351947  17.77677727269657  60.95291000582588  -31.84328850986255  18.43535870828061  120.000000
5.68755  0.000000  0.000000  0.000000  -44.58600673384355  12.468365256069982  9.441685018165213  53.0580993336705  17.34499982411907  16.464886361687164  18.064925596543777  60.297312228843445  -32.52801265875383  18.432058099068357  120.000000
5.745  0.000000  0.000000  0.000000  -43.69386480998647  11.86234631062286  8.123666314910263  52.732638858890176  17.016661495716267  15.677953188738961  18.412618243744916  59.16704314885929  -33.098012186307045  18.57993194327721  120.000000
5.80245  0.000000  0.000000  0.000000  -42.57127824783116  11.092850829857214  6.111555337664462  52.266217707040376  16.7324811635718  14.944546091662072  18.844461629974365  57.55570684710131  -33.55651384208285  18.87568899694586  120.000000
5.8599  0.000000  0.000000  0.000000  -41.29926656880544  10.161740084020716  3.511445345145611  51.612110106946105  16.47883267724287  14.303099714531976  19.38620102504569  55.481824316222195  -33.89154313724811  19.272607553137703  120.000000
5.91735  0.000000  0.000000  0.000000  -39.959111038703924  9.081616053566448  0.4595300090848182  50.73596441045537  16.252550505837227  13.788521132838424  20.061136124548316  52.987404031212606  -34.08312828235381  19.680826583362563  120.000000
5.9748  0.000000  0.000000  0.000000  -38.624034336087455  7.87900606262783  -2.8885931305389585  49.63027604792372  16.065885494513864  13.424332051317272  20.888229068041113  50.13047467358862  -34.1169602877005  19.990799355803663  120.000000
6.03225  0.000000  0.000000  0.000000  -37.356825920445125  6.594028233117443  -6.370169954259181  48.323184245780205  15.947416140669933  13.21820968283008  21.887566163940892  46.97623095019753  -34.00192780647499  20.10822364322064  120.000000
6.089700000000001  0.000000  0.000000  0.000000  -36.20723889536007  5.277622503851291  -9.825451727651595  46.878215348972745  15.940781070606134  13.163210580239824  23.091933140213495  43.59026147224905  -33.786558291825315  19.981481634005178  120.000000
6.14715  0.000000  0.000000  0.000000  -35.21636858724674  3.987605820274318  -13.105720883508294  45.38197040487946  16.0978284488959  13.24255526976364  24.556089212668873  40.03729889781013  -33.56785773072305  19.60943915526854  120.000000
6.2046  0.000000  0.000000  0.000000  -34.42003235628962  2.7882858317952732  -16.08157488589607  43.92634513631732  16.463242325208444  13.436054171343406  26.368067559617106  36.38356158928012  -33.49289173859021  19.02853232975238  120.000000
6.26205  0.000000  0.000000  0.000000  -33.842543786816606  1.7459658196748136  -18.651949284341256  42.59130212407086  17.055161005171456  13.726241039333042  28.66126252330893  32.70383453921607  -33.75633416116864  18.297096516704926  120.000000
6.3195  0.000000  0.000000  0.000000  -33.48960193199932  0.9193480997638658  -20.75421413501184  41.436833282588545  17.852833938413653  14.09560463036619  31.617388285729  29.08795005164811  -34.588307524085  17.4888931056674  120.000000
6.37695  0.000000  0.000000  0.000000  -33.34456895782398  0.3462596193571234  -22.37003591351334  40.50428790980832  18.797413042937958  14.520770294386201  35.45588615582111  25.642510877867508  -36.234057301825416  16.689705708284535  120.000000
6.4344  0.000000  0.000000  0.000000  -33.378105902366244  0.02367473854426616  -23.515496747877837  39.80599456838518  19.806039333746114  14.980089518469663  40.389385812877066  22.48643758279548  -38.91469057961527  15.987790208284366  120.000000
6.49185  0.000000  0.000000  0.000000  -33.55395361437284  -0.082841697497981  -24.232620191409648  39.32170020005238  20.795993670427826  15.453999057248831  46.532808949247915  19.735524397182733  -42.752492756161566  15.459784820097347  120.000000
6.549300000000001  0.000000  0.000000  0.000000  -33.82816570595796  -0.017499787588016902  -24.591976275331874  39.01748520869436  21.707024007471833  15.91229288552238  53.801995527954226  17.47926628840987  -47.68865640474115  15.154800009669271  120.000000
6.60675  0.000000  0.000000  0.000000  -34.1462366003455  0.16680068170370518  -24.689602271774696  38.85083376328215  22.505404057927976  16.322992998570747  61.852908899621454  15.750966032959221  -53.42782914651477  15.085009170913516  120.000000
6.6642  0.000000  0.000000  0.000000  -34.4651093421272  0.41483570392175434  -24.611493195127746  38.77489376894029  23.16999753034725  16.663178195086402  70.14664527282822  14.515014616199219  -59.496113534471135  15.231976235537738  120.000000
6.72165  0.000000  0.000000  0.000000  -34.76627456508726  0.6795834046302458  -24.40326768726872  38.75603634149898  23.685906004013198  16.906616013176446  78.12247861016576  13.68161061457819  -65.39861843623747  15.557194199172999  120.000000
6.7791  0.000000  0.000000  0.000000  -35.04347889401772  0.9293321308442952  -24.090977975466757  38.77230161111965  24.04632645472674  17.031973637016907  85.36386848627252  13.138876058367178  -70.7684736393364  16.004480142259744  120.000000
6.83655  0.000000  0.000000  0.000000  -35.290645378788604  1.1503156801255296  -23.700573684491506  38.8096944606301  24.253509785584228  17.033525628627487  91.6721033704013  12.782125673901314  -75.43122487118549  16.4993157545046  120.000000
6.894  0.000000  0.000000  0.000000  -35.49548052862922  1.3396048720619194  -23.25396900740309  38.86374874768607  24.318313457030794  16.91612364140648  97.04238207009745  12.526795424297509  -79.38223729894503  16.954543467314664  120.000000
6.95145  0.000000  0.000000  0.000000  -35.64353308290435  1.499642621038104  -22.76677852966055  38.93734850265681  24.25783809987693  16.69227535052887  101.58606406644847  12.314826723411882  -82.71967391377927  17.28927001209741  120.000000
7.008900000000001  0.000000  0.000000  0.000000  -35.727399205738216  1.634064283462337  -22.248242015704182  39.03537127062134  24.092512749092823  16.37947043194267  105.44924420446122  12.113505653780669  -85.57568861561737  17.45661784273358  120.000000
7.06635  0.000000  0.000000  0.000000  -35.75484398564067  1.7448138210783113  -21.702026857129034  39.157255501177936  23.842826950055098  15.998901526798592  108.76080583797975  11.908105953098628  -88.07321009598165  17.465159882990452  120.000000
7.1238  0.000000  0.000000  0.000000  -35.74896497500376  1.8327932276973156  -21.128125613817062  39.29458985945024  23.528134796137742  15.57211266645518  111.61276937656272  11.693595446896973  -90.30797016648111  17.37570505023729  120.000000
7.18125  0.000000  0.000000  0.000000  -35.73566017964717  1.9017694059707095  -20.52598108532562  39.44029293659546  23.16871495330175  15.114284402327439  114.05991134323013  11.470892151661921  -92.34197476630064  17.273818330252734  120.000000
7.2387  0.000000  0.000000  0.000000  -35.733879585032305  1.9583047355796395  -19.89625317002862  39.596076432238455  22.785319115344457  14.632580779818754  116.12257095556944  11.244942222348232  -94.19740329639933  17.23471620832858  120.000000
7.29615  0.000000  0.000000  0.000000  -35.7538000408514  2.006989140245639  -19.240199870802044  39.76537747589491  22.39144389906641  14.13524570694226  117.8152102294482  11.017370689494786  -95.87493766631357  17.29545516540398  120.000000
7.3536  0.000000  0.000000  0.000000  -35.793550559062865  2.0506295811725175  -18.56011891453366  39.9491266552106  21.990793101009448  13.635295757898824  119.17761005943235  10.782835449788958  -97.38087898389453  17.449331556516476  120.000000
7.41105  0.000000  0.000000  0.000000  -35.845035701649294  2.0912587983257622  -17.860752603910722  40.15027325764076  21.583833152568648  13.143821487768678  120.2555962875178  10.534718355739948  -98.71813203936263  17.662766219718083  120.000000
7.468500000000001  0.000000  0.000000  0.000000  -35.893663792071  2.132460672936548  -17.1507992304635  40.37619988410333  21.172467655251346  12.66447162809925  121.09784831085095  10.267773134870781  -99.89275243205054  17.89793026512665  120.000000
7.52595  0.000000  0.000000  0.000000  -35.9283529020464  2.177170904315524  -16.44038469595184  40.62879347326328  20.757660134965985  12.198828174029677  121.76286847135674  9.978086039927483  -100.92910885439026  18.128482994309675  120.000000
7.5834  0.000000  0.000000  0.000000  -35.94702106571858  2.2253712044751723  -15.73842801170308  40.90126429210638  20.33925309533201  11.749519336416743  122.31301371802144  9.664616254936913  -101.86807424807343  18.34510520078812  120.000000
7.64085  0.000000  0.000000  0.000000  -35.95377109638315  2.275612829647287  -15.051878212451195  41.182957057011635  19.917703284099634  11.319450093858778  122.80888506067326  9.330684261777781  -102.7591095498271  18.551273195162302  120.000000
7.6983  0.000000  0.000000  0.000000  -35.955910491474896  2.3258730237949816  -14.385674499378128  41.46369399824936  19.495474523813314  10.910428574416597  123.30351162528599  8.983465442954364  -103.65083608184261  18.75461971207379  120.000000
7.75575  0.000000  0.000000  0.000000  -35.960043862636944  2.3745354119823068  -13.743174810938672  41.73676208171946  19.077377190803123  10.522238958044783  123.84252087368861  8.632384197486582  -104.58685812218637  18.960158346399734  120.000000
7.8132  0.000000  0.000000  0.000000  -35.97141192870643  2.419134178492892  -13.126326718801126  41.99927128792777  18.669696323431015  10.152953258205597  124.45994395840194  8.288021248593738  -105.59939382105978  19.167459196796184  120.000000
7.87065  0.000000  0.000000  0.000000  -35.9925891581986  2.4560515298803622  -12.536046791990861  42.252064349128716  18.27880578687635  9.799499234538768  125.17735704740721  7.9612858800993065  -106.70595829307791  19.3725556751652  120.000000
7.928100000000001  0.000000  0.000000  0.000000  -36.02431472838877  2.4796016300375423  -11.972372144593601  42.49784564186125  17.910117931250305  9.458049564900564  126.000414967976  7.661893765468604  -107.90490560460901  19.572162968539857  120.000000
7.98555  0.000000  0.000000  0.000000  -36.0691843861258  2.482661396918664  -11.433919711383266  42.73547140757341  17.56620314557396  9.126173633281784  126.92198662613342  7.394901313838261  -109.1778593637379  19.768268542493974  120.000000
8.043  0.000000  0.000000  0.000000  -36.12950180257144  2.461133152603401  -10.918986965267512  42.95842447558029  17.24687825960097  8.801480479312515  127.92832886596247  7.158435547021412  -110.49635007320028  19.970543397882683  120.000000
8.10045  0.000000  0.000000  0.000000  -36.204539879298416  2.4170387610368724  -10.427697470093005  43.15619992441775  16.95106906139438  8.47836291441912  128.99340742195486  6.944042485477053  -111.82108946656082  20.193429144073068  120.000000
8.1579  0.000000  0.000000  0.000000  -36.28802700440375  2.358949835186494  -9.963724542309507  43.312549178153084  16.67758590103796  8.148841613572854  130.0881747003681  6.736343455819157  -113.11722658984276  20.446846029950937  120.000000
8.21535  0.000000  0.000000  0.000000  -36.367973081569964  2.2991795550786693  -9.535288212074757  43.40218108695737  16.42319577855692  7.809680873128343  131.18348247417165  6.516627861003809  -114.36361877200484  20.72308491242109  120.000000
8.2728  0.000000  0.000000  0.000000  -36.42894284572315  2.252924897944955  -9.157685014740508  43.39766688488353  16.181936545830858  7.465489663488516  132.20360396141953  6.271781971946601  -115.50923422621936  20.988734804486523  120.000000
8.33025  0.000000  0.000000  0.000000  -36.453212080267875  2.2355337070755708  -8.855114928665927  43.278797917077156  15.950338259830753  7.122638266689733  132.96668342969218  5.9979213966654275  -116.40784522673046  21.191186229397747  120.000000
8.3877  0.000000  0.000000  0.000000  -36.42336716406991  2.256219162344844  -8.65748111158044  43.033770842976296  15.728771904828536  6.789724846008457  133.14469237176496  5.702319668118489  -116.76562782283828  21.276241174983483  120.000000
8.44515  0.000000  0.000000  0.000000  -36.32324475410092  2.3100217494839352  -8.59341537310637  42.66045213446952  15.521396772814345  6.479626869826047  132.23209941123085  5.404275598088387  -116.09152148573222  21.214583440773353  120.000000
8.502600000000001  0.000000  0.000000  0.000000  -36.14160116656099  2.376101884649766  -8.683435662162163  42.16800206860371  15.335267695987827  6.207632910454059  129.54923716255874  5.136856594425071  -113.6874565491253  21.024385527742176  120.000000
8.56005  0.000000  0.000000  0.000000  -35.87358635448377  2.4311310992337023  -8.93918419483799  41.5918762608097  15.180983465352144  5.980031987533701  124.3080585679964  4.963529706287915  -108.71456827579121  20.77646126909866  120.000000
8.6175  0.000000  0.000000  0.000000  -35.520209480123775  2.4545356563888205  -9.361388949965677  40.999578306951136  15.068513008256597  5.7941758674026325  116.0465435677583  5.00533353328627  -100.6459838051902  20.572578069387294  120.000000
8.67495  0.000000  0.000000  0.000000  -35.097601503756245  2.41888633601044  -9.932148547036483  40.45931543231001  14.995225196381233  5.6654559573752765  105.61492720726845  5.437916807052863  -90.28437261567288  20.502837843274214  120.000000
8.7324  0.000000  0.000000  0.000000  -34.64307161701232  2.297710048883733  -10.616256411756204  40.01930840340848  14.951351308303863  5.630836320738908  95.27996622575468  6.423120963277684  -79.89306775419215  20.60999028981113  120.000000
8.78985  0.000000  0.000000  0.000000  -34.20936581918324  2.0886968215608728  -11.371692099410746  39.71006964031322  14.931792131240766  5.728850416741568  86.98092212304269  8.039211259596982  -71.46244677812744  20.875404125322454  120.000000
8.8473  0.000000  0.000000  0.000000  -33.85054868912813  1.8230908989987822  -12.158606280571759  39.550914629953155  14.940229191791639  5.98571061232155  81.18378371898226  10.280474638399662  -65.55204541902604  21.236106413956424  120.000000
8.90475  0.000000  0.000000  0.000000  -33.606472174006655  1.562422343963657  -12.94184464957315  39.55702676568309  14.989499467223032  6.408894823102836  77.42837113192928  13.085470607904153  -61.811747090286325  21.61442437706788  120.000000
8.9622  0.000000  0.000000  0.000000  -33.49258261008713  1.3878139844609032  -13.684791129880146  39.74267033294972  15.099167445954237  6.98936889944902  75.08932360548489  16.354575790646116  -59.714456926266415  21.944797231810817  120.000000
9.01965  0.000000  0.000000  0.000000  -33.50231804693886  1.3793242177632876  -14.336097638816563  40.11690153101313  15.284863059233931  7.719426718818977  73.69593280902053  19.966424332120642  -58.852789411377046  22.191322886258448  120.000000
9.0771  0.000000  0.000000  0.000000  -33.62266561948971  1.590510776776359  -14.821506587162661  40.671684198589844  15.54536685719704  8.610829202713422  72.9619061832853  23.79186903327929  -58.958298037098366  22.346360349677994  120.000000
9.13455  0.000000  0.000000  0.000000  -33.83810434326237  2.0499179067525395  -15.050481520891928  41.387490162175006  15.871161873445871  9.67749569196089  72.70694657639054  27.70678461913934  -59.828963079204975  22.415406817175537  120.000000
9.192  0.000000  0.000000  0.000000  -34.14246783771987  2.785543515821136  -14.927802241220714  42.24740070365015  16.25779151161133  10.904979850621485  72.7803756306845  31.613913358640993  -61.27455620724137  22.403610740208812  120.000000
9.24945  0.000000  0.000000  0.000000  -34.54215246696453  3.8256992036113586  -14.361608022631835  43.235123899029574  16.70187457464396  12.24366367906465  73.04141864110251  35.44537663518281  -63.107125798071024  22.30734683830973  120.000000
9.3069  0.000000  0.000000  0.000000  -35.058781833464714  5.172558366101458  -13.26837954917888  44.325318493715834  17.178833650204293  13.62929432326894  73.37647819718902  39.15423409158042  -65.15896621624309  22.11357701204135  120.000000
9.36435  0.000000  0.000000  0.000000  -35.72442398328642  6.785918619738032  -11.578828364752273  45.48788423071763  17.63727361157284  14.997463496106537  73.70394810699582  42.70977925265738  -67.29093926909394  21.81002633837887  120.000000
9.421800000000001  0.000000  0.000000  0.000000  -36.568031549172275  8.593215030789828  -9.250951514476784  46.69388607682931  18.010522506508465  16.288791723239616  73.96661484027817  46.09037083628323  -69.39124770019727  21.39837502432004  120.000000
9.47925  0.000000  0.000000  0.000000  -37.61644067010234  10.4983958975433  -6.284076250431204  47.90662692673964  18.228701259401493  17.460182977005203  74.12502174284155  49.27266042090877  -71.37428884945336  20.901729724704396  120.000000
9.5367  0.000000  0.000000  0.000000  -38.88675628603718  12.386847936495498  -2.733658999992553  49.07665679315854  18.238557147068175  18.485966412939483  74.15257335220029  52.22319517521625  -73.17562300244872  20.361186997195233  120.000000
9.59415  0.000000  0.000000  0.000000  -40.36941547164107  14.136534805035632  1.2750077372910544  50.15000655247001  18.02020688063174  19.349485223591305  74.03495739722842  54.90210395270563  -74.74596809372525  19.823468899216234  120.000000
9.6516  0.000000  0.000000  0.000000  -42.006913839704325  15.635583414534857  5.545909959033858  51.0785366721018  17.590307133201943  20.03651565926272  73.7756994577225  57.26668711194783  -76.04569109751607  19.329501796522933  120.000000
9.70905  0.000000  0.000000  0.000000  -43.69129994990161  16.810141875003882  9.829402568392656  51.832307593206906  16.991695599512095  20.530459239362813  73.40180360020945  59.280159260189166  -77.04427423595108  18.90812294417777  120.000000
9.7665  0.000000  0.000000  0.000000  -45.27827061130136  17.638850895202676  13.854201260565821  52.40273948200627  16.27674062310668  20.81451820617417  72.96078924439115  60.91590907772111  -77.72377435150568  18.5772419135123  120.000000
9.82395  0.000000  0.000000  0.000000  -46.620083862702415  18.153865564774318  17.365255371949466  52.80111606111344  15.496377527793173  20.87255743463061  72.51033628943402  62.159092639468305  -78.08500311014345  18.346385018646966  120.000000
9.8814  0.000000  0.000000  0.000000  -47.58972591761442  18.422224761689716  20.151809151608827  53.05437081992027  14.699239814662391  20.6934835295237  72.10402037032875  63.00726260264477  -78.14891363196294  18.218096054251077  120.000000
9.93885  0.000000  0.000000  0.000000  -48.0950229773261  18.51199207666415  22.057892906551036  53.19579747788921  13.932375391327934  20.28267676067671  71.78213807438812  63.467052500439664  -77.95247200770385  18.185955501467408  120.000000
9.9963  0.000000  0.000000  0.000000  -48.08660815621584  18.469343032135214  22.979637824436892  53.25289418947193  13.240380241051009  19.66532218381314  71.56326128098284  63.547168380917476  -77.53742505713076  18.231332461293686  120.000000
10.05375  0.000000  0.000000  0.000000  -47.5612932963402  18.30573136170953  22.862851664486783  53.237774366059305  12.661110539560813  18.8830537583721  71.44589759906495  63.254941303485886  -76.93756359989808  18.326065313593187  120.000000
10.1112  0.000000  0.000000  0.000000  -46.56381625780157  17.99339889020716  21.707937201620222  53.14341785528123  12.223465868289535  17.989248599750155  71.413139869076  62.596998202084364  -76.16389657394184  18.4395587390672  120.000000
10.16865  0.000000  0.000000  0.000000  -45.18919733491784  17.475026779282476  19.58198095569559  52.94383222061904  11.95018619226021  17.041744342779204  71.43378770388907  61.580799366942124  -75.19153713386471  18.543119142391873  120.000000
10.2261  0.000000  0.000000  0.000000  -43.579644161899445  16.686130361185995  16.624440917977406  52.60092705641838  11.860325632124317  16.09678335162907  71.4610386676578  60.21861718929795  -73.9600851462007  18.612689818400266  120.000000
10.28355  0.000000  0.000000  0.000000  -41.89837428575343  15.588175471358465  13.035704972712962  52.08264953761696  11.971355830976709  15.207346939092862  71.43688824005261  58.53415687289925  -72.39276458417321  18.63352940815269  120.000000
10.341000000000001  0.000000  0.000000  0.000000  -40.29319052418152  14.189898205387228  9.043502064703716  51.379006107436126  12.291417514296821  14.426845105515397  71.30513496898328  56.56351195563715  -70.42820792072929  18.609267957485866  120.000000
10.39845  0.000000  0.000000  0.000000  -38.868992204676715  12.555645560645731  4.862153417206247  50.50297611433722  12.810843373888384  13.800657333887107  71.01784824651297  54.345731445974884  -68.04422889714189  18.570282458423122  120.000000
10.4559  0.000000  0.000000  0.000000  -37.67738346099007  10.789471534280777  0.6681888015260699  49.4791581221299  13.497123989474048  13.35790301057196  70.54267588756268  51.911982955982346  -65.26974186019588  18.577643406071168  120.000000
10.51335  0.000000  0.000000  0.000000  -36.72114932509676  9.005666637888059  -3.402978901961393  48.33498002697577  14.303153801558844  13.109515137564953  69.86513031769633  49.281165104744815  -62.1751227997991  18.712001707554002  120.000000
10.5708  0.000000  0.000000  0.000000  -35.973000524630585  7.310105293229876  -7.247062589887229  47.09908080347246  15.182997519583617  13.046547110669888  68.9853642042999  46.46227342724284  -58.852785231965036  19.04647337899658  120.000000
10.62825  0.000000  0.000000  0.000000  -35.39496398579752  5.780799110428789  -10.780515091522572  45.8000453804769  16.10166922647966  13.146069279451067  67.9127935640207  43.45898789641777  -55.39649054580258  19.612669365084656  120.000000
10.6857  0.000000  0.000000  0.000000  -34.95200435918886  4.466001883891713  -13.938230870898542  44.47315494091164  17.036141026609826  13.374221342403768  66.66442012456767  40.279674287210995  -51.89044679929621  20.37912815567936  120.000000
10.74315  0.000000  0.000000  0.000000  -34.61431965749742  3.383756469571314  -16.676362756262442  43.166105707973614  17.969877103761267  13.689847593601801  65.26805902481789  36.944362847107314  -48.40728294393284  21.258493459482427  120.000000
10.8006  0.000000  0.000000  0.000000  -34.359886070922244  2.5216444381756413  -18.974370790415527  41.93148914626337  18.881130529218957  14.055138707459221  63.76693980601132  33.48807680169894  -45.01566526787678  22.138715654375442  120.000000
10.85805  0.000000  0.000000  0.000000  -34.17603119434782  1.845270659661393  -20.834068964098087  40.817501551367  19.741720112675583  14.442232710229707  62.22042847056308  29.963015165223553  -41.78690460521834  22.91623652582113  120.000000
10.9155  0.000000  0.000000  0.000000  -34.06134151197021  1.3122853530576408  -22.274968674175007  39.85618206509697  20.52702705007526  14.834489969671916  60.70067298703238  26.437419366039286  -38.80043556360322  23.51736087862327  120.000000
10.97295  0.000000  0.000000  0.000000  -34.01008946379873  0.9012691763852966  -23.332135062211776  39.074019343709665  21.241435004830514  15.209331292101368  59.291659249529694  22.990686258526253  -36.1426243668701  23.89906197024738  120.000000
11.0304  0.000000  0.000000  0.000000  -34.01955430125221  0.6052810862532054  -24.049290408617036  38.481736628009415  21.92378099221294  15.539823740594775  58.08757856983908  19.6996975987851  -33.906575113771545  24.03420418634885  120.000000
11.08785  0.000000  0.000000  0.000000  -34.11549596224808  0.4122760575495691  -24.473376692195096  38.039961601922  22.621081735499587  15.823259710931591  57.18405867486203  16.614490859035186  -32.172599957277846  23.89527572801929  120.000000
11.1453  0.000000  0.000000  0.000000  -34.34278756625075  0.31318063401513313  -24.657401380499113  37.670099279620075  23.369510904195092  16.092541611384732  56.71247040312059  13.76446120993805  -31.03513364387634  23.45579089268049  120.000000
11.20275  0.000000  0.000000  0.000000  -34.747191148663845  0.29463545294887494  -24.644219658688893  37.32864122185162  24.196600361611022  16.372703462569795  56.962223690145045  11.190796618679585  -30.744690296512587  22.690965023214254  120.000000
11.260200000000001  0.000000  0.000000  0.000000  -35.352850311781395  0.34451030100486457  -24.45422228747698  37.044514425700456  25.118037655957647  16.638237052559365  58.570893205926616  8.936947368971376  -31.907094303802946  21.585280956452618  120.000000
11.31765  0.000000  0.000000  0.000000  -36.15381383193879  0.4275880690813409  -24.1148985606313  36.86882664763725  26.119730968918315  16.850746157530228  62.6976619077729  7.034975530672429  -35.66013220027551  20.127958362444446  120.000000
11.3751  0.000000  0.000000  0.000000  -37.11483696202203  0.48511052311504127  -23.681788818096265  36.83082980337295  27.14328142425784  17.006501273649743  71.3024184583697  5.519907595516602  -43.946253782859614  18.33685503442229  120.000000
11.43255  0.000000  0.000000  0.000000  -38.18372433804428  0.4466380203686362  -23.23090513958395  36.931390235103315  28.10241511957778  17.128909586930032  86.99359597320348  4.480941887288881  -59.35448876643073  16.285701884251665  120.000000
11.49  0.000000  0.000000  0.000000  -39.29227534104189  0.2610868856474951  -22.848298794677337  37.1720265066336  28.908128026001712  17.24001714343515  110.51243355857353  4.143439674963561  -82.59446483242137  14.134974368775953  120.000000
