Simulation
nRows=201
nColumns=15
endheader
time  TH_x TH_y TH_z SC_y  SC_z  SC_x  AC_y  AC_z  AC_x  GH_y  GH_z  GH_yy  EL_x  PS_y
0.0  0.000000  0.000000  0.000000  -40.97484877243665  6.293857566463187  5.290427962726946  39.8094265218859  -1.2526270376026962  -6.352828085565097  77.64418552330308  6.9166343582428755  -48.15628106622137  22.574968894668338  120.000000
0.05745  0.000000  0.000000  0.000000  -39.51004889564885  4.858302950227978  3.7874479560545935  40.707047888713156  -1.439457527145733  -5.352409353077394  42.910419441066566  7.567476353187027  -15.925920194827341  22.018044985459515  120.000000
0.1149  0.000000  0.000000  0.000000  -38.09345716547039  3.275127307691719  2.1261991574261354  41.673726366817924  -1.7677133269301646  -4.25677611106557  20.162736612954653  9.993351786245858  4.329273649494209  21.633249908778204  120.000000
0.17235  0.000000  0.000000  0.000000  -36.78570254043978  1.6307709195609865  0.30198551030953436  42.69610769937514  -2.1504325533519317  -2.973410239020647  7.1536825455141395  13.173931107487284  14.831651834304562  21.50145915053768  120.000000
0.2298  0.000000  0.000000  0.000000  -35.63009062370411  -0.011354932313390752  -1.663866238414487  43.78660391932311  -2.4625915321294642  -1.4416305841967885  -0.9363298688046351  16.716080373523184  20.391429704480814  21.628627754811482  120.000000
0.28725  0.000000  0.000000  0.000000  -34.654211642570246  -1.5728714585561738  -3.7413385930210206  44.953182859478794  -2.576760153109218  0.34321517481748715  -6.434255589256631  20.51880908073601  23.341015054204718  21.95707529175101  120.000000
0.3447  0.000000  0.000000  0.000000  -33.89742016794599  -2.96215704107953  -5.868239688576841  46.171810831192154  -2.403402701067184  2.314918089030924  -10.36112349297914  24.542733654172512  24.723217705314365  22.392669611160482  120.000000
0.40215  0.000000  0.000000  0.000000  -33.418320127900856  -4.097249807582139  -7.965554465865944  47.38985840145903  -1.8953802377957483  4.363215696541925  -13.214602246764585  28.73309006904415  25.070659980296337  22.82409876130207  120.000000
0.4596  0.000000  0.000000  0.000000  -33.27828244559969  -4.8964399574667485  -9.959143528646326  48.556528454259926  -1.0432446516037952  6.382142435104609  -15.270949240599657  32.99889469621024  24.70741205309133  23.156544300725404  120.000000
0.51705  0.000000  0.000000  0.000000  -33.52921477604057  -5.286871805255807  -11.769151721717128  49.63713076779447  0.12767916648875968  8.2985524877614  -16.709821897856752  37.222803091091315  23.865287672289554  23.32693065097819  120.000000
0.5745  0.000000  0.000000  0.000000  -34.19897803941238  -5.228789028061957  -13.326524987167618  50.63136948725686  1.581390357221192  10.080253545884265  -17.656755869159877  41.28317377093386  22.71517248256649  23.311017828702592  120.000000
0.63195  0.000000  0.000000  0.000000  -35.287829391520425  -4.73174560054349  -14.606177258268106  51.56838512163917  3.3017839722365467  11.74862794094446  -18.185804549209443  45.067446185085885  21.357231031824185  23.119824425768364  120.000000
0.6894  0.000000  0.000000  0.000000  -36.74972138689355  -3.8560910103664603  -15.592976174187983  52.48610088827674  5.274375776770555  13.33567718697988  -18.339046126803748  48.475550627111126  19.827748418465447  22.79008961339151  120.000000
0.74685  0.000000  0.000000  0.000000  -38.4647069325927  -2.7020642172501397  -16.238894464034544  53.40834553520319  7.467900977522652  14.833670068009775  -18.18247338743785  51.41849158552322  18.136104812256367  22.36293658245564  120.000000
0.8043  0.000000  0.000000  0.000000  -40.25485296224811  -1.3862195061892364  -16.481158158377163  54.3306250531388  9.835948243645383  16.202431657215627  -17.82535904094445  53.81960293517309  16.291865130876857  21.873170075565202  120.000000
0.86175  0.000000  0.000000  0.000000  -41.9462196338853  -0.01102696652439962  -16.264737451822384  55.230816821824924  12.301697264117676  17.389432522918167  -17.37960447015646  55.642388383127006  14.302607516022471  21.352353541260847  120.000000
0.9192  0.000000  0.000000  0.000000  -43.41938731660206  1.3517952452266688  -15.551569196824024  56.07283652250761  14.756905140431526  18.360095806215554  -16.92238374342103  56.91559809801879  12.18486124221578  20.829669274500205  120.000000
0.97665  0.000000  0.000000  0.000000  -44.63165315340785  2.6684414397997593  -14.332585192728205  56.8212526137399  17.076001131061762  19.111329278115  -16.48508239952827  57.73445202330205  9.983686142279508  20.327901052947716  120.000000
1.0341  0.000000  0.000000  0.000000  -45.606901848126974  3.9359588009246456  -12.631879546661898  57.448653603929316  19.139621599952886  19.671591538372937  -16.062415863617474  58.23214984183182  7.7850400855262984  19.860181931226766  120.000000
1.09155  0.000000  0.000000  0.000000  -46.40733955167598  5.160056146025986  -10.507956933703316  57.933357417330804  20.85490979887607  20.093058460921807  -15.632292835790965  58.5427418321878  5.708297539066814  19.428408616771005  120.000000
1.149  0.000000  0.000000  0.000000  -47.1038824529413  6.3416081164216385  -8.0557256293307  58.263242441787455  22.168374472243222  20.43053114445938  -15.172687217984839  58.77137931900575  3.8777869341157154  19.02765931211966  120.000000
1.20645  0.000000  0.000000  0.000000  -47.75416386493615  7.465270877257133  -5.401312982094948  58.43923021158213  23.070785717054992  20.726731351424306  -14.670074691569457  58.9852953711594  2.385761705094206  18.6523530468175  120.000000
1.2639  0.000000  0.000000  0.000000  -48.38833164047579  8.501341667274794  -2.693222112302648  58.48189312906807  23.59507404851948  20.998385209464097  -14.125966483609716  59.21465637530895  1.2654066044936523  18.30017544654698  120.000000
1.32135  0.000000  0.000000  0.000000  -49.00622337688033  9.410260856624484  -0.08883919886831117  58.43074308542712  23.806046282361034  21.23664277023339  -13.556930843165794  59.46316783464889  0.4833695067670632  17.974265315601613  120.000000
1.3788  0.000000  0.000000  0.000000  -49.57947919707627  10.15113521159153  2.258228776701061  58.33816649457717  23.78626718836934  21.414129500244897  -12.99364015597111  59.71807046464237  -0.043752206508234595  17.681707667615328  120.000000
1.43625  0.000000  0.000000  0.000000  -50.06217899957428  10.690988373528924  4.207457388855572  58.25897156060268  23.618306602421733  21.49861421433235  -12.47457440105489  59.959507270122764  -0.4210465502549686  17.431531035802514  120.000000
1.4937  0.000000  0.000000  0.000000  -50.40494850782931  11.009924041480348  5.638122479979119  58.24095824973013  23.36951873110317  21.464425200357848  -12.040496646408043  60.16539893174406  -0.7458271173464355  17.232403314743927  120.000000
1.55115  0.000000  0.000000  0.000000  -50.56911387647298  11.10358296000817  6.455296520072164  58.3188596483173  23.080445646575985  21.300068856670404  -11.728715792317024  60.3142352485955  -1.0866438457248007  17.09087925102348  120.000000
1.6086  0.000000  0.000000  0.000000  -50.5371199947359  10.97985249046898  6.597661968099123  58.51162878758647  22.7587686052802  21.013200820406066  -11.566793925875434  60.38890436159995  -1.4754536567652077  17.010622640861943  120.000000
1.66605  0.000000  0.000000  0.000000  -50.31558443206784  10.654668870598805  6.045792488236772  58.820243652368  22.378155577306835  20.63363648625414  -11.567024306018  60.38240668399915  -1.9094863291852162  16.991371788575417  120.000000
1.7235  0.000000  0.000000  0.000000  -49.93130568890995  10.145821709739009  4.830884586318134  59.227230089268836  21.88216260320879  20.212781425012682  -11.722874065159413  60.3059001747913  -2.3601607384684793  17.02630712650701  120.000000
1.78095  0.000000  0.000000  0.000000  -49.41945233736437  9.469925443240708  3.040101519424054  59.697233220801664  21.193012316141502  19.815970116347064  -12.012521303559732  60.192286590073735  -2.7826701929097784  17.09970273370122  120.000000
1.8384  0.000000  0.000000  0.000000  -48.808983717643  8.641257169805247  0.8154313805889573  60.18156367771203  20.22358147610953  19.506536802162813  -12.409288170676875  60.09182916732146  -3.1274870020141514  17.187871566753888  120.000000
1.89585  0.000000  0.000000  0.000000  -48.107522633703496  7.671983503092023  -1.6565910554258976  60.624027246141885  18.892048190565454  19.325443271029386  -12.896613064433563  60.05612512624522  -3.3512448649891335  17.26477834639121  120.000000
1.9533  0.000000  0.000000  0.000000  -47.29437571873017  6.570779920040817  -4.163963650375711  60.968328133234685  17.138573433043938  19.273967688727137  -13.478107604720428  60.11716071979463  -3.4313088945028065  17.309280896201724  120.000000
2.01075  0.000000  0.000000  0.000000  -46.32266121293329  5.3426019574789665  -6.4923330162493125  61.16532702160826  14.941385872546851  19.305114570228316  -14.179816589931399  60.264460142947414  -3.3766748157324145  17.311118775036434  120.000000
2.0682  0.000000  0.000000  0.000000  -45.133741099884055  3.987575405238978  -8.446531202735775  61.18016524640837  12.327334921380514  19.329182511722617  -15.040215435962898  60.42978770261561  -3.2313469955974874  17.269912142392982  120.000000
2.1256500000000003  0.000000  0.000000  0.000000  -43.68444976214689  2.5092708693152463  -9.866754470288713  60.99493552370163  9.369317073631132  19.230623157149743  -16.09192036343842  60.48591141317001  -3.0591289082961546  17.188047210731654  120.000000
2.1831  0.000000  0.000000  0.000000  -41.98333644907772  0.9303092996008197  -10.637477339778  60.60797581629908  6.171613433695123  18.89257306108375  -17.332953770206284  60.272102889407414  -2.914415211065416  17.06141175680883  120.000000
2.24055  0.000000  0.000000  0.000000  -40.119841367663234  -0.6878423862011929  -10.693003055256018  60.03162465206835  2.8491561744216547  18.221667814939487  -18.692825798272583  59.64350892513266  -2.8111031426348854  16.87849129193558  120.000000
2.298  0.000000  0.000000  0.000000  -38.26277784309245  -2.2462720024411142  -10.024525618610522  59.293849952806745  -0.49145929189523146  17.163663047071555  -20.017543918182362  58.51449936871961  -2.708096087398492  16.627150341473712  120.000000
2.3554500000000003  0.000000  0.000000  0.000000  -36.61290180242022  -3.6429311291678808  -8.688124157886842  58.43026724698262  -3.7702555260784583  15.709072312633918  -21.11734590534247  56.85893938199564  -2.5092140174612294  16.298758368646336  120.000000
2.4129  0.000000  0.000000  0.000000  -35.32875451517383  -4.809074260051907  -6.793692220102227  57.46209139879963  -6.930864421232085  13.882410907719333  -21.86547397640949  54.68914573422845  -2.0696208791896624  15.892286901191461  120.000000
2.47035  0.000000  0.000000  0.000000  -34.453499016982526  -5.709837494003368  -4.47363439451252  56.39604053648037  -9.92136400161184  11.728092815478316  -22.252886276434005  52.054868100409  -1.227279837099878  15.417996286840102  120.000000
2.5278  0.000000  0.000000  0.000000  -33.91520993487152  -6.337425530021153  -1.8547822966515757  55.24701753284627  -12.689271881452006  9.312098304326645  -22.353888431221538  49.052714602819634  0.1515190083335118  14.910210191218287  120.000000
2.5852500000000003  0.000000  0.000000  0.000000  -33.59601622858823  -6.712132861753962  0.9479460719273499  54.04961946534956  -15.189520438878562  6.723967001112303  -22.25761297292475  45.82311623081233  2.1310487886587  14.42832461637411  120.000000
2.6427  0.000000  0.000000  0.000000  -33.402738338112364  -6.876970093884541  3.8270328377029026  52.86080529903771  -17.3953181162671  4.0745555211304625  -22.01841351252987  42.531045457885504  4.675890348793962  14.03986397637547  120.000000
2.70015  0.000000  0.000000  0.000000  -33.29011913814214  -6.889846583205924  6.678051547217145  51.74769355935264  -19.305668850070774  1.4883477183969123  -21.643771717104112  39.33529458487119  7.640286606581213  13.79809782344513  120.000000
2.7576  0.000000  0.000000  0.000000  -33.246037076687024  -6.80876347241404  9.398612902487534  50.76784319896505  -20.940376003755365  -0.9162303895632982  -21.114524068536916  36.363258587369714  10.787747132427516  13.727171519586534  120.000000
2.8150500000000003  0.000000  0.000000  0.000000  -33.265884061564435  -6.677926126007513  11.89652589548452  49.955072078741786  -22.324820973698916  -3.044618475749014  -20.415289447162507  33.69944325375676  13.84088515990659  13.824702256581725  120.000000
2.8725  0.000000  0.000000  0.000000  -33.337070470635815  -6.525735769357231  14.096616084558121  49.31898975922513  -23.478688794364903  -4.835381384161552  -19.553238120142353  31.383608720475753  16.543720370762937  14.071597203918449  120.000000
2.92995  0.000000  0.000000  0.000000  -33.44007304569054  -6.370486621171699  15.949596310474002  48.85214299322562  -24.41834584139352  -6.263414181398291  -18.561196132593384  29.416522748242855  18.714492693975888  14.438797922169725  120.000000
2.9874  0.000000  0.000000  0.000000  -33.55485570062274  -6.219129014557185  17.43890539347471  48.5336895756356  -25.15814479705638  -7.33765351889183  -17.499196823708743  27.777542437495953  20.280525616615332  14.888849879908868  120.000000
3.0448500000000003  0.000000  0.000000  0.000000  -33.66773374502001  -6.069139531809252  18.577314700480162  48.33748936330344  -25.710112400050217  -8.092335384271644  -16.44540634763383  26.44098713931363  21.275481684663838  15.378441882606815  120.000000
3.1023  0.000000  0.000000  0.000000  -33.772107229594084  -5.914443434633526  19.4011867564193  48.2372921692726  -26.088385388371552  -8.577207796078051  -15.480645731101681  25.38168164801658  21.80914273224524  15.865408077359556  120.000000
3.15975  0.000000  0.000000  0.000000  -33.868687011558464  -5.750511966183065  19.96320217346882  48.2085437717106  -26.313844882662973  -8.849706837146844  -14.668455439714585  24.575559088282517  22.02518154699894  16.319169095410285  120.000000
3.2172  0.000000  0.000000  0.000000  -33.9588769846853  -5.579246539127225  20.325065558185486  48.227954740093175  -26.41838535400306  -8.970059570995872  -14.039976004079513  23.996748019703137  22.064829693080167  16.728042579848996  120.000000
3.2746500000000003  0.000000  0.000000  0.000000  -34.04085772621518  -5.410986131568165  20.551789380943728  48.27154274402408  -26.447551908535615  -8.997286199658651  -13.581598525724088  23.61477846356241  22.03526612890864  17.098872502157665  120.000000
3.3321  0.000000  0.000000  0.000000  -34.10853992790135  -5.263324578392865  20.702493081983715  48.31621224859733  -26.44886380659082  -8.987815388539232  -13.24079070838416  23.391508630303385  21.997443705826303  17.44917730493926  120.000000
3.38955  0.000000  0.000000  0.000000  -34.1572150179729  -5.153464902543545  20.813905690851783  48.3509770839357  -26.448802287527222  -8.978390621570487  -12.954054454879842  23.279489040678623  21.977709050033116  17.79658583137449  120.000000
3.447  0.000000  0.000000  0.000000  -34.18805900081349  -5.087222576602208  20.89841629713159  48.38058607563243  -26.451620177064306  -8.975375152205576  -12.673504049936623  23.230048953245156  21.983657465043844  18.15151132709194  120.000000
3.5044500000000003  0.000000  0.000000  0.000000  -34.20723456322286  -5.0568909786053045  20.958795507068324  48.41408171318611  -26.453936139462026  -8.96927044891376  -12.375069470275994  23.20448133267543  22.012499720131487  18.516416386921563  120.000000
3.5619  0.000000  0.000000  0.000000  -34.22372411157746  -5.044276391614887  20.992873801772376  48.46196753655522  -26.448791581769136  -8.940875368546672  -12.061633750208443  23.176943436553046  22.063127989151507  18.888382676012395  120.000000
3.61935  0.000000  0.000000  0.000000  -34.24649810751198  -5.026631500250312  20.9939801852077  48.5359070403871  -26.426382819051593  -8.864845229050136  -11.756998244820602  23.132818004329387  22.142665844934903  19.262910988549983  120.000000
3.6768  0.000000  0.000000  0.000000  -34.28165379513807  -4.984812853424487  20.95416354001876  48.64448508003171  -26.377835091899858  -8.719340957762196  -11.489819075257692  23.066747916605436  22.26106171255999  19.636999918643077  120.000000
3.7342500000000003  0.000000  0.000000  0.000000  -34.33128718575472  -4.907924490537858  20.863357130063925  48.79284747723454  -26.296039710216885  -8.488039435841905  -11.283901663379714  22.980686052498115  22.427940189764172  20.010138652248674  120.000000
3.7917  0.000000  0.000000  0.000000  -34.394032499789695  -4.795350343900942  20.70757788586086  48.98418323714417  -26.173062698762365  -8.159865848644476  -11.15402340593573  22.883223447219418  22.651098458714802  20.383653193690396  120.000000
3.84915  0.000000  0.000000  0.000000  -34.46563346679687  -4.655820226261993  20.46917754313482  49.220567404089685  -25.999210718401226  -7.72835455510066  -11.10881664930046  22.79152234245602  22.94048851664979  20.75940047619172  120.000000
3.9066  0.000000  0.000000  0.000000  -34.54008091723379  -4.503562836303669  20.129223814740104  49.502955249414214  -25.76756947618433  -7.188819650809137  -11.157823267411583  22.73633721285545  23.31451075186219  21.137625482906767  120.000000
3.9640500000000003  0.000000  0.000000  0.000000  -34.61050720199871  -4.355350932050856  19.668799095938837  49.831000099981885  -25.476360670203977  -6.536790402301392  -11.314831728534896  22.763922556618756  23.801346535951506  21.51614529709059  120.000000
4.0215  0.000000  0.000000  0.000000  -34.671877452481624  -4.2301586150574115  19.06794626578273  50.20271530153606  -25.127182375434618  -5.768652370198138  -11.589760207270091  22.933586374061523  24.42508596539315  21.89029219265828  120.000000
4.07895  0.000000  0.000000  0.000000  -34.72241884695085  -4.147256874212277  18.304503136277077  50.61430938389175  -24.72316411463097  -4.880833501211994  -11.974498217700466  23.310974857889672  25.182803107292944  22.252535610533553  120.000000
4.1364  0.000000  0.000000  0.000000  -34.75931791642344  -4.126178062873805  17.353578732437487  51.064145669814486  -24.266413743561852  -3.8647807515272294  -12.427566464330468  23.955734507315  26.019439530641286  22.590691127096562  120.000000
4.19385  0.000000  0.000000  0.000000  -34.7757748108412  -4.185589280999766  16.194294662843898  51.559010873463386  -23.75837568573658  -2.705584931438744  -12.868264306751325  24.909566206741566  26.817125973290985  22.886578842112247  120.000000
4.2513000000000005  0.000000  0.000000  0.000000  -34.769373108959606  -4.336343052022227  14.81830546396348  52.11413755366288  -23.197222366914843  -1.3846732906327148  -13.192032871180313  26.19158166802602  27.415394291231955  23.119106997926036  120.000000
4.30875  0.000000  0.000000  0.000000  -34.74982544176599  -4.5727881374342125  13.234298078643782  52.75453478402711  -22.570530712658705  0.11830542922710237  -13.300122690373176  27.798910432640103  27.65359185008266  23.271678102150297  120.000000
4.3662  0.000000  0.000000  0.000000  -34.7398117299342  -4.863557020505008  11.473620470745606  53.51659090525593  -21.85019116340355  1.823469124743831  -13.127006289740097  29.707882274278305  27.41110769560277  23.344206377061834  120.000000
4.42365  0.000000  0.000000  0.000000  -34.772495243336294  -5.142559104179709  9.59448300914065  54.44009641295005  -20.99312975591645  3.744325052143692  -12.658661355181396  31.87629253842169  26.635335787749096  23.361158738222624  120.000000
4.4811  0.000000  0.000000  0.000000  -34.910540352705816  -5.3045497508516934  7.67536218561218  55.55979102164749  -19.95183373870772  5.882442762183975  -11.907446413084942  34.24953271472505  25.319754485142553  23.37098716799509  120.000000
4.53855  0.000000  0.000000  0.000000  -35.25100178494907  -5.224976693269628  5.8013482391844775  56.89305338405095  -18.67047976985063  8.217999471778253  -10.877916734120081  36.75373312932238  23.47218029731213  23.43317343513563  120.000000
4.596  0.000000  0.000000  0.000000  -35.866561779340785  -4.789390625105939  4.062004248098  58.433737057125  -17.079188800788582  10.698410755903978  -9.586160595912151  39.282829683382495  21.123589898072076  23.5945065753973  120.000000
4.65345  0.000000  0.000000  0.000000  -36.736377964595775  -3.9045529205754526  2.55744623722711  60.148777117457655  -15.116011813870632  13.243966211170374  -8.104441309890671  41.71229827878172  18.350299514008253  23.860312248528235  120.000000
4.7109000000000005  0.000000  0.000000  0.000000  -37.74244905750133  -2.5211474228780424  1.3836645641203922  61.95267816510211  -12.74510422531037  15.748353807233384  -6.578903510859671  43.917717045947384  15.280761572025853  24.174748528521413  120.000000
4.76835  0.000000  0.000000  0.000000  -38.747213960691894  -0.663993250701544  0.5986429921418602  63.70363283017434  -9.96858409115527  18.08592683287027  -5.187149500524969  45.78865243546285  12.064903588518353  24.44571478697329  120.000000
4.8258  0.000000  0.000000  0.000000  -39.66442091621998  1.5702737547984977  0.21475070302967458  65.25489068084397  -6.8333137654308  20.159987102834595  -4.045740528383691  47.24733468743517  8.816164083373739  24.59000258497593  120.000000
4.88325  0.000000  0.000000  0.000000  -40.49215218243914  4.044284441636001  0.2128506145148207  66.50401638288702  -3.41873871941984  21.937638487847142  -3.147935165988246  48.28013317112004  5.5751576164279  24.561079696279666  120.000000
4.9407  0.000000  0.000000  0.000000  -41.308476081345255  6.6232400545671375  0.5618614101997731  67.39132353511502  0.18021184365982854  23.43863449450353  -2.399158531415528  48.94226949039536  2.3377624490914903  24.351433425517794  120.000000
4.99815  0.000000  0.000000  0.000000  -42.21739121149982  9.188363021743125  1.240767245612432  67.88146275732753  3.8605138729868838  24.715694735933315  -1.6881903430622245  49.32415122882478  -0.8996165535425479  23.97443755292295  120.000000
5.0556  0.000000  0.000000  0.000000  -43.29474802859655  11.62261706854298  2.2436973444082686  67.9605680132545  7.508475166009214  25.832196974394655  -0.9491898824809177  49.51361003538276  -4.101236303597857  23.451239107029693  120.000000
5.11305  0.000000  0.000000  0.000000  -44.57381111802286  13.80210638267064  3.567427824192374  67.64276315065229  10.989067497928982  26.84181802643847  -0.18786512754153437  49.576578299134745  -7.178429486992303  22.80873309247324  120.000000
5.1705000000000005  0.000000  0.000000  0.000000  -46.04278569444042  15.60814930758867  5.197505286056774  66.99223112825578  14.151830865020736  27.777984825812116  0.5495686724839414  49.56288549485753  -10.02009957586717  22.0874957067201  120.000000
5.22795  0.000000  0.000000  0.000000  -47.642404980784285  16.960397217186948  7.0916758742766275  66.13372952880196  16.8604079821846  28.6452049285329  1.2252214587458308  49.521180458612  -12.540577256457983  21.34528147110753  120.000000
5.2854  0.000000  0.000000  0.000000  -49.27774039216221  17.844273866453747  9.158643038077422  65.2210356201825  19.019884639163223  29.419005670882637  1.8190700879191133  49.50673235260719  -14.70288239206925  20.64071476526355  120.000000
5.34285  0.000000  0.000000  0.000000  -50.830549814861634  18.315670093152477  11.248754635054786  64.39427921849654  20.594937560122084  30.05542948805925  2.316281705283595  49.572203185831356  -16.51356447311432  20.016370178032464  120.000000
5.4003  0.000000  0.000000  0.000000  -52.17128293203347  18.48241985689615  13.166958619975604  63.75787081114202  21.609950272999185  30.508104872074412  2.6981009227175003  49.75684204672613  -18.004648465183273  19.491847668283437  120.000000
5.45775  0.000000  0.000000  0.000000  -53.17615830209538  18.470086439300495  14.703881862722541  63.373926072683695  22.12986304747432  30.744409754202657  2.9382449010874194  50.07796208824456  -19.21208635529245  19.067340948083004  120.000000
5.5152  0.000000  0.000000  0.000000  -53.7459872009885  18.38769784419048  15.668219955716026  63.27168054969587  22.231405078793877  30.750896266223304  3.0096659165340753  50.532692635326825  -20.161781500974246  18.736533318153253  120.000000
5.57265  0.000000  0.000000  0.000000  -53.81539511087071  18.29659206476066  15.910097537557753  63.45547431176702  21.979515879159237  30.537175371227367  2.8923148666361462  51.101937725149675  -20.860754396542603  18.49923947437528  120.000000
5.6301000000000005  0.000000  0.000000  0.000000  -53.3575100059236  18.191999308235733  15.333612468551141  63.90907103422288  21.413062169788155  30.135805877604618  2.5790528243895166  51.75487383273653  -21.292161146168784  18.368515713230483  120.000000
5.68755  0.000000  0.000000  0.000000  -52.38786787264924  17.997584100864294  13.907464047274413  64.5931426079301  20.539968496294698  29.60020879007593  2.0752956660889446  52.449797434589215  -21.41027074785138  18.36814839755633  120.000000
5.745  0.000000  0.000000  0.000000  -50.970568225329686  17.578271233395  11.677773429466216  65.43815057365852  19.340989682906766  28.996306598515453  1.3930607837775317  53.13344511432164  -21.139364161781938  18.518233176665262  120.000000
5.80245  0.000000  0.000000  0.000000  -49.22522194857974  16.7743014867927  8.78052724765863  66.33676434322707  17.779362527389637  28.38745920858332  0.5422478648706791  53.743501045655286  -20.383598677195533  18.81283642953917  120.000000
5.8599  0.000000  0.000000  0.000000  -47.31700188317915  15.451740036152415  5.443346152558427  67.14449837722492  15.819553171465369  27.82122629632612  -0.4694042862148834  54.21669397582957  -19.05450869134691  19.201684199669366  120.000000
5.91735  0.000000  0.000000  0.000000  -45.422336503605386  13.560987281964888  1.959609703843875  67.70572948361541  13.451722818577153  27.31262035310836  -1.6240539892120125  54.50365356550833  -17.111752709819893  19.59633787785552  120.000000
5.9748  0.000000  0.000000  0.000000  -43.68246863049244  11.163786115610545  -1.3626236268858447  67.89152504663123  10.708495402087205  26.83292258876807  -2.888085311160705  54.57491972183685  -14.594739259512073  19.894367738716824  120.000000
6.03225  0.000000  0.000000  0.000000  -42.167012093253575  8.414867840990425  -4.258027746222656  67.63724039948181  7.662458352327244  26.30595578448783  -4.221415294083649  54.41205948882943  -11.628342721917644  20.009639345211088  120.000000
6.089700000000001  0.000000  0.000000  0.000000  -40.858586177603165  5.506488059638195  -6.5314651603915665  66.95584813350558  4.417039260582745  25.624429793729313  -5.601031496591428  53.97649218066873  -8.394450830332431  19.892830292301973  120.000000
6.14715  0.000000  0.000000  0.000000  -39.67279030874408  2.626953881139315  -8.05253879050038  65.92312611080777  1.0962498155097231  24.68359038913639  -7.031965019742319  53.19245454296515  -5.08583600032287  19.536259900674107  120.000000
6.2046  0.000000  0.000000  0.000000  -38.513744228616446  -0.03963690637260775  -8.735682687319489  64.65254156242287  -2.1682031975096074  23.419996911326916  -8.5085808916913  51.96986651183998  -1.876607469687775  18.96159464429304  120.000000
6.26205  0.000000  0.000000  0.000000  -37.36198450466199  -2.305739116509401  -8.549628604629067  63.27420294459503  -5.262275009603657  21.83035092660958  -9.948401884190766  50.259918603020814  1.0867923809146358  18.220852190338636  120.000000
6.3195  0.000000  0.000000  0.000000  -36.31798142713397  -4.011559990151584  -7.546892349122659  61.90497083662197  -8.114804202205608  19.965144124307713  -11.174137806336406  48.08543301438748  3.691022877981643  17.39776644338212  120.000000
6.37695  0.000000  0.000000  0.000000  -35.52671196081797  -5.09514089878636  -5.857191451084686  60.6281833425087  -10.695305120761635  17.907834839512446  -11.971680798355505  45.52256706973063  5.868658446626591  16.600593937972093  120.000000
6.4344  0.000000  0.000000  0.000000  -35.05434469195972  -5.619913544252428  -3.6520008300368496  59.479162417656305  -12.995329394291032  15.7341233068519  -12.204854949557582  42.67349668247333  7.619833732701767  15.92955891296014  120.000000
6.49185  0.000000  0.000000  0.000000  -34.8458959778391  -5.723530525691863  -1.1127249879879182  58.443516606855674  -15.01510924700458  13.489331628700894  -11.894626036202487  39.65590769112848  9.016827504717003  15.43859326256081  120.000000
6.549300000000001  0.000000  0.000000  0.000000  -34.79162663792003  -5.561012874092431  1.5892896969234849  57.49138686126971  -16.762037257224108  11.207310514610613  -11.162228982676373  36.596546342517726  10.158198738093327  15.158977576637792  120.000000
6.60675  0.000000  0.000000  0.000000  -34.80618303977211  -5.274699525968788  4.305520950571061  56.59649345047225  -18.25535917673195  8.926974349278924  -10.138229348947032  33.62228243410857  11.11188822308642  15.103163558658997  120.000000
6.6642  0.000000  0.000000  0.000000  -34.85134891557004  -4.96910198312983  6.915426363726787  55.74078546597574  -19.528330771861445  6.688981250844645  -8.942210765316947  30.854584671939246  11.910088796966154  15.259294429540024  120.000000
6.72165  0.000000  0.000000  0.000000  -34.90432797958493  -4.702446946981613  9.33645419808717  54.9150241053253  -20.63033156161484  4.540547974162884  -7.705512873573769  28.393923965670087  12.588672018450197  15.591635996851746  120.000000
6.7791  0.000000  0.000000  0.000000  -34.941876581659805  -4.501107121696705  11.519935329256267  54.117277226463024  -21.608954550935284  2.526614964419987  -6.564136654428483  26.302598998640573  13.20431922243809  16.042191026704426  120.000000
6.83655  0.000000  0.000000  0.000000  -34.94963027524796  -4.377014877319635  13.43584439755455  53.35013141630786  -22.481491522550115  0.6733252196272687  -5.629195143762898  24.593766250505627  13.82408629894484  16.536321852682104  120.000000
6.894  0.000000  0.000000  0.000000  -34.92544822797328  -4.330059987862815  15.068007196646192  52.62018595905594  -23.24549482580299  -1.0038093563371586  -4.967376506628339  23.24145434051265  14.505749407958024  16.98862012371743  120.000000
6.95145  0.000000  0.000000  0.000000  -34.87381992606951  -4.351684438890468  16.418749591009046  51.939499768491075  -23.901666584051057  -2.492491446090705  -4.591505974207149  22.196668248023446  15.274786419338445  17.320273199636286  120.000000
7.008900000000001  0.000000  0.000000  0.000000  -34.80069175757968  -4.42678562738899  17.5101303987385  51.319322530164904  -24.455522720197926  -3.789281650396446  -4.474937605410572  21.398823910700173  16.11942178924344  17.485744244103874  120.000000
7.06635  0.000000  0.000000  0.000000  -34.714576347778525  -4.532631777011259  18.377050259074704  50.766203028034  -24.915691056285443  -4.899206705411281  -4.575364697288578  20.792516658260894  17.00024464706004  17.494336661558126  120.000000
7.1238  0.000000  0.000000  0.000000  -34.62437231242129  -4.646031312748909  19.059408646416298  50.28247358360805  -25.292113440022263  -5.833049705274815  -4.8443510085646695  20.336184061225946  17.858211192245015  17.406161769742624  120.000000
7.18125  0.000000  0.000000  0.000000  -34.53987673430352  -4.748609657801287  19.59527193265475  49.86934647144505  -25.595106976494307  -6.604660508159964  -5.227237159364437  20.00158453663746  18.624181554040284  17.30630477669647  120.000000
7.2387  0.000000  0.000000  0.000000  -34.46865260315787  -4.829135396842814  20.017416510334453  49.5266228996412  -25.83479117842485  -7.229331834343758  -5.672414075205054  19.76906750417069  19.241509835112712  17.269009029514095  120.000000
7.29615  0.000000  0.000000  0.000000  -34.41438036384302  -4.884124346661784  20.35157248168524  49.252497739975624  -26.020815180791836  -7.7231116349361555  -6.140698415397217  19.623792418995567  19.686459099966324  17.331079500292923  120.000000
7.3536  0.000000  0.000000  0.000000  -34.37704534431719  -4.915991182327896  20.616277652287916  49.042714570913816  -26.162056353821054  -8.102382747699084  -6.61096428653024  19.552880675835627  19.975600680467295  17.486271896659062  120.000000
7.41105  0.000000  0.000000  0.000000  -34.35402501998867  -4.930673591734856  20.823924259812237  48.890355758311614  -26.26650984501942  -8.383923064798644  -7.080570642009879  19.544506386166283  20.15788339756664  17.70129851961718  120.000000
7.468500000000001  0.000000  0.000000  0.000000  -34.3414514918142  -4.9349314173448295  20.982729832477176  48.786031970077275  -26.341296763789565  -8.584616777142518  -7.559085175693216  19.587139666044283  20.294708526405373  17.937976833961834  120.000000
7.52595  0.000000  0.000000  0.000000  -34.33552112396831  -4.934534253104374  21.09864035209933  48.71907876281736  -26.392653575353464  -8.72086716933437  -8.058930995373018  19.669515216830096  20.43837754922426  18.169901982999303  120.000000
7.5834  0.000000  0.000000  0.000000  -34.3333370792766  -4.933165066727923  21.176866880300214  48.67869634593901  -26.42589384924596  -8.807737241329468  -8.588170667023116  19.78070322688512  20.61901845536138  18.38800969361001  120.000000
7.64085  0.000000  0.000000  0.000000  -34.33282576908086  -4.932476839743263  21.222908474691323  48.65546574006444  -26.44552647296606  -8.858372332037815  -9.148340309942357  19.91083362657242  20.844237183159972  18.595853376853558  120.000000
7.6983  0.000000  0.000000  0.000000  -34.332274250609764  -4.93235738235  21.243156422403935  48.64167567147268  -26.45530747968064  -8.883875627055296  -9.736418251919797  20.051384323851487  21.10731491345719  18.800860832581115  120.000000
7.75575  0.000000  0.000000  0.000000  -34.33051628293085  -4.931713309101447  21.2448057095578  48.631413772047345  -26.458634945029296  -8.893834949899158  -10.346471480937163  20.1959088393262  21.395329897049248  19.00761952633439  120.000000
7.8132  0.000000  0.000000  0.000000  -34.32697556629542  -4.929606212424508  21.23552085684063  48.61980098510554  -26.458853243114795  -8.897097757527312  -10.969938261076177  20.339773143406106  21.694219632863625  19.215258131030225  120.000000
7.87065  0.000000  0.000000  0.000000  -34.321998819343655  -4.92641492943118  21.221211847122532  48.60469574986374  -26.458590967805154  -8.899757446499851  -11.594437070815227  20.479530043675503  21.9899793532581  19.419236774813303  120.000000
7.928100000000001  0.000000  0.000000  0.000000  -34.31639441396053  -4.924526659477212  21.204192874177135  48.58763803979137  -26.458774387197895  -8.902938027576013  -12.204312988140964  20.61183871282756  22.26970642858749  19.615745523637656  120.000000
7.98555  0.000000  0.000000  0.000000  -34.31044655664784  -4.929423875389649  21.184161047418836  48.572109970791004  -26.459127846914573  -8.90625757546304  -12.779027400551843  20.733389801323845  22.519614384749044  19.807293078722847  120.000000
8.043  0.000000  0.000000  0.000000  -34.303332935564576  -4.946933140491148  21.160724419355542  48.55978683520481  -26.462412886908883  -8.909187307478415  -13.29873754805613  20.843327833035943  22.728046941201374  20.004809756137384  120.000000
8.10045  0.000000  0.000000  0.000000  -34.293150825734685  -4.981350136291558  21.129818334515488  48.55188021859035  -26.466206615285806  -8.910983246160436  -13.753679093409383  20.941986324655968  22.891112232705844  20.22466190082583  120.000000
8.1579  0.000000  0.000000  0.000000  -34.27793315896277  -5.033720099348231  21.07637406550884  48.55200451767162  -26.447112010349368  -8.908786596798569  -14.157355804976632  21.026369705716807  23.020536768543256  20.479411651736804  120.000000
8.21535  0.000000  0.000000  0.000000  -34.256608502677835  -5.095101093027912  20.976994375737444  48.563514437084706  -26.369873210152228  -8.894406590410085  -14.557982168079445  21.095838151815414  23.149290577741787  20.763248443282897  120.000000
8.2728  0.000000  0.000000  0.000000  -34.22951546514847  -5.1450172974678505  20.809146123909983  48.5821638903436  -26.20541730551248  -8.858176300806925  -15.030482606693685  21.158107418100492  23.322142181859515  21.04141490560323  120.000000
8.33025  0.000000  0.000000  0.000000  -34.19926117093214  -5.158426195592764  20.5549856993138  48.5970468959335  -25.9383589231121  -8.791489361499643  -15.650320896986678  21.229247655657222  23.577977052294397  21.255620395228146  120.000000
8.3877  0.000000  0.000000  0.000000  -34.170197377217875  -5.115501797742118  20.20238709647525  48.59847370723993  -25.57102073873107  -8.681871929910855  -16.457413106493444  21.331621166989997  23.929943007589657  21.34507953970873  120.000000
8.44515  0.000000  0.000000  0.000000  -34.14559991114416  -5.012483694941412  19.74536896794478  48.588902476531665  -25.12489965750135  -8.507017373560432  -17.421069321806662  21.490800346476377  24.350975303629212  21.2777507159805  120.000000
8.502600000000001  0.000000  0.000000  0.000000  -34.12496481890364  -4.867908921858825  19.18362281634363  48.590045186642385  -24.63800688359143  -8.231897007931037  -18.423836990546576  21.73202990342918  24.77053119661683  21.07524258109576  120.000000
8.56005  0.000000  0.000000  0.000000  -34.10676710877933  -4.7189819874091805  18.519682810926525  48.642555660730864  -24.156850523872983  -7.810834997349946  -19.27190626049891  22.077743917201836  25.081716841710833  20.815132446933404  120.000000
8.6175  0.000000  0.000000  0.000000  -34.092734059965736  -4.6108055600263285  17.755685546971634  48.797765027606616  -23.723914497058477  -7.194674139772953  -19.731124682684214  22.54553078417931  25.152467224699055  20.602440557175445  120.000000
8.67495  0.000000  0.000000  0.000000  -34.09060512156064  -4.579611082867774  16.893151732712997  49.10559401920487  -23.363344429962645  -6.3403780965666146  -19.581618708462745  23.145741535540267  24.844780933133066  20.528342303878663  120.000000
8.7324  0.000000  0.000000  0.000000  -34.111206595329605  -4.637542421869229  15.93544899104977  49.60593836890657  -23.06875696109925  -5.218325342140881  -18.666322819370784  23.875657411378477  24.031666152838387  20.632590090128094  120.000000
8.78985  0.000000  0.000000  0.000000  -34.16993089380745  -4.768095475285451  14.89786513027728  50.32652834489903  -22.802744020168774  -3.820704381747994  -16.90531134926667  24.715500997958014  22.6027772733819  20.89219688067688  120.000000
8.8473  0.000000  0.000000  0.000000  -34.29185467259085  -4.921283226530592  13.816513867686641  51.28116723727619  -22.505567926149965  -2.163786727228657  -14.28332917923927  25.627110088297016  20.46680407506492  21.239488721145303  120.000000
8.90475  0.000000  0.000000  0.000000  -34.52555197403845  -5.013397468860651  12.74715352518015  52.47489076424435  -22.10953331323259  -0.27808883884395275  -10.801433999132602  26.556467593387513  17.528811514298884  21.60058071964349  120.000000
8.9622  0.000000  0.000000  0.000000  -34.944359319939366  -4.93306186401897  11.76395063975272  53.8983392529778  -21.5544814247143  1.7928404998975056  -6.446102642667756  27.445393902968565  13.674773297365  21.921437477323234  120.000000
9.01965  0.000000  0.000000  0.000000  -35.61209422638655  -4.542690822163235  10.961616162559592  55.5074839475712  -20.80047300281906  3.9816601461716523  -1.2425733672802466  28.2464470796205  8.815730895013703  22.166685305582327  120.000000
9.0771  0.000000  0.000000  0.000000  -36.52501191512193  -3.7077702287921124  10.46753797571715  57.2377203166658  -19.84074155603576  6.209574725886168  4.708314339212959  28.931796950241292  2.9150489259035623  22.322546686144754  120.000000
9.13455  0.000000  0.000000  0.000000  -37.57889322735646  -2.3407980873789063  10.450160412849137  59.04564782689482  -18.71335226075592  8.426964525157134  11.281933512074035  29.512667912084435  -4.04276278301926  22.388582338095002  120.000000
9.192  0.000000  0.000000  0.000000  -38.64739426933728  -0.4242932877013914  11.083569118605046  60.91527340407007  -17.483646916307848  10.615823736073605  18.358093770225995  30.076352096085557  -12.042820506282533  22.36764170256805  120.000000
9.24945  0.000000  0.000000  0.000000  -39.68029702183183  1.992801397356324  12.49489524880266  62.80808245977566  -16.201608996543733  12.74492354631733  25.751408597378724  30.77986223464166  -20.93996633439091  22.256450925631743  120.000000
9.3069  0.000000  0.000000  0.000000  -40.73210697569415  4.8217493150184225  14.748573740771166  64.64267797425865  -14.901688446334456  14.761902985098304  33.15932046395866  31.806087225042333  -30.391761471465067  22.048312987882866  120.000000
9.36435  0.000000  0.000000  0.000000  -41.924173187157564  7.944059278944172  17.859363580058975  66.30329627456763  -13.627437524052873  16.622245885076644  40.179233423401676  33.29216995185598  -39.88683632836438  21.7393228567955  120.000000
9.421800000000001  0.000000  0.000000  0.000000  -43.3721217971879  11.200572957608697  21.790856961349654  67.6582468226314  -12.433906853204014  18.287431057198468  46.411779160522066  35.25129988334948  -48.87866921455194  21.33079694445025  120.000000
9.47925  0.000000  0.000000  0.000000  -45.121710225360076  14.388314727335057  26.434575239094613  68.58482043983318  -11.386994254613885  19.71963268941871  51.59200827887386  37.559280672211415  -56.950846806123614  20.83751994351452  120.000000
9.5367  0.000000  0.000000  0.000000  -47.12363365892628  17.3014161732227  31.608575069215856  69.00505718984799  -10.54757604776961  20.8890520011313  55.63318476392885  40.01230342526562  -63.87488254956427  20.291586802886393  120.000000
9.59415  0.000000  0.000000  0.000000  -49.27292052145083  19.775327671868514  37.073380847352844  68.9276393607935  -9.947493054886422  21.78753588912498  58.58829260363014  42.41329972168451  -69.57281360488261  19.742378365782365  120.000000
9.6516  0.000000  0.000000  0.000000  -51.441938751270705  21.693517270680474  42.540496215882456  68.43890919917202  -9.579496328805126  22.43264459185945  60.61545491361207  44.595112700695324  -74.06938001271095  19.23580299568008  120.000000
9.70905  0.000000  0.000000  0.000000  -53.50194474635924  22.99866490290262  47.69672764418592  67.67453122103872  -9.406648228766082  22.846558643190114  61.937878536586716  46.43532667954641  -77.45619266572959  18.802989874258326  120.000000
9.7665  0.000000  0.000000  0.000000  -55.32718431456317  23.722363009225383  52.243331225908605  66.78668703034748  -9.383138508156637  23.047200287023255  62.774800923551055  47.8818726434447  -79.85440195961564  18.466395095230272  120.000000
9.82395  0.000000  0.000000  0.000000  -56.78998328979454  23.9890004606097  55.935886662522094  65.90952118895763  -9.471663406269338  23.05134979433461  63.30495759354934  48.93686897857106  -81.40157823309882  18.237503047522516  120.000000
9.8814  0.000000  0.000000  0.000000  -57.7929907965568  23.9695423937771  58.61974366995531  65.15163682767093  -9.648552100089805  22.868504216622767  63.65789846887696  49.63394404759145  -82.24870500895467  18.117658404721745  120.000000
9.93885  0.000000  0.000000  0.000000  -58.28911122818403  23.828108056557163  60.24296475637843  64.58729055213544  -9.90769708642876  22.50268311468036  63.91479469149155  50.00994318449721  -82.54431402390091  18.09634842349633  120.000000
9.9963  0.000000  0.000000  0.000000  -58.29173073529956  23.68476275581138  60.85071143068491  64.25336296536004  -10.26928915212515  21.963521261629147  64.12153196377403  50.08191845847301  -82.41492980311202  18.147875583735285  120.000000
10.05375  0.000000  0.000000  0.000000  -57.82484279830759  23.583502151600843  60.48462181059937  64.15511944110007  -10.74274948032362  21.274062381112724  64.28603413692149  49.85381570556723  -81.9302158491143  18.24029519819208  120.000000
10.1112  0.000000  0.000000  0.000000  -56.880150004944966  23.471653327549273  59.09275741458128  64.272745915575  -11.287672953215607  20.476002486922685  64.36729158663812  49.33732215655337  -81.07161264490776  18.347405924495302  120.000000
10.16865  0.000000  0.000000  0.000000  -55.47621189539303  23.227975939181665  56.63189044482724  64.56390460725302  -11.839624755334576  19.62787628711511  64.2843220170194  48.530056983843046  -79.73248482555165  18.446800005677826  120.000000
10.2261  0.000000  0.000000  0.000000  -53.71024466879803  22.708898012381535  53.168317905727804  64.96898347784983  -12.34556167890634  18.798249796778048  63.91705840757179  47.40768906400982  -77.73712204350564  18.517760441357566  120.000000
10.28355  0.000000  0.000000  0.000000  -51.742392832373596  21.79520009531119  48.87434227898536  65.42642441207732  -12.775628027263412  18.055875632920127  63.090291823624405  45.9475716318723  -74.86495981449906  18.546302475656613  120.000000
10.341000000000001  0.000000  0.000000  0.000000  -49.74610178809477  20.426021722639483  43.985623509889265  65.87085635096271  -13.11922880754274  17.454706156198025  61.58614479752144  44.151437221564585  -70.89460880078  18.531698759526286  120.000000
10.39845  0.000000  0.000000  0.000000  -47.85750463189262  18.614691041714856  38.74928845754393  66.2308312171831  -13.371316853030672  17.01596925680395  59.17418851530339  42.06911154101163  -65.64393462958546  18.49943034142383  120.000000
10.4559  0.000000  0.000000  0.000000  -46.14721228982899  16.43964768107341  33.39366064020891  66.43287089490003  -13.540034870371318  16.729270431128995  55.64026292227249  39.8140300261338  -58.997492609553  18.507815811412488  120.000000
10.51335  0.000000  0.000000  0.000000  -44.63555040381653  14.008343588471014  28.121827222474035  66.42657705311876  -13.649761044719902  16.558436508535355  50.84392583483076  37.570498034466304  -50.93823231024297  18.644321933754835  120.000000
10.5708  0.000000  0.000000  0.000000  -43.30885547634758  11.429581665040299  23.119609747996556  66.19330626111838  -13.736587985716925  16.446141691969764  44.78685295208642  35.56421434574691  -41.598356936032594  18.99173567736716  120.000000
10.62825  0.000000  0.000000  0.000000  -42.14884522933273  8.79775763305756  18.550881237448593  65.7358993168177  -13.848083254307614  16.31854914112831  37.650579556619334  34.011932150232276  -31.300049237828087  19.578043752483055  120.000000
10.6857  0.000000  0.000000  0.000000  -41.13182817927805  6.204036975572929  14.547806875787158  65.06576571883791  -14.037151403088414  16.085872719786863  29.802425872212364  33.054031467554836  -20.556228660718432  20.362308827876475  120.000000
10.74315  0.000000  0.000000  0.000000  -40.21967014913808  3.7410177858978786  11.213192845130855  64.18738967733833  -14.355149386879154  15.659115857784816  21.727853681634443  32.69964339744327  -9.987542602881897  21.249842146239168  120.000000
10.8006  0.000000  0.000000  0.000000  -39.35247177905428  1.5028172832902216  8.627578557033681  63.11642546046354  -14.832996610677029  14.971136307435222  13.908388297130744  32.82871860191132  -0.17950098942571735  22.12121501016689  120.000000
10.85805  0.000000  0.000000  0.000000  -38.45979075154177  -0.4374284170503956  6.84082482347473  61.902825178155936  -15.467264955987575  14.000730620548156  6.727790131538759  33.23489065302274  8.445651485430291  22.87345498756086  120.000000
10.9155  0.000000  0.000000  0.000000  -37.533342948613715  -2.029948536969223  5.839792913184032  60.60893666210412  -16.234256456669446  12.759677286122008  0.42331283341365483  33.68043671747647  15.691985966806511  23.447750489428493  120.000000
10.97295  0.000000  0.000000  0.000000  -36.64770665797333  -3.2559498376513965  5.547728643520886  59.27594154747897  -17.101892545408404  11.270998494971847  -4.909585732048514  33.97156304891158  21.5644946181807  23.809515387993958  120.000000
11.0304  0.000000  0.000000  0.000000  -35.89581389591515  -4.1305835739118395  5.857513274943733  57.947361604546124  -18.03794884140746  9.582186096895988  -9.234443005018358  34.00005056584531  26.153899942637413  23.942233644749614  120.000000
11.08785  0.000000  0.000000  0.000000  -35.328560761993806  -4.690855691826292  6.656900627500786  56.65935255740127  -19.015870849387245  7.746573760294082  -12.598808335795495  33.740287483555335  29.61870608374795  23.82759634313283  120.000000
11.1453  0.000000  0.000000  0.000000  -34.93830007264412  -4.971955734831138  7.842633504847247  55.4180425104455  -19.996972902692864  5.805742317387127  -15.144765123428586  33.2305912223476  32.156646571669484  23.422526352234456  120.000000
11.20275  0.000000  0.000000  0.000000  -34.680815890678126  -5.013566645166869  9.318174587966908  54.235751433918125  -20.918353232763458  3.790917326317707  -17.027307974278948  32.53897753417391  33.94552665518016  22.688363091546147  120.000000
11.260200000000001  0.000000  0.000000  0.000000  -34.534019905213334  -4.872264732546343  10.991867306838527  53.135551806026804  -21.728252277103817  1.7480366202978401  -18.34702243924162  31.72408939354452  35.10067102992362  21.60146212086451  120.000000
11.31765  0.000000  0.000000  0.000000  -34.498280403987735  -4.636906584210479  12.775749347793937  52.156174424167205  -22.419163878867753  -0.26279182134896867  -19.148634224062604  30.820951969852764  35.68074715440321  20.14741179513597  120.000000
11.3751  0.000000  0.000000  0.000000  -34.565092546382736  -4.417176968699746  14.59605759044  51.33873965296996  -23.04878502731611  -2.1661328375326643  -19.441061214040356  29.812620178196745  35.713532595103516  18.35165418692649  120.000000
11.43255  0.000000  0.000000  0.000000  -34.679601793404174  -4.350371107202937  16.39762386369273  50.72377252133566  -23.73206425537875  -3.895595311985884  -19.201074158825897  28.636441165648574  35.20530776437291  16.303572195166893  120.000000
11.49  0.000000  0.000000  0.000000  -34.75083067413966  -4.5533918245700296  18.142865625924678  50.32523452901492  -24.61371148670686  -5.385697948928799  -18.367724219594326  27.201910569640752  34.143058161195036  14.183877350743247  120.000000
