Simulation
nRows=201
nColumns=15
endheader
time  TH_x TH_y TH_z SC_y  SC_z  SC_x  AC_y  AC_z  AC_x  GH_y  GH_z  GH_yy  EL_x  PS_y
0.0  0.000000  0.000000  0.000000  -40.97484877243665  6.293857566463187  5.290427962726946  44.266383197537785  7.1328692384513435  0.0038230683199005524  174.906697574138  6.7145766115409025  -149.69092169629164  22.661018954244966  120.000000
0.05745  0.000000  0.000000  0.000000  -38.923481068061385  5.779754307735722  3.1202636174293543  43.40480986659377  7.325000360239387  0.18655652792369065  169.81854191288016  3.497103023133569  -145.80601897668234  22.074673868542174  120.000000
0.1149  0.000000  0.000000  0.000000  -37.033721700543325  5.1159203433901155  0.9424411723951491  42.62911429564604  7.329073722056218  0.40821925408148074  117.4849861184938  0.7768709669983946  -94.6650478011341  21.669583045132136  120.000000
0.17235  0.000000  0.000000  0.000000  -35.412511563255585  4.362766352552762  -1.1463223333933488  41.980390190679564  7.202333146523317  0.6884482099738128  18.180290367852585  2.740391045979951  3.4440863681885427  21.52567862863754  120.000000
0.2298  0.000000  0.000000  0.000000  -34.10906951029167  3.597974606046692  -3.079335819119402  41.48322216094668  7.032926187029664  1.0448713075483995  11.227144402670241  5.611427439208376  9.187510636140214  21.65152543830722  120.000000
0.28725  0.000000  0.000000  0.000000  -33.13143869131184  2.902597836303045  -4.825079659821753  41.12801415073654  6.922656580991096  1.4959811506051324  9.003119524270689  8.516631748789615  10.164530892779583  21.98320256533862  120.000000
0.3447  0.000000  0.000000  0.000000  -32.47278475953423  2.353066207445062  -6.369623649305421  40.8834218797154  6.951525671872458  2.0475685084269517  7.5413379059814325  11.491583642138664  10.311448114648623  22.420595872724988  120.000000
0.40215  0.000000  0.000000  0.000000  -32.12981781434703  2.0048225014707173  -7.685075923765259  40.714822360237505  7.1471970995549965  2.673231624076525  6.216303227119607  14.59176280212292  10.224249472122564  22.853083119802708  120.000000
0.4596  0.000000  0.000000  0.000000  -32.09851597597802  1.8919003620717274  -8.730769511990612  40.595932073282924  7.4857054042674624  3.3269768836853824  4.943426425242827  17.861137829657103  9.972807710798058  23.187679914342116  120.000000
0.51705  0.000000  0.000000  0.000000  -32.37074631465288  2.029879770828409  -9.46207314764185  40.51328439119477  7.906328414444307  3.9630042370233762  3.75912732264558  21.31306894780351  9.528185549889354  23.363130086447697  120.000000
0.5745  0.000000  0.000000  0.000000  -32.92778625940084  2.422745105104456  -9.847924171819  40.46967481222065  8.33724151053033  4.555601284397007  2.726194078864183  24.91956592892671  8.858442252786535  23.357882821210712  120.000000
0.63195  0.000000  0.000000  0.000000  -33.74599905100032  3.055851415050483  -9.911660057208568  40.48230888027216  8.737745625225354  5.1303028503599295  1.9185349239758827  28.625270179599006  7.932585137877662  23.181795235325193  120.000000
0.6894  0.000000  0.000000  0.000000  -34.804735769198615  3.892835310873477  -9.71593684195465  40.5825117646318  9.094144557653188  5.742738651612892  1.4150769978447086  32.36952473562489  6.7122997957107176  22.864545925343453  120.000000
0.74685  0.000000  0.000000  0.000000  -36.0874971219828  4.8779944898638306  -9.315022847816211  40.80905213350552  9.399472700330389  6.432089946416236  1.2711181868603108  36.09704796169292  5.166424003644865  22.443542283842945  120.000000
0.8043  0.000000  0.000000  0.000000  -37.570986544739085  5.952448465904496  -8.745425226229493  41.193342797347285  9.656602938741043  7.2113686406807975  1.4986810746802413  39.755594371754526  3.2845341257563865  21.95717162312443  120.000000
0.86175  0.000000  0.000000  0.000000  -39.21760172207286  7.059494577023759  -8.026744047011176  41.74355030638677  9.886030420206536  8.067326701134693  2.05513735058679  43.294101114707935  1.091634722598508  21.440972876692673  120.000000
0.9192  0.000000  0.000000  0.000000  -40.97021741235106  8.148020206698641  -7.167636716267128  42.435203217619225  10.123590270840365  8.962115638887788  2.8494094827469665  46.65761935513519  -1.3456129930022693  20.92382458171941  120.000000
0.97665  0.000000  0.000000  0.000000  -42.751315582224265  9.175137192676456  -6.170629860486483  43.21200942810265  10.408743433484446  9.846746345278369  3.768338873497528  49.788652668295846  -3.925278667513462  20.425996566379442  120.000000
1.0341  0.000000  0.000000  0.000000  -44.467139580026284  10.118347969233822  -5.034426848849845  44.00121150028397  10.766706807571781  10.673677179941617  4.711625353434717  52.63454632974461  -6.524321154574876  19.95793884350667  120.000000
1.09155  0.000000  0.000000  0.000000  -46.03135085092747  10.97836727744665  -3.7577917314946734  44.727546351949464  11.198041385266407  11.403273667064223  5.605525522377805  55.160558263095126  -9.007448502710561  19.521152113996365  120.000000
1.149  0.000000  0.000000  0.000000  -47.3918929395616  11.763955025518303  -2.3467499451126557  45.32720717247818  11.679329210123571  12.008665551223844  6.402773385118182  57.351751618370216  -11.242658594570493  19.112439941674342  120.000000
1.20645  0.000000  0.000000  0.000000  -48.534771443119446  12.47789631596614  -0.8238058091810443  45.76890830301206  12.173025346401882  12.477347649594124  7.08194850173939  59.20784603734437  -13.128213614082032  18.727104871030075  120.000000
1.2639  0.000000  0.000000  0.000000  -49.475305560502086  13.110674403425808  0.7665386258978092  46.05724281669323  12.639324175566474  12.810410760335143  7.645109012796219  60.74009280137081  -14.616997180554598  18.364911783801993  120.000000
1.32135  0.000000  0.000000  0.000000  -50.23994083337231  13.643333566995192  2.3552124117582114  46.22313591930561  13.043471396164739  13.017548742911995  8.10856664438276  61.96884646929  -15.724685752950839  18.030688130365608  120.000000
1.3788  0.000000  0.000000  0.000000  -50.84728301940969  14.05535479730062  3.8500094156829405  46.30879120613831  13.36005938245749  13.11001763762028  8.4927101881635  62.918982161300946  -16.51780646159578  17.732588797446173  120.000000
1.43625  0.000000  0.000000  0.000000  -51.30007081825489  14.330398627923621  5.142736295404815  46.35516359361588  13.572272665390399  13.097949933587943  8.814257665486442  63.6173086875637  -17.08861144513319  17.47965265124757  120.000000
1.4937  0.000000  0.000000  0.000000  -51.58387974990429  14.458936557535123  6.11781188578367  46.39350418450707  13.66949930864667  12.989496221243657  9.08090996405503  64.09083255839731  -17.526704691574913  17.27964148355226  120.000000
1.55115  0.000000  0.000000  0.000000  -51.67527803176077  14.435989932129258  6.662314085445289  46.44372436067484  13.642907947365256  12.792987126242588  9.289453196119384  64.37076990134578  -17.89552042748237  17.138294005816647  120.000000
1.6086  0.000000  0.000000  0.000000  -51.547078665607614  14.253928996806339  6.675135105344684  46.515460490903436  13.483967085115438  12.519382082692061  9.423516535742536  64.4975298819505  -18.21778857442582  17.05866387264057  120.000000
1.66605  0.000000  0.000000  0.000000  -51.183527956324504  13.904603982619056  6.097795451462749  46.5985782085203  13.200803200436326  12.19566118639559  9.46990824003583  64.47157440056745  -18.492565169063464  17.04075432297192  120.000000
1.7235  0.000000  0.000000  0.000000  -50.590452940559096  13.387789415829669  4.942765079072841  46.65377603059374  12.840857003249448  11.872040597442782  9.435104267159502  64.20399061118877  -18.723166543337715  17.079691238623294  120.000000
1.78095  0.000000  0.000000  0.000000  -49.78217507790844  12.704391989201925  3.275430582170072  46.6308290551772  12.48242637013552  11.601036209589974  9.329034592019415  63.577837420631326  -18.911716279207816  17.160191890407088  120.000000
1.8384  0.000000  0.000000  0.000000  -48.771136316334534  11.85439055563823  1.1891410681502377  46.485456127924934  12.215958188703466  11.417042062143317  9.150644309015394  62.50856217279271  -19.054612396125307  17.257578129495403  120.000000
1.89585  0.000000  0.000000  0.000000  -47.57165886702114  10.846181830794608  -1.2032693138850616  46.18358644828718  12.130178734576543  11.331866096135766  8.894841315538615  60.942896334958675  -19.154453514024926  17.34293661880127  120.000000
1.9533  0.000000  0.000000  0.000000  -46.208822496260524  9.70034966473703  -3.782094393385902  45.70572446442998  12.293322072789907  11.338219074942593  8.562489756487427  58.86119966109709  -19.22631072134466  17.392616606409298  120.000000
2.01075  0.000000  0.000000  0.000000  -44.732028911106646  8.452755600646466  -6.433853609149167  45.05111786027298  12.737124328001425  11.417100402638242  8.167952539279327  56.27875699793429  -19.298135351613453  17.393158381488362  120.000000
2.0682  0.000000  0.000000  0.000000  -43.22084478840779  7.148304586316109  -9.0597227971412  44.23520533666639  13.449551128144162  11.550393564660112  7.74276160916276  53.24536867723093  -19.405561992441964  17.343363620510075  120.000000
2.1256500000000003  0.000000  0.000000  0.000000  -41.771429237690555  5.844712933486917  -11.580752017081986  43.295263333167  14.378657075262128  11.733528475526354  7.348619511610795  49.8427918168681  -19.590222897226408  17.24992816116954  120.000000
2.1831  0.000000  0.000000  0.000000  -40.465860628254674  4.609839072821271  -13.938729799138308  42.288417379742576  15.444825696256146  11.975497476376109  7.079578200207135  46.16893354494115  -19.891970207124462  17.117624250910513  120.000000
2.24055  0.000000  0.000000  0.000000  -39.35609900414221  3.502642805054478  -16.094506150630927  41.274103398234146  16.553563471574357  12.287272454143585  7.037584152831966  42.31378788374042  -20.324212749599912  16.942161608528185  120.000000
2.298  0.000000  0.000000  0.000000  -38.457496644996326  2.566581702108155  -18.023684929221357  40.30336985513407  17.614908304470248  12.670737061668447  7.305542604688094  38.346858000018806  -20.85749080928792  16.70623294994343  120.000000
2.3554500000000003  0.000000  0.000000  0.000000  -37.749999913514365  1.8291282069019938  -19.709035091862106  39.41606257711831  18.56255183164844  13.115974259725917  7.933381057322065  34.32548355835854  -21.42191854739205  16.386691769909802  120.000000
2.4129  0.000000  0.000000  0.000000  -37.1909373343163  1.2975633161012667  -21.138782999803002  38.64056261272755  19.363298326926497  13.602868388559733  8.936736263176051  30.305245802592054  -21.924790943334806  15.970956472860188  120.000000
2.47035  0.000000  0.000000  0.000000  -36.73018926082286  0.9525438148019345  -22.3122541479363  37.99510670761395  20.018604283094085  14.104196625908598  10.308275766734278  26.348563148204814  -22.27835527526585  15.472324157673334  120.000000
2.5278  0.000000  0.000000  0.000000  -36.328379303000325  0.7460052631087651  -23.246187841266778  37.48964225250984  20.559288758627982  14.594148090208012  12.049359362488198  22.53753095999306  -22.440840093530046  14.93751696333898  120.000000
2.5852500000000003  0.000000  0.000000  0.000000  -35.96839436194137  0.6137871392715122  -23.959820931920483  37.135725530014874  21.02282886425153  15.03977122361786  14.214693035429221  18.977746167778015  -22.4649057096833  14.43689946686017  120.000000
2.6427  0.000000  0.000000  0.000000  -35.65242726480239  0.4976326334452973  -24.450721190654658  36.94834702754694  21.428179651000963  15.392677922064076  16.936801812869717  15.773250074933218  -22.5305825178914  14.0411108587308  120.000000
2.70015  0.000000  0.000000  0.000000  -35.388748515641836  0.36745350949064787  -24.709161468942327  36.93068511568241  21.77699606013439  15.614087570312826  20.442868840876518  12.99382281113813  -22.972550842185786  13.798352090543743  120.000000
2.7576  0.000000  0.000000  0.000000  -35.188397095962166  0.2260513072498273  -24.725102877264142  37.070444572585515  22.06344271013167  15.685825864737122  25.09067264433811  10.664357971127254  -24.31601316969245  13.726257876217975  120.000000
2.8150500000000003  0.000000  0.000000  0.000000  -35.067597197564936  0.09500039262229942  -24.478203340328434  37.34829087698134  22.27602595749979  15.594826752578031  31.39167094698944  8.780242418096574  -27.278492814484732  13.81896737448479  120.000000
2.8725  0.000000  0.000000  0.000000  -35.03919873731094  0.0026863824125915444  -23.962691596651354  37.73157059809731  22.399573726892232  15.341752527004404  39.919833889161104  7.337932696269565  -32.64157407420052  14.059242276855581  120.000000
2.92995  0.000000  0.000000  0.000000  -35.10232164438144  -0.02417128547886904  -23.20178778734336  38.17571579778777  22.417297973319318  14.944718095740917  50.92406131026323  6.34986764391628  -40.82444355351611  14.421284239115893  120.000000
2.9874  0.000000  0.000000  0.000000  -35.239696102643215  0.03024893636885069  -22.234481386904204  38.637076378549054  22.31459050341885  14.427437023090961  63.668343016147915  5.81825113976609  -51.197865889934675  14.868017571096315  120.000000
3.0448500000000003  0.000000  0.000000  0.000000  -35.42363535711022  0.16863312112115778  -21.107804076537843  39.080468605424635  22.085499453735984  13.817381113233466  76.35678545948375  5.687204252205285  -62.00444139088699  15.354298299782648  120.000000
3.1023  0.000000  0.000000  0.000000  -35.624596171565884  0.3842485557925221  -19.873742302972428  39.48727133711393  21.73772817489194  13.142867972962097  87.2536932430877  5.834085918950208  -71.49063912530819  15.83741088615761  120.000000
3.15975  0.000000  0.000000  0.000000  -35.81869907614499  0.6605446906201712  -18.58710677373407  39.8530013726336  21.29191857049288  12.434287302684725  95.63883894417545  6.117427186720541  -78.8791838600369  16.28755974465248  120.000000
3.2172  0.000000  0.000000  0.000000  -35.98965233035076  0.9709087931982253  -17.29819168143112  40.18154238664957  20.774095360899192  11.721464026110327  101.63701682878082  6.423999955666212  -84.2140409146085  16.69417753873577  120.000000
3.2746500000000003  0.000000  0.000000  0.000000  -36.12394578788705  1.2869268644815837  -16.04743531211675  40.48470911049301  20.20949711445033  11.027514218934945  105.68328643549883  6.686122409900436  -87.83890258346811  17.06496742566441  120.000000
3.3321  0.000000  0.000000  0.000000  -36.21111407390386  1.5838451999557557  -14.864982113566851  40.776040166725245  19.61948276031593  10.368693252342432  108.22114107034581  6.875227550188336  -90.10826899897883  17.416979469295274  120.000000
3.38955  0.000000  0.000000  0.000000  -36.24667259532494  1.8435170960475342  -13.77174438371394  41.06507762485467  19.019928894715026  9.754504389608407  109.6219223526306  6.98952507858003  -91.31904986750745  17.765486130978047  120.000000
3.447  0.000000  0.000000  0.000000  -36.23427963111716  2.0574866963912513  -12.780478969571396  41.35606665276124  18.42262651543388  9.189275921756334  110.17389472604896  7.045556675853958  -91.70764844653286  18.11945874165783  120.000000
3.5044500000000003  0.000000  0.000000  0.000000  -36.18544947870287  2.2234218933678274  -11.896022775712256  41.64586689306874  17.83754625555493  8.675423394659108  110.08902000008621  7.067544038292571  -91.45750070347215  18.4811818810482  120.000000
3.5619  0.000000  0.000000  0.000000  -36.114558219560244  2.343573589937703  -11.117653398747528  41.92570050335464  17.273797020086676  8.214288051877888  109.52645530320348  7.078440068975069  -90.71654861161342  18.84870891383442  120.000000
3.61935  0.000000  0.000000  0.000000  -36.03383718405604  2.424220443857828  -10.442640006635157  42.18486190485247  16.73980075295205  7.805374604449661  108.60904593430907  7.09610087205657  -89.60570933404045  19.219315340654337  120.000000
3.6768  0.000000  0.000000  0.000000  -35.94972133541797  2.4738016730754495  -9.86887467872639  42.41285419450086  16.242769410690535  7.445799536130404  107.42704277398154  7.132453488187713  -88.21624878230074  19.591329366378226  120.000000
3.7342500000000003  0.000000  0.000000  0.000000  -35.862755028639974  2.501049582447287  -9.395863618271228  42.59885462083613  15.78736455494636  7.130773356905195  106.03376609345193  7.193836153733289  -86.60156842055844  19.964623572367426  120.000000
3.7917  0.000000  0.000000  0.000000  -35.769010079572546  2.5116611152438906  -9.0247166862297  42.731115257886195  15.375070576936972  6.854049750374692  104.4352369959859  7.281196860670616  -84.76528514626686  20.339662076358533  120.000000
3.84915  0.000000  0.000000  0.000000  -35.66089240131781  2.5071761719240144  -8.757572768477903  42.79915608876513  15.004057350842197  6.608600549058611  102.58025957464729  7.392933573801164  -82.65049256507298  20.716715591585835  120.000000
3.9066  0.000000  0.000000  0.000000  -35.52856471988961  2.4849032887099187  -8.596662057806085  42.794698380744826  14.669725660865257  6.388003795509852  100.35757295601101  7.527345456693703  -80.13699286623866  21.094895492800607  120.000000
3.9640500000000003  0.000000  0.000000  0.000000  -35.36098837753478  2.439471263560514  -8.544375967806165  42.71359431130286  14.366518703390042  6.185883888007749  97.59879195883411  7.686181882986372  -77.04613131334709  21.471808202098273  120.000000
4.0215  0.000000  0.000000  0.000000  -35.147006137156566  2.3656854814408317  -8.60351405730096  42.557103167506334  14.088901248854878  5.9956965201560815  94.11013324287649  7.882599908883427  -73.17767636108815  21.84351730372258  120.000000
4.07895  0.000000  0.000000  0.000000  -34.87785570903055  2.2599025509287713  -8.776611730279878  42.33057259441341  13.831284902178366  5.8124007145513525  89.74298017257439  8.150653139129009  -68.3874907749919  22.204006118290053  120.000000
4.1364  0.000000  0.000000  0.000000  -34.55089867489346  2.1224870406427403  -9.063596506802732  42.0413613342941  13.587484441969895  5.636246655535799  84.5063148856699  8.552822314601583  -62.7071706015809  22.543051006668232  120.000000
4.19385  0.000000  0.000000  0.000000  -34.17331674028845  1.9592162849301682  -9.457387113265023  41.69294411906521  13.350908149879276  5.477894136888737  78.67193359310791  9.17258264775123  -56.45167426731126  22.84317691461208  120.000000
4.2513000000000005  0.000000  0.000000  0.000000  -33.765092392637186  1.7911788205705164  -9.941356368500552  41.28452065659908  13.116558646646743  5.358914030802405  72.756887136709  10.091919889207913  -50.195784210953605  23.08140459031823  120.000000
4.30875  0.000000  0.000000  0.000000  -33.35786851346652  1.666468630934584  -10.492081702959773  40.8290348678152  12.885980751204773  5.302193082604288  67.34036245611144  11.374929799424208  -44.578558199090146  23.23823521346587  120.000000
4.3662  0.000000  0.000000  0.000000  -33.00713356065971  1.6506783383937729  -11.076916887061165  40.35451262787796  12.662360217950658  5.3367953724206485  62.85550316345504  13.061649709720218  -40.08116022270141  23.312749528500092  120.000000
4.42365  0.000000  0.000000  0.000000  -32.80041148705657  1.8103106100847042  -11.647741951148355  39.88605076166222  12.44113691422547  5.510698813632267  59.48024833068203  15.162839504604445  -36.906084803064246  23.333739314232073  120.000000
4.4811  0.000000  0.000000  0.000000  -32.83946974375793  2.212426865531845  -12.14677391146774  39.45492508757611  12.219049690533092  5.8696459833738235  57.15145723161599  17.665748151623415  -34.99647028024296  23.35655073031858  120.000000
4.53855  0.000000  0.000000  0.000000  -33.205512810770784  2.9182573728350856  -12.515772516387328  39.10930634283376  12.008361427105536  6.427106406408486  55.64670348787603  20.534541598275016  -34.13189569941477  23.44181539787308  120.000000
4.596  0.000000  0.000000  0.000000  -33.92698659661608  3.9537738818202484  -12.691942347466656  38.891169485952524  11.830194866316624  7.171138393287071  54.68254617272944  23.695591572816987  -34.02893989367891  23.62650863506982  120.000000
4.65345  0.000000  0.000000  0.000000  -34.96980960326304  5.295712843314394  -12.603585591623226  38.8242036343511  11.70243309906328  8.077918164168596  54.00442215383756  27.037923963446982  -34.42796151859317  23.90379239977097  120.000000
4.7109000000000005  0.000000  0.000000  0.000000  -36.24515180640358  6.887227127314786  -12.17853478390093  38.916838844455874  11.642190524788184  9.104906932715554  53.41427148780514  30.42246750944393  -35.119515793216834  24.221145293353917  120.000000
4.76835  0.000000  0.000000  0.000000  -37.643918859926934  8.658830132327036  -11.35313173688987  39.156544728973856  11.666195941778353  10.192305330069305  52.769107653936715  33.69655828286963  -35.94489003026176  24.498974182597262  120.000000
4.8258  0.000000  0.000000  0.000000  -39.07658773204068  10.532830262973635  -10.076723144669213  39.511275114507136  11.77921219815204  11.279101985099965  51.98262825700335  36.72416237782578  -36.80108567866247  24.659667546370365  120.000000
4.88325  0.000000  0.000000  0.000000  -40.498964826448585  12.423121841379679  -8.320024550027089  39.94492021702297  11.965725915080242  12.31051123867805  51.013729288401976  39.416403121844695  -37.63388745252306  24.65186587453398  120.000000
4.9407  0.000000  0.000000  0.000000  -41.916145808292484  14.242104064082318  -6.084946054610615  40.43372538460413  12.193078255569414  13.237207061007513  49.845927650706656  41.74755102004848  -38.41972478563117  24.45646057645557  120.000000
4.99815  0.000000  0.000000  0.000000  -43.36201627510404  15.905429228391645  -3.4067918289898107  40.96870856206509  12.416569029175974  14.030049276896156  48.48294996768211  43.74910238935237  -39.15135894162435  24.07943526608953  120.000000
5.0556  0.000000  0.000000  0.000000  -44.86326140882864  17.345223931765545  -0.35924360178245063  41.55710284101072  12.597476546674933  14.683902737437117  46.94897508870155  45.488379023906006  -39.82501979951687  23.544303891092767  120.000000
5.11305  0.000000  0.000000  0.000000  -46.41727370576248  18.5181679149204  2.9425035956937093  42.21138240086021  12.71814203217596  15.209419165410669  45.27645117531685  47.042844186612875  -40.42729530818376  22.888361740820656  120.000000
5.1705000000000005  0.000000  0.000000  0.000000  -47.99350914039237  19.401953179067146  6.351121042980797  42.9310367059667  12.776216580779511  15.630788626597711  43.49943872741057  48.47922946289196  -40.935584536614186  22.16157679129992  120.000000
5.22795  0.000000  0.000000  0.000000  -49.53820426561657  19.99720831977265  9.699072967227682  43.70331572826042  12.77777776867507  15.972382344222584  41.65919628504464  49.84456644617582  -41.334104377152954  21.420615532113327  120.000000
5.2854  0.000000  0.000000  0.000000  -50.98402193230891  20.327633490720572  12.815858964912954  44.50610250699746  12.733425038598185  16.24516713934742  39.81606632392238  51.16186735933734  -41.631087478286034  20.719424867601422  120.000000
5.34285  0.000000  0.000000  0.000000  -52.25952672128444  20.43375924021447  15.546750549230373  45.30279882737417  12.655619775197447  16.441477805611086  38.057671815843854  52.426284490519116  -41.86390868883687  20.09770483206418  120.000000
5.4003  0.000000  0.000000  0.000000  -53.29556385387319  20.365457158543883  17.76544150234979  46.039167923663726  12.558388870192966  16.53471055682443  36.49722796121154  53.603988413527965  -42.09089625440424  19.573824990766045  120.000000
5.45775  0.000000  0.000000  0.000000  -54.0329244348962  20.17257456384315  19.379345026274624  46.64888649836027  12.454263033441158  16.486380300626077  35.25695681942791  54.63749182728311  -42.374593089829744  19.148427384814642  120.000000
5.5152  0.000000  0.000000  0.000000  -54.429371808049034  19.895968361798083  20.3275009874877  47.068304045262124  12.350163273692853  16.256364992740604  34.44124515806271  55.4583352396837  -42.764414968714476  18.815627996117424  120.000000
5.57265  0.000000  0.000000  0.000000  -54.46401063156679  19.56207914691472  20.57519610019752  47.255819225935895  12.243235759398107  15.815342914557075  34.11459100887992  56.003113627881476  -43.285610209092425  18.57539568035233  120.000000
5.6301000000000005  0.000000  0.000000  0.000000  -54.13598327838889  19.180072241996175  20.108019129699148  47.20576911501044  12.118286684928039  15.156158181173057  34.2891812706198  56.225813179127385  -43.93363828043229  18.44103586646994  120.000000
5.68755  0.000000  0.000000  0.000000  -53.46296014136033  18.740695502523604  18.929187903079637  46.947402578589056  11.947992587653626  14.300611800850927  34.920587655439114  56.09981084798737  -44.669241508533325  18.436525680262072  120.000000
5.745  0.000000  0.000000  0.000000  -52.47742543858229  18.21607987442746  17.062770791461283  46.52579158160484  11.70114508014136  13.299918632884904  35.9146135319591  55.60858877176738  -45.41715411827248  18.58258317285867  120.000000
5.80245  0.000000  0.000000  0.000000  -51.21958830538367  17.562407404241483  14.562328302455382  45.97509703648503  11.360440995247373  12.228948241971242  37.145819194633454  54.732587362852854  -46.07562437364318  18.875312816879212  120.000000
5.8599  0.000000  0.000000  0.000000  -49.73160768334311  16.730173291122263  11.51863148906701  45.30599729232075  10.941102332918883  11.174466698643123  38.47988240283887  53.44387033910889  -46.53819174449208  19.268018998024555  120.000000
5.91735  0.000000  0.000000  0.000000  -48.05553096809725  15.681441205455572  8.058915998316616  44.51521515580286  10.499537688323452  10.218805505701395  39.79171690679242  51.71111557693623  -46.72205493826675  19.67164896966517  120.000000
5.9748  0.000000  0.000000  0.000000  -46.23486191544083  14.401692611907757  4.338551749097474  43.60429946620854  10.125516763468026  9.428227196059614  40.97922891976531  49.51111800934652  -46.592848415502104  19.97784324100871  120.000000
6.03225  0.000000  0.000000  0.000000  -44.31422498249542  12.9055588120119  0.5269374711847877  42.59902239066427  9.924499950492741  8.847448557412203  41.97814510043388  46.84339781091216  -46.177012677576904  20.09210898504355  120.000000
6.089700000000001  0.000000  0.000000  0.000000  -42.34288703071336  11.234811105443297  -3.2079302666326908  41.555462824796514  9.993451183094749  8.502086114455738  42.77656508757578  43.744648841481606  -45.559608474835166  19.961819446006412  120.000000
6.14715  0.000000  0.000000  0.000000  -40.385151092021154  9.45351072293181  -6.716872050219983  40.54989261723817  10.39622457270783  8.402362095484516  43.42357483550857  40.3007749085248  -44.86958459974987  19.585688775649096  120.000000
6.2046  0.000000  0.000000  0.000000  -38.524866146383424  7.647778846598217  -9.890082965893907  39.66774393250557  11.147390351358618  8.539127413412876  44.03589314283205  36.648538907834826  -44.26477923744049  19.001906266393828  120.000000
6.26205  0.000000  0.000000  0.000000  -36.860089588180614  5.913401190848102  -12.665632721887368  38.97717852581525  12.204398342431396  8.88818614024347  44.79608727898627  32.954534786040796  -43.91873897621873  18.27152695984111  120.000000
6.3195  0.000000  0.000000  0.000000  -35.484990940793956  4.341972486583632  -15.024844768314496  38.51034642990358  13.478767135968972  9.414895282542064  45.93441105675345  29.38397133537069  -44.00595081051803  17.469143850630353  120.000000
6.37695  0.000000  0.000000  0.000000  -34.46072076661882  3.0117084115871386  -16.978769118322194  38.267334703235754  14.861878725256014  10.074841512189609  47.69777533258565  26.07323114604995  -44.68652093828478  16.67834533999489  120.000000
6.4344  0.000000  0.000000  0.000000  -33.800921910686505  1.9717173802921872  -18.549818967461434  38.219728973404735  16.24726046717291  10.822314673789203  50.30195240344601  23.113019804936044  -46.08509337738202  15.984118854411332  120.000000
6.49185  0.000000  0.000000  0.000000  -33.474724906078436  1.2392403864313286  -19.76404183405775  38.3230067389303  17.548586195062317  11.612816053758994  53.88236613421271  20.549861197047875  -48.27165753679243  15.460688152999763  120.000000
6.549300000000001  0.000000  0.000000  0.000000  -33.419774374159864  0.8024588727039456  -20.650342496275055  38.52858748911156  18.70803685361515  12.402657407690182  58.45731382792028  18.397780214519813  -51.247261243163635  15.156870587591605  120.000000
6.60675  0.000000  0.000000  0.000000  -33.56123512806506  0.6227552148453591  -21.24124328125978  38.79021845271619  19.695286232183012  13.150175947754596  63.908073544485504  16.650161349984764  -54.93231529724343  15.087331293668587  120.000000
6.6642  0.000000  0.000000  0.000000  -33.82464468599172  0.6442167819871061  -21.5739477224852  39.066695527368154  20.50249064459528  13.816973840783312  69.98131261526378  15.281071804448802  -59.156723844464146  15.235797361109736  120.000000
6.72165  0.000000  0.000000  0.000000  -34.14623240493778  0.8051573530394522  -21.68978212647867  39.321342925725546  21.136061583200675  14.3722368394117  76.33004856443314  14.241244938956513  -63.67477935959046  15.563395917326076  120.000000
6.7791  0.000000  0.000000  0.000000  -34.47868227170879  1.0467925887075866  -21.633266104024745  39.52952452266235  21.609327790949386  14.794419637767367  82.59658293649555  13.465390949971145  -68.21900588936869  16.01237676907502  120.000000
6.83655  0.000000  0.000000  0.000000  -34.78682446322224  1.317362978705955  -21.44770231289406  39.68441005352477  21.93654320299478  15.071523524454632  88.49722711009836  12.886013415776262  -72.5627739677275  16.506555396790578  120.000000
6.894  0.000000  0.000000  0.000000  -35.04852663806672  1.5781153639788679  -21.16941795262075  39.79405286579859  22.129280626920526  15.203502314234548  93.86660768972374  12.4453797501471  -76.56299955711363  16.959177464232873  120.000000
6.95145  0.000000  0.000000  0.000000  -35.249559354921836  1.8059353021094124  -20.82620896907121  39.877102729701065  22.20055959717964  15.199214077912456  98.64515588440916  12.09861390914606  -80.15990440733421  17.291188346880084  120.000000
7.008900000000001  0.000000  0.000000  0.000000  -35.383155120723806  1.9889053771629033  -20.436764710189397  39.95266967019097  22.167027968904147  15.074264851620734  102.84167021473266  11.812189076758964  -83.35531915680254  17.456582396458447  120.000000
7.06635  0.000000  0.000000  0.000000  -35.457530775854394  2.1229327193109864  -20.010776743755542  40.029917123452236  22.04651088280325  14.850764453699972  106.49904406160036  11.562343717199182  -86.19061558302978  17.4641538212536  120.000000
7.1238  0.000000  0.000000  0.000000  -35.49320316512378  2.2099579974194574  -19.551870352995465  40.10842225735544  21.858098732089584  14.55161243218434  109.66896028731664  11.33257291791878  -88.72489701556937  17.37441157595508  120.000000
7.18125  0.000000  0.000000  0.000000  -35.51372471177569  2.2585907049332086  -19.061351294194395  40.188704451597225  21.62336837984723  14.193222159898014  112.3886169048389  11.11480926884986  -91.00701334271574  17.27245628472176  120.000000
7.2387  0.000000  0.000000  0.000000  -35.53759072906122  2.2831957867080175  -18.540021250471387  40.277039147793154  21.362148539100602  13.787137824825095  114.67687509194963  10.907454752753148  -93.06077446925791  17.23345158128106  120.000000
7.29615  0.000000  0.000000  0.000000  -35.57540616085742  2.294957886786931  -17.988093535967618  40.37852965150748  21.085554262095847  13.347849947866827  116.55550488076126  10.706689668433192  -94.89567481133881  17.29429470196658  120.000000
7.3536  0.000000  0.000000  0.000000  -35.62812985147476  2.299758103437895  -17.406201533199784  40.495184616690175  20.795511769379956  12.893773900236582  118.0667314814166  10.50344601915478  -96.52233866308043  17.448094044427105  120.000000
7.41105  0.000000  0.000000  0.000000  -35.68794218475179  2.303290129432616  -16.797869780157836  40.631666183367955  20.4906013646142  12.440191380713104  119.26108954955801  10.288163966336583  -97.9486159549014  17.661345570320176  120.000000
7.468500000000001  0.000000  0.000000  0.000000  -35.742030065925256  2.31167222047275  -16.170647864996326  40.79522983084161  20.17009977166691  11.994803229891376  120.1885461128567  10.053126995572288  -99.1817521595334  17.89629750019874  120.000000
7.52595  0.000000  0.000000  0.000000  -35.780712587981824  2.32881486502475  -15.534138237410621  40.98856187670631  19.833114288725376  11.560996221943327  120.90201873267662  9.793043155097076  -100.24079654727736  18.126645645487365  120.000000
7.5834  0.000000  0.000000  0.000000  -35.802035502434954  2.355262088933444  -14.897461208797903  41.206577650392326  19.478218440633206  11.141236201215108  121.45689142866047  9.506283562218007  -101.15992858087172  18.3432492339357  120.000000
7.64085  0.000000  0.000000  0.000000  -35.81023440320259  2.3893912083648265  -14.267910336167269  41.439726576389624  19.1047214329087  10.737443496868552  121.90644970730848  9.195758904355612  -101.98205178656876  18.54953333524802  120.000000
7.6983  0.000000  0.000000  0.000000  -35.81192302715383  2.428992624346119  -13.650632758312664  41.678842328339464  18.7140285870219  10.350039651162055  122.2979349298363  8.868566739917096  -102.75055132754576  18.753209794423018  120.000000
7.75575  0.000000  0.000000  0.000000  -35.81285660344835  2.471437777489209  -13.048650979532125  41.91793724502094  18.309820775151792  9.977659145644513  122.67131682717475  8.534657596971973  -103.50403328489433  18.959338728502615  120.000000
7.8132  0.000000  0.000000  0.000000  -35.81705067910873  2.51311712409747  -12.462793816247961  42.15388957068419  17.897071112434325  9.618062808428842  123.0600572993981  8.205026363881077  -104.27421097712272  19.16773171831371  120.000000
7.87065  0.000000  0.000000  0.000000  -35.82643553350107  2.5502127497578644  -11.892109948974234  42.38583794267478  17.48121639530699  9.268194221585532  123.4893373233991  7.890239902362471  -105.08224427275589  19.37430970880263  120.000000
7.928100000000001  0.000000  0.000000  0.000000  -35.842011140934304  2.5789185093879072  -11.33427278768351  42.61348230743489  17.067618966672157  8.923788356797328  123.97132370808477  7.598789794527781  -105.93318672251905  19.575466728984356  120.000000
7.98555  0.000000  0.000000  0.000000  -35.86602722533165  2.5958560424420747  -10.785713235977086  42.83295857328271  16.66009185764318  8.580567131184443  124.50833852375554  7.3343677251465795  -106.81885630148096  19.77272919046209  120.000000
8.043  0.000000  0.000000  0.000000  -35.89942150755921  2.5997536957692624  -10.242916901853322  43.03639820916966  16.261615915003276  8.232680610256196  125.09748318734749  7.093337409034774  -107.72343487186747  19.97514140435423  120.000000
8.10045  0.000000  0.000000  0.000000  -35.94035448828027  2.591902984254697  -9.704292901900896  43.21332629013603  15.874855609354393  7.872622758265322  125.72534403098673  6.865657488038329  -108.6229991823657  20.196735969414103  120.000000
8.1579  0.000000  0.000000  0.000000  -35.98135367286778  2.5758984148457724  -9.17199475151965  43.35002566490199  15.499609492115583  7.495731714421341  126.3775753503867  6.637035322120907  -109.50028130835072  20.448004047981936  120.000000
8.21535  0.000000  0.000000  0.000000  -36.00996223850429  2.5557055480169435  -8.654104031927183  43.428611647798654  15.133535487110093  7.101229038914721  127.02346528404513  6.390532470775624  -110.33525056265914  20.722518530958958  120.000000
8.2728  0.000000  0.000000  0.000000  -36.01204513420579  2.5375772044595433  -8.168195733456054  43.43062895043573  14.77477547994734  6.688225720316965  127.57690122063062  6.111557610927507  -111.06872267737315  20.987750447000295  120.000000
8.33025  0.000000  0.000000  0.000000  -35.97481919358904  2.530622570211986  -7.742031597012172  43.33958325940039  14.422245194090449  6.256960124978448  127.8614626030007  5.795102351632637  -111.560484287111  21.189779572242305  120.000000
8.3877  0.000000  0.000000  0.000000  -35.88751621224008  2.5369702886088685  -7.407662434807342  43.14214248950932  14.077911672594468  5.813015026039702  127.55504796663993  5.450711812967417  -111.51877467011766  21.27335905851856  120.000000
8.44515  0.000000  0.000000  0.000000  -35.73866369439679  2.548664773804448  -7.194310365800765  42.83754400400732  13.748497607820442  5.36625151549929  126.11869710733014  5.109184357890716  -110.4099231412687  21.21036482387128  120.000000
8.502600000000001  0.000000  0.000000  0.000000  -35.5180163056947  2.5472286269000604  -7.119653325553083  42.438857782917154  13.444857891741524  4.92905866730595  122.82009982288172  4.826283211056794  -107.46734507348273  21.02202353963366  120.000000
8.56005  0.000000  0.000000  0.000000  -35.227393477165  2.5115746093752547  -7.183281341001972  41.96613401986343  13.178444994688128  4.514646139983369  117.01361637718445  4.688544927188291  -101.97224655504763  20.78092759045139  120.000000
8.6175  0.000000  0.000000  0.000000  -34.88348561066293  2.4369686577598832  -7.370813566317595  41.45478235797837  12.961060891054922  4.12609622788312  108.7576658083969  4.827747807349024  -93.89345278396033  20.58531015620837  120.000000
8.67495  0.000000  0.000000  0.000000  -34.515775909789916  2.3354977526284535  -7.651594301741488  40.947343975373386  12.796535771130994  3.762890411190273  99.55099752122698  5.407215161752748  -84.65629253090522  20.520134334358396  120.000000
8.7324  0.000000  0.000000  0.000000  -34.174400888045874  2.229228112926581  -7.978953832091126  40.46492706134827  12.674359668297262  3.4464827161711002  91.71360552133807  6.558076380827709  -76.55684062235277  20.62426604103353  120.000000
8.78985  0.000000  0.000000  0.000000  -33.91715504028224  2.1675603955505065  -8.305691674429257  40.02105685762263  12.58353276795059  3.2079966719475346  86.55323958144663  8.34550230674747  -70.94231181760122  20.87924360126168  120.000000
8.8473  0.000000  0.000000  0.000000  -33.79244106191817  2.2315666764804725  -8.59084244776271  39.63508271509508  12.519433910660721  3.0710064631590046  83.98559486173608  10.788169615544117  -67.82023841977379  21.22736275893847  120.000000
8.90475  0.000000  0.000000  0.000000  -33.830743806285  2.50761423909562  -8.793397261878825  39.31488897471547  12.478925572047595  3.064172936410272  83.33926799413983  13.85739550449229  -66.6373343945186  21.597705747352418  120.000000
8.9622  0.000000  0.000000  0.000000  -34.03840366935434  3.064744826875052  -8.866641704170874  39.050958157548855  12.45875110964678  3.2248582959779526  83.93306611862192  17.462976846189388  -66.83006836873018  21.928224828730105  120.000000
9.01965  0.000000  0.000000  0.000000  -34.39842331371034  3.938653390940607  -8.756552306686395  38.83298896036654  12.459251934772107  3.590252387650637  85.24240524929199  21.463271281243546  -67.97557106577518  22.179764370084317  120.000000
9.0771  0.000000  0.000000  0.000000  -34.88235771001357  5.138213572710202  -8.400303532860162  38.670336417910995  12.480554567405717  4.1891512008581655  86.8916229731156  25.704173203539906  -69.77808632681312  22.339862562930218  120.000000
9.13455  0.000000  0.000000  0.000000  -35.469781667382286  6.647032538831893  -7.72861185392587  38.591942303921634  12.523030682552427  5.029686141383096  88.59305010099638  30.04296077154515  -72.0073376794993  22.412345973084783  120.000000
9.192  0.000000  0.000000  0.000000  -36.16088313187703  8.417194316636207  -6.672541704211119  38.63449656324518  12.585734500157812  6.0961409125195605  90.11763624287622  34.35217760738309  -74.46923259663765  22.400070254990954  120.000000
9.24945  0.000000  0.000000  0.000000  -36.97653073033048  10.375765136989912  -5.168101657542621  38.83479287405774  12.658920527218992  7.3599467202114734  91.3023913921534  38.52399779753435  -77.0048773006687  22.299412653880527  120.000000
9.3069  0.000000  0.000000  0.000000  -37.947979991324345  12.435091623980338  -3.1643806165067345  39.230351894325906  12.724910280830967  8.786046718227398  92.04735644602573  42.47234678239669  -79.4837778876076  22.101277863760828  120.000000
9.36435  0.000000  0.000000  0.000000  -39.10663093287587  14.506810000775308  -0.6337135203341789  39.8615617272312  12.771046108528886  10.32901302279206  92.29971454226595  46.129690011056496  -81.79333358481578  21.797437449621782  120.000000
9.421800000000001  0.000000  0.000000  0.000000  -40.48359392246613  16.500501430104514  2.4190158131009616  40.75022807878927  12.792483775621015  11.93707263613934  92.04643460784628  49.44030987863451  -83.84070867017783  21.390422921363918  120.000000
9.47925  0.000000  0.000000  0.000000  -42.10759014452603  18.30996415827796  5.946886510298152  41.87197596256287  12.77845404221542  13.564868292474227  91.3200550949798  52.357605052041976  -85.56244121080364  20.900120074775714  120.000000
9.5367  0.000000  0.000000  0.000000  -43.97528105766972  19.82217010495483  9.847982664709884  43.16854453996189  12.716814938682331  15.166592726618372  90.19308981089158  54.85321103753267  -86.92463809495773  20.363611585021015  120.000000
9.59415  0.000000  0.000000  0.000000  -46.02797881338935  20.9487131871047  13.959916767704945  44.57412626968699  12.608538992597722  16.683632503040023  88.75838687446404  56.926994933664226  -87.91360484062176  19.826485538760547  120.000000
9.6516  0.000000  0.000000  0.000000  -48.153604938530854  21.647988317259582  18.07411743699945  46.01504902372759  12.464907754295613  18.051829300191926  87.11940940113617  58.59795934644555  -88.52782220235156  19.331429599920867  120.000000
9.70905  0.000000  0.000000  0.000000  -50.19989837497541  21.93559368984304  21.961988719804072  47.411398642677135  12.299145270940025  19.21157379491767  85.39000356763306  59.894858128569325  -88.77958833054588  18.90921401924901  120.000000
9.7665  0.000000  0.000000  0.000000  -51.99746539743146  21.88222734735887  25.403938046079066  48.6870996178537  12.122548914952068  20.112747734214764  83.69290673236706  60.84964389901541  -88.69975342934872  18.57906831826766  120.000000
9.82395  0.000000  0.000000  0.000000  -53.39384522829761  21.59541275968585  28.21600894362484  49.77481290726696  11.94274045159472  20.71632171505265  82.15183644095681  61.49067883976093  -88.34125905990062  18.35118702373902  120.000000
9.8814  0.000000  0.000000  0.000000  -54.27453964659909  21.190797825903488  30.262220035830328  50.6174840488298  11.76749036638457  20.993508903205708  80.87537524906328  61.838808346992295  -87.77602033591275  18.228044157517974  120.000000
9.93885  0.000000  0.000000  0.000000  -54.56935577959579  20.764073800622754  31.45390663558469  51.170942712322265  11.60768048403429  20.927466457922655  79.94304360097084  61.907647854144244  -87.08604400245527  18.200453167291407  120.000000
9.9963  0.000000  0.000000  0.000000  -54.24812287768919  20.37255065140164  31.7416573847853  51.40939492829295  11.479124983929575  20.515238594318397  79.39413205998663  61.70687474876282  -86.34912426861588  18.247516468239226  120.000000
10.05375  0.000000  0.000000  0.000000  -53.31832831443388  20.0271376346434  31.108933229800495  51.328906742593965  11.401240642034526  19.771047922673052  79.22394414322183  61.2448554477356  -85.62097157460012  18.340659077164787  120.000000
10.1112  0.000000  0.000000  0.000000  -51.82716280409799  19.69042298265022  29.574003746773943  50.94597495074242  11.395182142252846  18.72979113929736  79.38694011963223  60.529334768054895  -84.91696617819224  18.449781325624883  120.000000
10.16865  0.000000  0.000000  0.000000  -49.8672412394563  19.283836796763143  27.20144263947001  50.2929199357966  11.485906927856396  17.448740304882225  79.80559341103692  59.56740711919556  -84.19807619235513  18.547849664944845  120.000000
10.2261  0.000000  0.000000  0.000000  -47.57828658164853  18.705203061112872  24.10995049163975  49.41186416851465  11.700198753800544  16.007167635430037  80.38003610652605  58.36448750299675  -83.37286730625627  18.613283344247165  120.000000
10.28355  0.000000  0.000000  0.000000  -45.13645635632144  17.862704326955114  20.46657381658111  48.354214145607024  12.064200915374494  14.498794128434968  80.99775229614256  56.924963160361756  -82.3182043939051  18.6328866399201  120.000000
10.341000000000001  0.000000  0.000000  0.000000  -42.726673212557145  16.70542891090523  16.46093243278591  47.17881178890889  12.591274183549373  13.024426461798125  81.54534125816828  55.25236103492403  -80.91319975587678  18.608629841834077  120.000000
10.39845  0.000000  0.000000  0.000000  -40.50958666760991  15.24122347493803  12.270979963697584  45.94858546268166  13.273347589976792  11.68006477502659  81.91918415179332  53.34956848798144  -79.06774827065729  18.569669442757377  120.000000
10.4559  0.000000  0.000000  0.000000  -38.59554396181619  13.531827159200613  8.03772857452632  44.71892153162039  14.076648248550951  10.547291696867093  82.03230041169171  51.216754656329705  -76.73893979263848  18.577037919356453  120.000000
10.51335  0.000000  0.000000  0.000000  -37.04000785581009  11.669180571316828  3.859163235457687  43.524071345252054  14.948118281691343  9.687379203127064  81.81239998841801  48.851146662058376  -73.92655952870922  18.710638029044073  120.000000
10.5708  0.000000  0.000000  0.000000  -35.851605919893466  9.7587770553923  -0.19967652783628762  42.38275578773219  15.83490112654833  9.13357097773263  81.20090664980572  46.25653031410496  -70.66291100630596  19.043028002599005  120.000000
10.62825  0.000000  0.000000  0.000000  -34.99942732376465  7.902758347265408  -4.091879392283839  41.31188274608466  16.6998817143322  8.890493746574244  80.15860110713226  43.45201919650409  -67.00604460545175  19.606851237355016  120.000000
10.6857  0.000000  0.000000  0.000000  -34.429405107968925  6.187409406266325  -7.7759716629671845  40.33216846521624  17.526168404671584  8.937861049321816  78.6711695280897  40.47185984647691  -63.03524140212082  20.372213726302324  120.000000
10.74315  0.000000  0.000000  0.000000  -34.0749841869996  4.673691758318927  -11.209457454254913  39.470896204418885  18.31660294903528  9.234477900453575  76.7536620890061  37.35858111551708  -58.84565751845078  21.252921926311664  120.000000
10.8006  0.000000  0.000000  0.000000  -33.86586334107523  3.3872663247989445  -14.344826985765069  38.75101689113454  19.079993830612544  9.734571078656982  74.4657069557535  34.15117853208715  -54.55102178053334  22.13784890116727  120.000000
10.85805  0.000000  0.000000  0.000000  -33.744709163722824  2.3115817366040505  -17.128512404010195  38.17098183050639  19.816728702698168  10.406095249037167  71.91607750067287  30.875723471040075  -50.28151365129073  22.922682949344253  120.000000
10.9155  0.000000  0.000000  0.000000  -33.68267766804274  1.414041293005298  -19.508543140003187  37.70130358086671  20.521820330538613  11.225237575830075  69.23998197376685  27.548758153130088  -46.1679629851385  23.53124631622018  120.000000
10.97295  0.000000  0.000000  0.000000  -33.6733452771343  0.6811932262354515  -21.449368082244067  37.314361222922244  21.20642687813375  12.146625502624982  66.55309901724024  24.196324509498492  -42.31057157654982  23.913907853660017  120.000000
11.0304  0.000000  0.000000  0.000000  -33.73711626943961  0.12347753514928138  -22.937522096205154  37.00136669217582  21.900775566836696  13.100260094806286  63.941418749610385  20.8787952505293  -38.77893611237276  24.03913730157812  120.000000
11.08785  0.000000  0.000000  0.000000  -33.90996442834427  -0.237592135484144  -23.981918991945115  36.765234412642606  22.636861216357186  14.01758125394993  61.52889297034389  17.68972252238707  -35.66634157993125  23.885799473972515  120.000000
11.1453  0.000000  0.000000  0.000000  -34.22424144399887  -0.3932978778854118  -24.615250757016916  36.60142446761612  23.4423610464576  14.847729661759715  59.559214946014  14.722883025904038  -33.16819301513807  23.438148852110402  120.000000
11.20275  0.000000  0.000000  0.000000  -34.70962008246378  -0.3742892640241067  -24.896212462663126  36.490139385491105  24.337488103228292  15.565277325037886  58.44391004380278  12.045941951036305  -31.651259113303745  22.674252572800857  120.000000
11.260200000000001  0.000000  0.000000  0.000000  -35.36893141307992  -0.23045507154683945  -24.898408479949424  36.41997927553906  25.322287379693275  16.167772736774396  58.88118346334004  9.691167408140481  -31.772782930183016  21.57474792233872  120.000000
11.31765  0.000000  0.000000  0.000000  -36.190196169681016  -0.037687027236288105  -24.69368567036539  36.399862946907035  26.365761184984077  16.66427092666856  62.01044619643628  7.673498145981257  -34.641650466385904  20.125508747281145  120.000000
11.3751  0.000000  0.000000  0.000000  -37.14552636311211  0.12437838069295622  -24.3638842705645  36.45076214857044  27.40450414479193  17.073013617186675  69.73014970628522  6.018366843394627  -42.13371236330855  18.34390138672105  120.000000
11.43255  0.000000  0.000000  0.000000  -38.193946656981936  0.18804571296796285  -24.005685474346663  36.58668676951763  28.357394762403015  17.424580277881113  84.76792153404784  4.819551500104534  -56.959681536672335  16.301215029738795  120.000000
11.49  0.000000  0.000000  0.000000  -39.27952614782202  0.11347389405678207  -23.71856024851943  36.83341163449255  29.14697433755249  17.742271776473142  108.59135740794201  4.336847020225694  -80.56321305975784  14.156923336748411  120.000000
