Simulation
nRows=201
nColumns=15
endheader
time  TH_x TH_y TH_z SC_y  SC_z  SC_x  AC_y  AC_z  AC_x  GH_y  GH_z  GH_yy  EL_x  PS_y
0.0  0.000000  0.000000  0.000000  -40.97484877243665  6.293857566463187  5.290427962726946  38.6841865455655  -1.198208661165512  -7.5970029545645  109.7374912229217  7.409068724603538  -78.53431421154708  22.451640952007047  120.000000
0.05745  0.000000  0.000000  0.000000  -38.816770967422066  4.764008243517158  3.953629137485892  40.3761658071548  -2.042998046250188  -5.86373701784128  55.28218627523068  6.170159235591138  -28.12360234378364  21.905917124763782  120.000000
0.1149  0.000000  0.000000  0.000000  -36.793260955049995  3.096847548613751  2.4577517847510784  42.18410960371598  -3.0038746047290816  -4.0196176838315765  16.420759735541843  9.760226177726887  6.794634630391089  21.523645961918575  120.000000
0.17235  0.000000  0.000000  0.000000  -35.09347058436826  1.2489683559352849  0.8763594726960969  44.10465837589667  -4.178650508609985  -1.9915738095505475  -0.05753363091025721  15.186370542517826  19.519393462784453  21.39189037062037  120.000000
0.2298  0.000000  0.000000  0.000000  -33.819858331716894  -0.8070604800121972  -0.7038628279411588  46.16856013313357  -5.654300226028097  0.23893925647189368  -8.89675008933452  21.346957633163665  24.890380721156664  21.528345064501718  120.000000
0.28725  0.000000  0.000000  0.000000  -32.98241228105956  -3.0392200705887937  -2.215609288233667  48.309398893334894  -7.424605486447751  2.62901402378319  -14.723168657662407  27.959742634203508  27.55204271632321  21.868850908120283  120.000000
0.3447  0.000000  0.000000  0.000000  -32.52408873335084  -5.29850024540512  -3.5685857816146864  50.3595987757101  -9.395173831099866  5.079163335405843  -18.946052754313218  34.74064698457955  28.873068209790286  22.30460772225032  120.000000
0.40215  0.000000  0.000000  0.000000  -32.32769100017282  -7.352061753977903  -4.710119815962662  52.148413604801334  -11.336216677685158  7.464991933405597  -21.986841972138752  41.314861546640174  29.233357867397743  22.716600167100882  120.000000
0.4596  0.000000  0.000000  0.000000  -32.30442137006106  -8.92691717921418  -5.667317056383081  53.5913856720244  -12.91831645638256  9.658986645376634  -23.938774694970913  47.33225488776162  28.70341477234899  23.023382193178357  120.000000
0.51705  0.000000  0.000000  0.000000  -32.39165767153148  -9.839070098916725  -6.484927776009644  54.70911094326018  -13.833282288691658  11.526962673074932  -24.8907324990582  52.5973559269467  27.338326879467214  23.17077899404128  120.000000
0.5745  0.000000  0.000000  0.000000  -32.5606971794529  -10.041668770147536  -7.205453693018373  55.608148829501616  -13.901364023646652  13.030452733461658  -25.080125396837374  57.09504655296519  25.3124349246403  23.12838406171515  120.000000
0.63195  0.000000  0.000000  0.000000  -32.84215637952769  -9.591969566465103  -7.889839954899319  56.449348458987025  -13.0719846140912  14.285353705223736  -24.91651255896895  60.9267170032084  22.99470251552462  22.90800849389416  120.000000
0.6894  0.000000  0.000000  0.000000  -33.32256301555449  -8.601275919845188  -8.594066297027053  57.398303211106914  -11.364740032665878  15.481397485576975  -24.807507292683027  64.1847076147581  20.79532993046384  22.54525849646204  120.000000
0.74685  0.000000  0.000000  0.000000  -34.11553943901077  -7.185042064417771  -9.350513937996299  58.54978039443573  -8.823556334424595  16.756054817597757  -24.94642946442821  66.86769334730648  18.95324299795621  22.088207272547546  120.000000
0.8043  0.000000  0.000000  0.000000  -35.28164203122286  -5.4536629665038845  -10.153170896268884  59.87568140059156  -5.506965394147064  18.12347547155211  -25.26923544116701  68.88038689111151  17.455215324500305  21.58679756458472  120.000000
0.86175  0.000000  0.000000  0.000000  -36.76113887700379  -3.510873236799917  -10.952811378253896  61.225388882244154  -1.5289547097308824  19.490201161480133  -25.533819847644505  70.09896833146774  16.04488140356157  21.073006428194134  120.000000
0.9192  0.000000  0.000000  0.000000  -38.39154426848947  -1.47481067712136  -11.658630304296542  62.41180932775775  2.918532883360247  20.750284206098993  -25.542943912278123  70.501167103568  14.476337938814497  20.564044752710902  120.000000
0.97665  0.000000  0.000000  0.000000  -39.995503618800704  0.5249835053414529  -12.174525249698263  63.30227469841401  7.5675803278275655  21.84626514312205  -25.269918880639363  70.25530149235762  12.684426117103083  20.072384120728703  120.000000
1.0341  0.000000  0.000000  0.000000  -41.462029517423495  2.372975833056854  -12.426515642035227  63.8352923610711  12.090494776289237  22.786908783701715  -24.7500287858753  69.68041666288359  10.71272368835449  19.60730992323541  120.000000
1.09155  0.000000  0.000000  0.000000  -42.74615540512941  4.022058934412841  -12.347916017367304  64.03437603935386  16.173558755554012  23.613843806766752  -24.02987997788751  69.07374884057081  8.675144166109428  19.174812837310817  120.000000
1.149  0.000000  0.000000  0.000000  -43.848232883648386  5.506474799221758  -11.858974589912515  63.96728168548214  19.60828029175907  24.356938730347473  -23.19860445827261  68.54968722464828  6.75762176732976  18.7748728098305  120.000000
1.20645  0.000000  0.000000  0.000000  -44.81190763065682  6.869376373974671  -10.91160731956018  63.716777603272014  22.29687401785636  25.029482154249212  -22.342060923849267  68.11620686764338  5.130035262245586  18.40347062151988  120.000000
1.2639  0.000000  0.000000  0.000000  -45.68951035004236  8.116219069628396  -9.54199806401477  63.380790202357154  24.229402056400467  25.61848009447398  -21.512097402417893  67.77984650951545  3.8755327563767197  18.055702092295572  120.000000
1.32135  0.000000  0.000000  0.000000  -46.516763649858895  9.216034839771643  -7.866638491671926  63.045688886044026  25.482255191537146  26.098748970764355  -20.737378806040876  67.53195397106651  2.9896496070387006  17.73327361225469  120.000000
1.3788  0.000000  0.000000  0.000000  -47.289103614339346  10.124154619335627  -6.074158828765865  62.773239179765724  26.186193069965974  26.44313839825817  -20.038993538668286  67.35180944301983  2.4019848907944263  17.442508135897963  120.000000
1.43625  0.000000  0.000000  0.000000  -47.960915423982684  10.798540115772237  -4.3872011674025115  62.59808422461075  26.480745490596473  26.634348911789925  -19.43664156924737  67.21902883088856  2.008505012603412  17.1935075465807  120.000000
1.4937  0.000000  0.000000  0.000000  -48.4653084546046  11.217493268204825  -3.021083227640655  62.53428217041999  26.48526317607029  26.66466250823471  -18.953649513185397  67.11781356332463  1.7059753032196987  16.995942009302023  120.000000
1.55115  0.000000  0.000000  0.000000  -48.7407459139817  11.376075793595332  -2.1495558188446005  62.583725096667536  26.28658484021354  26.542570449267384  -18.617426873983323  67.03913814495093  1.4190976465300875  16.85681169316754  120.000000
1.6086  0.000000  0.000000  0.000000  -48.75298402102815  11.282070727181193  -1.8875695723817514  62.74738269191605  25.932117976921145  26.292133310638988  -18.452732333771706  66.97969032473064  1.111519447995986  16.780247632619393  120.000000
1.66605  0.000000  0.000000  0.000000  -48.50259766741225  10.947645789663884  -2.2777011221410928  63.024075259462535  25.43114441008843  25.956612592826453  -18.476271284095315  66.94019884814377  0.7844160963358997  16.76564996450717  120.000000
1.7235  0.000000  0.000000  0.000000  -48.02569601310396  10.386776440295572  -3.2851825596632795  63.40693412496201  24.76094693637513  25.597786890309173  -18.68941777440102  66.92342726933197  0.4671871781559362  16.805939877172673  120.000000
1.78095  0.000000  0.000000  0.000000  -47.37903854349292  9.621968155039967  -4.804128187585929  63.875109442853535  23.87389882082684  25.289230612696706  -19.07738723842974  66.93242147532258  0.20414107229247164  16.883408366644776  120.000000
1.8384  0.000000  0.000000  0.000000  -46.618974350215915  8.682262816218643  -6.67220429295644  64.39098676873552  22.70597597098832  25.103142547459136  -19.611983479796162  66.9697982594316  0.041475401776192626  16.974041382931837  120.000000
1.89585  0.000000  0.000000  0.000000  -45.776442788186394  7.606392849884917  -8.6992039248257  64.90408170683634  21.1792221048036  25.086384407000267  -20.258596875432474  67.03646834146616  0.012154719473744392  17.051625320232745  120.000000
1.9533  0.000000  0.000000  0.000000  -44.84973494784099  6.418845458334688  -10.687464014781366  65.35524941951984  19.218255848651033  25.242257202484087  -20.985966881786464  67.13221529136905  0.1245152460059685  17.098253604441833  120.000000
2.01075  0.000000  0.000000  0.000000  -43.80848216132777  5.1219009074787545  -12.459498287449811  65.68386181863714  16.77125403756351  25.519436203844446  -21.77293204224971  67.25409603720249  0.35257846420365485  17.1044488903449  120.000000
2.0682  0.000000  0.000000  0.000000  -42.61826683938437  3.683715801450502  -13.867617833452972  65.83546813655518  13.828194090920652  25.816975742885372  -22.606561644375606  67.39222634963758  0.6377205658181112  17.070407774537593  120.000000
2.1256500000000003  0.000000  0.000000  0.000000  -41.26101046041079  2.048661271610476  -14.807847375267041  65.76946703277643  10.417933494277552  26.0018305671519  -23.46890939197011  67.54207109635087  0.8954907465961836  16.994265852568724  120.000000
2.1831  0.000000  0.000000  0.000000  -39.77299350440276  0.17452239008698234  -15.208652974677626  65.45761424736044  6.6122685280726285  25.94126765008642  -24.316891173544274  67.67528363366925  1.045630382532799  16.86965292912177  120.000000
2.24055  0.000000  0.000000  0.000000  -38.25626701648823  -1.8717141024457191  -15.004768732234357  64.88883300488632  2.5615640106432167  25.522893430352177  -25.08296447640499  67.62072344828508  1.0729713857924177  16.6896454335545  120.000000
2.298  0.000000  0.000000  0.000000  -36.86605725110656  -3.8960397929977995  -14.168896986048232  64.07499348319463  -1.5176079333532055  24.666241803074545  -25.683624035636054  67.07391029966662  1.0519512280509262  16.44970479691182  120.000000
2.3554500000000003  0.000000  0.000000  0.000000  -35.75613792368494  -5.708743605408588  -12.76193795896248  63.03034694301574  -5.417556863138957  23.32506327327726  -26.056097332708813  65.8120441595378  1.1132379632851357  16.14746352197857  120.000000
2.4129  0.000000  0.000000  0.000000  -34.95631335291357  -7.181241004611717  -10.913215408418093  61.76990085538861  -8.951855131782812  21.478634288451353  -26.21138283691613  63.76717310377777  1.398590793674562  15.763346031450546  120.000000
2.47035  0.000000  0.000000  0.000000  -34.37261973828543  -8.23251109406608  -8.770636959569638  60.31533276708712  -11.946992689213088  19.146417811921403  -26.190746655424736  60.94639217547115  2.037790120576773  15.292729450807208  120.000000
2.5278  0.000000  0.000000  0.000000  -33.90504717811173  -8.806994848877107  -6.481981163778644  58.69817097280535  -14.278000615533978  16.411803849752076  -25.94599846910704  57.38154869922583  3.097405998197712  14.776457752776981  120.000000
2.5852500000000003  0.000000  0.000000  0.000000  -33.50995203749511  -8.869781740557258  -4.204774936282886  56.96592552871584  -15.83118052213062  13.40267871686261  -25.29640975909114  53.09091381949779  4.540322779501494  14.292156882605349  120.000000
2.6427  0.000000  0.000000  0.000000  -33.16653544067532  -8.42904713398014  -2.1170028077636065  55.17902290755574  -16.453688960507037  10.265235166121645  -24.009661681978734  48.076644734842986  6.224474312121074  13.917275853411912  120.000000
2.70015  0.000000  0.000000  0.000000  -32.882596869667154  -7.522629172889843  -0.41069781769251235  53.39462432589088  -16.0569203329218  7.207010044927798  -21.880947900679946  42.38655969143422  7.915587015281837  13.69755703687335  120.000000
2.7576  0.000000  0.000000  0.000000  -32.72675481713861  -6.2299786899276866  0.7220534873003365  51.64904280695263  -14.699809200193418  4.493306718034387  -18.73585068567583  36.19614979802294  9.281359148636758  13.648492968724899  120.000000
2.8150500000000003  0.000000  0.000000  0.000000  -32.78024768586502  -4.698364515918263  1.1250748860333644  49.97298372675281  -12.536031641644652  2.3762911188539344  -14.375894250881414  29.83795974959166  9.865874353979311  13.758097305055681  120.000000
2.8725  0.000000  0.000000  0.000000  -33.10527929098219  -3.1262029722203812  0.7783223969312391  48.39355979245111  -9.787760744358783  0.9747684601211957  -8.496856317861317  23.75447219233952  9.064079875258447  14.00375810027216  120.000000
2.92995  0.000000  0.000000  0.000000  -33.7432665861758  -1.6849628986750118  -0.11146149695613583  46.93527806074805  -6.7797220473035456  0.22084663893153542  -0.5686653537369294  18.37830862782919  6.056039360784006  14.363239006563237  120.000000
2.9874  0.000000  0.000000  0.000000  -34.68998580963644  -0.4710829291623173  -1.1802181642253724  45.6415957331967  -3.882424624653532  -0.08435355231821731  10.278019165926004  14.039410434823123  -0.2627762896539956  14.801746064781904  120.000000
3.0448500000000003  0.000000  0.000000  0.000000  -35.878066671719594  0.4673499631057428  -2.129250467649009  44.55974044631826  -1.3302431402007646  -0.16494878052219977  24.84190303955506  10.943369335258696  -10.835956133184792  15.273851264142401  120.000000
3.1023  0.000000  0.000000  0.000000  -37.20355934201799  1.1575802323272255  -2.8535951109925652  43.70637627794754  0.8191955296450945  -0.14091347532682347  42.51011706203551  9.131789981099292  -25.09777617562917  15.742816648634074  120.000000
3.15975  0.000000  0.000000  0.000000  -38.57533305179826  1.6771241038253242  -3.3583369497685975  43.06847840431687  2.584228660659448  -0.0625938291980639  60.382604396260795  8.418016485208394  -40.13720607214555  16.186339071858068  120.000000
3.2172  0.000000  0.000000  0.000000  -39.917463796881734  2.081434299246415  -3.683330206589105  42.61347613035873  4.0144142584236775  0.02965761069034879  75.22682940551503  8.416591843234118  -52.67931633392866  16.591229718604417  120.000000
3.2746500000000003  0.000000  0.000000  0.000000  -41.16014166969746  2.3999200145556916  -3.873062359202055  42.28695848142269  5.165182254747588  0.11609496133661755  85.98933529337273  8.727877283681654  -61.59692378927607  16.959963778243612  120.000000
3.3321  0.000000  0.000000  0.000000  -42.23457520237729  2.6497361145709433  -3.96139644329539  42.04145288583669  6.080648284693062  0.1767604827658722  93.29720182004526  9.092907327828822  -67.43424021609158  17.305866438068502  120.000000
3.38955  0.000000  0.000000  0.000000  -43.07708761459068  2.842650624819289  -3.9778850588785066  41.85488137928139  6.790076141440786  0.1889590984081303  98.07661263556801  9.39702161819222  -71.05272807685728  17.642706956002026  120.000000
3.447  0.000000  0.000000  0.000000  -43.648158865533674  2.9844938305191793  -3.944226149836285  41.71673929627412  7.297180939358903  0.15217040491017472  101.01885714672335  9.608402170512242  -73.11002366108077  17.98158353978531  120.000000
3.5044500000000003  0.000000  0.000000  0.000000  -43.93403428749273  3.0766721562365764  -3.880096230076917  41.633200201808144  7.589250079954667  0.09110184635441168  102.52541972651396  9.727266594736214  -74.00176546966853  18.32940868863792  120.000000
3.5619  0.000000  0.000000  0.000000  -43.939110742746436  3.118062377959719  -3.805415718910215  41.62215314149786  7.655236256711008  0.04474222472321598  102.7967454932303  9.751803369271528  -73.94015626928476  18.689859683410365  120.000000
3.61935  0.000000  0.000000  0.000000  -43.682516224841734  3.1072287198591306  -3.7369473222654155  41.70584162102965  7.494960202319945  0.05663763917235966  101.89183871083354  9.66857732378223  -73.00745191152136  19.06058588817274  120.000000
3.6768  0.000000  0.000000  0.000000  -43.19126529454437  3.045905909205662  -3.689185790528663  41.91751538739309  7.123505898852102  0.15937357182969147  99.72216126824854  9.463968694305015  -71.13720060815967  19.43681990667366  120.000000
3.7342500000000003  0.000000  0.000000  0.000000  -42.489768684440655  2.940783749178631  -3.6737890663691033  42.29148106303427  6.5645188827128385  0.37597683503325635  96.073830607825  9.134641857922222  -68.120095632791  19.816599530279177  120.000000
3.7917  0.000000  0.000000  0.000000  -41.60823330849798  2.7946555193039755  -3.697209321173827  42.84679615656079  5.841061109211918  0.7312170556946194  90.58223573788689  8.702676124299595  -63.574202006674255  20.202160312772733  120.000000
3.84915  0.000000  0.000000  0.000000  -40.5976138738241  2.5992916920042317  -3.760481689510721  43.58309355205038  4.974885377934428  1.250563339495773  82.65529899278715  8.23477800552302  -56.87047850065764  20.593886064185412  120.000000
3.9066  0.000000  0.000000  0.000000  -39.51667854180357  2.346757480383554  -3.8684795115338333  44.501944523997594  3.99017273045434  1.9462095641131576  71.51261849965769  7.8657013210499995  -47.16072491619596  20.99240322896302  120.000000
3.9640500000000003  0.000000  0.000000  0.000000  -38.42764005798354  2.01621784847523  -4.029241223022593  45.60121519971558  2.905212963890066  2.8203488993018073  56.71442515655771  7.829238076646643  -33.91545067928404  21.39485994792776  120.000000
4.0215  0.000000  0.000000  0.000000  -37.397041866644535  1.5763054708553759  -4.254414096986275  46.8648061515498  1.7154040454998885  3.8894795211506827  39.42407660966004  8.457695879376724  -18.20253431260533  21.796719093918213  120.000000
4.07895  0.000000  0.000000  0.000000  -36.47828812198871  0.9886363592503491  -4.566163088988504  48.285311726361726  0.3991440126496547  5.169195844502778  22.709052649170424  10.065147102308876  -3.0087526317329365  22.185441345706312  120.000000
4.1364  0.000000  0.000000  0.000000  -35.69329759542432  0.20534682345614258  -5.005665600202341  49.85431583636933  -1.0508663709735562  6.675322694173614  9.137792797670116  12.774093200663529  9.161441677185714  22.5400534114715  120.000000
4.19385  0.000000  0.000000  0.000000  -35.03444374659149  -0.7817338455203351  -5.601928887063866  51.54957398218849  -2.647834146061607  8.429755448919327  -0.8271278687784973  16.50141849329202  17.884833302241574  22.840890898488514  120.000000
4.2513000000000005  0.000000  0.000000  0.000000  -34.53298412276413  -1.9510540748180243  -6.348537027046186  53.33097896514332  -4.391732439865702  10.436842275422803  -7.850988214232414  21.041846176685144  23.82540844318884  23.064032360128778  120.000000
4.30875  0.000000  0.000000  0.000000  -34.242265517616644  -3.250516070855454  -7.250012656034317  55.13964079155655  -6.17893990212749  12.697490906758384  -12.661881390083433  26.081316221571782  27.69970956167082  23.196916249480672  120.000000
4.3662  0.000000  0.000000  0.000000  -34.16419497379143  -4.562703332625417  -8.280222431712787  56.919555519822154  -7.812627971431289  15.163762610410004  -15.803635322886205  31.2117746301636  30.02640155807393  23.250458401006462  120.000000
4.42365  0.000000  0.000000  0.000000  -34.24752946267603  -5.725455590840731  -9.327336757113523  58.62953606704142  -9.066096442025236  17.682157068759544  -17.68311193144631  36.030866129249006  31.157707360491642  23.26194884751071  120.000000
4.4811  0.000000  0.000000  0.000000  -34.465819882960446  -6.564303776707112  -10.232859365660566  60.271838918267576  -9.751999405180563  20.055147557354868  -18.552201929586335  40.255476316190375  31.273594923401465  23.282006401495842  120.000000
4.53855  0.000000  0.000000  0.000000  -34.87557694211248  -6.9199903845789  -10.838563117512889  61.89067486181326  -9.77902944674032  22.12692409236107  -18.58586276490378  43.76545564741511  30.466933555666703  23.356434618444677  120.000000
4.596  0.000000  0.000000  0.000000  -35.55702853928733  -6.643022732851853  -11.006477111395021  63.53448238276866  -9.19045050265754  23.85225413251244  -17.989871835982214  46.559491563806326  28.85395741502058  23.512053956572203  120.000000
4.65345  0.000000  0.000000  0.000000  -36.57453870654963  -5.618367909038407  -10.611483551910142  65.2446073843638  -8.182409368549559  25.304908052530813  -16.93617829605559  48.7091063632805  26.54882776158466  23.752164849408793  120.000000
4.7109000000000005  0.000000  0.000000  0.000000  -37.89989610480308  -3.824725431870533  -9.526271488792364  67.03155865639468  -7.01667263286019  26.595648999139716  -15.563856895971476  50.326106039740054  23.667650937014844  24.04823145714295  120.000000
4.76835  0.000000  0.000000  0.000000  -39.32404151527885  -1.379705224535035  -7.645358684112863  68.82926705019823  -5.873054382745043  27.754671700865273  -14.113960267305146  51.511919409172215  20.400583531641956  24.31976894587973  120.000000
4.8258  0.000000  0.000000  0.000000  -40.590028526263886  1.477703761895933  -4.947920391424006  70.50193844950604  -4.84419191077092  28.716320410950768  -12.887874546796272  52.35117575884912  16.99172613693548  24.466814961817157  120.000000
4.88325  0.000000  0.000000  0.000000  -41.62218701103285  4.481610186225097  -1.5186600209860437  71.93062323349612  -4.014713303742349  29.41319837192041  -12.02317394593596  52.94676907594195  13.605763808454594  24.430931890679474  120.000000
4.9407  0.000000  0.000000  0.000000  -42.53267006455803  7.405402988981194  2.4971310647063296  73.05543640961433  -3.447448414738929  29.815492837337285  -11.436241977074173  53.415289104583195  10.287642273539511  24.206490256246077  120.000000
4.99815  0.000000  0.000000  0.000000  -43.483504283699524  10.100981275464095  6.937332808008414  73.8559925609797  -3.1626090252966423  29.929153170209055  -10.94703391071879  53.85335975700457  7.02614124345436  23.817186799859815  120.000000
5.0556  0.000000  0.000000  0.000000  -44.568360723088105  12.49756941985766  11.646003515969687  74.33062253315995  -3.145551999844161  29.790293024069424  -10.420116831218852  54.32509873874032  3.8225091859683866  23.290554105760464  120.000000
5.11305  0.000000  0.000000  0.000000  -45.776930259207006  14.575717495727794  16.473170564919307  74.49274980816706  -3.35378375825744  29.455569190725473  -9.829832402147193  54.86209631632765  0.722586460417228  22.6524067398914  120.000000
5.1705000000000005  0.000000  0.000000  0.000000  -47.04028481799579  16.338013192864373  21.2669185472991  74.37755072201769  -3.72739435855986  28.99001887508817  -9.22984702046172  55.469959027946615  -2.1966962366798337  21.94015126230157  120.000000
5.22795  0.000000  0.000000  0.000000  -48.275888039088265  17.79041951296143  25.867186664137222  74.04289723211296  -4.1991317012875085  28.456719397697512  -8.690439826278022  56.13471362545685  -4.86020080089013  21.203723155765623  120.000000
5.2854  0.000000  0.000000  0.000000  -49.417894608863094  18.938221131294807  30.107506404838272  73.56510863573436  -4.70638227740815  27.909927221374247  -8.249843882791753  56.82916475660514  -7.221792868572505  20.498661147495863  120.000000
5.34285  0.000000  0.000000  0.000000  -50.41651125326557  19.793526644849813  33.820360576220864  73.02651385789665  -5.1999332772601745  27.388919753808914  -7.907717200413258  57.522148415927234  -9.266703205136684  19.87050212446278  120.000000
5.4003  0.000000  0.000000  0.000000  -51.230062710724084  20.37829553295306  36.847261937108556  72.50507719440297  -5.644619462172644  26.919940711513227  -7.641201814554069  58.181786959457156  -11.001666905520427  19.342112630089588  120.000000
5.45775  0.000000  0.000000  0.000000  -51.817282683927374  20.72465208817232  39.04509034855445  72.06926396949859  -6.0180374213669765  26.518022568248814  -7.425412118622363  58.77706564850544  -12.44057668789175  18.915584083194155  120.000000
5.5152  0.000000  0.000000  0.000000  -52.13793071923455  20.862652227670445  40.29401426063234  71.77275408259865  -6.306706070057771  26.191722556356044  -7.246892063871722  59.27646867577422  -13.59350809372963  18.585354222116734  120.000000
5.57265  0.000000  0.000000  0.000000  -52.154455179951874  20.808945209295  40.50280461037355  71.64946401933378  -6.503127937046546  25.946912214097356  -7.109025866332082  59.650314224047875  -14.458894477238806  18.35076731646884  120.000000
5.6301000000000005  0.000000  0.000000  0.000000  -51.8369664469906  20.55362773896819  39.616884218697066  71.70828912168241  -6.603288132098211  25.789995690785503  -7.032803323179896  59.87167710571381  -15.01797129860232  18.224290763921037  120.000000
5.68755  0.000000  0.000000  0.000000  -51.170850030397425  20.056453216297232  37.625511232991244  71.92797007634557  -6.607080684781932  25.727996957022125  -7.053740848817193  59.92012075046897  -15.229421864470455  18.22874718777034  120.000000
5.745  0.000000  0.000000  0.000000  -50.16743816370348  19.254555568768094  34.57348485482609  72.25577718819535  -6.521768085727322  25.76392171723305  -7.219221662114464  59.78746069404888  -15.027546242541748  18.382457715577303  120.000000
5.80245  0.000000  0.000000  0.000000  -48.875166342357595  18.076634547015185  30.570278051069213  72.60820135711138  -6.36589514030159  25.891778169842933  -7.578474231277356  59.485980292917795  -14.330528800624705  18.67837042713049  120.000000
5.8599  0.000000  0.000000  0.000000  -47.3834862728809  16.465868869367693  25.791309781851176  72.87838725019718  -6.175351840138112  26.08839622616945  -8.163578136408752  59.054673286852015  -13.063745401606507  19.066997461150603  120.000000
5.91735  0.000000  0.000000  0.000000  -45.81583926918268  14.391571689794354  20.471019332703335  72.94880398816832  -6.004559893991622  26.310704541917033  -8.966470445766493  58.553665651102875  -11.193562539094188  19.462788419344168  120.000000
5.9748  0.000000  0.000000  0.000000  -44.30122524669317  11.864360462422376  14.884034749988047  72.71369934500339  -5.92260554340704  26.4951262749924  -9.929532318750294  58.052513981396885  -8.761277291280503  19.766326647097895  120.000000
6.03225  0.000000  0.000000  0.000000  -42.93197605840043  8.937008367989678  9.325843394451498  72.10194636949781  -6.000310933111904  26.565235246755446  -10.971975219929282  57.59971059780149  -5.892596752120797  19.89303531263212  120.000000
6.089700000000001  0.000000  0.000000  0.000000  -41.72149271584757  5.7088338648802575  4.088757043395373  71.0927662981889  -6.29689572720379  26.439627859006013  -12.040503595025701  57.18164581704197  -2.7733156307544613  19.793442348617017  120.000000
6.14715  0.000000  0.000000  0.000000  -40.578783149035864  2.3337304501996403  -0.5394944464996191  69.71392397308111  -6.845939376636186  26.04566049881576  -13.150944946912775  56.6953173008871  0.39857950078043186  19.450386127332113  120.000000
6.2046  0.000000  0.000000  0.000000  -39.35373748741138  -0.9593220294671003  -4.28689773240897  68.04510797455465  -7.6421110971179  25.33762213229344  -14.335750487672506  55.96178130989682  3.4434441122426453  18.87112397669527  120.000000
6.26205  0.000000  0.000000  0.000000  -37.98582817389266  -3.8764150893052487  -6.937836039431473  66.21488272959121  -8.63678283435392  24.312782773470815  -15.502980506472685  54.77378977898433  6.195082060430379  18.10442988092318  120.000000
6.3195  0.000000  0.000000  0.000000  -36.631808709644744  -6.123455819577821  -8.403856182516588  64.38563284104504  -9.75831924164528  23.00513053015884  -16.376192254266197  52.97348364388832  8.503825640489103  17.2633677112371  120.000000
6.37695  0.000000  0.000000  0.000000  -35.53865852060654  -7.516497422917529  -8.733558230827155  62.69800936272797  -10.940713260835789  21.44822799068099  -16.680168654406877  50.502241913711586  10.294168002617896  16.48121762193509  120.000000
6.4344  0.000000  0.000000  0.000000  -34.820761671454875  -8.024364866836423  -8.042748076702242  61.217708326811184  -12.16408746560123  19.697261104152094  -16.359993377723242  47.41503452359976  11.608711938919075  15.832572801046654  120.000000
6.49185  0.000000  0.000000  0.000000  -34.432516126454935  -7.746105712559826  -6.520920875071807  59.929858571062205  -13.382528915292168  17.80321532106891  -15.503755955039075  43.82069501364499  12.541174636802763  15.342825583885112  120.000000
6.549300000000001  0.000000  0.000000  0.000000  -34.292696497490404  -6.912670937817258  -4.473450525871583  58.7636106052246  -14.380907778029831  15.750775525584865  -14.127692502157023  39.79013140244857  13.107898806287924  15.049285404174185  120.000000
6.60675  0.000000  0.000000  0.000000  -34.30989401695639  -5.7812573146213815  -2.2654060688231414  57.65201088333799  -14.889775583279606  13.544501553449875  -12.135805535525016  35.38873744803324  13.207558097364357  14.981719789367233  120.000000
6.6642  0.000000  0.000000  0.000000  -34.39213335620967  -4.541906206760069  -0.23214687573215936  56.548750325881144  -14.755417122129986  11.285016805988644  -9.388089056582155  30.747973404976495  12.66883800996243  15.133545985476538  120.000000
6.72165  0.000000  0.000000  0.000000  -34.52760872457926  -3.311428816652775  1.3554680690697989  55.428690832578354  -13.952793702577877  9.133305409634083  -5.66008374428145  26.07412409721889  11.236622077265586  15.476576050468058  120.000000
6.7791  0.000000  0.000000  0.000000  -34.76050730742651  -2.1826489377230756  2.313940964574395  54.27979882206461  -12.54152577511941  7.225282908179449  -0.6273323669204062  21.621350869127742  8.563287900156078  15.952594647451617  120.000000
6.83655  0.000000  0.000000  0.000000  -35.1167332465186  -1.2469008889678372  2.5663516129966406  53.09570760449405  -10.6160845033615  5.631561426880022  6.044287838827633  17.63339714308458  4.28496195903952  16.472012509397825  120.000000
6.894  0.000000  0.000000  0.000000  -35.57877467002629  -0.5282262761310563  2.171734650890314  51.883211781894595  -8.312818760728677  4.375785133623072  14.661755076431465  14.28070493172399  -1.9368259442540696  16.9372640349289  120.000000
6.95145  0.000000  0.000000  0.000000  -36.141978721722815  -0.013997084430366699  1.3066885137228887  50.66104623525254  -5.808597611730358  3.4385738915002837  25.509865306061972  11.666732097403331  -10.415951600934411  17.263635751426836  120.000000
7.008900000000001  0.000000  0.000000  0.000000  -36.807933759392434  0.32430451641489055  0.14940666941574077  49.46255307571462  -3.2584357747989716  2.788898257559532  38.6185822448786  9.838916584641423  -21.201926829364375  17.409165663539593  120.000000
7.06635  0.000000  0.000000  0.000000  -37.56066682771341  0.533880263436737  -1.1707253461222333  48.31212781909047  -0.7592815341623745  2.395616016570851  53.25037422897952  8.7750114728044  -33.57589353537844  17.39402433906587  120.000000
7.1238  0.000000  0.000000  0.000000  -38.37674859093297  0.657806171403937  -2.5443485137035804  47.206268992116925  1.6262302317390318  2.209517187077946  67.79410565825111  8.362574577667877  -45.96711465333837  17.284875787016297  120.000000
7.18125  0.000000  0.000000  0.000000  -39.23283745270325  0.7372206729908812  -3.8802727601921574  46.14495043508405  3.8466879980814577  2.172929493429578  80.69554656070058  8.42869208767227  -56.885036318715045  17.167963096523707  120.000000
7.2387  0.000000  0.000000  0.000000  -40.11124187968839  0.8034680943170432  -5.108245901515083  45.14199764731034  5.857079399052282  2.236887281207544  91.22798591507798  8.802603585263217  -65.66827657332921  17.11772184671922  120.000000
7.29615  0.000000  0.000000  0.000000  -40.98296337841401  0.8728997225599558  -6.1781164214795385  44.22212724791861  7.623931753842772  2.363718476013698  99.42220312174248  9.341788075715556  -72.38770880996155  17.17169572867279  120.000000
7.3536  0.000000  0.000000  0.000000  -41.81691063348713  0.951476103835906  -7.0576677268250085  43.416632155525264  9.126915301982795  2.524380194227927  105.65743026003905  9.93709109337577  -77.43596426709551  17.32396218952317  120.000000
7.41105  0.000000  0.000000  0.000000  -42.58358988161063  1.0420867306217239  -7.729902723412293  42.756851927769866  10.35972705598156  2.6935217904445086  110.37141520968267  10.504136123356146  -81.24164255909953  17.539573471322605  120.000000
7.468500000000001  0.000000  0.000000  0.000000  -43.26125619782883  1.148481816656685  -8.18987028315145  42.267183616583814  11.327254720829728  2.848655556697963  113.94579781202343  10.979092839339271  -84.16203908931958  17.778554844468083  120.000000
7.52595  0.000000  0.000000  0.000000  -43.841735796322176  1.2733225543099673  -8.440912002874482  41.95372015126133  12.040491990321566  2.973453998906504  116.68216638115535  11.319556623259603  -86.4681769521537  18.01176955355535  120.000000
7.5834  0.000000  0.000000  0.000000  -44.32928950340175  1.4178313029365834  -8.4935309342187  41.799461753342975  12.514811836939472  3.056776897730865  118.80956256849709  11.505795054734355  -88.35497967702524  18.22791908927228  120.000000
7.64085  0.000000  0.000000  0.000000  -44.73284372829505  1.5817721639548281  -8.366363749739884  41.76838409937717  12.768640193950365  3.0913590552370436  120.50096981854503  11.544112969199677  -89.96013046535205  18.430403911121576  120.000000
7.6983  0.000000  0.000000  0.000000  -45.05982076611166  1.7611919774121874  -8.08640336197123  41.819971115340266  12.824544882895337  3.070403032032272  121.86700640145052  11.464468665152255  -91.36078358359028  18.629042678846623  120.000000
7.75575  0.000000  0.000000  0.000000  -45.31292415072277  1.948749569559981  -7.68654588541641  41.91738440125974  12.71035820154533  2.986580581472809  122.95891267857591  11.305916942873075  -92.58046345957058  18.83092761876815  120.000000
7.8132  0.000000  0.000000  0.000000  -45.49397293750819  2.1341970643157744  -7.20134758649956  42.0310748848155  12.456461895813579  2.8355570401200203  123.7831812458583  11.101781556015792  -93.60487933169163  19.0362922814885  120.000000
7.87065  0.000000  0.000000  0.000000  -45.60288638833578  2.3074862804356693  -6.6649164809805646  42.14258715233369  12.09106307990847  2.6196591634469106  124.32194576503764  10.87283345800393  -94.40306450663228  19.240902308456207  120.000000
7.928100000000001  0.000000  0.000000  0.000000  -45.63895282461032  2.4592089711170715  -6.109364843375761  42.2458741441748  11.636876751162083  2.350396601382029  124.54059932082959  10.624444260436832  -94.9344978281171  19.440634209042965  120.000000
7.98555  0.000000  0.000000  0.000000  -45.59965637034549  2.580091207740904  -5.563690273318395  42.342370898937936  11.109978981427995  2.0487375971684743  124.39787652275423  10.346145149790628  -95.15914311665178  19.636476992890323  120.000000
8.043  0.000000  0.000000  0.000000  -45.479021305771354  2.663297441793047  -5.05415652789785  42.43895561638927  10.521897134649848  1.7407954734090287  123.84285962941874  10.01545136712293  -95.03421721626889  19.836903978642088  120.000000
8.10045  0.000000  0.000000  0.000000  -45.26420595952082  2.706548581951481  -4.6051954944511655  42.54191159265483  9.882955018095329  1.4524302833818024  122.81213708595678  9.603586801471545  -94.51283460102532  20.05556116774339  120.000000
8.1579  0.000000  0.000000  0.000000  -44.93703553616135  2.7132331110700076  -4.239875343772289  42.651169580440296  9.204700158086146  1.2068658758832826  121.21085169960021  9.082588595428337  -93.52831932367991  20.301871435962397  120.000000
8.21535  0.000000  0.000000  0.000000  -44.47418482293105  2.6901197636970884  -3.980782168486885  42.760494797939444  8.501739798629167  1.0234003990793348  118.87012517001546  8.432942028404199  -91.95529926287429  20.569001708370852  120.000000
8.2728  0.000000  0.000000  0.000000  -43.85374333651813  2.6446870074045767  -3.8483988018984023  42.86631935561564  7.787947281028139  0.9199992094617001  115.45856498657218  7.65285984478581  -89.52140733974235  20.825367231524986  120.000000
8.33025  0.000000  0.000000  0.000000  -43.06356084270768  2.5826520525506282  -3.8522659783761783  42.975152169476246  7.064583871706971  0.917120733044831  110.34733665403581  6.765431538492184  -85.66283836391047  21.02020104781581  120.000000
8.3877  0.000000  0.000000  0.000000  -42.09800729269369  2.5034790934477846  -3.984711617309209  43.12158898697843  6.31742208712007  1.0342514347589944  102.35081349474358  5.827314607654579  -79.24187588304534  21.102803622525187  120.000000
8.44515  0.000000  0.000000  0.000000  -40.981600301700595  2.3941245548864845  -4.222017079819721  43.36313450633583  5.5223769280808765  1.2973958320503254  89.32968343107274  4.966299952277258  -68.13477797856441  21.045732528723793  120.000000
8.502600000000001  0.000000  0.000000  0.000000  -39.7723412829085  2.230750489434202  -4.5356082388374235  43.778138889688364  4.654469391665636  1.743683853544512  68.8026827112888  4.464774902789051  -49.8114733906134  20.867985179357426  120.000000
8.56005  0.000000  0.000000  0.000000  -38.53829763640886  1.9856554835345606  -4.904989737822861  44.45778848177191  3.6873247154234696  2.42376129456684  43.04160476384286  4.776823541962367  -26.414759685584173  20.643978249203634  120.000000
8.6175  0.000000  0.000000  0.000000  -37.36797390326548  1.6215537613108362  -5.323725627168755  45.47156919815745  2.5919951205143645  3.4112644260412406  21.05691606306485  6.179408245493713  -6.7854162599808  20.472843891356046  120.000000
8.67495  0.000000  0.000000  0.000000  -36.352469406017995  1.1023498310611868  -5.798778478719986  46.85588346971645  1.337671057761827  4.782875340207389  6.736639647992054  8.574744418510027  5.353643597093449  20.43881407751824  120.000000
8.7324  0.000000  0.000000  0.000000  -35.540594787040575  0.4140192266385703  -6.341942152891247  48.629508729361426  -0.10321715379045877  6.571506122371483  -1.9274079343140533  11.786241704597773  12.134718605171058  20.574115083721704  120.000000
8.78985  0.000000  0.000000  0.000000  -34.94835160767923  -0.4382740097321074  -6.956091900838323  50.75479784668603  -1.7314083032699086  8.759330529099213  -7.223423268455382  15.651503095664276  15.907865909605448  20.84117928077662  120.000000
8.8473  0.000000  0.000000  0.000000  -34.59076588975221  -1.4120669765634355  -7.629763204034975  53.118846043797696  -3.502216171913787  11.30979669892752  -10.451272097861562  19.93200976691867  17.998919772573505  21.166297547830556  120.000000
8.90475  0.000000  0.000000  0.000000  -34.48729770168673  -2.432213642723435  -8.358233584850014  55.58508695320382  -5.272330509419185  14.164098437296381  -12.16298374707355  24.270393585490396  18.976664393432653  21.477362250881143  120.000000
8.9622  0.000000  0.000000  0.000000  -34.63430974126433  -3.378582072360614  -9.09684575612712  58.03132960933894  -6.807584708175178  17.18229461284238  -12.553244699978235  28.23844624677591  19.030581306076055  21.732564088332825  120.000000
9.01965  0.000000  0.000000  0.000000  -34.989968672832326  -4.082146528579654  -9.712426987176213  60.37962288802157  -7.868918078369576  20.135155201422723  -11.690834630286599  31.4522247282006  18.161600651548763  21.920523580252016  120.000000
9.0771  0.000000  0.000000  0.000000  -35.54761058438746  -4.399018948994295  -10.031917842434147  62.60789917254614  -8.277527022535198  22.75262384495316  -9.55915536215013  33.704607950655905  16.199057336626318  22.033353524599505  120.000000
9.13455  0.000000  0.000000  0.000000  -36.415061163600754  -4.198804759898305  -9.882025186187086  64.7310024405121  -7.997740604656475  24.842506357058873  -6.083995671607823  35.00930969707871  12.84356894046602  22.081025092533018  120.000000
9.192  0.000000  0.000000  0.000000  -37.66583171789288  -3.3342225800516143  -9.071149720779584  66.78382512570987  -7.182491138479748  26.367156134100647  -1.262662961679469  35.56804464793785  7.803680775225425  22.077213621803377  120.000000
9.24945  0.000000  0.000000  0.000000  -39.14448691631368  -1.674289269042655  -7.345138052649039  68.75633848784712  -6.1736812478975205  27.425039200808847  4.645153812042246  35.70693312868239  0.9959865514999802  21.994931110834294  120.000000
9.3069  0.000000  0.000000  0.000000  -40.58537816771215  0.8040702269958163  -4.437657343976437  70.55339221338018  -5.310699102781099  28.12070851028301  11.189916378207789  35.72780055304768  -7.416086086446967  21.78155477481342  120.000000
9.36435  0.000000  0.000000  0.000000  -41.866543447354424  3.98541768311223  -0.1972095197286657  72.0810543125692  -4.718251602616626  28.481107588583253  18.140065033032222  35.87523622127491  -17.254931723660295  21.413112582034913  120.000000
9.421800000000001  0.000000  0.000000  0.000000  -43.156028482084956  7.683085822121274  5.400886086737397  73.23072579960356  -4.423634122138783  28.529967589484375  25.447214628859847  36.42934075262117  -28.222532742731797  20.920657049978164  120.000000
9.47925  0.000000  0.000000  0.000000  -44.76975980973936  11.662504772736474  12.252434114091496  73.79448136700394  -4.46742203441502  28.29449929045014  32.91416089377921  37.5728190724934  -39.702869370355494  20.34429654118993  120.000000
9.5367  0.000000  0.000000  0.000000  -46.872052317259474  15.582297367665909  20.05749839646994  73.57177700797362  -4.862286297738765  27.814805356933473  40.24264623097888  39.29919598782664  -50.978146969895924  19.720655655089374  120.000000
9.59415  0.000000  0.000000  0.000000  -49.3301347793704  19.05122755016546  28.339261498413812  72.54871377881916  -5.555646527704603  27.143243866338597  47.02796034395885  41.48596351346408  -61.26998492654215  19.11660271202396  120.000000
9.6516  0.000000  0.000000  0.000000  -51.82454837274334  21.79930500930641  36.490292284309405  70.91236001060115  -6.4488424256190315  26.32781842001751  52.75700484829496  43.89788772789968  -69.81852320129744  18.57967077058814  120.000000
9.70905  0.000000  0.000000  0.000000  -54.059393135572996  23.678875239957765  43.8957146164761  68.97385677353034  -7.428868920236304  25.41292127974339  57.067178794896925  46.20341548874964  -76.17391576379316  18.122331111656955  120.000000
9.7665  0.000000  0.000000  0.000000  -55.81771582813679  24.693662117709273  50.08312983787269  67.07772080534295  -8.404682620085774  24.424413142801797  59.90531205404491  48.127991983314736  -80.32177455712038  17.773521940947138  120.000000
9.82395  0.000000  0.000000  0.000000  -56.95868412386171  24.989918900800895  54.78240975306121  65.48439464809249  -9.29964681330858  23.377389478651445  61.47683657376802  49.55259677620055  -82.5839804975044  17.551846464339796  120.000000
9.8814  0.000000  0.000000  0.000000  -57.44533278792826  24.787290554185397  57.93272170993161  64.29802251162543  -10.052282986697776  22.30050789569948  62.166218166133376  50.479958458157085  -83.46768168015797  17.451984722791224  120.000000
9.93885  0.000000  0.000000  0.000000  -57.44576008941747  24.435311017219217  59.717838526446684  63.49718439465124  -10.700785607989994  21.259826580580906  62.409073410591304  50.96802795910675  -83.50656734025559  17.445520612929176  120.000000
9.9963  0.000000  0.000000  0.000000  -57.19314010288252  24.244989646806623  60.4036724104864  63.00457238363741  -11.352710180367191  20.30558553081436  62.54912464538071  51.07808134461834  -83.10928121312642  17.49199811608935  120.000000
10.05375  0.000000  0.000000  0.000000  -56.68471673468362  24.214561601843943  60.01856612308363  62.77770539192338  -12.022573039272874  19.405545014464856  62.729458545369745  50.90505925129809  -82.45307461858243  17.55671552817174  120.000000
10.1112  0.000000  0.000000  0.000000  -55.75702335377841  24.14421087789431  58.36140330865761  62.81448039808129  -12.646912167893289  18.500086111792193  62.89316607004844  50.585785738654806  -81.46781180447138  17.621024494406097  120.000000
10.16865  0.000000  0.000000  0.000000  -54.358136334544646  23.84792193661405  55.26301184880593  63.056419306321395  -13.181399469887353  17.589729117491025  62.93033155359593  50.21521172237122  -79.94251337121702  17.668982388361144  120.000000
10.2261  0.000000  0.000000  0.000000  -52.547870571620074  23.132349937274316  50.66250035181463  63.31486464977254  -13.487434656751708  16.686951251222954  62.825293490543196  49.80611861783919  -77.671791844014  17.685342356012413  120.000000
10.28355  0.000000  0.000000  0.000000  -50.44275939038833  21.82750394022361  44.615471451984384  63.334500794342986  -13.298825631109006  15.761257076241103  62.62540711122314  49.32317981618759  -74.52522417531621  17.66483042355352  120.000000
10.341000000000001  0.000000  0.000000  0.000000  -48.21699641969655  19.879250657356927  37.326806155795865  62.901010890712904  -12.421922863197354  14.780859553521067  62.330783848204135  48.730502070543416  -70.47189013958322  17.606768708569117  120.000000
10.39845  0.000000  0.000000  0.000000  -46.051505773405026  17.39209724940879  29.137612476979506  61.85441110089727  -10.83837845150823  13.753474924012181  61.91033716514895  48.018954111086366  -65.61658843091692  17.520508144089565  120.000000
10.4559  0.000000  0.000000  0.000000  -44.06678220638884  14.608862670530396  20.484801600216198  60.10597499470228  -8.647979624132407  12.700992376536327  61.385037661845125  47.2381638555162  -60.23421648571939  17.462614586699434  120.000000
10.51335  0.000000  0.000000  0.000000  -42.28287337273805  11.84799266430401  11.831236185676046  57.658922756355615  -6.001261572775859  11.667498637476221  60.896017456921605  46.4714257114057  -54.76533436755433  17.520767086397424  120.000000
10.5708  0.000000  0.000000  0.000000  -40.6438018542981  9.374049174676895  3.5937408443219394  54.563458186821116  -3.0448408507218296  10.747704912850706  60.696276187652025  45.69029307365715  -49.69592303683868  17.782287751923402  120.000000
10.62825  0.000000  0.000000  0.000000  -39.125711662167696  7.266373729189873  -3.8889634465930634  50.90653962048198  0.0647556336567235  10.097075446218945  61.02717767264269  44.71115634679086  -45.41940157393449  18.293411137455706  120.000000
10.6857  0.000000  0.000000  0.000000  -37.750583223781994  5.557526522524498  -10.364043020862058  46.91537127337462  3.1827317440031897  9.86292983709157  62.00221692531343  43.323849421286035  -42.13741553989851  19.061753843976557  120.000000
10.74315  0.000000  0.000000  0.000000  -36.59346667436352  4.314103965701416  -15.70604994624441  42.97457911851697  6.152265236521087  10.092448865930368  63.53474802033486  41.41323905588414  -39.84997888614825  20.048012391588674  120.000000
10.8006  0.000000  0.000000  0.000000  -35.80291222698225  3.5709744002205333  -19.939480287864008  39.49138184783022  8.786217631631814  10.717282519163177  65.29707642733378  38.97161620751162  -38.38707502687062  21.109090567850327  120.000000
10.85805  0.000000  0.000000  0.000000  -35.53577433864662  3.3024464484783014  -23.153020618198113  36.83732796001974  11.005841616192384  11.575248635016319  66.84266220065865  36.050237438749235  -37.419984650166356  22.067316452826056  120.000000
10.9155  0.000000  0.000000  0.000000  -35.829492393471995  3.390929484859296  -25.416039375342237  35.22591629867393  12.884408463152683  12.51241696166148  67.86422359988234  32.698502160887415  -36.60414953871729  22.78937139955983  120.000000
10.97295  0.000000  0.000000  0.000000  -36.636052843903  3.6790958529886697  -26.779115135527356  34.558737851948436  14.515954786972076  13.48044059687893  68.4375528589318  28.958195046666148  -35.807904669915345  23.238319032001407  120.000000
11.0304  0.000000  0.000000  0.000000  -37.862123716107625  4.044246315086958  -27.33489938676234  34.510792833025135  15.96212216188067  14.498867156641012  68.97059028129172  24.907972444645843  -35.19265602937879  23.43099944740696  120.000000
11.08785  0.000000  0.000000  0.000000  -39.38542854156456  4.388339741801959  -27.198245668535222  34.802968284184274  17.298806875783978  15.522766494844728  69.99222643215778  20.70126626496728  -35.16169897972079  23.35733840019402  120.000000
11.1453  0.000000  0.000000  0.000000  -41.151555206004204  4.681170497948147  -26.435202321196257  35.35200575940985  18.591514746975793  16.40127462580439  72.32103922800474  16.556895108167566  -36.50899071747387  22.986579950551157  120.000000
11.20275  0.000000  0.000000  0.000000  -43.14888681979701  4.942266125397388  -25.09953271882111  36.156366712928836  19.859923912150254  16.978897443125557  77.51154708392816  12.723697448670594  -40.77409822025276  22.292114017155637  120.000000
11.260200000000001  0.000000  0.000000  0.000000  -45.375591691891266  5.19377978915841  -23.2793755958915  37.17867434133788  21.066902746641066  17.174196831914504  88.48522373000208  9.53160275264025  -50.85706498281195  21.248012781116657  120.000000
11.31765  0.000000  0.000000  0.000000  -47.7982930532277  5.447754364062405  -21.087949127827297  38.33783060982442  22.13223054719652  17.002467370282886  109.09057846958865  7.510084027341476  -70.56572632643666  19.844123289060583  120.000000
11.3751  0.000000  0.000000  0.000000  -50.364334079049904  5.66553540562766  -18.652010054507247  39.5455585958199  22.976440527211846  16.557524320348886  136.77653489420038  7.322617330751035  -97.3494272632873  18.081616067202958  120.000000
11.43255  0.000000  0.000000  0.000000  -53.0364007087085  5.770682987294168  -16.109216419793935  40.852927323056726  23.56995279586853  15.933287486028608  159.08686580865745  8.936658876759283  -118.79044899838014  16.035768419941487  120.000000
11.49  0.000000  0.000000  0.000000  -55.639792552311995  5.662363871363359  -13.617473531086242  42.39189792865846  23.883723041032383  15.213210260173094  172.3840505066305  11.64941819500681  -131.23867033883917  13.873167606052514  120.000000
