Simulation
nRows=201
nColumns=15
endheader
time  TH_x TH_y TH_z SC_y  SC_z  SC_x  AC_y  AC_z  AC_x  GH_y  GH_z  GH_yy  EL_x  PS_y
0.0  0.000000  0.000000  0.000000  -40.97484877243665  6.293857566463187  5.290427962726946  38.56639783978151  -1.5744013322769173  -7.799420324981083  100.22698309088378  6.876665983153324  -69.07314843610678  22.628890708411245  120.000000
0.05745  0.000000  0.000000  0.000000  -38.94144470314439  4.8870266526548765  4.083052457171656  39.98899323047063  -2.2937772002158163  -6.309482933996989  49.04374196506737  6.631191761632196  -21.696514382125258  22.06551471407876  120.000000
0.1149  0.000000  0.000000  0.000000  -36.980650507182006  3.3580976586313707  2.7283895430597633  41.55200402802599  -3.131636977525044  -4.700564527861709  16.697565321017418  10.208760791018465  6.916422902597525  21.674976246318362  120.000000
0.17235  0.000000  0.000000  0.000000  -35.25986700297315  1.657381073035861  1.2815383683083337  43.25187891123668  -4.179512549489231  -2.9016515922663633  1.7545853090059549  15.225579781629692  18.268948728744864  21.53940123613575  120.000000
0.2298  0.000000  0.000000  0.000000  -33.90214783689267  -0.256132755023461  -0.17679991988682256  45.134903794282145  -5.532999461587284  -0.8747580581554916  -6.7460357603376835  20.925614348979405  23.395458031358633  21.67744894405674  120.000000
0.28725  0.000000  0.000000  0.000000  -32.967714500740904  -2.3733951885273274  -1.5740126014281461  47.1701169085143  -7.18995800151263  1.3402020646492752  -12.47939428582788  27.11259546288872  25.98287489371306  22.01815826553752  120.000000
0.3447  0.000000  0.000000  0.000000  -32.43199404462045  -4.54988105934975  -2.811049102099946  49.206721182313956  -9.075117792710637  3.6458314926811095  -16.72027670926685  33.56001275034239  27.298666380669903  22.45486280774532  120.000000
0.40215  0.000000  0.000000  0.000000  -32.20262782828937  -6.555940414375918  -3.7757192038929532  51.06319085279429  -11.039322245717049  5.9097078456092165  -19.9189327002151  39.95508175591332  27.78017251577565  22.86942713801913  120.000000
0.4596  0.000000  0.000000  0.000000  -32.191083878283735  -8.127824274380929  -4.470952522502672  52.63290798863023  -12.799624232410357  8.021060404682538  -22.2187290006048  45.98626527847142  27.560158269304537  23.171063310522577  120.000000
0.51705  0.000000  0.000000  0.000000  -32.34561122530593  -9.063728540785444  -4.98932103597074  53.908700732498225  -14.009788291338358  9.879078202983061  -23.70926413751432  51.434817017374165  26.70785976311487  23.31060234266384  120.000000
0.5745  0.000000  0.000000  0.000000  -32.61529705540088  -9.306508451656061  -5.406429000548672  54.9675847886626  -14.412378824610222  11.41382719675166  -24.532681771447713  56.189699403671426  25.32610249096816  23.267838256611114  120.000000
0.63195  0.000000  0.000000  0.000000  -32.983616905689644  -8.90393954281467  -5.7962080298344265  55.92462678094277  -13.87708223032954  12.659267094949941  -24.884808208480298  60.20787302050818  23.57483527856221  23.049872266541538  120.000000
0.6894  0.000000  0.000000  0.000000  -33.51316972572635  -7.967124164646123  -6.227078278089311  56.89205911798224  -12.378053627482892  13.72586572385903  -24.978914165266108  63.49289785001638  21.67683304187556  22.687802384728695  120.000000
0.74685  0.000000  0.000000  0.000000  -34.350448957656184  -6.637466459110975  -6.758941301139416  57.93917711856776  -9.965174186175117  14.730179144417479  -24.904439033924348  66.04684260261104  19.779944050142113  22.227130817146996  120.000000
0.8043  0.000000  0.000000  0.000000  -35.6309856359418  -5.054769304819372  -7.419771038322792  59.04308026258212  -6.733017395945787  15.71949945895686  -24.576813107244234  67.83580562009227  17.849413868960127  21.714932595976137  120.000000
0.86175  0.000000  0.000000  0.000000  -37.32652871176181  -3.350773884210823  -8.166149358844958  60.11656675614676  -2.828917625664803  16.67976022789029  -23.920213205006146  68.86543453387044  15.802039565682763  21.187949491891157  120.000000
0.9192  0.000000  0.000000  0.000000  -39.25087050939609  -1.6537940715021597  -8.892781010679489  61.0554610741602  1.5364188725665597  17.576717954407037  -22.97153425318553  69.2184516571553  13.610529143624007  20.671459708898396  120.000000
0.97665  0.000000  0.000000  0.000000  -41.169668734758915  -0.06184125397858132  -9.475852439740759  61.77307700581537  6.094563619392093  18.378623222953333  -21.84702237831311  69.04496655464852  11.30255758186724  20.18021291225949  120.000000
1.0341  0.000000  0.000000  0.000000  -42.89072020170847  1.3811794894700968  -9.790242382593274  62.21424081839902  10.552139952649364  19.07914825425916  -20.679365728038633  68.53905058968357  8.95670200721114  19.719714593371883  120.000000
1.09155  0.000000  0.000000  0.000000  -44.31621301749977  2.686018691757524  -9.727497003223002  62.37112789995846  14.625222187735702  19.70017112773907  -19.557988000121313  67.90535913683271  6.687667212944673  19.29029541695174  120.000000
1.149  0.000000  0.000000  0.000000  -45.43165799425868  3.892369402383043  -9.218494131803535  62.282241998458844  18.077240990697987  20.27228707992173  -18.525039045667153  67.31748271460368  4.626561280163568  18.89000132932221  120.000000
1.20645  0.000000  0.000000  0.000000  -46.28598287796565  5.033384591877067  -8.256604290483557  62.014996046987534  20.764838823921195  20.81145714299868  -17.590005955028438  66.88673784588468  2.884025032866515  18.516665105122833  120.000000
1.2639  0.000000  0.000000  0.000000  -46.95610294208245  6.117620452384942  -6.908135548222515  61.653560965676775  22.657221147929455  21.30730081253324  -16.750918387562816  66.65402321703971  1.5187926600372859  18.168847604016882  120.000000
1.32135  0.000000  0.000000  0.000000  -47.512332197509814  7.117185215875136  -5.303323841540033  61.281823098713105  23.829608377629295  21.73228058712255  -16.001367321098726  66.59839365507099  0.5218549773890171  17.849831540740915  120.000000
1.3788  0.000000  0.000000  0.000000  -47.99327580279355  7.982609247752159  -3.6209770098861935  60.96870500466113  24.425781196477526  22.050798727984095  -15.342706080766831  66.66058381754746  -0.17142796165322643  17.565247917075265  120.000000
1.43625  0.000000  0.000000  0.000000  -48.40118722932447  8.656470375618568  -2.0556293251752935  60.758281729549424  24.611847727809124  22.234995508288534  -14.786057453234406  66.76910061588583  -0.6541397686512441  17.322668389352998  120.000000
1.4937  0.000000  0.000000  0.000000  -48.71222861678209  9.093865548591003  -0.793208198034687  60.67515490735648  24.53479032742794  22.26992500676671  -14.348000786805175  66.86402677934505  -1.0194033143244279  17.12956363978244  120.000000
1.55115  0.000000  0.000000  0.000000  -48.895504077704004  9.268029441696658  0.013442464757280455  60.73097665295078  24.296706995373864  22.15866796818218  -14.046494483785148  66.9110229962757  -1.3375299701364824  16.992088972086137  120.000000
1.6086  0.000000  0.000000  0.000000  -48.93024848749092  9.173076213970582  0.255713976535264  60.93262758932307  23.94064554400964  21.919739409052248  -13.89502614291033  66.9116752608079  -1.6464350982972231  16.913618195961067  120.000000
1.66605  0.000000  0.000000  0.000000  -48.816153166063216  8.823674220410451  -0.10989783944580918  61.274545562332996  23.456794380705617  21.59444923574581  -13.90166958106886  66.87944646988568  -1.9495305793636968  16.89341041914664  120.000000
1.7235  0.000000  0.000000  0.000000  -48.57264395657458  8.255185861128805  -1.0480543093610217  61.72983911041399  22.796959201098897  21.248177170740604  -14.067860699489842  66.815229851952  -2.221506767381582  16.92515839090808  120.000000
1.78095  0.000000  0.000000  0.000000  -48.21728825931728  7.515551534709856  -2.4583070525201287  62.25195748649319  21.878607770337997  20.957295788908837  -14.386873155552177  66.73202303212422  -2.4242467055676626  16.993384130510186  120.000000
1.8384  0.000000  0.000000  0.000000  -47.74328804751748  6.649299224898985  -4.191217507306023  62.781427490487864  20.59854545252634  20.78964711347767  -14.848946717567127  66.6700563558647  -2.5212334204492675  17.076083963968905  120.000000
1.89585  0.000000  0.000000  0.000000  -47.10508970497585  5.69220900861517  -6.064378873134147  63.2512699200791  18.859823787910656  20.785509267290404  -15.451311034621625  66.67569003108774  -2.490500035350786  17.148477552561225  120.000000
1.9533  0.000000  0.000000  0.000000  -46.22605672318632  4.65576536543077  -7.880127223439653  63.59876390907222  16.600038957984946  20.939530483453034  -16.20354132949678  66.77698171153325  -2.3336859932791003  17.192335031102196  120.000000
2.01075  0.000000  0.000000  0.000000  -45.024829673890245  3.5251350782249338  -9.454705786467699  63.77431280085502  13.805280017121488  21.192279730550396  -17.12241787525949  66.96668050141447  -2.0842399452655496  17.196735078100804  120.000000
2.0682  0.000000  0.000000  0.000000  -43.46435599891348  2.255809656656993  -10.634662627969966  63.74571069203106  10.512666894139459  21.437134958407917  -18.210968545354625  67.19778134544198  -1.8045676625835085  17.159833581978084  120.000000
2.1256500000000003  0.000000  0.000000  0.000000  -41.59632316066826  0.7943382896993224  -11.312163788685751  63.49644556475581  6.798035791688507  21.5416969895022  -19.43266572082148  67.4039075364932  -1.5735989549987308  17.078493662292818  120.000000
2.1831  0.000000  0.000000  0.000000  -39.59515176218499  -0.867804598099447  -11.411696084983303  63.01215168599094  2.7855237783231237  21.370908087554447  -20.69704677936953  67.45869603315012  -1.446735496611461  16.949433211818224  120.000000
2.24055  0.000000  0.000000  0.000000  -37.70668864114035  -2.637606943849564  -10.88296360265965  62.294586683257585  -1.3437964343803876  20.808361667357627  -21.86104005918982  67.14675525708417  -1.4189282194855686  16.77239569973875  120.000000
2.298  0.000000  0.000000  0.000000  -36.15459789226304  -4.358068997376728  -9.743014458486096  61.3741494965972  -5.393336262017866  19.781746530583735  -22.773282682923067  66.26307385660117  -1.4200699914523802  16.54363058169104  120.000000
2.3554500000000003  0.000000  0.000000  0.000000  -35.04860044350372  -5.89491681936573  -8.093614663580272  60.27225224534872  -9.183939140787139  18.2679899799117  -23.373523439401744  64.68923899129973  -1.3217560066659535  16.24864732683798  120.000000
2.4129  0.000000  0.000000  0.000000  -34.32890669432089  -7.141231351743372  -6.089132626475272  59.001403078257724  -12.538971665867452  16.29589454648574  -23.695355442608992  62.37683330307233  -0.9796593944100955  15.86232630501428  120.000000
2.47035  0.000000  0.000000  0.000000  -33.84058727037506  -8.008903389752625  -3.9091345200612153  57.580716308498374  -15.276203487246038  13.929273633007835  -23.762828783704975  59.32400996730567  -0.2821687677997541  15.388868665429282  120.000000
2.5278  0.000000  0.000000  0.000000  -33.45247948390409  -8.441780650585853  -1.7389710900569941  56.03942237227794  -17.226340614268345  11.262346896362114  -23.50787757319869  55.55778823329896  0.8118806880617266  14.877267836381785  120.000000
2.5852500000000003  0.000000  0.000000  0.000000  -33.10130853918839  -8.410280438279592  0.24578957706184473  54.43073973756814  -18.251657379190593  8.428199938235936  -22.763852741439983  51.1141218024362  2.2505296838937996  14.403925090992994  120.000000
2.6427  0.000000  0.000000  0.000000  -32.78325087890753  -7.90960492905612  1.8780949089824606  52.81392713223721  -18.268477548037108  5.601565861507233  -21.330866790179098  46.04759095469769  3.892025299355716  14.038985153824227  120.000000
2.70015  0.000000  0.000000  0.000000  -32.54762666305516  -6.962571284604129  2.9984626652379536  51.22717420941159  -17.28810470191513  2.9999909610868625  -19.027047322330297  40.45856969044905  5.5065132425879195  13.824681628752593  120.000000
2.7576  0.000000  0.000000  0.000000  -32.47948415297973  -5.648147595856055  3.4766485204947184  49.695220363672256  -15.430544499149944  0.858651275238386  -15.672624750410092  34.54503443870701  6.751481503054818  13.772196138539364  120.000000
2.8150500000000003  0.000000  0.000000  0.000000  -32.66104458475707  -4.1160732190967915  3.2367294836307083  48.243133872968  -12.872269364753505  -0.6332382502617467  -11.05109048948951  28.61483644891336  7.1572416579239615  13.869578746985582  120.000000
2.8725  0.000000  0.000000  0.000000  -33.15783957812391  -2.567274875072619  2.3642691897451154  46.89275598777705  -9.856658869808905  -1.4484711178668308  -4.869335399892958  23.039561432200095  6.133911905225667  14.099357871320066  120.000000
2.92995  0.000000  0.000000  0.000000  -33.99683350355381  -1.168576312412878  1.153991086654861  45.670891301821456  -6.729593417569566  -1.7308618666187845  3.334793878350408  18.164879360711097  2.9351688689311306  14.442706751000578  120.000000
2.9874  0.000000  0.000000  0.000000  -35.14231539601201  -0.005768102370022407  -0.03600079794965142  44.61989238134007  -3.8314137769958014  -1.6993742101671785  14.197221203136532  14.248415560431985  -3.3078261919748915  14.872589949525993  120.000000
3.0448500000000003  0.000000  0.000000  0.000000  -36.50969662688798  0.8750466622671842  -0.9748953600745632  43.78048245651624  -1.3358937308004202  -1.5499553863375737  28.070035629480344  11.444648605677232  -13.109194614432813  15.34867031364429  120.000000
3.1023  0.000000  0.000000  0.000000  -37.99128597722402  1.5081871178632051  -1.619313695635066  43.1678927755308  0.7365269538173836  -1.373208736120502  44.14555374396221  9.759627858715554  -25.739903689331662  15.828858630233945  120.000000
3.15975  0.000000  0.000000  0.000000  -39.49282086212664  1.9714017710208962  -2.0053800522473746  42.76674406038309  2.4171002778405017  -1.209446903335685  60.12201179969189  9.018148481555817  -38.89889241638412  16.284640725493166  120.000000
3.2172  0.000000  0.000000  0.000000  -40.93063750612792  2.31270329667429  -2.1844436310370443  42.53055869298035  3.76042259003041  -1.085712585119443  73.59767943379488  8.89680328271437  -50.131757482412304  16.701302353707497  120.000000
3.2746500000000003  0.000000  0.000000  0.000000  -42.229173929399366  2.564085461808125  -2.2113422013823114  42.399383909483774  4.823302727633942  -1.0094188943534055  83.67373013803395  9.067519813072845  -58.450330486399025  17.08100160234577  120.000000
3.3321  0.000000  0.000000  0.000000  -43.32049321858763  2.749659275098041  -2.1328652027102266  42.31872091878631  5.651135923241804  -0.9938571296960746  90.68138881230294  9.310662497083214  -64.08654858434991  17.435122303301263  120.000000
3.38955  0.000000  0.000000  0.000000  -44.15183638796822  2.885649974735212  -1.9891481019312602  42.249463247822845  6.273020591835806  -1.056438726734838  95.27155820904686  9.524891146627432  -67.60784053340902  17.775021993596575  120.000000
3.447  0.000000  0.000000  0.000000  -44.69405852106071  2.983965672166471  -1.8130254510881316  42.165667282157656  6.693681250697655  -1.1962523613043503  97.98317606499802  9.687514477321766  -69.49925288296494  18.111117774084395  120.000000
3.5044500000000003  0.000000  0.000000  0.000000  -44.935058495339625  3.053032136804427  -1.6366199596284083  42.06809104847698  6.905788538167041  -1.3944214140372846  99.15689756610192  9.816551349511709  -70.08078915804403  18.451320702719997  120.000000
3.5619  0.000000  0.000000  0.000000  -44.878868162119495  3.095130624112276  -1.4898240117954529  41.97028246042449  6.904259458246983  -1.6147552883433922  99.015996900918  9.932037085075043  -69.5795217440792  18.802650955877528  120.000000
3.61935  0.000000  0.000000  0.000000  -44.539688741758674  3.1012745810415963  -1.3953740703653212  41.87997518627263  6.694436794823404  -1.803591442053354  97.74405302248127  10.028464869610362  -68.19959527845774  19.165624678576922  120.000000
3.6768  0.000000  0.000000  0.000000  -43.9400179899475  3.063150731568497  -1.370597026956349  41.82419148688703  6.293193820126353  -1.9030515429133332  95.43184932196985  10.080644484524813  -66.06014485518344  19.53868226627879  120.000000
3.7342500000000003  0.000000  0.000000  0.000000  -43.107707780562  2.9836770392249017  -1.422044388271559  41.86500108076998  5.719961791312403  -1.8686571448217912  92.01390496137384  10.062124350992022  -63.12428793405628  19.919509072787935  120.000000
3.7917  0.000000  0.000000  0.000000  -42.08610784100643  2.865073239529447  -1.5527537864388878  42.07315349841256  4.999945133251532  -1.663683083189019  87.23313689050967  9.95863295486073  -59.14959890037487  20.305490590669056  120.000000
3.84915  0.000000  0.000000  0.000000  -40.93424218860114  2.6983383327088863  -1.75918690786325  42.4951920199786  4.157941381825743  -1.2512175847229294  80.66005532886338  9.780820098793056  -53.69298713588111  20.693940059428336  120.000000
3.9066  0.000000  0.000000  0.000000  -39.72012493208297  2.4692351505667913  -2.032738698858729  43.155462089351126  3.2124724135212053  -0.5995528395184557  71.71083975369001  9.596240905136263  -46.123346255767345  21.084911013260502  120.000000
3.9640500000000003  0.000000  0.000000  0.000000  -38.5074483027295  2.1632175221893646  -2.3605463520289054  44.08290119816655  2.170885398949302  0.2945924667705096  59.84321509498428  9.580919287470103  -35.824716063676306  21.480668209533302  120.000000
4.0215  0.000000  0.000000  0.000000  -37.36342645432401  1.7385269929789346  -2.738803873866736  45.28494132143017  1.0336807970741586  1.4323844084428208  45.216090200462  10.033636719929014  -22.867598481745897  21.8755840219008  120.000000
4.07895  0.000000  0.000000  0.000000  -36.348179851667055  1.152815893640603  -3.184014155880864  46.729139702924414  -0.22194944762683538  2.8478048149498436  29.51706027512177  11.308866598225398  -8.842408325824719  22.26345233590456  120.000000
4.1364  0.000000  0.000000  0.000000  -35.4930187772157  0.37298479210551183  -3.7347975173970176  48.392284430516774  -1.624042880495116  4.553615554065913  15.29746771919845  13.669511714056751  3.775715400908469  22.6258062890677  120.000000
4.19385  0.000000  0.000000  0.000000  -34.8009340725515  -0.610556077696836  -4.4304671654037415  50.23344364115269  -3.1818344906607954  6.527561447546179  4.098144250841681  17.141221626890236  13.49767865475593  22.92830590366804  120.000000
4.2513000000000005  0.000000  0.000000  0.000000  -34.293181830492415  -1.7722028057234909  -5.255264222724247  52.16682049991785  -4.9027153302753765  8.735010727447932  -4.0143288021871495  21.521304811165408  20.290782595991256  23.14949563459166  120.000000
4.30875  0.000000  0.000000  0.000000  -34.00440133031781  -3.0692427415884147  -6.194893600030815  54.102627630720825  -6.703700808760072  11.140714286461634  -9.586741563797812  26.467501427390765  24.71638835453086  23.275091888135627  120.000000
4.3662  0.000000  0.000000  0.000000  -33.919030742145985  -4.384954946359941  -7.224345597669918  55.959334772598474  -8.396760000131668  13.686032226923102  -13.218137902865896  31.548559856203855  27.371649789459365  23.316073912966274  120.000000
4.42365  0.000000  0.000000  0.000000  -33.990434987877585  -5.549356769868848  -8.245430691660887  57.68908513605115  -9.762611365213846  16.23425036508722  -15.386498445014952  36.35674825132892  28.69067490035767  23.316762876201608  120.000000
4.4811  0.000000  0.000000  0.000000  -34.18940645174416  -6.409401882928749  -9.11761002595742  59.30469752962462  -10.595817243715427  18.597135495989956  -16.41397722126587  40.6170826122679  28.916503972953112  23.32520796248581  120.000000
4.53855  0.000000  0.000000  0.000000  -34.55441375206335  -6.819282150368568  -9.695006794423806  60.86873016965979  -10.782587376791293  20.637253690394587  -16.545823330567544  44.20477470855807  28.19843590797253  23.388044990697047  120.000000
4.596  0.000000  0.000000  0.000000  -35.16110146491486  -6.637982196286495  -9.848350373060113  62.45412808170249  -10.34687861378424  22.321909436713543  -16.01857800418378  47.10813976433532  26.673935844482692  23.534886125365404  120.000000
4.65345  0.000000  0.000000  0.000000  -36.09367333711715  -5.7572916069089715  -9.457550901861026  64.11235430143276  -9.462991956317628  23.72479985109369  -15.008962564313517  49.388822018003495  24.46760972863441  23.77301173417535  120.000000
4.7109000000000005  0.000000  0.000000  0.000000  -37.35079933654267  -4.137272263438211  -8.39829053155927  65.86651855923594  -8.391509550095922  24.96464277954599  -13.660433251025843  51.152097790311515  21.70091994317782  24.07447146072622  120.000000
4.76835  0.000000  0.000000  0.000000  -38.740849860619775  -1.864329788675666  -6.564700796480752  67.65493028833046  -7.329766795395134  26.08511527520925  -12.21385860380381  52.48422428449835  18.560695739193232  24.35056298401743  120.000000
4.8258  0.000000  0.000000  0.000000  -40.018236547948646  0.8507372273222799  -3.9332619456631237  69.33796572285743  -6.373839577730956  27.021320652721023  -10.94909646892058  53.44106149783524  15.265548477648819  24.503662480855876  120.000000
4.88325  0.000000  0.000000  0.000000  -41.08375793820065  3.7628260684088817  -0.571443140998462  70.79033327378013  -5.599114818402978  27.700554526359234  -10.001364416260337  54.09962392958762  11.957086961141508  24.474605869061683  120.000000
4.9407  0.000000  0.000000  0.000000  -42.01820628094858  6.660963335654797  3.3990791854995046  71.94152746298182  -5.069361572491581  28.093919425251286  -9.313241587032753  54.56893550884171  8.676936287558496  24.253090215417526  120.000000
4.99815  0.000000  0.000000  0.000000  -42.97774958993852  9.397346539373894  7.834196566355241  72.760057537343  -4.810571401042036  28.20130019346501  -8.730378641530372  54.95148436845666  5.420269499546109  23.864583300346172  120.000000
5.0556  0.000000  0.000000  0.000000  -44.06578470853512  11.886448828653906  12.591901405132099  73.23475818002534  -4.817173326584055  28.0495382694164  -8.128877754733761  55.31922009723791  2.194558112002852  23.337959079605632  120.000000
5.11305  0.000000  0.000000  0.000000  -45.28502435914137  14.084680188315547  17.528422210113266  73.37273608880551  -5.05777680044362  27.68343208904624  -7.478097553960171  55.71088863613025  -0.9503634239031097  22.702181356319695  120.000000
5.1705000000000005  0.000000  0.000000  0.000000  -46.570425054255  15.969420588850296  22.490553450286775  73.2049241483906  -5.482082055904796  27.157162940901554  -6.82297976593111  56.1403283400293  -3.9317398706936224  21.99553144547529  120.000000
5.22795  0.000000  0.000000  0.000000  -47.837634743253474  17.527472630444016  27.309409146633374  72.79033800243994  -6.02925311037976  26.526876583304194  -6.228374176463722  56.608452635793235  -6.666746577088297  21.267698315566573  120.000000
5.2854  0.000000  0.000000  0.000000  -49.01823925850041  18.75223097418511  31.803025825328373  72.2113795501336  -6.635594721364309  25.847446123580152  -5.732503949365778  57.10481855265441  -9.099221559961952  20.573322116468308  120.000000
5.34285  0.000000  0.000000  0.000000  -50.05724574984681  19.651758455866197  35.78409539845267  71.56093242604707  -7.243324250472114  25.16834174802622  -5.338358883603945  57.614135741592065  -11.20672495785468  19.95537826140652  120.000000
5.4003  0.000000  0.000000  0.000000  -50.90657829472096  20.251925773660883  39.07090878629167  70.93023762277383  -7.804532962433872  24.532856813218856  -5.0273584989876  58.11701872608552  -12.991394653993874  19.43486727411699  120.000000
5.45775  0.000000  0.000000  0.000000  -51.51979777210036  20.59283978421092  41.49664828063451  70.39956924472678  -8.284102493201676  23.975249494372253  -4.777898203374868  58.59018422019972  -14.466258960484799  19.013812551599433  120.000000
5.5152  0.000000  0.000000  0.000000  -51.85300635477156  20.71484881767796  42.920023834815105  70.03216157069967  -8.658639034119666  23.520938043895786  -4.578248987617561  59.007785364042775  -15.642907901840093  18.68649416965135  120.000000
5.57265  0.000000  0.000000  0.000000  -51.866846637933456  20.642296534540055  43.23440254196476  69.8688106875672  -8.914248630346494  23.187759778257938  -4.432464766237833  59.34476449248762  -16.52188487159652  18.452723056027033  120.000000
5.6301000000000005  0.000000  0.000000  0.000000  -51.53059227032757  20.368325455314274  42.376759626948065  69.9216203597637  -9.044020241104455  22.988280862424524  -4.360352456914261  59.57924381325948  -17.085897719287825  18.324995840047375  120.000000
5.68755  0.000000  0.000000  0.000000  -50.829225472460585  19.849793286787627  40.337014116967175  70.16824837244786  -9.048493076100431  22.928645603800117  -4.39556868334989  59.69535090841884  -17.293878725866534  18.326251793754718  120.000000
5.745  0.000000  0.000000  0.000000  -49.775685466604976  19.015930062006902  37.16851030799093  70.54895694684619  -8.939150868090755  23.003948883137195  -4.581596954968368  59.6863806062154  -17.080484210965608  18.475088163104374  120.000000
5.80245  0.000000  0.000000  0.000000  -48.423249497962786  17.78585767457551  32.99684858345216  70.96743698442513  -8.74373152779017  23.192173318459268  -4.962865376426207  59.55969929768431  -16.365834680752553  18.765489323026138  120.000000
5.8599  0.000000  0.000000  0.000000  -46.87041704247871  16.09462335209141  28.020224291557277  71.29831955684571  -8.510387875164573  23.449947757122466  -5.567249949489407  59.33919999692938  -15.080137116259431  19.149263406320816  120.000000
5.91735  0.000000  0.000000  0.000000  -45.25169567807153  13.912877868875034  22.49863676886416  71.40284608194494  -8.306093951138525  23.714317956145074  -6.386215609471665  59.06079554095759  -13.197188138232672  19.541196301201627  120.000000
5.9748  0.000000  0.000000  0.000000  -43.707471773243505  11.265860279653266  16.73236454010512  71.15557381939773  -8.207136662437735  23.909851186899346  -7.369749970893688  58.759260190520784  -10.764973905662329  19.84034426639681  120.000000
6.03225  0.000000  0.000000  0.000000  -42.32814948882181  8.23636105054706  11.042362335194367  70.48326027774911  -8.277787683551185  23.96476169192426  -8.445613129718906  58.445893751412775  -7.913961650528612  19.960746709302576  120.000000
6.089700000000001  0.000000  0.000000  0.000000  -41.09792399881299  4.960271131359429  5.746348023681053  69.39589783146008  -8.554092446142763  23.819376618467608  -9.562250751408326  58.08040596142896  -4.833060246200238  19.85275540145445  120.000000
6.14715  0.000000  0.000000  0.000000  -39.91015817869556  1.617189629546224  1.1385615330996297  67.97088116988395  -9.044348872933451  23.427335003198962  -10.72651424050934  57.54626030720567  -1.717789809842561  19.503282007208966  120.000000
6.2046  0.000000  0.000000  0.000000  -38.64630292359536  -1.5639153235143857  -2.5369129289191257  66.31698892373497  -9.73384113856336  22.756330049319967  -11.959770066681482  56.67542468809424  1.2628364493265547  18.92336746385072  120.000000
6.26205  0.000000  0.000000  0.000000  -37.30546114856611  -4.3076786945294145  -5.119612948081669  64.56049196209669  -10.581464684754504  21.80748514463199  -13.168736709163216  55.30133557204519  3.961718234171531  18.16566503900842  120.000000
6.3195  0.000000  0.000000  0.000000  -36.05059344303742  -6.357137193648663  -6.5656159255260205  62.84525588300449  -11.52632249927293  20.617378928000587  -14.105217461557935  53.32331735344478  6.251277260057785  17.33237163496957  120.000000
6.37695  0.000000  0.000000  0.000000  -35.0728383085776  -7.559865854943965  -6.937053004955016  61.30163339181813  -12.517317788622266  19.238152494336333  -14.525675146309634  50.73739508379496  8.06741216942126  16.546716177432558  120.000000
6.4344  0.000000  0.000000  0.000000  -34.455565598652676  -7.900437258576595  -6.375242851974832  59.981293762741586  -13.511240723264587  17.725852684981366  -14.338608453058294  47.59945652053182  9.428570291259966  15.894628254902287  120.000000
6.49185  0.000000  0.000000  0.000000  -34.146877349592515  -7.517456593105613  -5.115167761812839  58.83450070170587  -14.364329246775384  16.068725772528797  -13.546207820137655  43.96004357728465  10.36847101993518  15.406898770685386  120.000000
6.549300000000001  0.000000  0.000000  0.000000  -34.05109728452143  -6.640439209548706  -3.474939140992545  57.769719383374024  -14.815707597054724  14.214345408397307  -12.086840139376138  39.84580408936959  10.843138375864449  15.12148234087763  120.000000
6.60675  0.000000  0.000000  0.000000  -34.07216660519683  -5.494157194400498  -1.7869362829098159  56.708648754958  -14.644717035646215  12.18085990864683  -9.791709704143084  35.32895233742369  10.69135082489278  15.062980389333374  120.000000
6.6642  0.000000  0.000000  0.000000  -34.15193505926544  -4.239624423402148  -0.34159805623559986  55.592597100081505  -13.77593749256865  10.087093071800929  -6.411574313586346  30.566138517686362  9.6498280477823  15.226400139678384  120.000000
6.72165  0.000000  0.000000  0.000000  -34.30770094659413  -2.9930929935279083  0.6386446802008418  54.37949166878825  -12.259399855358325  8.084674284197481  -1.6139214155537291  25.799566898954282  7.359953808589991  15.580661713267387  120.000000
6.7791  0.000000  0.000000  0.000000  -34.58772285013723  -1.885142232462941  1.0259258963120057  53.04695028612876  -10.210443675982656  6.276323221307484  4.996603539281635  21.342599515955868  3.3899048901139994  16.05560336889321  120.000000
6.83655  0.000000  0.000000  0.000000  -35.03122368009217  -0.9937055089156571  0.8114735217266262  51.61248497287262  -7.784221741463791  4.7290330020399765  13.790302042969081  17.500785164406235  -2.67387047891084  16.56335708918441  120.000000
6.894  0.000000  0.000000  0.000000  -35.63335432521346  -0.33485061696458074  0.11870136013104994  50.132400026042475  -5.16591689562878  3.4739145261447737  24.92595107067101  14.49872934739667  -11.03780207246018  17.012593690242134  120.000000
6.95145  0.000000  0.000000  0.000000  -36.374112167705775  0.10256153950948878  -0.8683032796202466  48.67744254141541  -2.5306163629168545  2.5223601002910248  38.05468081784236  12.434628340380984  -21.399061040450903  17.33120041856259  120.000000
7.008900000000001  0.000000  0.000000  0.000000  -37.22482717206566  0.36256591570235686  -2.0038637403000674  47.299377605295234  0.014047699335352019  1.8646163511129772  52.01431656781872  11.249012425022906  -32.650574255557224  17.48080147888701  120.000000
7.06635  0.000000  0.000000  0.000000  -38.14407894165471  0.5064508289450065  -3.1809900898863193  46.033227140903854  2.4073601157421898  1.4538221306071735  65.2407786738218  10.7518325938207  -43.301422302618356  17.472182139583644  120.000000
7.1238  0.000000  0.000000  0.000000  -39.095406569246606  0.5860884668692704  -4.30986779059619  44.89835864328712  4.59288829040516  1.2391977860712518  76.66446614498098  10.706062885506327  -52.36565173703688  17.368928855974044  120.000000
7.18125  0.000000  0.000000  0.000000  -40.05454887964647  0.6306050993385242  -5.3236450683671634  43.9058106376085  6.526291851279647  1.1768438506345618  85.97719220319799  10.90620483406227  -59.616818181874045  17.257609115854546  120.000000
7.2387  0.000000  0.000000  0.000000  -41.00017221812332  0.664237697636262  -6.181016974608042  43.076475589704046  8.182664701759757  1.2222873331166562  93.34548102807669  11.209999600480867  -65.2845715013173  17.213777781562943  120.000000
7.29615  0.000000  0.000000  0.000000  -41.90799519779985  0.7075123451268507  -6.858994544365629  42.43473474353073  9.55451895167121  1.3343036367905845  99.0913126040631  11.524073256237186  -69.7222723506161  17.273708584989134  120.000000
7.3536  0.000000  0.000000  0.000000  -42.75002427916778  0.7758888060910809  -7.346247466679323  41.996639030385566  10.646383701429649  1.478757816358715  103.54523185272248  11.787089611057747  -73.2540335703006  17.429393180384523  120.000000
7.41105  0.000000  0.000000  0.000000  -43.496732450880614  0.8772739502407695  -7.639134075458749  41.75847151925394  11.470939365821978  1.6299894805624293  107.00229361526968  11.960390559347978  -76.1335979523944  17.64571081754946  120.000000
7.468500000000001  0.000000  0.000000  0.000000  -44.128731587359184  1.0098531007623643  -7.739852189087602  41.687081846707386  12.045134361027506  1.7707175275884606  109.70922756212163  12.02518325977952  -78.54321217997108  17.882540614671377  120.000000
7.52595  0.000000  0.000000  0.000000  -44.641608385291654  1.1671335080975613  -7.658648995150388  41.727333555990214  12.388656890977426  1.886903182688551  111.85950255269077  11.982169047851809  -80.60339784727788  18.112456690644603  120.000000
7.5834  0.000000  0.000000  0.000000  -45.03949335733043  1.3502386894372924  -7.417259728638125  41.831515418468314  12.523328705477796  1.963014852148782  113.58320383412804  11.852078070394079  -82.37742149568808  18.328493286181608  120.000000
7.64085  0.000000  0.000000  0.000000  -45.33467373944911  1.5620780455072507  -7.044579003985043  41.967563872511185  12.474549371627566  1.9844475071842211  114.95369558536092  11.665301489474116  -83.89102865520854  18.536566501044106  120.000000
7.6983  0.000000  0.000000  0.000000  -45.546237246393176  1.7992945559676075  -6.568594160495996  42.112117267438364  12.271495646534595  1.9423122283820513  116.02530520335405  11.443674245251128  -85.16834207270264  18.743942426324285  120.000000
7.75575  0.000000  0.000000  0.000000  -45.69349387093259  2.0545961870625216  -6.01272344035129  42.25062977029902  11.943211942866466  1.8370714356945228  116.86285640949392  11.19690434162711  -86.2562100812453  18.953583503605124  120.000000
7.8132  0.000000  0.000000  0.000000  -45.79568936055156  2.319814932687118  -5.39614522011282  42.38028371577642  11.51475927739058  1.6781792709371188  117.52530417682233  10.927688570182832  -87.20420500338616  19.16321958486336  120.000000
7.87065  0.000000  0.000000  0.000000  -45.87028725485474  2.589356801640187  -4.736471963106205  42.50955466891689  11.006484989929149  1.4800552426991311  118.0469974853389  10.636583581869411  -88.04322764754465  19.367885964251823  120.000000
7.928100000000001  0.000000  0.000000  0.000000  -45.930077950844364  2.855698075442091  -4.051769821023534  42.65374655883699  10.433799352558344  1.2598898862355146  118.4311501359394  10.325845557296931  -88.77548195153074  19.564422546167876  120.000000
7.98555  0.000000  0.000000  0.000000  -45.977655179660665  3.103894649824811  -3.3619715625748876  42.828726863588464  9.808455150506118  1.035914799111357  118.66046500402572  10.002194213255933  -89.38072664211866  19.75714977433287  120.000000
8.043  0.000000  0.000000  0.000000  -46.00424995675258  3.312912490781339  -2.6901020302827665  43.04278812941007  9.141346121925267  0.8247590248546272  118.70395123670635  9.673584397248367  -89.82041197304319  19.959765206439943  120.000000
8.10045  0.000000  0.000000  0.000000  -45.995248382272784  3.4638400594534233  -2.062250280033627  43.28466139189232  8.449312898404669  0.6341639851215884  118.51352483526846  9.33674470427492  -90.03582858335585  20.189240137119377  120.000000
8.1579  0.000000  0.000000  0.000000  -45.93717069500648  3.5536742701755966  -1.5042715481016675  43.51867058816746  7.7595779313073345  0.44963308991531536  117.99478045629904  8.967185957684109  -89.92687227483877  20.452872869164384  120.000000
8.21535  0.000000  0.000000  0.000000  -45.816531080295775  3.5899968501314845  -1.0465417556184615  43.689708467810874  7.109245734209994  0.2388899296822034  116.97156409418254  8.528034243185706  -89.325467598085  20.735590708413408  120.000000
8.2728  0.000000  0.000000  0.000000  -45.60838043400063  3.576558606593471  -0.7340923470177323  43.73683302884773  6.533953166860643  -0.01788877846834954  115.16733861438786  8.002927450021952  -87.98101176446268  20.999093650298327  120.000000
8.33025  0.000000  0.000000  0.000000  -45.27106149666568  3.5063804425163965  -0.614900127730542  43.61094019755472  6.051116180433511  -0.32318001039097727  112.15654945463004  7.421690200449349  -85.51057337899842  21.189618539666224  120.000000
8.3877  0.000000  0.000000  0.000000  -44.75254024089325  3.3633363373673086  -0.731541564401241  43.28303063724602  5.66388125571533  -0.6756683213643292  107.34087738652315  6.861032885608917  -81.36479018557046  21.254899500299505  120.000000
8.44515  0.000000  0.000000  0.000000  -44.000365617204345  3.130976575775711  -1.1187612024385474  42.74623830109602  5.3701429423411  -1.071456516202229  100.14767553721428  6.440469542264728  -75.00345792414474  21.16964795884782  120.000000
8.502600000000001  0.000000  0.000000  0.000000  -42.9839672068459  2.7899584492108658  -1.7976166680805157  42.01004519227004  5.169619959628118  -1.495658249190738  90.56478859512217  6.312245760730292  -66.4155173484945  20.954807789050303  120.000000
8.56005  0.000000  0.000000  0.000000  -41.701641446300755  2.326294932412059  -2.7784631062239127  41.129034463459675  5.070200060737606  -1.9195738133678124  79.7621782882105  6.637975223786151  -56.73273518020165  20.682054367911608  120.000000
8.6175  0.000000  0.000000  0.000000  -40.18269842181696  1.7391635433097483  -4.057461553630507  40.227511757818135  5.0737802100673814  -2.2852691476995943  69.87235814349303  7.536440595120058  -48.014549203361916  20.45598397105643  120.000000
8.67495  0.000000  0.000000  0.000000  -38.513227044722626  1.0442440714163501  -5.586131569677698  39.4339718936701  5.149332723631922  -2.4726884599111485  62.513096911197  9.0113883359472  -41.789435089159554  20.376370824262622  120.000000
8.7324  0.000000  0.000000  0.000000  -36.831829794448254  0.27548301082839943  -7.25591297058805  38.825860510941524  5.247687367905274  -2.315716281786454  57.76389968857644  10.93819372093126  -38.061096348785604  20.492659596837168  120.000000
8.78985  0.000000  0.000000  0.000000  -35.30796846005779  -0.49947963464174744  -8.962307734738642  38.49259811668261  5.356832803932769  -1.6525567836654977  54.852810777630935  13.157725060201464  -36.05060821747457  20.78232915851231  120.000000
8.8473  0.000000  0.000000  0.000000  -34.106042048158045  -1.1836470191541868  -10.678235862106936  38.596895065071095  5.54442938762131  -0.3853164497411295  53.041908293555196  15.568635995590855  -35.095840742894595  21.164441316132866  120.000000
8.90475  0.000000  0.000000  0.000000  -33.35018537675897  -1.6819973367442564  -12.417471020322697  39.272878319296666  5.930022088852255  1.4770915038465744  51.883978105134815  18.115383353233387  -34.84323583309393  21.545379789618373  120.000000
8.9622  0.000000  0.000000  0.000000  -33.122280859514575  -1.9211696482040825  -14.169913061089789  40.503931155877886  6.609198254721613  3.8428240434994634  51.223523714039544  20.74822128986308  -35.21056397774625  21.855517978535957  120.000000
9.01965  0.000000  0.000000  0.000000  -33.46424869511532  -1.8795097036547186  -15.890166662215952  42.14876616162528  7.616095559201637  6.571908961918735  51.047641829646004  23.42431857474194  -36.24758731007404  22.053187198978783  120.000000
9.0771  0.000000  0.000000  0.000000  -34.341281436389046  -1.4997624031124668  -17.50814914809516  44.09172728671419  8.90209625720901  9.483878739206416  51.3973555434436  26.137671211932812  -38.041856358340105  22.13255011545566  120.000000
9.13455  0.000000  0.000000  0.000000  -35.57391353084434  -0.6855042951959052  -18.92252550203384  46.359778595414156  10.396061563652806  12.331058917430985  52.24744542273711  28.965021393092552  -40.603228005383926  22.115208134340175  120.000000
9.192  0.000000  0.000000  0.000000  -36.90845333179305  0.6153996270889592  -19.951748534653465  48.99091843170714  12.039899664598128  14.892774263456369  53.443755423834965  31.977346131461555  -43.79932388069685  22.018114158555445  120.000000
9.24945  0.000000  0.000000  0.000000  -38.21510175718828  2.384860067920702  -20.304060989717406  51.818544250906726  13.727415417727357  17.142873081819598  54.83794650013899  35.05923347463984  -47.43236770344234  21.851122229946828  120.000000
9.3069  0.000000  0.000000  0.000000  -39.50175133207726  4.512543182780846  -19.630399818216024  54.51719217373007  15.301838082498907  19.241271183712893  56.40440454008729  37.94341816689152  -51.35905420890189  21.61071408125494  120.000000
9.36435  0.000000  0.000000  0.000000  -40.799166166872965  6.869597129179035  -17.622536135205866  56.842480210239465  16.613006776865106  21.357645653140604  58.19318961671057  40.444943610569545  -55.532971659251245  21.295312147213128  120.000000
9.421800000000001  0.000000  0.000000  0.000000  -42.152459312056635  9.390430069068392  -14.12077162094963  58.7254204680028  17.54280859801374  23.51549916671808  60.13924666170966  42.57179967009188  -59.91220127666942  20.917195119212654  120.000000
9.47925  0.000000  0.000000  0.000000  -43.62895943012956  12.172162264424388  -9.161255228410992  60.25499302084415  18.00310141934967  25.53467531214187  61.9773647081095  44.47087788034785  -64.37440070579503  20.474456540137812  120.000000
9.5367  0.000000  0.000000  0.000000  -45.37397127483572  15.233538617982346  -2.917229579591767  61.55720621028324  17.93327088555669  27.183441788275097  63.368050093897466  46.27704963824377  -68.6821312960972  19.995962339610045  120.000000
9.59415  0.000000  0.000000  0.000000  -47.50725939012482  18.30324967705164  4.37052313884783  62.63319575416026  17.208785150201166  28.469857646708768  64.17611044838294  47.94956490536388  -72.60388375153084  19.507351460698626  120.000000
9.6516  0.000000  0.000000  0.000000  -49.98438523880588  20.964675588806255  12.353540901996311  63.44406442381029  15.718999953897216  29.516891907774504  64.4787230625015  49.33517974205371  -75.96291318684423  19.02910108257535  120.000000
9.70905  0.000000  0.000000  0.000000  -52.60420015514647  22.936146278056377  20.614356888640273  64.06235662492136  13.491998934572756  30.25421770720392  64.35591923589759  50.35835861562199  -78.60580122413066  18.607491116200503  120.000000
9.7665  0.000000  0.000000  0.000000  -55.07426029536895  24.20066885941527  28.838801334015848  64.57475586261444  10.564282921747129  30.482604565428314  63.89795009641578  51.03293033536819  -80.45073918011049  18.27409747409502  120.000000
9.82395  0.000000  0.000000  0.000000  -57.07369806513536  24.846656650889926  36.6563605475108  64.95933054386037  7.049327103328504  30.11825775644244  63.24757411544398  51.376121605616895  -81.52382342655928  18.049200805690173  120.000000
9.8814  0.000000  0.000000  0.000000  -58.39989466807978  25.06377212439349  43.599472463919454  65.18067917581223  3.2351283914649147  29.216799797896723  62.567916922927076  51.430016540307804  -81.94790330121052  17.933602358782124  120.000000
9.93885  0.000000  0.000000  0.000000  -59.002053377845016  25.047128798161115  49.27902452608743  65.24654427426704  -0.5783304032541373  27.876448658134265  62.01556285796008  51.26160216226397  -81.8937062739841  17.912028570475584  120.000000
9.9963  0.000000  0.000000  0.000000  -58.905267793032166  24.907381682320636  53.39680636218494  65.18876240732511  -4.128657183035149  26.205360969602438  61.70118415117475  50.931690265561514  -81.52364009961381  17.961776322629788  120.000000
10.05375  0.000000  0.000000  0.000000  -58.18533617753851  24.694844032196016  55.76007268475092  65.05268949819262  -7.197290373645728  24.316186746447517  61.675112081101226  50.4925049687408  -80.9440774857768  18.05109206895016  120.000000
10.1112  0.000000  0.000000  0.000000  -56.945309433605885  24.40546764191062  56.27808319410598  64.87414756931366  -9.64825078624079  22.334960723027624  61.92635783269921  49.98756919794936  -80.17268818414563  18.14753017300423  120.000000
10.16865  0.000000  0.000000  0.000000  -55.332140292319785  24.007055031142706  54.97646106696956  64.66568164237064  -11.443495594987521  20.399724460291694  62.37117475381628  49.45914172955186  -79.10861703386496  18.226915144383973  120.000000
10.2261  0.000000  0.000000  0.000000  -53.49180597704723  23.43530819446297  51.95476397257434  64.3742002614729  -12.579870049593792  18.617603057331852  62.90592526363922  48.9371428987111  -77.57462568138932  18.278114864880393  120.000000
10.28355  0.000000  0.000000  0.000000  -51.51074817077501  22.568200389488645  47.3192917303342  63.86090456733471  -12.97956277384887  17.001545826945822  63.500958933700716  48.418228355109605  -75.42303838268953  18.291177006159568  120.000000
10.341000000000001  0.000000  0.000000  0.000000  -49.43746815721054  21.29022856196778  41.21448920255346  62.967826275323475  -12.536482598173283  15.483681121113344  64.14833733497181  47.88865749416351  -72.56967775876778  18.261577095755584  120.000000
10.39845  0.000000  0.000000  0.000000  -47.335833162217575  19.54159927988051  33.895375326776765  61.56688553716587  -11.243834350846313  13.995554618025858  64.78497796030707  47.34386252963871  -68.99228527981187  18.20825806642542  120.000000
10.4559  0.000000  0.000000  0.000000  -45.309327004624514  17.36234421527163  25.73510570940053  59.55582219875231  -9.224891084768238  12.516411328813513  65.3313738486203  46.79419744805452  -64.77395664023156  18.183756973594065  120.000000
10.51335  0.000000  0.000000  0.000000  -43.45155904980733  14.92207503232318  17.185738709672947  56.90449336657495  -6.665591878469388  11.068722616309184  65.75409859319286  46.28411794272089  -60.13150973384245  18.270384796257805  120.000000
10.5708  0.000000  0.000000  0.000000  -41.77137004905108  12.468142141833413  8.707667715156113  53.67546500956087  -3.756731574078068  9.737146555737823  66.10945022776649  45.83312894106739  -55.39245423630854  18.549440781480843  120.000000
10.62825  0.000000  0.000000  0.000000  -40.233457722430344  10.175239386561268  0.7064953209503778  49.994158900594634  -0.6870406569053358  8.680696062251696  66.51445336835395  45.3330707070731  -50.90723769266827  19.060341509786955  120.000000
10.6857  0.000000  0.000000  0.000000  -38.85138683308623  8.103415616720385  -6.486582523218297  46.04248343720418  2.3575708823311645  8.09361597498249  67.05261454020909  44.544566648016776  -46.95022098193683  19.780434077927207  120.000000
10.74315  0.000000  0.000000  0.000000  -37.676035470687964  6.310980972412463  -12.623658899263035  42.12449307197671  5.241371143374345  8.115504968686803  67.70081380238456  43.20684054955823  -43.65145099257054  20.646159097523434  120.000000
10.8006  0.000000  0.000000  0.000000  -36.77980145373854  4.9408197247650945  -17.59421770618302  38.69859235842124  7.884329720422049  8.731324248773051  68.28033107086281  41.168920105965206  -40.98025773800735  21.5783473526674  120.000000
10.85805  0.000000  0.000000  0.000000  -36.239077878146944  4.128570666854245  -21.450473275618172  36.25397294872379  10.247194145597327  9.754103373257879  68.45272191281822  38.459242844064  -38.754155536328035  22.439091919859784  120.000000
10.9155  0.000000  0.000000  0.000000  -36.108250039063556  3.8115334519760053  -24.2860996570368  34.93764792005915  12.318601152895388  10.97931810894569  68.02644576374483  35.174092865975425  -36.73389036139714  23.106000382354658  120.000000
10.97295  0.000000  0.000000  0.000000  -36.457662595176174  3.7991145581660737  -26.15965412140877  34.432307678423754  14.069452863689417  12.345353213286419  67.25601947058284  31.394872464482965  -34.854537689519496  23.555597795041482  120.000000
11.0304  0.000000  0.000000  0.000000  -37.28377579082774  3.8858603608924778  -27.156626224943036  34.37789746970518  15.559076102438434  13.790584093378339  66.4826221146  27.254004742958397  -33.1708909580979  23.76140791241049  120.000000
11.08785  0.000000  0.000000  0.000000  -38.50586788151013  3.9697671156808494  -27.429570258267095  34.62858169966172  16.945826915286318  15.161260140466528  65.99859019922958  22.97484780538537  -31.830044680945704  23.68511080682205  120.000000
11.1453  0.000000  0.000000  0.000000  -40.04542458602257  4.0519251958329106  -27.139124794716835  35.11352008185714  18.35549814604125  16.30518507527404  66.35505530656069  18.77404244242658  -31.308109559095993  23.30764697623865  120.000000
11.20275  0.000000  0.000000  0.000000  -41.87858846045476  4.127766436812044  -26.383544045041013  35.782806802707256  19.841163088462917  17.110849214994122  68.53133468590875  14.826016265254266  -32.570276275564595  22.60969933702607  120.000000
11.260200000000001  0.000000  0.000000  0.000000  -44.0095268720949  4.1969858350711835  -25.230110737072838  36.589498696801755  21.37082542974019  17.53869037535447  74.3342319731624  11.30552742133966  -37.43447403800753  21.566892709508515  120.000000
11.31765  0.000000  0.000000  0.000000  -46.4159662360061  4.248417818163142  -23.755416488239394  37.46123946623129  22.859894878830872  17.640582457828828  86.9163104367095  8.462033325010628  -49.05407899788703  20.15803596748835  120.000000
11.3751  0.000000  0.000000  0.000000  -49.013561914199926  4.258934729796391  -22.05925263482981  38.36071173853802  24.22706626968897  17.500990192473637  109.91278118578423  6.784321579233106  -71.06779084354201  18.383193826124  120.000000
11.43255  0.000000  0.000000  0.000000  -51.71924336569023  4.186772331909177  -20.26632074887359  39.33548165328209  25.423123132767554  17.200649764403316  138.81769494563187  6.910936167993263  -98.98678216035266  16.31908658828796  120.000000
11.49  0.000000  0.000000  0.000000  -54.359950697033156  3.958098053425961  -18.51899112980398  40.4864737806825  26.402486181235044  16.80761436905571  160.9671714317107  8.734156057129816  -120.13383409640248  14.133804050752422  120.000000
