Simulation
nRows=201
nColumns=15
endheader
time  TH_x TH_y TH_z SC_y  SC_z  SC_x  AC_y  AC_z  AC_x  GH_y  GH_z  GH_yy  EL_x  PS_y
0.0  0.000000  0.000000  0.000000  -40.97484877243665  6.293857566463187  5.290427962726946  44.30059999591454  6.8249467726849105  -0.031193219308485478  175.9017342735901  6.808067061048471  -150.66285833266065  22.66591050403923  120.000000
0.05745  0.000000  0.000000  0.000000  -38.80039223601634  5.734724539969662  3.0570672003873183  43.439340697244056  7.098361467598464  0.176266930431803  171.5421809691761  3.514322861883573  -147.64330112893575  22.077422316513093  120.000000
0.1149  0.000000  0.000000  0.000000  -36.794416126621584  5.0302681866810515  0.8205880712589171  42.664067061390234  7.174695164976918  0.4232321275811473  118.68141165976114  0.6744590656222353  -96.10201752069968  21.67321675886573  120.000000
0.17235  0.000000  0.000000  0.000000  -35.06628045518637  4.236276653847798  -1.320999319750668  42.01614513508344  7.104622374812481  0.7281485329120234  15.620382895324191  2.808307429177342  5.652779034770698  21.531333136244466  120.000000
0.2298  0.000000  0.000000  0.000000  -33.67359831896988  3.428200150237883  -3.298699087804353  41.51933670572659  6.9727054207718036  1.1040734779807586  9.900835812830257  5.749961904380082  10.072256441097347  21.660296039263066  120.000000
0.28725  0.000000  0.000000  0.000000  -32.62504988168773  2.689239480268003  -5.080439850358788  41.16335458343877  6.878144218833349  1.5637925935893429  8.055436287618862  8.70495325382723  10.605074028509785  21.99571758602447  120.000000
0.3447  0.000000  0.000000  0.000000  -31.911371814799082  2.1046365088474337  -6.661026811745121  40.90926652585623  6.903333206394939  2.119405221793507  6.789175567138269  11.713094877625531  10.514907586463002  22.43697083703221  120.000000
0.40215  0.000000  0.000000  0.000000  -31.5204310892105  1.74323466028247  -8.024620308563623  40.71464106218529  7.078746906503587  2.756942686649644  5.615800377006647  14.831947916898047  10.255427441797845  22.872993761238025  120.000000
0.4596  0.000000  0.000000  0.000000  -31.440001538493117  1.6542763106953355  -9.130562623947002  40.5468795620796  7.376324018648818  3.435056783688311  4.496598491196898  18.107600647629457  9.84556809549168  23.21082805247552  120.000000
0.51705  0.000000  0.000000  0.000000  -31.65370597647653  1.867100623061068  -9.934209248491449  40.39027927619635  7.736714897637876  4.114585186404722  3.482033369480217  21.55319787037171  9.239334345095333  23.38915475880008  120.000000
0.5745  0.000000  0.000000  0.000000  -32.14260020927242  2.3907688185470413  -10.413731205070805  40.249174060071496  8.103221297508096  4.784525224558284  2.6372426720400224  25.1411772103375  8.401398404416906  23.38651142055306  120.000000
0.63195  0.000000  0.000000  0.000000  -32.893719971396806  3.1994452552737895  -10.599982406871137  40.14739409223136  8.455979720371007  5.477219745591509  2.0276768482409877  28.818272068331133  7.311289983444287  23.213216206284077  120.000000
0.6894  0.000000  0.000000  0.000000  -33.90503584834185  4.235120920151202  -10.547899865178849  40.12600417739953  8.796432343164458  6.237272039318108  1.7216894522019066  32.5260392835854  5.944581193865887  22.899044890257574  120.000000
0.74685  0.000000  0.000000  0.000000  -35.178201521307386  5.416962598075312  -10.29429077791496  40.233618775596845  9.128500122648079  7.083628056180351  1.7666823438331989  36.20928277875228  4.282655946199971  22.481126497366812  120.000000
0.8043  0.000000  0.000000  0.000000  -36.70618857195268  6.658472349501924  -9.860158701627121  40.507566560136425  9.462720312650642  8.008530701760126  2.171730516871179  39.81571540744606  2.321266214373427  21.996804186049747  120.000000
0.86175  0.000000  0.000000  0.000000  -38.461430116391185  7.878327845704015  -9.254858441685425  40.961443891606606  9.817786504114304  8.978696402348676  2.9003413959809463  43.29838327568671  0.08022139928722287  21.48084452313327  120.000000
0.9192  0.000000  0.000000  0.000000  -40.389173165729034  9.010853155008272  -8.482074009077738  41.57685592110134  10.214341966617557  9.94332180133854  3.876491673243937  46.616632317256105  -2.3909987211067154  20.962593415306177  120.000000
0.97665  0.000000  0.000000  0.000000  -42.40573767205202  10.013154057211406  -7.5467217541800595  42.30375849461937  10.665352956411043  10.846063761127068  4.999021155818885  49.73664593452667  -5.008111682755622  20.463644372244293  120.000000
1.0341  0.000000  0.000000  0.000000  -44.40075873853787  10.870607678764431  -6.458731574611191  43.07111425055138  11.167401364559309  11.637528458693662  6.1648314270501885  52.62747176655569  -7.656564100650951  19.99575946822084  120.000000
1.09155  0.000000  0.000000  0.000000  -46.24861672000985  11.59256496168661  -5.22961521596454  43.79967768297599  11.69919301377176  12.283920096566382  7.284597852964951  55.258526847062335  -10.202042988801853  19.560289725993112  120.000000
1.149  0.000000  0.000000  0.000000  -47.84964590979586  12.20978448598459  -3.873085237471661  44.417859977110204  12.226076515279969  12.769362892876869  8.29460434304731  57.60161898481952  -12.513698121367403  19.153214701018356  120.000000
1.20645  0.000000  0.000000  0.000000  -49.163358077426835  12.75762622714101  -2.4101060246532793  44.877668299372935  12.710886503201039  13.094285961005959  9.159066540290635  59.63534162620203  -14.488317180905932  18.769829414598348  120.000000
1.2639  0.000000  0.000000  0.000000  -50.20668290471071  13.254439869160189  -0.8736432573395726  45.169881876447285  13.125191184145296  13.271249749381793  9.871695053114971  61.34471228982127  -16.075544136488343  18.408814975573637  120.000000
1.32135  0.000000  0.000000  0.000000  -51.0249397903743  13.694679342321397  0.6825783337542124  45.325249104847146  13.452276608992104  13.32214104403523  10.451184004890584  62.72256578500717  -17.287622327485316  18.07374587154559  120.000000
1.3788  0.000000  0.000000  0.000000  -51.660848889817835  14.056449927342925  2.1787057770315847  45.391587983827975  13.685829557509178  13.27172097756937  10.926756462932063  63.77105073108631  -18.186082938064395  17.773538630876565  120.000000
1.43625  0.000000  0.000000  0.000000  -52.134674749346104  14.31579029222614  3.508874410465725  45.414965862934444  13.824922705700288  13.140153255824556  11.322320835318818  64.50497789650011  -18.85536374105328  17.517841726194025  120.000000
1.4937  0.000000  0.000000  0.000000  -52.438609115131534  14.450963552366435  4.550787193062375  45.42841952700871  13.868282485676776  12.94274319533195  11.647854222789169  64.95500766298859  -19.374503109170288  17.31550102999237  120.000000
1.55115  0.000000  0.000000  0.000000  -52.54206874529753  14.444589751450954  5.17397284572837  45.45416956283851  13.808822389535463  12.688051875860305  11.892914971276259  65.17750145691544  -19.79140338978679  17.17263818579981  120.000000
1.6086  0.000000  0.000000  0.000000  -52.40330436424472  14.275225666340623  5.25321944903648  45.50918550612573  13.630982881689153  12.382940776992976  12.023469440975786  65.25912045005973  -20.10712807832294  17.09239166598853  120.000000
1.66605  0.000000  0.000000  0.000000  -51.99829433081817  13.928870268418624  4.716561720586821  45.58966477399986  13.339549327715062  12.054196565011887  12.014116876107163  65.22457797407529  -20.31138646832418  17.074835000886868  120.000000
1.7235  0.000000  0.000000  0.000000  -51.33827771409216  13.415226634248631  3.586111592937802  45.65315333780644  12.991632442713465  11.762233547499294  11.879756163092553  64.95403727666263  -20.426436218420402  17.115274815408668  120.000000
1.78095  0.000000  0.000000  0.000000  -50.44453981343854  12.749694663774886  1.9412840837396599  45.64351374500174  12.676668318198299  11.56891614142041  11.64385322499203  64.28799765481799  -20.480921139532676  17.198482007770007  120.000000
1.8384  0.000000  0.000000  0.000000  -49.32677907777914  11.94335939033996  -0.12278726703924638  45.512571142997835  12.484514256555322  11.507438577559409  11.31204570463274  63.124899893291364  -20.489204335422556  17.29820141807874  120.000000
1.89585  0.000000  0.000000  0.000000  -47.99482222934354  11.00703973547634  -2.499678148808303  45.222183771609714  12.490916649811563  11.580853672961883  10.884740050503796  61.41727281754442  -20.46601691967398  17.384602271921047  120.000000
1.9533  0.000000  0.000000  0.000000  -46.476880710564146  9.95540103713443  -5.079429140075224  44.75050880855091  12.741842643671431  11.766441318772008  10.366956022201212  59.16935013364028  -20.432897331516546  17.43242086783473  120.000000
2.01075  0.000000  0.000000  0.000000  -44.83713707490554  8.80764288444717  -7.752295819197637  44.097876239520254  13.243649439411765  12.02905438623426  9.776701719549841  56.432146542440506  -20.418375280068116  17.428902827670342  120.000000
2.0682  0.000000  0.000000  0.000000  -43.17067913891267  7.594949873766298  -10.415255778545756  43.28951076430515  13.965010272685564  12.33710411780899  9.154544456246965  53.293402934074976  -20.457520627605227  17.3749184892302  120.000000
2.1256500000000003  0.000000  0.000000  0.000000  -41.57500089080494  6.366132458706676  -12.979418243319415  42.37637513297668  14.844960119797447  12.672643809077881  8.573290321057227  49.85756309038542  -20.593335788426977  17.27749542590616  120.000000
2.1831  0.000000  0.000000  0.000000  -40.125198410172985  5.173272279995373  -15.371599365307224  41.41993078280518  15.805920801532901  13.029741381794391  8.129023451769543  46.21628601223956  -20.862533738101433  17.142414602715753  120.000000
2.24055  0.000000  0.000000  0.000000  -38.86805063047691  4.070000587310428  -17.536615963577958  40.477426333946426  16.767028516477993  13.402176435493434  7.9184481123254935  42.435230753235494  -21.272477459978077  16.96466388789503  120.000000
2.298  0.000000  0.000000  0.000000  -37.82051450435302  3.104871481326761  -19.43339960004444  39.59370813137932  17.65759701986576  13.779448483731347  8.020487978431413  38.561449516325446  -21.787644218848254  16.726072689137965  120.000000
2.3554500000000003  0.000000  0.000000  0.000000  -36.97125693199769  2.3143573629045315  -21.032198462441773  38.80269696769872  18.42543738053571  14.146990519446238  8.487829892617201  34.63516002736878  -22.33439280820374  16.40373483106523  120.000000
2.4129  0.000000  0.000000  0.000000  -36.28932445571917  1.7167245455738531  -22.31465689061068  38.13006513588752  19.044678927983856  14.486615482471588  9.345408477262053  30.700239924712136  -22.820217971328088  15.985650882298694  120.000000
2.47035  0.000000  0.000000  0.000000  -35.73493152114273  1.306508839414894  -23.277891534186068  37.5935210546383  19.517773436709966  14.781289569053726  10.599092236146555  26.81260120873341  -23.160479892541503  15.485991641841476  120.000000
2.5278  0.000000  0.000000  0.000000  -35.27423229151436  1.0515035704404538  -23.942259578977296  37.20426431859724  19.87137402375846  15.019924985417788  12.256841732194406  23.047857230783805  -23.312643497712227  14.951266814237577  120.000000
2.5852500000000003  0.000000  0.000000  0.000000  -34.88965878442271  0.8999194165961051  -24.34623213761221  36.968486122805274  20.14085215206507  15.197448596390789  14.362538048702774  19.505089405182872  -23.315934101296936  14.450626642443897  120.000000
2.6427  0.000000  0.000000  0.000000  -34.57616728102096  0.804792115473703  -24.520054152953882  36.89446220233131  20.34576631819582  15.299903319930676  17.033426040385248  16.28870910890996  -23.336609325826448  14.05449719413559  120.000000
2.70015  0.000000  0.000000  0.000000  -34.337521936816124  0.7332871708420243  -24.46214219422256  36.987140109559085  20.488841071524213  15.299349914776021  20.465904457969007  13.471654726242507  -23.684055522456376  13.81140576713193  120.000000
2.7576  0.000000  0.000000  0.000000  -34.18792316928775  0.6725607177492684  -24.144972580520413  37.24387050638949  20.56691875782629  15.164135021599261  24.967080577232156  11.080749924653821  -24.84124847459574  13.738086309645208  120.000000
2.8150500000000003  0.000000  0.000000  0.000000  -34.141223485925025  0.6313703339428121  -23.549320191677445  37.6468162365959  20.572101899742073  14.873341530491894  31.01093598181057  9.120680796836359  -27.496966992418827  13.829250252957046  120.000000
2.8725  0.000000  0.000000  0.000000  -34.201068783017185  0.6283672211193098  -22.68735400239678  38.15358194712192  20.493625855458617  14.431977113313147  39.16259763631393  7.598184704849578  -32.431665825240216  14.06868795245341  120.000000
2.92995  0.000000  0.000000  0.000000  -34.35607032486992  0.6815346741860456  -21.597636066448327  38.71007396710367  20.321317875922762  13.863143759633243  49.72571667356255  6.528626216095352  -40.12500483899147  14.43020338689957  120.000000
2.9874  0.000000  0.000000  0.000000  -34.57999749893619  0.8008797873073743  -20.334649346198066  39.265019970539136  20.049374420636703  13.196576415229153  62.115687578466286  5.916221134798589  -50.10301682313568  14.876171819254717  120.000000
3.0448500000000003  0.000000  0.000000  0.000000  -34.839014528263924  0.9863668490351869  -18.960347570169812  39.77961830059235  19.680701162858195  12.464906774170112  74.6747129059506  5.711660508381412  -60.748399788619274  15.36158481330275  120.000000
3.1023  0.000000  0.000000  0.000000  -35.10043971415992  1.2286597699697086  -17.5395866499782  40.234221444625604  19.230438205481676  11.701606609007223  85.62604940291858  5.799338767676636  -70.26732336112924  15.844007347589816  120.000000
3.15975  0.000000  0.000000  0.000000  -35.341443990347855  1.5077396508431924  -16.13223389173421  40.62310213078462  18.722002648519577  10.941582117462957  94.09616669674969  6.0375839205254165  -77.72907670800987  16.293734416123144  120.000000
3.2172  0.000000  0.000000  0.000000  -35.54735471413512  1.7990561454451546  -14.787660492206085  40.95393765178803  18.18076676808178  10.21312021646418  100.11041957399722  6.30872459350036  -83.07722494312894  16.700432990155715  120.000000
3.2746500000000003  0.000000  0.000000  0.000000  -35.70669289433676  2.0790354004563727  -13.54494910179377  41.24531668592057  17.630973970863696  9.533984735578183  104.07963752612011  6.540388256631274  -86.62975232025242  17.07125741294838  120.000000
3.3321  0.000000  0.000000  0.000000  -35.8113205671884  2.326103646600457  -12.42883900218965  41.51430753911057  17.091563552328548  8.918052402865118  106.46392740677024  6.700813078277329  -88.75525279564512  17.422632025696718  120.000000
3.38955  0.000000  0.000000  0.000000  -35.859028591738856  2.525136335616343  -11.450741864890473  41.77160456660911  16.575419653936706  8.375842823991489  107.66193843059365  6.788049500040821  -89.77409219418159  17.77056774787395  120.000000
3.447  0.000000  0.000000  0.000000  -35.856483630634614  2.6708483375890557  -10.613662391473476  42.022080004893525  16.091763779163646  7.910012942943923  107.99097551573462  6.818994503958139  -89.94772735519707  18.124266567223543  120.000000
3.5044500000000003  0.000000  0.000000  0.000000  -35.81802355578065  2.766373881918076  -9.913978490899467  42.26456044237177  15.64769402922939  7.516884198055375  107.69561421866652  6.818905188646296  -89.48878992520702  18.48578465988721  120.000000
3.5619  0.000000  0.000000  0.000000  -35.761230453479094  2.81922694871519  -9.342512634682146  42.49137525852193  15.247904732632378  7.191494372614284  106.96674592213084  6.812897410250298  -88.57523848643505  18.853040056768386  120.000000
3.61935  0.000000  0.000000  0.000000  -35.69987442903366  2.839617353020464  -8.888447369761234  42.69255082884113  14.89513177936265  6.928252386869583  105.9563989461531  6.82087494266237  -87.35651297298487  19.223207681551354  120.000000
3.6768  0.000000  0.000000  0.000000  -35.639821637559784  2.838149631135836  -8.543069211666246  42.85942294901533  14.591200893242226  6.718710967429256  104.77444629166368  6.855951400031185  -85.94380186377121  19.59455220010672  120.000000
3.7342500000000003  0.000000  0.000000  0.000000  -35.57981313446043  2.8239529096071023  -8.30047345762084  42.98242624629997  14.335393540797915  6.553620134688372  103.48468222335786  6.923940662523712  -84.40165136831428  19.966819885822378  120.000000
3.7917  0.000000  0.000000  0.000000  -35.51409442883552  2.802544457649661  -8.157139209704448  43.049674718739396  14.123260481747849  6.425228562298994  102.09164431485515  7.024992661258714  -82.73297167883796  20.340648100756805  120.000000
3.84915  0.000000  0.000000  0.000000  -35.43316860387382  2.774590349956917  -8.112368605788749  43.05048036327856  13.94802046571229  6.325990644878762  100.5244909019782  7.156711258773391  -80.86214583745371  20.716648981809822  120.000000
3.9066  0.000000  0.000000  0.000000  -35.32529077115  2.736077266028032  -8.168075025488939  42.97734115388208  13.802278113482917  6.2478907264762835  98.63576337965428  7.316061910672377  -78.63413244172693  21.094121193877488  120.000000
3.9640500000000003  0.000000  0.000000  0.000000  -35.17800360104028  2.6800416309022363  -8.327844892745846  42.82612855972557  13.67893296181725  6.183546002643624  96.21713289508982  7.502626269883323  -75.83194620218448  21.470493807324093  120.000000
4.0215  0.000000  0.000000  0.000000  -34.97982676633618  2.599304781661681  -8.596367283036534  42.59658648103324  13.571389345839123  6.127464307963299  93.03756898480633  7.7269296633235065  -72.22026032728677  21.84146257889602  120.000000
4.07895  0.000000  0.000000  0.000000  -34.72176403360712  2.487503791849397  -8.979103585451526  42.2939320038355  13.474433386732958  6.075758897992932  88.91271848951116  8.022033438507515  -67.62267118846769  22.200607485430833  120.000000
4.1364  0.000000  0.000000  0.000000  -34.40077494148394  2.341345763345999  -9.479959659964337  41.92867002000422  13.383466660704554  6.029201347534782  83.82611283010594  8.453826589155652  -62.05088904274253  22.53778831348652  120.000000
4.19385  0.000000  0.000000  0.000000  -34.02229275135827  2.1617446754474057  -10.095956230475709  41.51065181048331  13.293677616129532  5.999700556522363  78.05411602285936  9.114593984533848  -55.831682666787444  22.836976953198615  120.000000
4.2513000000000005  0.000000  0.000000  0.000000  -33.60221218037402  1.9619864944487815  -10.81277039751103  41.04369793906693  13.202115225258277  6.012440714319959  72.14834886465184  10.095437940958032  -49.583225980423904  23.077095751080538  120.000000
4.30875  0.000000  0.000000  0.000000  -33.16518028506709  1.7807227535844887  -11.605807550365858  40.53372165027158  13.113214050987441  6.096528656191525  66.71013257938213  11.457981596054042  -43.97608635766811  23.238366951672983  120.000000
4.3662  0.000000  0.000000  0.000000  -32.74716548120527  1.6838924582970103  -12.443327389610488  40.00390476203057  13.039874918871657  6.275724206665449  62.15225363969497  13.22973527936088  -39.478060571892556  23.317400435432692  120.000000
4.42365  0.000000  0.000000  0.000000  -32.41809920889345  1.745250501015201  -13.280807413179092  39.48333995454114  12.98968438467345  6.5827912413913445  58.62857409334201  15.414934048180507  -36.2692663858915  23.341056482719335  120.000000
4.4811  0.000000  0.000000  0.000000  -32.280190322275296  2.0320411520842323  -14.059510762408326  38.99525484301976  12.95543896317627  7.064118506921505  56.09507175509413  17.999763347430775  -34.29542155042637  23.36512072413285  120.000000
4.53855  0.000000  0.000000  0.000000  -32.43525563982828  2.599154426484574  -14.721194180137914  38.57617664011476  12.933217725862121  7.739949176313094  54.376943113716585  20.95690995789397  -33.34918786714577  23.45165399725679  120.000000
4.596  0.000000  0.000000  0.000000  -32.94752889046721  3.4737035070573206  -15.212853060768454  38.267780983775445  12.930525931813106  8.587327920495952  53.22546679675718  24.234618255594903  -33.143024262011096  23.636367610590057  120.000000
4.65345  0.000000  0.000000  0.000000  -33.82658948608069  4.640405355776253  -15.476571500659803  38.09262151514199  12.947152269423256  9.565805136185281  52.402390102607654  27.750589045290425  -33.39511209792827  23.90938795516242  120.000000
4.7109000000000005  0.000000  0.000000  0.000000  -35.0287778769582  6.044941999857214  -15.450455030390485  38.06602846440771  12.973390958106004  10.621464727146224  51.733262270014244  31.409354249090725  -33.89090400598092  24.218633692660887  120.000000
4.76835  0.000000  0.000000  0.000000  -36.472149851063286  7.617450577116225  -15.074291978391047  38.198080954446844  12.999451629983767  11.687816947099066  51.1052080061313  35.105523750062304  -34.49089259148329  24.489746341354948  120.000000
4.8258  0.000000  0.000000  0.000000  -38.06188363079926  9.281520477295324  -14.290214614178419  38.48270703435154  13.023826108285354  12.695244010525515  50.44496969039163  38.72248965478835  -35.121852538600756  24.650055165366474  120.000000
4.88325  0.000000  0.000000  0.000000  -39.71340947978119  10.952544400868995  -13.047396376578059  38.899645022329395  13.057202569472592  13.578306565150346  49.702813174165684  42.146898074418004  -35.76837793273933  24.646969368774204  120.000000
4.9407  0.000000  0.000000  0.000000  -41.37043918921524  12.549133550455089  -11.312107900546945  39.420996365862344  13.114498261409471  14.285483659265731  48.84723545086421  45.289308189073765  -36.45010981660847  24.458901921562646  120.000000
4.99815  0.000000  0.000000  0.000000  -43.00659661476891  14.000146854407584  -9.083066705197732  40.02272376037485  13.204180008415094  14.783401754203764  47.86004182490975  48.10406282686304  -37.194496375715794  24.089724146543116  120.000000
5.0556  0.000000  0.000000  0.000000  -44.61386669702148  15.241549504630562  -6.404276060992349  40.68493920977659  13.316405377958537  15.06831543665146  46.734906700471754  50.590198810416126  -38.01280691448528  23.560223628482053  120.000000
5.11305  0.000000  0.000000  0.000000  -46.18202337909738  16.230803788172786  -3.3735099191778875  41.39360313017838  13.427807941757488  15.163603128372044  45.47979506561852  52.777594024725275  -38.886455245704376  22.907119937432153  120.000000
5.1705000000000005  0.000000  0.000000  0.000000  -47.68526137820323  16.95713206649588  -0.13907930586941705  42.1402346814952  13.517362455063452  15.105524041972295  44.11515245102641  54.71243745616395  -39.772344740379054  22.180695240734256  120.000000
5.22795  0.000000  0.000000  0.000000  -49.08664620688346  17.429038238658425  3.1217612279263736  42.9097988195748  13.568477310233986  14.940962216170073  42.67304999637617  56.441910247172686  -40.62021863278404  21.43923200457826  120.000000
5.2854  0.000000  0.000000  0.000000  -50.34327072211689  17.671316537402205  6.224856654557699  43.680749183747565  13.570432793236627  14.712722894968163  41.19962898051934  58.003061513336114  -41.392960320797535  20.737608574132228  120.000000
5.34285  0.000000  0.000000  0.000000  -51.41191131390234  17.72336706110441  8.999134950806404  44.42516633381801  13.519481651247652  14.444679543962337  39.760805506852286  59.41425030622634  -42.07785725232631  20.11533491057191  120.000000
5.4003  0.000000  0.000000  0.000000  -52.2531598101972  17.630243108785855  11.303350079422351  45.102753562958405  13.416702267766341  14.139435648122088  38.4445220053295  60.66839452634688  -42.685425597313355  19.590479101341653  120.000000
5.45775  0.000000  0.000000  0.000000  -52.83270124498645  17.436745530292857  13.032514479203902  45.66237883155808  13.26800467276038  13.78048772828892  37.353751654462116  61.73282962189887  -43.24076190329536  19.163459070579922  120.000000
5.5152  0.000000  0.000000  0.000000  -53.12475101273873  17.178971157746485  14.11722902769223  46.05148145058072  13.079898982449818  13.344322724798202  36.58701350645753  62.556037058210315  -43.77046848281803  18.829087980139256  120.000000
5.57265  0.000000  0.000000  0.000000  -53.11605654494375  16.87963845695132  14.517798431174228  46.23322456473785  12.854298259839318  12.813091753943878  36.21195407118052  63.07895862111432  -44.29084267914011  18.587975698293747  120.000000
5.6301000000000005  0.000000  0.000000  0.000000  -52.80763788350528  16.545179015583503  14.218340700584374  46.200413452312624  12.583531070641207  12.187736150417873  36.246760248140205  63.24570987452499  -44.80071774856409  18.45351973739643  120.000000
5.68755  0.000000  0.000000  0.000000  -52.21067003995839  16.165674262459323  13.22401737769066  45.97352183498861  12.252844496677035  11.494159051090996  36.65594569874652  63.006189757547844  -45.27819024228558  18.449253657497923  120.000000
5.745  0.000000  0.000000  0.000000  -51.34009291646929  15.716045149699696  11.563308158530248  45.58198962438492  11.851740563882222  10.780666576766444  37.359998441340615  62.311655488866414  -45.6818100110183  18.5957984121261  120.000000
5.80245  0.000000  0.000000  0.000000  -50.20753266682158  15.160115895186708  9.293688750590862  45.044381570237555  11.390519770754251  10.107601495588286  38.25203271680117  61.11123832093801  -45.95860243904071  18.88932720223783  120.000000
5.8599  0.000000  0.000000  0.000000  -48.81992194191562  14.459390731963431  6.506237552111277  44.364101450093145  10.91289706034058  9.533643601047768  39.21680846751561  59.357019651153166  -46.058850562289805  19.282791372802482  120.000000
5.91735  0.000000  0.000000  0.000000  -47.185425275638664  13.582727437948071  3.3244594956335485  43.540503025154806  10.496194667008298  9.104573280900855  40.146374843245624  57.017101093925895  -45.95252310593647  19.686093956562075  120.000000
5.9748  0.000000  0.000000  0.000000  -45.32687739650442  12.51417948842696  -0.10269372978168384  42.586389744339925  10.236871333034102  8.848363338874844  40.95584579342684  54.09169423203234  -45.64126087317143  19.989751703116625  120.000000
6.03225  0.000000  0.000000  0.000000  -43.293440253322586  11.25718102131668  -3.614002317177676  41.541956625423886  10.227292792379696  8.777335292511719  41.60065287245996  50.629814373261695  -45.16197314994852  20.099153109494004  120.000000
6.089700000000001  0.000000  0.000000  0.000000  -41.168925707618435  9.837686998852224  -7.054199874008178  40.476423196531165  10.531162217721436  8.893777428016561  42.09032757980633  46.73877838921449  -44.583216494188825  19.963092268167703  120.000000
6.14715  0.000000  0.000000  0.000000  -39.07096864811656  8.303747896583719  -10.293835575982374  39.47496072041129  11.167263287160976  9.1929037241034  42.493695914535564  42.57967867547441  -43.99700037025579  19.582389785741817  120.000000
6.2046  0.000000  0.000000  0.000000  -37.1379837497229  6.726758569491084  -13.242616824427492  38.61892585346319  12.107590837967715  9.6618624247704  42.93839254106554  38.34705797228016  -43.51550850757543  18.9968254667871  120.000000
6.26205  0.000000  0.000000  0.000000  -35.497927208434895  5.195393429334634  -15.851343355296889  37.96694001548356  13.2880043109062  10.27872560941367  43.60644721911485  34.23189280227897  -43.270799661245675  18.26762090066279  120.000000
6.3195  0.000000  0.000000  0.000000  -34.238321050306006  3.796136136782052  -18.100585840821175  37.54173942301763  14.621904045937056  11.015270319654384  44.720684625175615  30.381924168416077  -43.41339651557126  17.468102113980915  120.000000
6.37695  0.000000  0.000000  0.000000  -33.38905854736811  2.602172130695059  -19.988257213336244  37.333768577093046  16.01838193142768  11.83740557490921  46.51178177399314  26.886677726889705  -44.09878595285198  16.67985415908164  120.000000
6.4344  0.000000  0.000000  0.000000  -32.927751957176824  1.667274084060245  -21.52000567984485  37.312843543711416  17.395641055094654  12.70878208814613  49.17491454859592  23.79134382106746  -45.46182203879231  15.986574728818143  120.000000
6.49185  0.000000  0.000000  0.000000  -32.79571336344686  1.0202665537997888  -22.706059455687107  37.437059377820425  18.68663199668269  13.593817738393724  52.831116988491715  21.11362632961099  -47.59241893759874  15.463478096681683  120.000000
6.549300000000001  0.000000  0.000000  0.000000  -32.91493868034643  0.6565760286305214  -23.564399048792204  37.661050934325814  19.84577567144976  14.453368211581465  57.4901199682089  18.857175917565066  -50.51398578693385  15.160939305201257  120.000000
6.60675  0.000000  0.000000  0.000000  -33.20201113871985  0.5386350042962653  -24.121110914595878  37.93582348425086  20.84731201772141  15.249329182255547  63.02655594244862  17.01151279239938  -54.16288903320022  15.09310763112649  120.000000
6.6642  0.000000  0.000000  0.000000  -33.57607850330964  0.6099132178665532  -24.411629142720773  38.21416115913433  21.682106044336443  15.946719451735168  69.1807739122254  15.546177232231976  -58.375781787863644  15.241776984748613  120.000000
6.72165  0.000000  0.000000  0.000000  -33.97257934261096  0.8085205387193388  -24.482728556475642  38.46425240839643  22.354043812224937  16.51309820949079  75.6034827262005  14.416261425205736  -62.90997714733439  15.567644357712172  120.000000
6.7791  0.000000  0.000000  0.000000  -34.34580014813386  1.074460580296705  -24.383222864713005  38.66864200215799  22.86778586581047  16.92821041841303  81.93522590814331  13.563963312662887  -67.49059148710803  16.013753774078037  120.000000
6.83655  0.000000  0.000000  0.000000  -34.67502741911959  1.355526921071027  -24.15359577477596  38.82192673050291  23.223658309348046  17.18711072623248  87.88567801741914  12.928807103250124  -71.87568387242061  16.505322926244734  120.000000
6.894  0.000000  0.000000  0.000000  -34.947521793589424  1.616782261358019  -23.827621618334895  38.936566379367974  23.427298731731717  17.29108606712988  93.27343030430447  12.453876576346488  -75.89835009753614  16.956781795809434  120.000000
6.95145  0.000000  0.000000  0.000000  -35.15100047200543  1.8401648191096942  -23.432226978248494  39.03355124840756  23.49184853921373  17.24841507011545  98.02785006904303  12.088539851452264  -79.48164758008559  17.288670522219846  120.000000
7.008900000000001  0.000000  0.000000  0.000000  -35.281088103599686  2.0186414874213643  -22.98527360867745  39.13094799774987  23.43560965400255  17.075909665902934  102.15961796679976  11.792561275055734  -82.6255997838058  17.454588235498402  120.000000
7.06635  0.000000  0.000000  0.000000  -35.34775243319402  2.151487031220515  -22.496134426727927  39.23659016458029  23.279118994776873  16.796840462234844  105.720961805108  11.537257307263724  -85.3786502374711  17.462922698984222  120.000000
7.1238  0.000000  0.000000  0.000000  -35.3745383975139  2.2411776984877694  -21.96798092733802  39.34759744274482  23.043266423370845  16.436730234789795  108.777115792817  11.303342228374522  -87.81235344973338  17.374114592012035  120.000000
7.18125  0.000000  0.000000  0.000000  -35.38550604700913  2.2956121039968536  -21.402105181533365  39.46234915011246  22.75168670591452  16.013836709306126  111.38360941217398  11.080433148714928  -89.9929483053242  17.27305416872902  120.000000
7.2387  0.000000  0.000000  0.000000  -35.3997600678675  2.327523089259128  -20.79974851160576  39.586240360411075  22.427416516411192  15.539368703270306  113.57347322909501  10.865565334353057  -91.95900478201801  17.234513975532533  120.000000
7.29615  0.000000  0.000000  0.000000  -35.42734983284546  2.347740155471802  -20.161496944210963  39.72484818995353  22.084439560876984  15.027121720949031  115.37709537443241  10.654682219773346  -93.72914743413757  17.29533309701042  120.000000
7.3536  0.000000  0.000000  0.000000  -35.46986142990543  2.3617754012127885  -19.487766788736778  39.880182072517194  21.72568714727137  14.49636839451964  116.83696378797208  10.4396078727853  -95.3144809087479  17.448843477247312  120.000000
7.41105  0.000000  0.000000  0.000000  -35.52064497533101  2.374208488889535  -18.78208632419456  40.05743844898931  21.350462478586515  13.962607708145516  117.99551878597119  10.212189296062371  -96.71489875629152  17.66176240508635  120.000000
7.468500000000001  0.000000  0.000000  0.000000  -35.56775975348223  2.390882508244127  -18.052254673861118  40.264226482056586  20.958574604169435  13.433477709526393  118.89410341112414  9.965688073119773  -97.92894457349867  17.8964712461759  120.000000
7.52595  0.000000  0.000000  0.000000  -35.60205653701012  2.4159469026948006  -17.307984774694617  40.50220126165803  20.549231012565123  12.913064702657422  119.5806608556617  9.694840726985387  -98.97026764192253  18.126629413114618  120.000000
7.5834  0.000000  0.000000  0.000000  -35.62208033574477  2.4499540903261607  -16.558457984897366  40.76485272075392  20.120997520948098  12.40491422876176  120.10839823007625  9.398110497965483  -99.87069555111911  18.342999715767295  120.000000
7.64085  0.000000  0.000000  0.000000  -35.631557829914726  2.4914240530714546  -15.811366957330534  41.04214130971763  19.673541977132675  11.911547770582347  120.5320626896956  9.079128775880566  -100.6744192002859  18.54908847597972  120.000000
7.6983  0.000000  0.000000  0.000000  -35.636654518561265  2.5381856488519667  -15.07238191919446  41.32479951471145  19.2088786931237  11.433721046861761  120.90448458404134  8.74621472408545  -101.43052412200599  18.752715371839074  120.000000
7.75575  0.000000  0.000000  0.000000  -35.64242882470046  2.58770271158405  -14.345070256462817  41.60704793085948  18.7316694318548  10.970026906575393  121.27557805031863  8.410533905563321  -102.18729864286271  18.95910521121546  120.000000
7.8132  0.000000  0.000000  0.000000  -35.65316048838758  2.6363815039052114  -13.630352024960786  41.88499550300593  18.24775811338806  10.518626289574733  121.69242479324802  8.083806739009024  -102.98958655432095  19.167933592902262  120.000000
7.87065  0.000000  0.000000  0.000000  -35.67112126872328  2.680713124070365  -12.927165134258482  42.15662494378936  17.763229909078706  10.07708953225261  122.19829346293274  7.776832499561959  -103.87515347638919  19.37511768867499  120.000000
7.928100000000001  0.000000  0.000000  0.000000  -35.69756908116387  2.7175146908689487  -12.233558175285934  42.42180087897579  17.28419812826066  9.640976541009826  122.82053120044301  7.498769252392794  -104.8621924451384  19.57715081373131  120.000000
7.98555  0.000000  0.000000  0.000000  -35.73645321114484  2.743208731444489  -11.546567694500075  42.67579130334391  16.81441158158889  9.206453157690511  123.5713507795903  7.253385640174821  -105.9498281292992  19.775388566021245  120.000000
8.043  0.000000  0.000000  0.000000  -35.79184037278758  2.7568678578417614  -10.863543244589936  42.90675463795518  16.35527771687667  8.769736024521777  124.45827636950736  7.035489397119994  -107.12973234505485  19.97825217713426  120.000000
8.10045  0.000000  0.000000  0.000000  -35.864609671142254  2.763828501666788  -10.18540386044682  43.10365051711051  15.908907236702897  8.32217226130478  125.45900827982828  6.834411492444992  -108.3672785289753  20.19987082383843  120.000000
8.1579  0.000000  0.000000  0.000000  -35.947252180661486  2.770966497534123  -9.517275282470733  43.2541529707154  15.475029791529726  7.857173520660337  126.54008839708648  6.635652465892742  -109.62668980329624  20.450562828050348  120.000000
8.21535  0.000000  0.000000  0.000000  -36.026111890413546  2.7808465579655044  -8.869334366667372  43.33858703137796  15.048913599189198  7.378648467861841  127.66351793113148  6.42187161553312  -110.88339690450408  20.723468346330982  120.000000
8.2728  0.000000  0.000000  0.000000  -36.082597862553  2.798702837821496  -8.262995458449142  43.339793901516224  14.627246825787825  6.8930145036816795  128.73075754481982  6.179599014866975  -112.06987941167431  20.98653395384899  120.000000
8.33025  0.000000  0.000000  0.000000  -36.09693626633282  2.833794990610695  -7.73204466217905  43.2455230698072  14.21143053324097  6.405911658862369  129.54455795186166  5.904097593956617  -113.03036835997058  21.186696582134953  120.000000
8.3877  0.000000  0.000000  0.000000  -36.052737255563954  2.8883871249352864  -7.315112717379826  43.04486079200924  13.808464363681425  5.928268007937345  129.7752640340213  5.602586019957364  -113.47181929519165  21.27026633861847  120.000000
8.44515  0.000000  0.000000  0.000000  -35.93270218552302  2.9533329810480935  -7.048114014456815  42.73789168211605  13.432159546451567  5.475562885164863  128.88968852712978  5.300888368703919  -112.87321260904389  21.208859812797158  120.000000
8.502600000000001  0.000000  0.000000  0.000000  -35.72273785334196  3.006787955885038  -6.955355023401422  42.33424950137401  13.10131531748156  5.066560625252985  126.1703374186265  5.044964079864644  -110.48990975105332  21.02193845443077  120.000000
8.56005  0.000000  0.000000  0.000000  -35.42348400841998  3.024192692932983  -7.045775839709799  41.84870616331706  12.83734633219333  4.717569890412973  120.92524427643717  4.906273834909987  -105.56316916192272  20.78150000868063  120.000000
8.6175  0.000000  0.000000  0.000000  -35.04520007036657  2.9958983703559148  -7.319807360448845  41.31766582968031  12.663738700689004  4.4276242303421025  112.94386654274034  5.004312838090389  -97.80011146353483  20.585694646590714  120.000000
8.67495  0.000000  0.000000  0.000000  -34.60755959042961  2.914988016390756  -7.765538057255807  40.78401944504251  12.594423904146419  4.195714136312418  103.27121207881552  5.507171498130316  -88.18388023031156  20.519598574237243  120.000000
8.7324  0.000000  0.000000  0.000000  -34.147969970454085  2.770183081453032  -8.35542183529566  40.26543497843084  12.623780644919915  4.047605682800058  94.10405415497651  6.571144753171126  -78.90022175949134  20.62253830856445  120.000000
8.78985  0.000000  0.000000  0.000000  -33.706653317755894  2.568521386360757  -9.065331999208153  39.776267480559206  12.74274043199165  4.0101310237157275  87.08774064432646  8.287438666905786  -71.64285358610316  20.876127164581263  120.000000
8.8473  0.000000  0.000000  0.000000  -33.31456551352941  2.343981812019434  -9.885528353704055  39.33833761001531  12.946805010840723  4.094440614152179  82.47068916499006  10.689429039962516  -66.75308361621317  21.221641938740895  120.000000
8.90475  0.000000  0.000000  0.000000  -32.99274800052356  2.1388501325160036  -10.811445359421585  38.96000017328833  13.227695734708105  4.316625253755417  79.70900103144365  13.761315416289976  -63.7924851374245  21.587626162982584  120.000000
8.9622  0.000000  0.000000  0.000000  -32.7499633681568  1.9892746130280345  -11.834575908508782  38.63492793015315  13.570936215953212  4.706774900058032  78.1356518786434  17.43716113774421  -62.181820228712574  21.91374832259006  120.000000
9.01965  0.000000  0.000000  0.000000  -32.58425940449279  1.9210573865972032  -12.938305592416668  38.36475616606735  13.96456988961503  5.296334914638608  77.22367188266053  21.607796366233565  -61.44793246636032  22.164113858624546  120.000000
9.0771  0.000000  0.000000  0.000000  -32.494707619369606  1.955962436614598  -14.092120445382049  38.173929335179736  14.403307884965482  6.102207032839827  76.6198981675043  26.141271414434613  -61.25525120137916  22.32628567482859  120.000000
9.13455  0.000000  0.000000  0.000000  -32.49367740482251  2.1098710795195097  -15.247517412763816  38.10551508856918  14.889808933120365  7.113856024699691  76.10523961143588  30.904827544575593  -61.36934557077095  22.400821832886166  120.000000
9.192  0.000000  0.000000  0.000000  -32.600017535525225  2.376779844110974  -16.338642063950363  38.21647638716435  15.42747512599518  8.2891266367642  75.55568894608814  35.78786646508652  -61.623217175828955  22.38893499267158  120.000000
9.24945  0.000000  0.000000  0.000000  -32.82252780992878  2.738963872085379  -17.28348794830137  38.571006331654075  16.00786997463386  9.562240785849896  74.92284200387067  40.718629886097006  -61.89895641578275  22.286452382794995  120.000000
9.3069  0.000000  0.000000  0.000000  -33.16245686899422  3.183243104489134  -17.991221307499902  39.21178010338285  16.61037036064234  10.849283357595574  74.19517727129123  45.65781171454036  -62.096754921966195  22.088597800335116  120.000000
9.36435  0.000000  0.000000  0.000000  -33.60666255697965  3.6929399296080563  -18.37400086691744  40.137564657145376  17.203629526050058  12.050669550126731  73.36945882205112  50.57624976798537  -62.12135758657095  21.78700385023261  120.000000
9.421800000000001  0.000000  0.000000  0.000000  -34.12683405894722  4.237724133737057  -18.359733539583658  41.31772442773846  17.72887536673032  13.068484146966323  72.45781286359919  55.44731769316134  -61.89870994036629  21.383276428835426  120.000000
9.47925  0.000000  0.000000  0.000000  -34.6879879572879  4.767238304329124  -17.903671674339954  42.700250910371615  18.098472280567666  13.828381367495629  71.48587288190251  60.23821787433422  -61.38005090402275  20.898014191348405  120.000000
9.5367  0.000000  0.000000  0.000000  -35.26019183339792  5.2254647723741865  -17.004948849480268  44.214838517230824  18.21455399482586  14.292351476171447  70.4809459051051  64.897291387729  -60.54114019408607  20.36970317522672  120.000000
9.59415  0.000000  0.000000  0.000000  -35.810501667698254  5.556884625766022  -15.714894087866968  45.78631024475444  17.995553153329666  14.464797425412668  69.47510742403755  69.34110204458078  -59.38828309653508  19.84086720344476  120.000000
9.6516  0.000000  0.000000  0.000000  -36.30161982316803  5.723978806173885  -14.135066067925129  47.33633937551641  17.40328481526946  14.391764950937018  68.49647593692966  73.43731413008882  -57.96177744789372  19.345335988373364  120.000000
9.70905  0.000000  0.000000  0.000000  -36.7179097703941  5.738939900598996  -12.388312479479678  48.78416434834145  16.471551156861366  14.155469257908035  67.56560580382529  77.0216975680037  -56.33322035247519  18.911159725297683  120.000000
9.7665  0.000000  0.000000  0.000000  -37.043269499391634  5.651159251790763  -10.58013174626178  50.070933031695446  15.298393203559325  13.849585965922167  66.69284455595933  79.94066065251195  -54.603544839547865  18.561210946151025  120.000000
9.82395  0.000000  0.000000  0.000000  -37.27099579714438  5.528897922386215  -8.80652471293629  51.17352010277981  14.006689831734585  13.539795363877628  65.87156770408946  82.09215300810276  -52.89224164321858  18.314450116339366  120.000000
9.8814  0.000000  0.000000  0.000000  -37.41431759341532  5.4315855053209185  -7.180319630777789  52.090282967271584  12.708428304738385  13.254155227656012  65.0879687239524  83.44622741278462  -51.314698932990204  18.18039945287333  120.000000
9.93885  0.000000  0.000000  0.000000  -37.48303186970452  5.37595281027969  -5.831779032863807  52.820273181849295  11.475152471318992  12.994177117567848  64.3550667432634  84.04931434132929  -49.96010686546159  18.149551597856345  120.000000
9.9963  0.000000  0.000000  0.000000  -37.473849262626324  5.333838835458691  -4.879812644175584  53.35259145881754  10.340365486049597  12.75192330540938  63.71564881563929  83.9870070068641  -48.8830248177545  18.194445825625138  120.000000
10.05375  0.000000  0.000000  0.000000  -37.38381658375892  5.270867242084242  -4.373955500473911  53.67418551633177  9.344445950306861  12.550617100462649  63.1859157679844  83.26390832771116  -48.129294036836235  18.285318039162043  120.000000
10.1112  0.000000  0.000000  0.000000  -37.223481489583484  5.181987122175969  -4.294265813874549  53.7829219659972  8.573579515183072  12.44870144493044  62.72167577533516  81.7796110058242  -47.73922150044836  18.400396415265863  120.000000
10.16865  0.000000  0.000000  0.000000  -37.011422838234886  5.0868752429949335  -4.621590895156259  53.685453543917546  8.135006996832278  12.482113535097678  62.27285814206195  79.47561887030155  -47.701338430630905  18.516802588502923  120.000000
10.2261  0.000000  0.000000  0.000000  -36.760602579720505  4.992367835027442  -5.362610001739409  53.38262596816641  8.104480362122539  12.64761540865175  61.84103456471243  76.40341621619605  -47.932283954635736  18.606533704045194  120.000000
10.28355  0.000000  0.000000  0.000000  -36.474666410525174  4.875646843575223  -6.51860809341092  52.866795394978716  8.501125906460487  12.91491357747695  61.4721491906712  72.69670719243356  -48.29586128824968  18.645886906562385  120.000000
10.341000000000001  0.000000  0.000000  0.000000  -36.151833446376564  4.707266149199141  -8.054516181371312  52.13150885052396  9.296361583952086  13.24200839774407  61.21538885851943  68.55412000443343  -48.638945224892204  18.630984340674605  120.000000
10.39845  0.000000  0.000000  0.000000  -35.79695758079036  4.470158863704476  -9.883540109459817  51.17905194485534  10.423290225788339  13.59748909741324  61.093831149499714  64.19110740615079  -48.83415880505648  18.59101454683979  120.000000
10.4559  0.000000  0.000000  0.000000  -35.429838063693175  4.171173784228894  -11.890263756612026  50.01963081999512  11.78118413278123  13.961090207024425  61.10444887328205  59.77223256446422  -48.801359681984444  18.592660499616542  120.000000
10.51335  0.000000  0.000000  0.000000  -35.06566989452542  3.8362980458843974  -13.959537422968488  48.676869510622296  13.256625469394898  14.318767299156127  61.2260845576327  55.38696329754278  -48.501593273360534  18.718942848755944  120.000000
10.5708  0.000000  0.000000  0.000000  -34.716852536715855  3.495845034592258  -15.985386444982291  47.18928818250917  14.74188189689156  14.661400041769191  61.42442615146174  51.070104442172536  -47.919864486055786  19.043633664903133  120.000000
10.62825  0.000000  0.000000  0.000000  -34.40271965573293  3.16977710145248  -17.8775572653953  45.60811035475811  16.14535283059357  14.98336906061174  61.65253228878594  46.82761009296881  -47.05087391018761  19.600503302449834  120.000000
10.6857  0.000000  0.000000  0.000000  -34.14799919647968  2.8638775478720575  -19.565689618077904  43.996562768207355  17.396256146533457  15.280077616509763  61.85578723174944  42.65907988162659  -45.90035998487352  20.360205807250995  120.000000
10.74315  0.000000  0.000000  0.000000  -33.9631940054564  2.5807704014761894  -21.005151854150352  42.43945935632984  18.457090275121775  15.535719895012367  61.97391109152861  38.574691841914984  -44.48774024756813  21.238683068836284  120.000000
10.8006  0.000000  0.000000  0.000000  -33.836946372711985  2.3116740389823205  -22.175568461002538  41.03017741780564  19.325693628062467  15.726111771026474  61.948080448255375  34.59744889075398  -42.8571789921124  22.124581046424282  120.000000
10.85805  0.000000  0.000000  0.000000  -33.74627154339646  2.040503972737752  -23.07560212168067  39.84419306293797  20.02658534051124  15.83537596413461  61.74233326216141  30.749741862831026  -41.08013281541445  22.913950811736054  120.000000
10.9155  0.000000  0.000000  0.000000  -33.67790999058909  1.7572595077322362  -23.71713634973983  38.91115554664361  20.602034442758043  15.870443516860606  61.36056229244411  27.0420854027263  -39.25239882780073  23.53001293177505  120.000000
10.97295  0.000000  0.000000  0.000000  -33.63445682032504  1.4673822234911864  -24.126579021623  38.21765015909345  21.11519492213944  15.85389386971391  60.83259881741708  23.481234602214833  -37.46932142396643  23.921503512929345  120.000000
11.0304  0.000000  0.000000  0.000000  -33.64203166992405  1.1976803135909575  -24.346286721126713  37.7162080278217  21.640179678539294  15.820972722214094  60.21642679771559  20.084271199629686  -35.8176854735953  24.05299074797733  120.000000
11.08785  0.000000  0.000000  0.000000  -33.75325089913834  0.9855037371612543  -24.416368149739217  37.345132802511976  22.23489780060767  15.821429649871797  59.64776720002195  16.882607971568262  -34.4159436205857  23.900387666212335  120.000000
11.1453  0.000000  0.000000  0.000000  -34.03804360893376  0.8583749963671558  -24.33343034122889  37.062093225455904  22.929141753613756  15.883600837765625  59.41853284910917  13.912469386806361  -33.50697705980228  23.4460193534221  120.000000
11.20275  0.000000  0.000000  0.000000  -34.56130818080966  0.8176358085870336  -24.061076102232473  36.866942400814466  23.73482573573449  15.982250984500634  60.05664647387895  11.210934852292638  -33.56822433610019  22.672086162387167  120.000000
11.260200000000001  0.000000  0.000000  0.000000  -35.34349781010613  0.8488707580521677  -23.590823531254596  36.793029802592926  24.64337226423018  16.067319849995243  62.54897755985045  8.820769003076197  -35.54732623139351  21.564220160838385  120.000000
11.31765  0.000000  0.000000  0.000000  -36.3560421145166  0.8968258728361718  -22.96338132316043  36.86758930271041  25.617285161534266  16.103230430082878  68.67973039452748  6.798377517439671  -41.20747371816141  20.11112225581966  120.000000
11.3751  0.000000  0.000000  0.000000  -37.54040608135299  0.8938636635694801  -22.25198890811108  37.08625676148599  26.58382205111337  16.089090791114  81.46081069527193  5.254481394235125  -53.55058070389195  18.331557322367885  120.000000
11.43255  0.000000  0.000000  0.000000  -38.824094110357294  0.7847528306888472  -21.54442590997179  37.42519484696171  27.458303978952554  16.0466960463528  103.59034969829831  4.446878320740098  -75.26815417847345  16.298457092869246  120.000000
11.49  0.000000  0.000000  0.000000  -40.13447471061463  0.5453756308414438  -20.92407946732448  37.881168858852476  28.16759602525448  15.994716018485285  130.2923403153895  4.714435327800116  -101.56713809758251  14.17544990307127  120.000000
