Simulation
nRows=201
nColumns=15
endheader
time  TH_x TH_y TH_z SC_y  SC_z  SC_x  AC_y  AC_z  AC_x  GH_y  GH_z  GH_yy  EL_x  PS_y
0.0  0.000000  0.000000  0.000000  -40.97484877243665  6.293857566463187  5.290427962726946  44.047279636020875  7.754808296318428  -0.05908065318752276  172.84120459403408  6.674959541529612  -147.4583364695341  22.649528731257192  120.000000
0.05745  0.000000  0.000000  0.000000  -39.269212746753475  5.9037767428877235  3.298240911274584  43.28295043879775  7.7894281934002585  0.16165405206565586  168.7777421919788  3.6670532288306057  -144.37937541177737  22.059756951159308  120.000000
0.1149  0.000000  0.000000  0.000000  -37.69026185222474  5.361875666438518  1.301548447457365  42.60933657416954  7.65161041466796  0.41376135882742887  136.92478643744516  0.9929323797292665  -113.51624519277587  21.655589755985268  120.000000
0.17235  0.000000  0.000000  0.000000  -36.32757657725875  4.7251125835294845  -0.6148505822410714  42.06392863427596  7.40875075011112  0.7093896768212246  20.59584472604106  2.184867393399535  1.7868682205945854  21.512878026185614  120.000000
0.2298  0.000000  0.000000  0.000000  -35.22054976232379  4.062011831160185  -2.3890849688553044  41.66224136153887  7.15412363409289  1.0651975726482596  11.285157632718203  4.884989271940559  10.013554986570071  21.63891293020899  120.000000
0.28725  0.000000  0.000000  0.000000  -34.37830386679853  3.441427119296779  -3.9880384475062938  41.3901607808375  6.987149529900535  1.4948080534896908  8.729925075990925  7.683093314131421  11.399879454678134  21.969347828524114  120.000000
0.3447  0.000000  0.000000  0.000000  -33.8067822514629  2.9273091411660803  -5.380251468371846  41.21941917996568  6.972916697469657  1.985442310822212  7.181087653164791  10.613050764906003  11.667622241698789  22.40519997010473  120.000000
0.40215  0.000000  0.000000  0.000000  -33.51713997773934  2.5635608158076546  -6.52413006383412  41.11881450239536  7.127740042153136  2.498489107652767  5.821430707510271  13.727336347323059  11.610833015642942  22.83550326062393  120.000000
0.4596  0.000000  0.000000  0.000000  -33.51235998680703  2.3771482601062295  -7.3871987012190985  41.06436848640264  7.429187989797214  2.9933453147732454  4.530450946016902  17.059501185558037  11.341833699798318  23.167356834744762  120.000000
0.51705  0.000000  0.000000  0.000000  -33.7800457097206  2.3785764586746443  -7.949250659408662  41.04236275031695  7.825901107408321  3.4399348442639477  3.3348889162636155  20.613073080501618  10.844935622090912  23.339818563119636  120.000000
0.5745  0.000000  0.000000  0.000000  -34.29207331817566  2.568023260513376  -8.202455108636224  41.05402971612816  8.250782638986353  3.8262990986778243  2.296983102785896  24.35873643516082  10.08900166494751  23.332269749868452  120.000000
0.63195  0.000000  0.000000  0.000000  -35.01667643630918  2.9393835724442416  -8.157758705349377  41.11455978945425  8.640659146980022  4.167660904034766  1.4880754419509268  28.241268233294573  9.045066804468352  23.155994868184425  120.000000
0.6894  0.000000  0.000000  0.000000  -35.9265228912953  3.4776897753085247  -7.8613857557996925  41.249788968516334  8.958050733706344  4.510748545019313  0.9762045244757241  32.191590278873704  7.686889859847929  22.840772972450253  120.000000
0.74685  0.000000  0.000000  0.000000  -37.00254510766901  4.153495061196298  -7.371409397527962  41.49039910526055  9.186765084131919  4.905475227568606  0.8058366377727254  36.140388756418396  5.998722650612622  22.422806800609415  120.000000
0.8043  0.000000  0.000000  0.000000  -38.22673908053165  4.932520168801738  -6.729350125448925  41.86225784722309  9.322184031375134  5.378544819651121  0.9832509463990974  40.02318236498371  3.9841879264627478  21.938958620032917  120.000000
0.86175  0.000000  0.000000  0.000000  -39.577802648724905  5.782496338544347  -5.959413978615216  42.37225028697376  9.37744420129986  5.935198169033974  1.470501138860898  43.78316732180259  1.6750414386814059  21.423334531636794  120.000000
0.9192  0.000000  0.000000  0.000000  -41.02224985755696  6.67976998533662  -5.0715405053019325  43.00445402194796  9.38319283910466  6.56236797270776  2.1963745572566378  47.367957982867104  -0.8662586104156191  20.9062844918368  120.000000
0.97665  0.000000  0.000000  0.000000  -42.50721481157229  7.607782086721904  -4.061912490488551  43.720497849841124  9.380597679520552  7.234187503069984  3.072847400064414  50.72363212759501  -3.5461736016936123  20.40968476297235  120.000000
1.0341  0.000000  0.000000  0.000000  -43.96607422656197  8.552419890170029  -2.9181622410469434  44.4607022776959  9.410506069843242  7.916025995432022  4.00953965896281  53.78895281336111  -6.240095602700574  19.94588581977754  120.000000
1.09155  0.000000  0.000000  0.000000  -45.335741008068666  9.505853869398326  -1.6293229290361124  45.15629407491781  9.505635674616718  8.570520091300255  4.930079826079865  56.50302243092727  -8.807959235588413  19.51582716718729  120.000000
1.149  0.000000  0.000000  0.000000  -46.576089753171956  10.46177126012143  -0.19299159498495752  45.743149361283805  9.68419916413075  9.164708509765699  5.782729190115639  58.818151711882166  -11.118085037053952  19.113708270962587  120.000000
1.20645  0.000000  0.000000  0.000000  -47.67749255037196  11.402346236948961  1.3746340770916852  46.17825975279795  9.942483611698105  9.676391392177342  6.544274412502118  60.70518189500762  -13.072711002373522  18.734214169153184  120.000000
1.2639  0.000000  0.000000  0.000000  -48.646974449097065  12.294425672280136  3.0302747078366523  46.44897111793536  10.258596820940074  10.094383183496094  7.216503344583735  62.15579951884088  -14.630231658763174  18.376468984481455  120.000000
1.32135  0.000000  0.000000  0.000000  -49.493082415069395  13.095730675487411  4.702776997583564  46.57176317352333  10.600079086860424  10.41609094295657  7.813385761439699  63.18836518888602  -15.810302196429866  18.04527164996951  120.000000
1.3788  0.000000  0.000000  0.000000  -50.213612086656426  13.762854930313715  6.2952403358980735  46.583803908015085  10.929461134966525  10.641474803699378  8.347092917791523  63.850049270627444  -16.67992310555284  17.749293759140418  120.000000
1.43625  0.000000  0.000000  0.000000  -50.78860483383602  14.257718153203946  7.688654240486047  46.5345632690778  11.206779534469057  10.766824204061654  8.817818617787335  64.21858265785963  -17.325965902617327  17.497978035991927  120.000000
1.4937  0.000000  0.000000  0.000000  -51.178025573927265  14.548938021340406  8.745810243237422  46.47788639602452  11.388959338496443  10.78033280879653  9.206985195606395  64.40381863665144  -17.822980505680633  17.299018272150676  120.000000
1.55115  0.000000  0.000000  0.000000  -51.33510078984522  14.616807428357252  9.333135645251524  46.45842867175963  11.438501021682098  10.669471611616451  9.48672657743754  64.50771374583726  -18.22010475054036  17.15790391934471  120.000000
1.6086  0.000000  0.000000  0.000000  -51.222817044720145  14.452635785040442  9.348983235763564  46.49705132312704  11.335091608556274  10.435249830705294  9.633173197835537  64.58115632903424  -18.541141697315698  17.07831771039317  120.000000
1.66605  0.000000  0.000000  0.000000  -50.82335962868614  14.049144490753674  8.739711396909573  46.587120434995775  11.080611169570021  10.09977733937176  9.630440846468453  64.61967940849821  -18.78562419686374  17.060486719523464  120.000000
1.7235  0.000000  0.000000  0.000000  -50.148304974526326  13.405798856495453  7.524727711216038  46.687886881287696  10.718508366846168  9.71274410594931  9.484565223682432  64.52642718294477  -18.953419021562564  17.09873710571323  120.000000
1.78095  0.000000  0.000000  0.000000  -49.234308484069224  12.534590688042112  5.793016842138114  46.73604274385621  10.3382544446193  9.337777195562595  9.220531406629428  64.13162647269141  -19.05565281817932  17.17778045576962  120.000000
1.8384  0.000000  0.000000  0.000000  -48.12368290035052  11.457184052046985  3.664286734648445  46.67395129014991  10.049626230226204  9.024672792877404  8.857096217045797  63.28579469796853  -19.100552697838758  17.272095883949728  120.000000
1.89585  0.000000  0.000000  0.000000  -46.85763679389256  10.2077163018801  1.2651652299394816  46.463208353101784  9.958187489822041  8.800304903215489  8.403714591413472  61.897038046382164  -19.095026249239385  17.352150493711203  120.000000
1.9533  0.000000  0.000000  0.000000  -45.47964411908357  8.83558126402476  -1.2832602969407296  46.086619282330844  10.145326056458845  8.674588098663314  7.872130904707231  59.928704574074764  -19.05453939385945  17.394122056903825  120.000000
2.01075  0.000000  0.000000  0.000000  -44.04228780700054  7.402954640474123  -3.8767563261222406  45.548440266053724  10.651906097553189  8.648429181250833  7.286306073458018  57.39581198441137  -19.00606173718708  17.386474775235992  120.000000
2.0682  0.000000  0.000000  0.000000  -42.61086917568909  5.974273972132138  -6.434570434605715  44.86989718477651  11.470911315347703  8.722724407908597  6.687940282677866  54.3567123777596  -18.985303877952678  17.330886733337397  120.000000
2.1256500000000003  0.000000  0.000000  0.000000  -41.2625493185312  4.6115211335122  -8.900518693313556  44.082423277889674  12.551876714444573  8.903437368294945  6.137731171923269  50.900955917984035  -19.02996460783865  17.23519287643966  120.000000
2.1831  0.000000  0.000000  0.000000  -40.07197090948609  3.3728269959579578  -11.240592185409323  43.22203563836449  13.81453141247401  9.199346932291343  5.712679047233775  47.13212087480326  -19.168145321143946  17.103891578330316  120.000000
2.24055  0.000000  0.000000  0.000000  -39.08717815188814  2.301769371526906  -13.43630757161594  42.32521999997786  15.163177169449165  9.620764828810422  5.500753787653764  43.14866465636186  -19.405320510888238  16.929837633984906  120.000000
2.298  0.000000  0.000000  0.000000  -38.317430505414826  1.424621744894707  -15.478111341494467  41.426625193015425  16.502923886274424  10.171519959285474  5.585648563933918  39.03304197085321  -19.714292811117968  16.69392894666765  120.000000
2.3554500000000003  0.000000  0.000000  0.000000  -37.73881637775749  0.7521754032593786  -17.358678761097284  40.55576944304985  17.757015168021425  10.840863739227103  6.0259157253684075  34.85611151506437  -20.033509391014285  16.37342482201654  120.000000
2.4129  0.000000  0.000000  0.000000  -37.305812826578105  0.27900408417703776  -19.06771998930586  39.737501016593555  18.879819768389712  11.604739185132917  6.847510431238236  30.686582233089972  -20.281599906473968  15.956646054237297  120.000000
2.47035  0.000000  0.000000  0.000000  -36.964937995951225  -0.01912830732749578  -20.59366077432562  38.994687769045875  19.861392297568454  12.428136681764016  8.050597545033217  26.59919493142209  -20.38159913870933  15.458265277848417  120.000000
2.5278  0.000000  0.000000  0.000000  -36.67280147353244  -0.18828483175831612  -21.9305360178316  38.3488526236079  20.72309356424999  13.270806422431303  9.634677995598834  22.681783734691784  -20.29554365779075  14.92544252962841  120.000000
2.5852500000000003  0.000000  0.000000  0.000000  -36.406977875178384  -0.2893677183760981  -23.068879962718377  37.82589467936673  21.496996725648504  14.081049824631657  11.641458664489203  19.033435108547984  -20.07055320248578  14.427139249781273  120.000000
2.6427  0.000000  0.000000  0.000000  -36.16601133534231  -0.38139750754185897  -23.980342944294193  37.45355116091698  22.203353201083903  14.793979608641369  14.188528121074054  15.74495095357076  -19.878866872273004  14.032147222549073  120.000000
2.70015  0.000000  0.000000  0.000000  -35.960312561802574  -0.49904946546427814  -24.63160052314903  37.25137237702796  22.848129578665244  15.351541882808538  17.512507479563656  12.877064406965617  -20.069422976780064  13.787787672548765  120.000000
2.7576  0.000000  0.000000  0.000000  -35.80315008397084  -0.6435077768737181  -25.003445144106063  37.219384130152335  23.426316014531327  15.723552901787526  22.036972357878057  10.458023026467215  -21.23443791971358  13.71270510518097  120.000000
2.8150500000000003  0.000000  0.000000  0.000000  -35.70562435701614  -0.7894635653203352  -25.103455404869504  37.330433040080024  23.92384353619621  15.915179048731398  28.41252057429676  8.498056997132915  -24.228532900963017  13.804617833432443  120.000000
2.8725  0.000000  0.000000  0.000000  -35.67595218884506  -0.9011514925291308  -24.959874903667615  37.539897648220624  24.321927009473583  15.9509224943485  37.39284817555812  7.0088189567389305  -30.01003843267055  14.047328989343477  120.000000
2.92995  0.000000  0.000000  0.000000  -35.71814298234933  -0.9483958342025027  -24.59857112679418  37.80566036196502  24.600193971777202  15.849633521023263  49.32637234799711  6.013358748042386  -39.094643050974035  14.412878784517279  120.000000
2.9874  0.000000  0.000000  0.000000  -35.82470407679419  -0.9138826176902319  -24.04420727724097  38.092865943970004  24.7413534870039  15.626044594673498  63.27018164526661  5.519686166273633  -50.64258699991626  14.862784266835963  120.000000
3.0448500000000003  0.000000  0.000000  0.000000  -35.97552733699781  -0.7922398055863433  -23.328556320412  38.37437284250477  24.738115709673114  15.299848673499627  76.94031813915514  5.462044668367154  -62.40519802727322  15.351556939419963  120.000000
3.1023  0.000000  0.000000  0.000000  -36.14596611365263  -0.5875775209949119  -22.487657253593333  38.63747518365178  24.598199408382605  14.892479493119325  88.32756197820227  5.693883100426027  -72.35363064280025  15.836443866081833  120.000000
3.15975  0.000000  0.000000  0.000000  -36.31461656798429  -0.3141484712011806  -21.560631792917327  38.88139020467618  24.342313831087242  14.427616330084211  96.82795971991246  6.0551253432478775  -79.82622374352911  16.28784593809927  120.000000
3.2172  0.000000  0.000000  0.000000  -36.466314702932  0.0038186179647063017  -20.586277381917515  39.11214232382899  23.995236180914464  13.928801115223864  102.79110287239253  6.427388465431899  -85.09127239004529  16.695622299369564  120.000000
3.2746500000000003  0.000000  0.000000  0.000000  -36.58870187664844  0.3371138556560291  -19.599435941259866  39.34018783578197  23.58023540274548  13.414413251429002  106.80257975717879  6.744532408274064  -88.6426623145684  17.066977409593125  120.000000
3.3321  0.000000  0.000000  0.000000  -36.67169022276238  0.658688383006903  -18.62892048013168  39.57547003805981  23.117197956921796  12.898798753927618  109.37058559689093  6.981480782582029  -90.89927727996397  17.418425878514324  120.000000
3.38955  0.000000  0.000000  0.000000  -36.71088508213039  0.9482530550568604  -17.69691857416629  39.82329442027588  22.621823831509815  12.39270550866365  110.87374537430975  7.139881859660503  -92.16513203771038  17.76604772197908  120.000000
3.447  0.000000  0.000000  0.000000  -36.70849435632265  1.194369980263539  -16.82078003713381  40.08504257595955  22.10701518011828  11.902115609941937  111.58458381955543  7.238222498538672  -92.661701972087  18.11934834742062  120.000000
3.5044500000000003  0.000000  0.000000  0.000000  -36.67260880626712  1.3915532730884173  -16.012371766690006  40.35653179505351  21.583580264958005  11.43184858337205  111.7005519673173  7.302316065520517  -92.559846525586  18.480852497535185  120.000000
3.5619  0.000000  0.000000  0.000000  -36.61417202096695  1.5390000407826527  -15.278084815588937  40.627191948138126  21.061353892119502  10.988222795999711  111.36794820964347  7.355056956774282  -91.99805948694208  18.848606095204712  120.000000
3.61935  0.000000  0.000000  0.000000  -36.54285840820297  1.6431234098021157  -14.622278088194937  40.885832554872835  20.55135572094005  10.57612213573563  110.68404770118609  7.41232674948833  -91.07632683191152  19.219685022639755  120.000000
3.6768  0.000000  0.000000  0.000000  -36.46419804386188  1.7168964517758836  -14.04981182549656  41.12380312371078  20.06416503153007  10.19858180589156  109.7049451871071  7.4832045667806515  -89.85687639480655  19.592420445514904  120.000000
3.7342500000000003  0.000000  0.000000  0.000000  -36.37973594763037  1.772813249338187  -13.56653609349103  41.332773999538276  19.605993694106136  9.859891467134872  108.46012118213997  7.56930350231101  -88.37421644860791  19.966478703364633  120.000000
3.7917  0.000000  0.000000  0.000000  -36.28708306934094  1.8183717712559024  -13.179009485379991  41.50477075913954  19.177065843235706  9.56705727182731  106.95442962188027  7.665747407479081  -86.63527815624516  20.342234807099985  120.000000
3.84915  0.000000  0.000000  0.000000  -36.180817081415135  1.8563599194671068  -12.893802411819722  41.63441568379681  18.77316477401826  9.328963984814296  105.14864941890542  7.7631400456140245  -84.59958837411307  20.719955928671386  120.000000
3.9066  0.000000  0.000000  0.000000  -36.053854801001286  1.8875245629275603  -12.716763129048285  41.72118085009801  18.38877417227217  9.154566711959669  102.93281653036497  7.849791860560189  -82.15306005619955  21.09892520663921  120.000000
3.9640500000000003  0.000000  0.000000  0.000000  -35.89795717554864  1.9137044639537295  -12.652925989308725  41.77171608296381  18.019697829624093  9.051196174344334  100.11047196212463  7.916761953306405  -79.09400354585242  21.4770005163642  120.000000
4.0215  0.000000  0.000000  0.000000  -35.705289333979984  1.936538384855519  -12.706948735297402  41.7984476015485  17.663275190658602  9.024462776821215  96.41108871436408  7.964840280404871  -75.14981487870304  21.85018685523519  120.000000
4.07895  0.000000  0.000000  0.000000  -35.47143649494412  1.9548297583543723  -12.883416201774768  41.816361504110475  17.31684772483302  9.07959784767029  91.53265826423821  8.015653938730134  -70.02652531180452  22.211431199303938  120.000000
4.1364  0.000000  0.000000  0.000000  -35.19926433428299  1.9645625603396912  -13.186269103324713  41.84144073645589  16.977188102648796  9.222434258260964  85.23430120378619  8.126779825146896  -63.50965856745836  22.548972503012326  120.000000
4.19385  0.000000  0.000000  0.000000  -34.901496924020215  1.9593166936162776  -13.61696645113122  41.89012281726885  16.64095400374434  9.460300693548671  77.51956780003445  8.400562362208086  -55.65232767323489  22.845306086209284  120.000000
4.2513000000000005  0.000000  0.000000  0.000000  -34.59850589646678  1.9296437405685438  -14.171308631804017  41.97853584306087  16.305892202019752  9.803296914663619  68.84960749918068  8.97110538390195  -46.98542317893815  23.07955787135868  120.000000
4.30875  0.000000  0.000000  0.000000  -34.30939195158938  1.8667921425141047  -14.837046215474516  42.12558468355078  15.975889743946563  10.259791984034283  60.10802521532035  9.966322807083175  -38.4719480543828  23.235288391544547  120.000000
4.3662  0.000000  0.000000  0.000000  -34.04572969320094  1.7698796448900411  -15.592290280605114  42.35662682054074  15.667144009654024  10.829607283612535  52.17881320149326  11.472025145306889  -31.071568750309336  23.31363406984542  120.000000
4.42365  0.000000  0.000000  0.000000  -33.81402955278108  1.6475797852665335  -16.403040697026253  42.69650816066479  15.406991467624588  11.506137399866695  45.5166699910515  13.52493493443699  -25.295376928913434  23.342848337989512  120.000000
4.4811  0.000000  0.000000  0.000000  -33.62430473969416  1.515580325019417  -17.223010421413495  43.15628664112756  15.225486197586722  12.281184085300868  40.10240794721899  16.129401200132953  -21.147156755735974  23.374243633633068  120.000000
4.53855  0.000000  0.000000  0.000000  -33.495091127830506  1.3987993997462984  -18.002165741069014  43.73626661634104  15.146883928244737  13.138685237193535  35.68832782726937  19.27516664345359  -18.359847074604726  23.46433903774953  120.000000
4.596  0.000000  0.000000  0.000000  -33.44912466443728  1.3249516420927585  -18.694800183305002  44.42979515888406  15.181833637355366  14.05170915866946  32.016139936995124  22.93436946045765  -16.609014060464368  23.648195046759408  120.000000
4.65345  0.000000  0.000000  0.000000  -33.51097102460523  1.3207981114878837  -19.2611372551244  45.222250775768245  15.318652175047164  14.990488300637686  28.91548077697697  27.046771369680897  -15.613309741525386  23.919757204127823  120.000000
4.7109000000000005  0.000000  0.000000  0.000000  -33.69556321985745  1.4089631031844279  -19.665785372322983  46.096009183736385  15.53306750776244  15.91966564084649  26.308036250572663  31.513042566342236  -15.156865536154388  24.2304038484408  120.000000
4.76835  0.000000  0.000000  0.000000  -34.00267529297851  1.6038324201661447  -19.867459948161578  47.016386735868  15.80121399833585  16.804362745091193  24.15947371736275  36.189777603712976  -15.075351111867956  24.506018288743004  120.000000
4.8258  0.000000  0.000000  0.000000  -34.41544579713103  1.9126640145870009  -19.82012212233975  47.93388215244952  16.108864870053576  17.602232425507683  22.43923343982256  40.8978331108831  -15.253570988075015  24.67202002614489  120.000000
4.88325  0.000000  0.000000  0.000000  -34.89980021959723  2.3326847139429523  -19.479626852183895  48.80642361476802  16.45685422742546  18.254957267509802  21.113890582449905  45.45649322928704  -15.642536932335785  24.672967321527373  120.000000
4.9407  0.000000  0.000000  0.000000  -35.43135657179915  2.855126002896529  -18.797775402781195  49.60138911486386  16.845555752396333  18.71126382062913  20.149938671436928  49.7219051740287  -16.254788160373156  24.4863573413021  120.000000
4.99815  0.000000  0.000000  0.000000  -36.011209332875325  3.466899842665517  -17.728895067198795  50.292044572235575  17.260164293586406  18.935348820573125  19.501804570740397  53.605119546212336  -17.128229895590835  24.11510026630266  120.000000
5.0556  0.000000  0.000000  0.000000  -36.651912906208004  4.150760276178375  -16.244779338808243  50.86404590879608  17.669189847857762  18.907774757111508  19.11926369348912  57.06512302947899  -18.29356560171144  23.579741513983816  120.000000
5.11305  0.000000  0.000000  0.000000  -37.36093819227695  4.880815296620853  -14.342880890627235  51.31684341627449  18.028390753548152  18.631492671850616  18.95873670225521  60.09496358197315  -19.75159694074696  22.91860280852953  120.000000
5.1705000000000005  0.000000  0.000000  0.000000  -38.13752969900054  5.624528135312493  -12.055725016644486  51.65368074170369  18.291161631477483  18.128870922945183  18.97848174321705  62.70599544770524  -21.460684975580907  22.18329189373581  120.000000
5.22795  0.000000  0.000000  0.000000  -38.97469267079869  6.346108606630688  -9.457739742298648  51.87794751440163  18.422470426411856  17.437453539661195  19.138583202584012  64.91542952164072  -23.34640101303944  21.43380376264213  120.000000
5.2854  0.000000  0.000000  0.000000  -39.84980170369473  7.004791883345084  -6.666946101024655  51.997972907889235  18.408048008666324  16.60506662295931  19.402612054640613  66.74025640639896  -25.319722091334143  20.726270226612673  120.000000
5.34285  0.000000  0.000000  0.000000  -40.71899040015833  7.558580544516362  -3.8414983538531775  52.03129278602005  18.25292795857906  15.683079993386427  19.734926577813518  68.19703223288091  -27.286183890451106  20.101289232199694  120.000000
5.4003  0.000000  0.000000  0.000000  -41.518398717982976  7.969971904037097  -1.1687036374235609  52.00584415122873  17.971884436037715  14.720118349321032  20.095974269785252  69.30874623881014  -29.1484874889869  19.576885445661876  120.000000
5.45775  0.000000  0.000000  0.000000  -42.17096629537952  8.210926570227286  1.1526790622628653  51.957805519982315  17.57768736008761  13.756446590696521  20.435432557049257  70.116566758285  -30.802893176023872  19.152703082327964  120.000000
5.5152  0.000000  0.000000  0.000000  -42.596700790998604  8.260444582176923  2.9295169084743904  51.92878634914734  17.070561713696332  12.819479042440815  20.684192303461426  70.69313912164058  -32.13368548456262  18.821232362121638  120.000000
5.57265  0.000000  0.000000  0.000000  -42.73980832259848  8.112802367281716  4.016620988904664  51.94267866618146  16.4558948857323  11.935716808036187  20.79576385342925  71.06585675247307  -33.06473703485559  18.581016089463688  120.000000
5.6301000000000005  0.000000  0.000000  0.000000  -42.597935276959326  7.785573189590496  4.360150926366061  51.97845719513967  15.771687171671331  11.14894844264022  20.803196018611278  71.12701729066573  -33.623744045762585  18.446112740196124  120.000000
5.68755  0.000000  0.000000  0.000000  -42.20610343025909  7.304676941538907  3.975186636649757  51.98351385465582  15.072211177010919  10.50879652228641  20.77894534112537  70.71101478769339  -33.89154195969938  18.441975729791743  120.000000
5.745  0.000000  0.000000  0.000000  -41.61107726650006  6.693246898681658  2.9117659234649214  51.89483353715281  14.405779581804625  10.053272747386371  20.777521100662923  69.69187218045877  -33.93626173237044  18.59043853003945  120.000000
5.80245  0.000000  0.000000  0.000000  -40.86224163973369  5.977376727984755  1.2486338250714513  51.64562001727511  13.816544304030018  9.802439525267333  20.83050642778309  67.99378225574455  -33.80716604038217  18.88818106122525  120.000000
5.8599  0.000000  0.000000  0.000000  -40.00466496062232  5.188560765877854  -0.9109201705828756  51.1761732587974  13.347630680912784  9.755107700652827  20.953638314870073  65.58897462142723  -33.53967495910148  19.287864076197003  120.000000
5.91735  0.000000  0.000000  0.000000  -39.07445020775451  4.362622151138592  -3.445947652900448  50.44728394303731  13.040943680109184  9.88986510626876  21.15574065645127  62.49455263988528  -33.16161238192227  19.697845267466146  120.000000
5.9748  0.000000  0.000000  0.000000  -38.096088903410674  3.535022390519588  -6.224605107954199  49.45590417652119  12.934260508096727  10.174181577188524  21.45380814435116  58.76884677304533  -32.70311260278037  20.0066768866947  120.000000
6.03225  0.000000  0.000000  0.000000  -37.08739642567938  2.7373724502567782  -9.109651853772045  48.24496586881274  13.058245599451027  10.575724237244836  21.88830710130241  54.509189440796  -32.20726147375822  20.118985769036538  120.000000
6.089700000000001  0.000000  0.000000  0.000000  -36.07643890727136  1.9975438409709312  -11.965565207665392  46.89159463639082  13.43169634716248  11.068531888458255  22.525755174782347  49.84729985754282  -31.736158044859202  19.98361693245785  120.000000
6.14715  0.000000  0.000000  0.000000  -35.1191072632179  1.3436798790858255  -14.66923574711399  45.488811231338225  14.053933615905063  11.634251461810821  23.461989623252226  44.94434049509644  -31.38084027304191  19.60243129837059  120.000000
6.2046  0.000000  0.000000  0.000000  -34.289702629859015  0.8042611926863267  -17.11977147888982  44.1310881337408  14.900523505112506  12.258724876149941  24.828553888891054  39.982825971466426  -31.27196204499677  19.01522411887824  120.000000
6.26205  0.000000  0.000000  0.000000  -33.66066159951241  0.4012046010962508  -19.24301285115007  42.895570222097454  15.920535295664777  12.933514744125585  26.792560592879582  35.15018754724805  -31.581465885021203  18.282426909709002  120.000000
6.3195  0.000000  0.000000  0.000000  -33.28012346795676  0.14795291688233073  -20.996352592896983  41.832945301752034  17.04320993824958  13.648055326977891  29.543328935698277  30.619920881866417  -32.508266169157366  17.478334096258845  120.000000
6.37695  0.000000  0.000000  0.000000  -33.15115313129852  0.04376161129029846  -22.370105280680693  40.97336816905301  18.193319156229297  14.376277766201893  33.266420788992235  26.53435767410389  -34.25181882300718  16.686544249064994  120.000000
6.4344  0.000000  0.000000  0.000000  -33.231142606853645  0.06868476603272612  -23.378877569412076  40.325890175794164  19.302250605635724  15.082601795164924  38.10058378566724  22.988339872957702  -36.96940482013447  15.992452674022402  120.000000
6.49185  0.000000  0.000000  0.000000  -33.45029092637703  0.1873524926972016  -24.051883515812705  39.87826878094603  20.321103397745244  15.72896835841892  44.076008450896445  20.02793604151756  -40.72153638539688  15.469759547607511  120.000000
6.549300000000001  0.000000  0.000000  0.000000  -33.736995895889464  0.3629871602891335  -24.429800890323623  39.60561229888952  21.222684994798286  16.278775982392684  51.061144942717235  17.657936486362978  -45.42429164988088  15.166352057227456  120.000000
6.60675  0.000000  0.000000  0.000000  -34.03965360549837  0.5644307094912475  -24.561138244690877  39.47020477326849  21.990844089640515  16.70916960757384  58.74686383770326  15.843721433745907  -50.83162657778745  15.095949722916506  120.000000
6.6642  0.000000  0.000000  0.000000  -34.334743636874876  0.7685130899913728  -24.493652466642416  39.429907179312266  22.616327364933948  17.009207514585054  66.69272904555201  14.517006604150584  -56.57604230768241  15.24216155753329  120.000000
6.72165  0.000000  0.000000  0.000000  -34.6162326012744  0.9633407442416266  -24.266806544321952  39.45014612149092  23.096348477259507  17.172022486017116  74.4340806429715  13.584149276976923  -62.26182786582145  15.56744843767387  120.000000
6.7791  0.000000  0.000000  0.000000  -34.8842407022278  1.1428059385150604  -23.913762635874605  39.50211609207574  23.431964117499113  17.20044714151863  81.60149464199479  12.940125206178553  -67.57010383690783  16.015333374091863  120.000000
6.83655  0.000000  0.000000  0.000000  -35.134324132178236  1.30337693021667  -23.46523655106293  39.56702925013416  23.628327075426803  17.10575005479078  87.99547716277893  12.486477191328962  -72.32513756362567  16.510145959663767  120.000000
6.894  0.000000  0.000000  0.000000  -35.35339691135941  1.443251552041686  -22.94797708997772  39.63982463788125  23.695363597451713  16.901871910573703  93.58514364937108  12.144205602310505  -76.49558904729365  16.96438217611597  120.000000
6.95145  0.000000  0.000000  0.000000  -35.52467518495288  1.5619174311531012  -22.38307729406221  39.72514344165233  23.64702410084996  16.60380502647806  98.44996462947728  11.859466377719487  -80.14742977954009  17.297534142665896  120.000000
7.008900000000001  0.000000  0.000000  0.000000  -35.637763478323045  1.6599057963062172  -21.785017623966297  39.82894254034159  23.499671517167403  16.228121097195572  102.70851533903972  11.602111065116288  -83.38553758952831  17.463060950593107  120.000000
7.06635  0.000000  0.000000  0.000000  -35.6972491255138  1.7383526770294693  -21.161908899522217  39.951026969881454  23.270924905533118  15.792775370276582  106.46317004266803  11.35944280581669  -86.30710333852751  17.46973886825517  120.000000
7.1238  0.000000  0.000000  0.000000  -35.72261584172567  1.7994924363748563  -20.517194702670366  40.08380732145854  22.979087435839986  15.315249389337508  109.77624420398071  11.129191169109339  -88.97878260824261  17.378697275125532  120.000000
7.18125  0.000000  0.000000  0.000000  -35.73784558657611  1.8484014552992072  -19.852419474636744  40.219640394559654  22.643800975498127  14.808668684965863  112.67000259654289  10.914797423897442  -91.43010361064734  17.275991666598156  120.000000
7.2387  0.000000  0.000000  0.000000  -35.76228356661376  1.891220166469916  -19.169039474432054  40.356062287030376  22.284411426856103  14.281410262044204  115.13922724958603  10.720576168793869  -93.65661960892591  17.236927036029797  120.000000
7.29615  0.000000  0.000000  0.000000  -35.806101278936616  1.9315500029218517  -18.468842613560646  40.49233372887645  21.9142187968387  13.742730258863235  117.18649531080253  10.544422538981985  -95.64570932283115  17.298235589244875  120.000000
7.3536  0.000000  0.000000  0.000000  -35.86775040064441  1.9707114557384708  -17.75475517779261  40.62876775321659  21.539241518301687  13.204015054868881  118.84795658365832  10.376571416058686  -97.40024839694557  17.45287006741699  120.000000
7.41105  0.000000  0.000000  0.000000  -35.93737389141554  2.009114713416489  -17.031829987069152  40.77069626182643  21.162671331016625  12.673848097257126  120.17766888868456  10.20572139025797  -98.93185739020264  17.66692852527592  120.000000
7.468500000000001  0.000000  0.000000  0.000000  -36.00043707639023  2.0482980716684747  -16.307688367897097  40.927012309196826  20.786980564241585  12.15574910597637  121.2408320616992  10.022100462939145  -100.26377626599312  17.90238662063535  120.000000
7.52595  0.000000  0.000000  0.000000  -36.04733894392973  2.0888105471327623  -15.590602065505395  41.10152275203923  20.412614419414055  11.652113878455193  122.11018411936264  9.818277840814659  -101.43575640616493  18.132922917533545  120.000000
7.5834  0.000000  0.000000  0.000000  -36.07676359242944  2.1292532396885866  -14.887871650958708  41.290994128176735  20.038790337018817  11.166028915842043  122.85597871557135  9.591205207660764  -102.4978619145384  18.349443006837223  120.000000
7.64085  0.000000  0.000000  0.000000  -36.09363208107393  2.1677245276127715  -14.205420779284367  41.48836514586372  19.66563436338589  10.700322774333802  123.53899623590218  9.342521377773766  -103.50145740068122  18.555587363320083  120.000000
7.6983  0.000000  0.000000  0.000000  -36.105687754046855  2.202684313153948  -13.547840955766445  41.685988563789735  19.29554345213761  10.256496497807015  124.20903533475135  9.076992823493061  -104.49352727971639  18.758879954583747  120.000000
7.75575  0.000000  0.000000  0.000000  -36.12022981053328  2.2326713041643136  -12.918706692616789  41.878534917537316  18.93292743825724  9.83459571338054  124.90506433895139  8.801664892356833  -105.51258053054646  18.96410417345106  120.000000
7.8132  0.000000  0.000000  0.000000  -36.142155958992284  2.2550544045805196  -12.320920056638013  42.06487927939285  18.583210697542125  9.433462271657405  125.65087290402711  8.525968896757153  -106.58160336819138  19.17083272211971  120.000000
7.87065  0.000000  0.000000  0.000000  -36.17400772797621  2.266276014288648  -11.756775026017639  42.247610891112615  18.251640273023284  9.05139333493071  126.45038339197117  8.26090052843217  -107.70153329576316  19.375393216760077  120.000000
7.928100000000001  0.000000  0.000000  0.000000  -36.21754964474084  2.2609039558026898  -11.227599248360441  42.42882314823469  17.941987508664894  8.687433792554204  127.29154343278246  8.015697416168498  -108.85418666295807  19.574635868368254  120.000000
7.98555  0.000000  0.000000  0.000000  -36.27436043782353  2.232692988864826  -10.73350713976901  42.60683292501824  17.655888234738452  8.341697860509715  128.1544194042907  7.794606715557178  -110.00990156104946  19.77057522883288  120.000000
8.043  0.000000  0.000000  0.000000  -36.344431478063925  2.1785387086985195  -10.274075268593764  42.77627023151538  17.3939200033776  8.013084232739159  129.01461326260667  7.595263572121016  -111.1324432189372  19.97298937725145  120.000000
8.10045  0.000000  0.000000  0.000000  -36.4240689111413  2.101868595600387  -9.849896108266924  42.92820999222319  17.156597386653928  7.697113339386071  129.85169011211934  7.407423810822387  -112.19100097875027  20.19639953553368  120.000000
8.1579  0.000000  0.000000  0.000000  -36.5059622130755  2.012368095278788  -9.463813844953098  43.04759856638455  16.94387626491614  7.38786338840734  130.65809936846202  7.212837711576019  -113.17481913001691  20.4504613275133  120.000000
8.21535  0.000000  0.000000  0.000000  -36.57946920967159  1.9224880720505635  -9.12257393585751  43.111820395538544  16.75317697486523  7.083984273977647  131.43075197675483  6.989574950856658  -114.09104972376623  20.72724522245414  120.000000
8.2728  0.000000  0.000000  0.000000  -36.6315033141834  1.8474025174955186  -8.84014748038707  43.098039737091476  16.57794451108849  6.790294302355956  132.12960269243183  6.721155126746175  -114.92631760251824  20.993324702320727  120.000000
8.33025  0.000000  0.000000  0.000000  -36.64774959525333  1.8033575448720935  -8.63934194700799  42.99016488113751  16.410841108621774  6.5145088565262155  132.6248869046677  6.401517148602845  -115.5890202672727  21.195060168419253  120.000000
8.3877  0.000000  0.000000  0.000000  -36.614983367708064  1.8011763343552492  -8.547921547013244  42.779895425065206  16.246789128307586  6.268928172714118  132.65406942548339  6.036715310848962  -115.85241816277048  21.278837592028466  120.000000
8.44515  0.000000  0.000000  0.000000  -36.51983604988864  1.839022995003977  -8.59276981601111  42.471327716316495  16.08380159033707  6.070715702812453  131.76943009939703  5.646297005015244  -115.28504801109194  21.215757180760523  120.000000
8.502600000000001  0.000000  0.000000  0.000000  -36.350687659994286  1.9017915533028273  -8.792336365219127  42.08373542813221  15.923864783699978  5.940038929251157  129.2910629304911  5.264878346201136  -113.190072691881  21.024894185702188  120.000000
8.56005  0.000000  0.000000  0.000000  -36.102946578703005  1.971090990981088  -9.151089862952476  41.65581531497488  15.773362080407841  5.894999335088015  124.32369193829832  4.952916863848825  -108.6218876743182  20.778933246045078  120.000000
8.6175  0.000000  0.000000  0.000000  -35.781734217038725  2.033864958559904  -9.659971052954129  41.24846848632557  15.640989989679149  5.9463680638228595  116.09928963355425  4.821736814881113  -100.7478252469556  20.57909058381805  120.000000
8.67495  0.000000  0.000000  0.000000  -35.405251405284766  2.0737109951149266  -10.29606872483141  40.92439224438099  15.528504585667532  6.110908362103118  105.04804516491656  5.044299899327362  -89.94868709984286  20.51337565779998  120.000000
8.7324  0.000000  0.000000  0.000000  -35.00776684472697  2.0680696866164414  -11.023051778037697  40.726394550429774  15.429461144442795  6.416922406152221  93.50369416003993  5.7982968099828245  -78.55135819345712  20.622583914066404  120.000000
8.78985  0.000000  0.000000  0.000000  -34.633989866156234  2.014472420101728  -11.800973506863656  40.678249953472175  15.342170648109512  6.883684599026984  83.99978897408249  7.179270030995018  -69.13609993999737  20.888181278122335  120.000000
8.8473  0.000000  0.000000  0.000000  -34.323830539878244  1.939259092075067  -12.600335816154198  40.79188421954578  15.27692862827561  7.503804844686594  77.33615140841204  9.191893662364995  -62.58848251106933  21.24711149494197  120.000000
8.90475  0.000000  0.000000  0.000000  -34.10097894893263  1.8768871353581247  -13.404737908630592  41.06568242487182  15.246882670584721  8.249948171320987  72.9898744785119  11.794186480085562  -58.479127308933535  21.621904107340324  120.000000
8.9622  0.000000  0.000000  0.000000  -33.96740821699623  1.852587882978698  -14.202499089365638  41.48196534303834  15.253119120132165  9.095749438224454  70.17663230418944  14.924470875337471  -56.09184056343731  21.94910755725628  120.000000
9.01965  0.000000  0.000000  0.000000  -33.90471700313018  1.8758574611847154  -14.980037582634647  42.01763571771411  15.283634610686695  10.021511376632748  68.28619515346966  18.513462355557902  -54.83881373406733  22.19456603869689  120.000000
9.0771  0.000000  0.000000  0.000000  -33.88810759486334  1.9473227976971759  -15.719479506012926  42.656540679343095  15.323296907833516  11.006003930769426  66.92026764796971  22.493961162204346  -54.296830077889396  22.35040305797046  120.000000
9.13455  0.000000  0.000000  0.000000  -33.90270934428988  2.067242644307056  -16.395823596766114  43.3882971740702  15.36033815587592  12.023328787579143  65.8406225616671  26.802886493404536  -54.16142962413606  22.420974511449554  120.000000
9.192  0.000000  0.000000  0.000000  -33.95487694641908  2.2389923923318675  -16.974888698298795  44.20288762176337  15.386006150722116  13.044679598569578  64.9240668842032  31.381827088347503  -54.21353051373507  22.409963565821336  120.000000
9.24945  0.000000  0.000000  0.000000  -34.06277883161882  2.467404057728739  -17.41465430945833  45.09297456286602  15.395578665534208  14.037282515709984  64.13019124444676  36.17753771941978  -54.302366583384796  22.313917099424625  120.000000
9.3069  0.000000  0.000000  0.000000  -34.23842018770086  2.752636679801222  -17.66737133905405  46.048679590104996  15.387827446665252  14.968023891787473  63.46894131895615  41.133814914685935  -54.33124460107933  22.12134323455272  120.000000
9.36435  0.000000  0.000000  0.000000  -34.4814699531332  3.0881691468647636  -17.684644866402973  47.049182392111575  15.360136959535835  15.808122454135429  62.96995461112108  46.181734352023724  -54.24417538090683  21.820628242829084  120.000000
9.421800000000001  0.000000  0.000000  0.000000  -34.77584290824919  3.461117020828423  -17.428253743450217  48.06650371429364  15.308375685016166  16.5292967477323  62.6533659456815  51.24435773820194  -54.01420956485993  21.412013071659384  120.000000
9.47925  0.000000  0.000000  0.000000  -35.098712815153014  3.855247978641517  -16.881815063151613  49.07451817129626  15.226788964612906  17.10045535388155  62.511782511806146  56.2510367623125  -53.63757683773118  20.915679739250404  120.000000
9.5367  0.000000  0.000000  0.000000  -35.43493613651191  4.250331331615613  -16.058750885339215  50.05134234340458  15.103197396113345  17.49144439103853  62.511769715940126  61.137477382558856  -53.12782722760837  20.370905359631674  120.000000
9.59415  0.000000  0.000000  0.000000  -35.78096015774215  4.617945548929917  -15.003992131910762  50.973019011714975  14.916545220351045  17.681135170119546  62.605731733616835  65.83156828441366  -52.508634254192614  19.825385300836377  120.000000
9.6516  0.000000  0.000000  0.000000  -36.1373010933024  4.930375863431998  -13.785534026518514  51.8103281598873  14.64518100883949  17.663246598581942  62.74657754317521  70.2416887750143  -51.80775548941032  19.32442327521825  120.000000
9.70905  0.000000  0.000000  0.000000  -36.49333109066259  5.1721824824108085  -12.477366807503708  52.53218325440531  14.278983558481702  17.451803885655014  62.89700923854116  74.25293841120855  -51.05415589082347  18.90007217382074  120.000000
9.7665  0.000000  0.000000  0.000000  -36.82329411401929  5.342824301785537  -11.149594736649762  53.11405784192653  13.821087043578137  17.081266841746885  63.02704852742426  77.73248119249729  -50.28030562131557  18.57011543722757  120.000000
9.82395  0.000000  0.000000  0.000000  -37.09773227066936  5.4524924613908805  -9.867930063588105  53.547874939575856  13.283063047527598  16.598467330039927  63.11136505686093  80.54450518399749  -49.52438170808309  18.343239580890426  120.000000
9.8814  0.000000  0.000000  0.000000  -37.290727985100524  5.513188441471608  -8.695843017619069  53.84310338723392  12.681409767525421  16.056048393786895  63.12762560157034  82.56830678011791  -48.82984821664343  18.220903035180754  120.000000
9.93885  0.000000  0.000000  0.000000  -37.38580550025506  5.529918178645936  -7.695855337102126  54.01916212416962  12.036882774080418  15.507505024355455  63.05606566072214  83.71389163567235  -48.24182965786385  18.193918727480995  120.000000
9.9963  0.000000  0.000000  0.000000  -37.376255994477795  5.499366300076062  -6.927993539997429  54.09531915962531  11.374921075369539  15.003047173399283  62.88120721096011  83.93149831889265  -47.800917008098125  18.241361865820885  120.000000
10.05375  0.000000  0.000000  0.000000  -37.26512678141588  5.41562980325347  -6.446810352907895  54.08454516049529  10.728021050228504  14.584736963335  62.59781998392547  83.21630462105578  -47.5344167938387  18.334817038941072  120.000000
10.1112  0.000000  0.000000  0.000000  -37.06624611553076  5.277877652467479  -6.296107621945436  53.9889076405168  10.140850017954246  14.280619257070896  62.21472134002967  81.60893978466736  -47.444303066882235  18.44500387733877  120.000000
10.16865  0.000000  0.000000  0.000000  -36.803143767581986  5.092874911273075  -6.500827737319  53.79821921504225  9.674387170696695  14.100200524286429  61.754282015922996  79.19258232177015  -47.49668421150131  18.545581977585226  120.000000
10.2261  0.000000  0.000000  0.000000  -36.504131171777054  4.870951072194651  -7.059395609855118  53.49330290964251  9.401279078269555  14.034461176779791  61.24824929199275  76.0857135267436  -47.62116018200125  18.615371906735447  120.000000
10.28355  0.000000  0.000000  0.000000  -36.19575121276062  4.621771493770797  -7.940122507412504  53.0557066492901  9.388622857233342  14.061856734126986  60.731115823785146  72.43231380896798  -47.725307212614155  18.640823596562246  120.000000
10.341000000000001  0.000000  0.000000  0.000000  -35.89635240619507  4.3530504495889994  -9.086202004077833  52.47733747631921  9.677779072899373  14.158601715204359  60.23338450303199  68.38739463624495  -47.71717750890863  18.623182081289713  120.000000
10.39845  0.000000  0.000000  0.000000  -35.61420938944857  4.070230454803478  -10.427782934625442  51.761444962208834  10.270359515540752  14.30805096999863  59.775630981421905  64.09498007864019  -47.523864002289436  18.589251241642046  120.000000
10.4559  0.000000  0.000000  0.000000  -35.349764348110384  3.778986864079822  -11.893536486387472  50.918533947908756  11.127525828707574  14.502740508727364  59.36586360348016  59.66861722685545  -47.098951707899246  18.59792541812939  120.000000
10.51335  0.000000  0.000000  0.000000  -35.102214616218774  3.4889871450999266  -13.420811362195261  49.96389631754337  12.183713425368293  14.73633408961722  58.99888478558428  55.18510466375192  -46.41759663486244  18.7309776592541  120.000000
10.5708  0.000000  0.000000  0.000000  -34.87440740447932  3.210410690272263  -14.95907278544766  48.91325783867186  13.363712613968978  14.998453943802653  58.65573260683088  50.691981080908405  -45.46762376159436  19.063619163502235  120.000000
10.62825  0.000000  0.000000  0.000000  -34.67208098764565  2.9482118547209364  -16.465097271871883  47.78252892946493  14.598986519954945  15.276230762889703  58.30273462562165  46.223574162830865  -44.24063723943279  19.627966896644523  120.000000
10.6857  0.000000  0.000000  0.000000  -34.502962959408684  2.7009375510177276  -17.901032635569038  46.59173576442497  15.833509477065041  15.556616933311629  57.8955330534148  41.81451718862681  -42.732308904211834  20.392493158299935  120.000000
10.74315  0.000000  0.000000  0.000000  -34.37360653051846  2.4631878425349267  -19.236776545383382  45.37112916756331  17.02413213687924  15.824825569118357  57.38834525368543  37.505750144933096  -40.948536567097875  21.26966020009414  120.000000
10.8006  0.000000  0.000000  0.000000  -34.286456584374726  2.223455755712682  -20.45148481050889  44.15552999914353  18.135344107339893  16.068643721669275  56.747151670082424  33.34213647783183  -38.9183636203577  22.14720781540772  120.000000
10.85805  0.000000  0.000000  0.000000  -34.23648480457572  1.9717603479149148  -21.531569242901472  42.983697038995274  19.14208205654669  16.279374467047152  55.966879289224806  29.370911308582535  -36.70582506317809  22.922006784709286  120.000000
10.9155  0.000000  0.000000  0.000000  -34.212093617435876  1.704099353762028  -22.467420154031384  41.892360417124856  20.036136470835487  16.44920647515883  55.08345146086741  25.63589766784702  -34.41898932965103  23.520626431599258  120.000000
10.97295  0.000000  0.000000  0.000000  -34.20140696832159  1.42336601268782  -23.250624630814965  40.91111327456897  20.8303589020544  16.570933096997567  54.18307426255081  22.167440971288556  -32.208150722617454  23.89855069748909  120.000000
11.0304  0.000000  0.000000  0.000000  -34.20274855155398  1.1437181914314665  -23.869816926964486  40.05508502313603  21.558754219870636  16.641352831001967  53.402594862483305  18.978621330376836  -30.255212791635497  24.03015522862496  120.000000
11.08785  0.000000  0.000000  0.000000  -34.2482183977061  0.8815366604347057  -24.30843353978511  39.31101434604977  22.265935130978765  16.670946607418443  52.89729922633858  16.070955392853218  -28.741424698303955  23.890729294651006  120.000000
11.1453  0.000000  0.000000  0.000000  -34.39402312283523  0.6654807585139787  -24.55198690657806  38.6453878944464  22.996341767823726  16.68157937807121  52.82342218886922  13.438771794895873  -27.824888182968156  23.455131976246573  120.000000
11.20275  0.000000  0.000000  0.000000  -34.702430016404314  0.5204712019844715  -24.58851657349109  38.041959047525204  23.789539997438588  16.69062152165608  53.39067080021499  11.090128990768957  -27.706416398403103  22.69618932313313  120.000000
11.260200000000001  0.000000  0.000000  0.000000  -35.20302527761887  0.4542252798055713  -24.41533930512876  37.53538658571113  24.66817361980418  16.6973150993834  55.04404021027659  9.047226422648345  -28.814370365160357  21.59352245877403  120.000000
11.31765  0.000000  0.000000  0.000000  -35.89159850356379  0.43580933173416675  -24.05836293828377  37.18002395670775  25.62480150460733  16.692367901332062  58.60634479862663  7.330779113627714  -31.953667228698457  20.13433698540143  120.000000
11.3751  0.000000  0.000000  0.000000  -36.734625866738945  0.41263897924375487  -23.58309450385946  37.020981284890816  26.614589519885282  16.66592857957767  65.43884470988544  5.954426934013275  -38.458848023025105  18.341967192488585  120.000000
11.43255  0.000000  0.000000  0.000000  -37.68156305069796  0.31079665325275024  -23.076901176535703  37.05785624992598  27.559164857652007  16.622235507423344  77.3552093570406  4.946878294167382  -50.10797001066708  16.292520612688243  120.000000
11.49  0.000000  0.000000  0.000000  -38.67241752296428  0.07159164993690775  -22.632660517219957  37.266408042461556  28.362642497185607  16.573926656911855  95.85389889532769  4.419502406031104  -68.34606510641521  14.156701509963694  120.000000
