Simulation
nRows=201
nColumns=15
endheader
time  TH_x TH_y TH_z SC_y  SC_z  SC_x  AC_y  AC_z  AC_x  GH_y  GH_z  GH_yy  EL_x  PS_y
0.0  0.000000  0.000000  0.000000  -40.97484877243665  6.293857566463187  5.290427962726946  46.77584517894692  0.9984504830793982  1.047785462451854  -24.80036108806823  1.1314697907334899  47.49083897008236  22.613996007466618  120.000000
0.05745  0.000000  0.000000  0.000000  -40.235732040729715  5.308081594556556  3.2050497587693783  46.28593510451514  2.011862618529926  1.1979274212101756  -18.493053651606374  3.2214742842963378  40.8791634416538  22.037016081040598  120.000000
0.1149  0.000000  0.000000  0.000000  -39.53222265152981  4.229619608414271  1.2658707698951575  45.889743599047364  2.8852634446931282  1.373899818560944  -15.170376169905024  5.224899603152151  37.21459834692555  21.641676713892387  120.000000
0.17235  0.000000  0.000000  0.000000  -38.91923737457915  3.1721157749540962  -0.5094760040402593  45.588025022715655  3.607977214841083  1.5727393518885182  -12.185965035595204  7.199062233575314  33.81343083320306  21.50419605136334  120.000000
0.2298  0.000000  0.000000  0.000000  -38.44565784349709  2.1996776771508633  -2.1108627866104555  45.36431993393223  4.197521881477169  1.8130539255397173  -9.54629312180248  9.244754710984509  30.641958000051293  21.628865161075975  120.000000
0.28725  0.000000  0.000000  0.000000  -38.12545892576835  1.367509128059305  -3.5281013293532797  45.211323643623174  4.70386126530269  2.1040745140033774  -7.403267297306855  11.46797710173939  27.81314843516764  21.955362143382384  120.000000
0.3447  0.000000  0.000000  0.000000  -37.97332088657782  0.7256243864064873  -4.744159381047502  45.116324719791535  5.178166922391482  2.444935359296479  -5.821425929492254  13.95275830715708  25.35432340441742  22.38518153827983  120.000000
0.40215  0.000000  0.000000  0.000000  -38.001212630272036  0.3045070639056921  -5.7372609620979595  45.067864125008924  5.655273433444494  2.828915963263871  -4.752769659600129  16.753575050722425  23.18904984608255  22.80857826259568  120.000000
0.4596  0.000000  0.000000  0.000000  -38.21572790846211  0.12324958833322358  -6.486193825071793  45.06248520332723  6.139439013421026  3.2431811867787532  -4.084715745813702  19.890180853808392  21.192283741678068  23.133812823341618  120.000000
0.51705  0.000000  0.000000  0.000000  -38.60619032780242  0.18523724852124493  -6.994840339803799  45.09968875856247  6.621103439432507  3.6900710039723803  -3.7123051182506988  23.346698721284593  19.269073861553174  23.301478272825296  120.000000
0.5745  0.000000  0.000000  0.000000  -39.15204862427117  0.47323984086293475  -7.300101706189069  45.18340945474798  7.088078048614462  4.19234970022855  -3.52971341440054  27.078180245150143  17.345551551019124  23.291282432649943  120.000000
0.63195  0.000000  0.000000  0.000000  -39.828026082211956  0.9494820115612608  -7.439604412324758  45.331823028708236  7.515305091135649  4.765607453979727  -3.430045566488186  31.020560684774754  15.362593250875916  23.11536331749886  120.000000
0.6894  0.000000  0.000000  0.000000  -40.614466976917925  1.5660066941709037  -7.443653064219686  45.568969151880445  7.874192873191992  5.421613641745401  -3.3107223603362925  35.0993804561417  13.267032702057291  22.80263628460244  120.000000
0.74685  0.000000  0.000000  0.000000  -41.49678105135333  2.2760362899098086  -7.333454796514523  45.9232929042699  8.143568616474365  6.159631505608972  -3.092355283153381  39.2398251759754  11.019792461590368  22.388391039409697  120.000000
0.8043  0.000000  0.000000  0.000000  -42.461908492679164  3.037813083880506  -7.117140382362684  46.413607471476354  8.316042026096888  6.967854766226028  -2.7311000112638593  43.37124109594469  8.600244625621716  21.907966258209154  120.000000
0.86175  0.000000  0.000000  0.000000  -43.48670250757377  3.8170913411006415  -6.78871138320543  47.04472575687209  8.40015405589438  7.819977371640298  -2.2222924454753246  47.429676196546126  6.013647122315492  21.395004642461792  120.000000
0.9192  0.000000  0.000000  0.000000  -44.535683989294185  4.589295817682257  -6.331309902873378  47.801225928778805  8.415792563541947  8.677582434454225  -1.5920736276320284  51.35602508501837  3.2939001696920442  20.87969183299528  120.000000
0.97665  0.000000  0.000000  0.000000  -45.566980311776746  5.339139326493268  -5.723320663902686  48.64225069161916  8.387013778623684  9.496482413461601  -0.8883243053380542  55.0957828762705  0.5090546240355718  20.384780222948503  120.000000
1.0341  0.000000  0.000000  0.000000  -46.54075131559521  6.066004131578048  -4.946797330782678  49.509424978151415  8.33843809126305  10.229354382527049  -0.1634621517927374  58.60014783319545  -2.2443240274159235  19.92233512397659  120.000000
1.09155  0.000000  0.000000  0.000000  -47.42433977460667  6.771800613478907  -3.9910593667559167  50.335475829249155  8.29126626296471  10.837572019981371  0.535751434049357  61.82474846795441  -4.850243237963684  19.492989508707662  120.000000
1.149  0.000000  0.000000  0.000000  -48.19644727318867  7.454929482511964  -2.8614861335628676  51.06218709707564  8.261347724344892  11.292232118664248  1.1773408380272723  64.7277575179247  -7.195114202756291  19.092841680027508  120.000000
1.20645  0.000000  0.000000  0.000000  -48.84756746310845  8.105836316004435  -1.58499108536242  51.6519233688525  8.256945361957015  11.58073425818362  1.7454845905911067  67.27294657186873  -9.192821331259713  18.716770614593504  120.000000
1.2639  0.000000  0.000000  0.000000  -49.382119940049044  8.706095807142386  -0.21238597674177875  52.090382462235965  8.276588618615854  11.708250565414064  2.23747239897739  69.43450674817845  -10.80471235485414  18.363373546916034  120.000000
1.32135  0.000000  0.000000  0.000000  -49.811329368852775  9.232216451715777  1.184139161632229  52.38677874919029  8.310126785574749  11.694822717702596  2.656818972475261  71.20220099072729  -12.043983457693484  18.036438215087294  120.000000
1.3788  0.000000  0.000000  0.000000  -50.14491727257016  9.65963165949801  2.51915358689557  52.56848018082772  8.34013891558281  11.572334554928352  3.0103202905268454  72.58029272025776  -12.96456888273538  17.743598601216203  120.000000
1.43625  0.000000  0.000000  0.000000  -50.384242138009064  9.968460251856927  3.6991965277631254  52.67229364894224  8.3441466089915  11.376497230677469  3.3031319813695608  73.58511982374725  -13.637934163366841  17.493855324472353  120.000000
1.4937  0.000000  0.000000  0.000000  -50.52343583396445  10.144097359013529  4.631115494069039  52.7327624849011  8.296427935532268  11.142426096829121  3.537298185254222  74.2392103648798  -14.130613667389943  17.29558154649426  120.000000
1.55115  0.000000  0.000000  0.000000  -50.550923072484025  10.17731798596123  5.226258149048768  52.775446007902566  8.170665665784375  10.898284553591367  3.7092831836626896  74.5684732005463  -14.487678592162727  17.154734807086616  120.000000
1.6086  0.000000  0.000000  0.000000  -50.457283285958624  10.065552960769597  5.418093336239689  52.8089000923484  7.951923962284643  10.667802128325455  3.815278437152466  74.57133699255165  -14.734677360589904  17.0748897418829  120.000000
1.66605  0.000000  0.000000  0.000000  -50.24141874163575  9.81621459994034  5.178608525786158  52.82184125957039  7.651854968341465  10.471761764146752  3.8559325256496995  74.19364111283099  -14.887808006559327  17.05676452875387  120.000000
1.7235  0.000000  0.000000  0.000000  -49.90573261621029  9.438201826077773  4.516976815037347  52.79142436916365  7.30572116885759  10.324676085015541  3.8304192954349454  73.36635897044205  -14.956854816701574  17.093953974634257  120.000000
1.78095  0.000000  0.000000  0.000000  -49.45197609619801  8.936743461632261  3.474593760505185  52.692818884733434  6.966669727221185  10.2300985293624  3.7323629232344144  72.04291866770939  -14.946911875213042  17.170390099488216  120.000000
1.8384  0.000000  0.000000  0.000000  -48.880712139912966  8.319660912508837  2.122311111517326  52.50485123181394  6.699693270918763  10.179282116532839  3.5524506657236485  70.20298852302648  -14.865758299972269  17.26088496149806  120.000000
1.89585  0.000000  0.000000  0.000000  -48.195218202488384  7.599974397039077  0.5521237851392432  52.21207842268247  6.5693957361158315  10.153532070278526  3.284752520499517  67.85130042434386  -14.726518576706939  17.33816083681186  120.000000
1.9533  0.000000  0.000000  0.000000  -47.40610400387567  6.799991516154405  -1.1364978788452416  51.80584715052235  6.626004909795305  10.12596565684348  2.930200238626667  65.01636476965025  -14.549606181632866  17.379434359592548  120.000000
2.01075  0.000000  0.000000  0.000000  -46.53892191539903  5.9485783985575225  -2.848759231059952  51.282869590547605  6.89330987746773  10.066642120763449  2.5014009102087416  61.74746809994589  -14.361695343274189  17.373616451808346  120.000000
2.0682  0.000000  0.000000  0.000000  -45.63448769366232  5.075802382767799  -4.504923450205743  50.646582757790036  7.363616251214192  9.949408794723807  2.026467258949078  58.110180466013624  -14.195040242777688  17.3204697814608  120.000000
2.1256500000000003  0.000000  0.000000  0.000000  -44.74379132052174  4.210185892784079  -6.045809295822265  49.91122667422616  8.001814455893923  9.755919088131558  1.551299885933074  54.18030696903559  -14.080887581286783  17.225109964029  120.000000
2.1831  0.000000  0.000000  0.000000  -43.9125794004557  3.37477372458555  -7.430542515575765  49.10321674013593  8.757212128973878  9.483442160862271  1.1404905743282614  50.03768755751538  -14.039642833923528  17.09111141021639  120.000000
2.24055  0.000000  0.000000  0.000000  -43.17029844991435  2.5884941370810126  -8.63685350611794  48.258891955899216  9.570546974067657  9.145529127703865  0.8697271635217787  45.761457857600256  -14.065983181701908  16.912519467485495  120.000000
2.298  0.000000  0.000000  0.000000  -42.528473621275126  1.8659333754401228  -9.661578082612724  47.41482416034264  10.379977181513713  8.765096388901567  0.805609292072393  41.42691858926392  -14.11587518035354  16.671919439713776  120.000000
2.3554500000000003  0.000000  0.000000  0.000000  -41.98120400828857  1.216949954665096  -10.515479180852397  46.604110614032976  11.12837006926977  8.366495857246399  0.9869180818846952  37.1067409797051  -14.10607736768415  16.34771632749891  120.000000
2.4129  0.000000  0.000000  0.000000  -41.50814107587111  0.6429850518941411  -11.213834045536963  45.857834995621666  11.773587398530076  7.971570457014828  1.4126935243496261  32.87269133745506  -13.925761707946826  15.92945700597252  120.000000
2.47035  0.000000  0.000000  0.000000  -41.0804167348053  0.13822464533620574  -11.767117645997414  45.20986185516262  12.293694839530147  7.596206066203784  2.040656899720081  28.79744110857336  -13.455088241355575  15.432584482550704  120.000000
2.5278  0.000000  0.000000  0.000000  -40.672074279438874  -0.3068967796719561  -12.175151703030828  44.697109210089245  12.6881491132167  7.249756070101749  2.7923923785038034  24.954674545618552  -12.582478565998976  14.904576828873406  120.000000
2.5852500000000003  0.000000  0.000000  0.000000  -40.266528672209176  -0.7022713201459816  -12.428213764696595  44.35538335253381  12.972994408346903  6.938101695661903  3.5686958784604883  21.414165566800165  -11.223080280216923  14.412535110573808  120.000000
2.6427  0.000000  0.000000  0.000000  -39.85985188426512  -1.0553580807979253  -12.514388186744025  44.213499299529495  13.170742091886094  6.664491366245144  4.275477585393402  18.23159181563194  -9.346879065887249  14.021932698614942  120.000000
2.70015  0.000000  0.000000  0.000000  -39.46273773605683  -1.3687382038110043  -12.428377180793317  44.28436950574903  13.301589539958233  6.429835973710468  4.869000265638007  15.438701056165247  -7.026958566710488  13.778804732201426  120.000000
2.7576  0.000000  0.000000  0.000000  -39.098566950738025  -1.6390200027211743  -12.176993342232144  44.55712955029876  13.379025631839033  6.233570821190657  5.410360150218145  13.03871964921368  -4.489882590808691  13.702826657456193  120.000000
2.8150500000000003  0.000000  0.000000  0.000000  -38.79705991648782  -1.8584435302922768  -11.781723486022852  44.995774451715384  13.410808596465158  6.072976871231498  6.103977394709213  11.00891189349109  -2.1333426958810406  13.79293458563998  120.000000
2.8725  0.000000  0.000000  0.000000  -38.584314908886654  -2.0182175664896063  -11.276676446958522  45.544101971424126  13.399893209729651  5.942662034748556  7.276287097546862  9.309092084104565  -0.47164677089243306  14.034223448452368  120.000000
2.92995  0.000000  0.000000  0.000000  -38.47336246043397  -2.113158272179879  -10.698978699762915  46.13752570347758  13.34479575768235  5.832346614572008  9.28963476534956  7.895224352664582  -0.015062922825371427  14.399737033192931  120.000000
2.9874  0.000000  0.000000  0.000000  -38.45742704036919  -2.1414927328614044  -10.08018846788864  46.71739018417209  13.242200381403066  5.728721054672789  12.406040293271424  6.730790996642729  -1.1097995008145054  14.851156692335413  120.000000
3.0448500000000003  0.000000  0.000000  0.000000  -38.51406154663098  -2.1052732965355876  -9.446563784113591  47.2392790276671  13.094726081899578  5.623814294836307  16.658910291472953  5.792157988057374  -3.8087583933372815  15.342307870445598  120.000000
3.1023  0.000000  0.000000  0.000000  -38.615612475213695  -2.009311954708632  -8.819673083782657  47.67988672173386  12.913253485324017  5.515873621325038  21.784333311533825  5.0647788805498095  -7.81691742105887  15.829856261320023  120.000000
3.15975  0.000000  0.000000  0.000000  -38.73556652301137  -1.8625527827045703  -8.21989378085123  48.036351015590405  12.714975093256898  5.4092900440613825  27.222350589645682  4.532528973421132  -12.509807442367464  16.28398410118594  120.000000
3.2172  0.000000  0.000000  0.000000  -38.85158259895054  -1.682188343212613  -7.667661709514431  48.319333351940834  12.517885790969927  5.313928101457478  32.24192092762556  4.169166995647628  -17.07286925453221  16.694709075637178  120.000000
3.2746500000000003  0.000000  0.000000  0.000000  -38.94461121358789  -1.4908872379655655  -7.179341240422422  48.545352205007944  12.333557670389265  5.239476617785884  36.19920922928798  3.938570347326594  -20.772299156735883  17.069430068913263  120.000000
3.3321  0.000000  0.000000  0.000000  -38.99985140926987  -1.30927608413039  -6.767031606300754  48.73079492641636  12.166936139403225  5.192222675527187  38.76917584912117  3.8039136936551188  -23.198201346028256  17.423882404299196  120.000000
3.38955  0.000000  0.000000  0.000000  -39.008951589838006  -1.1511122376971576  -6.437964299033254  48.88861215748322  12.019633081854945  5.17432163484538  40.00466910659395  3.7377198529772606  -24.333928594467373  17.77287219202639  120.000000
3.447  0.000000  0.000000  0.000000  -38.97212391852458  -1.0239442145035689  -6.194173636849713  49.0272068267965  11.892455209283593  5.185490597534509  40.234398067826994  3.725632507872575  -24.461203513095164  18.12541038023527  120.000000
3.5044500000000003  0.000000  0.000000  0.000000  -38.898050245976535  -0.9315671356210442  -6.034100818020501  49.1503902404793  11.784807846284735  5.225943779272377  39.91037910330996  3.7621259934098785  -24.007188339890945  18.485226778551624  120.000000
3.5619  0.000000  0.000000  0.000000  -38.80057097493249  -0.873300627556654  -5.955245829759627  49.25818841793657  11.694999665577797  5.296574683706994  39.43015249181715  3.844940306572763  -23.362188276184273  18.851859320067543  120.000000
3.61935  0.000000  0.000000  0.000000  -38.69409879500169  -0.8418060778825405  -5.95629382008261  49.34862928550829  11.623319812987576  5.3956381668894995  39.00959153294981  3.972861481811916  -22.745210360152164  19.223004210797594  120.000000
3.6768  0.000000  0.000000  0.000000  -38.58930629796668  -0.8258255760769151  -6.037358521020737  49.417447355058876  11.571222885105387  5.520763677365118  38.68764308474931  4.144274611670842  -22.202408277676415  19.59632048410758  120.000000
3.7342500000000003  0.000000  0.000000  0.000000  -38.49002159910782  -0.815583134542624  -6.19919739587014  49.45826693463749  11.538332360359494  5.672990168749574  38.399608840061646  4.356780067299808  -21.67620487268169  19.97049357892527  120.000000
3.7917  0.000000  0.000000  0.000000  -38.39261048351753  -0.8043378917447763  -6.4430907126291785  49.466114923079054  11.52158461698471  5.856890412060378  38.042746679553545  4.609448186285647  -21.069409187130432  20.345861251645832  120.000000
3.84915  0.000000  0.000000  0.000000  -38.287549924954334  -0.7878961923202179  -6.770407384280487  49.43913675114132  11.515959045923726  6.0795410744283584  37.48653904623346  4.904705757550887  -20.254490530090756  20.723200788372722  120.000000
3.9066  0.000000  0.000000  0.000000  -38.16299640203451  -0.7638339336506299  -7.182010136236542  49.378019796863  11.515776184816332  6.349494805778991  36.55989671766959  5.2497590905939795  -19.060560707478064  21.102117395018915  120.000000
3.9640500000000003  0.000000  0.000000  0.000000  -38.00626749913736  -0.7298799374970419  -7.678775285213146  49.287623312925895  11.515592708624876  6.674748827358292  35.078631563497595  5.658865252583257  -17.301360981376547  21.48021439822356  120.000000
4.0215  0.000000  0.000000  0.000000  -37.80575923083726  -0.6843369284853345  -8.262109841402989  49.17786425257987  11.510313784105168  7.061911030325414  32.917935688438725  6.157030435667963  -14.851904376537483  21.85315540142459  120.000000
4.07895  0.000000  0.000000  0.000000  -37.553511554140016  -0.6273623485192176  -8.933396793698169  49.062400287791185  11.494720400614675  7.5171661778440635  30.09602170178185  6.782979807558961  -11.738619972636712  22.213943385548184  120.000000
4.1364  0.000000  0.000000  0.000000  -37.250627060993914  -0.5634412767559193  -9.692981090665011  48.95656472761199  11.462804417721744  8.047466052105657  26.828849002426487  7.589630136173347  -8.202329947292249  22.55090448060568  120.000000
4.19385  0.000000  0.000000  0.000000  -36.90920337378254  -0.4998981538687429  -10.53951230872451  48.87831041758409  11.407526522925554  8.65929926846339  23.498137953368516  8.637775208367751  -4.669721652181033  22.84660248964378  120.000000
4.2513000000000005  0.000000  0.000000  0.000000  -36.55131016012376  -0.4471831151638272  -11.466531781397695  48.84717804031614  11.322530970346973  9.358820764204479  20.512684958225258  9.985540100783087  -1.611779221469196  23.080538538654398  120.000000
4.30875  0.000000  0.000000  0.000000  -36.20248721781475  -0.4197058662764476  -12.457122092387765  48.88322309519456  11.206150222073038  10.1508928673055  18.149494371739774  11.680731628442189  0.6245917536743987  23.236359755630115  120.000000
4.3662  0.000000  0.000000  0.000000  -35.88242727650097  -0.42884792068522015  -13.482250527317015  49.01090301021121  11.067673358660839  11.030807237638664  16.478219336683686  13.761260487423609  1.905084267787551  23.314741988644275  120.000000
4.42365  0.000000  0.000000  0.000000  -35.60465125719595  -0.47478839785637933  -14.501164141087312  49.259610499113194  10.930907570383988  11.978750430316653  15.40250768654052  16.261313861451693  2.2790972069887574  23.343903576132615  120.000000
4.4811  0.000000  0.000000  0.000000  -35.38235098991812  -0.5480759609358301  -15.462468564419824  49.649797865163045  10.828325306901993  12.96599044366182  14.738684360718002  19.209910208927564  1.9138351189538252  23.37539577337391  120.000000
4.53855  0.000000  0.000000  0.000000  -35.23728397356928  -0.6323431182384479  -16.310409978296875  50.181521981752965  10.789632291902217  13.958708130322592  14.296633879604771  22.621994053296188  1.022205015808446  23.465178983831297  120.000000
4.596  0.000000  0.000000  0.000000  -35.19866865983693  -0.7028907259509424  -16.996018767344655  50.842596150010046  10.831810745072401  14.916021723701608  13.947970476886315  26.486804880443554  -0.20287751851547178  23.648776175015865  120.000000
4.65345  0.000000  0.000000  0.000000  -35.294515993271006  -0.734601573524493  -17.4809782838788  51.60775933691697  10.951341043890995  15.80011346530488  13.63754335508003  30.751152663829373  -1.605410230109359  23.920001808006973  120.000000
4.7109000000000005  0.000000  0.000000  0.000000  -35.53409344288264  -0.7030691397902666  -17.734543786492747  52.440090890100024  11.12810321822807  16.58315124598755  13.365097382455215  35.31010573279584  -3.0672824999633224  24.229407546982486  120.000000
4.76835  0.000000  0.000000  0.000000  -35.897662554519215  -0.5826562280951615  -17.73013010476988  53.29761038565625  11.340963680173985  17.242440086380157  13.150933637658552  40.014179209414266  -4.508776147566447  24.50155256520482  120.000000
4.8258  0.000000  0.000000  0.000000  -36.34072994064938  -0.35304206527743626  -17.444598606630883  54.136867518671934  11.578416095840007  17.757913537987303  13.008963627450507  44.687081765874034  -5.891599358336329  24.660514665760942  120.000000
4.88325  0.000000  0.000000  0.000000  -36.81376730177402  0.0013638018236713416  -16.858664055568806  54.926357415361984  11.84130330101897  18.11347701082327  12.949132662960396  49.163850843506445  -7.234501602121454  24.654724422716946  120.000000
4.9407  0.000000  0.000000  0.000000  -37.28813524129087  0.49144620569785025  -15.956394548403885  55.65045483602224  12.138132389161612  18.301044518099523  12.974236643823227  53.328959565688756  -8.60180829576385  24.464472478339573  120.000000
4.99815  0.000000  0.000000  0.000000  -37.76391014542292  1.111373597378499  -14.731681392288754  56.301500065018644  12.472101335307716  18.325075900167835  13.071452161496289  57.1239465974173  -10.06701593238084  24.09361277416  120.000000
5.0556  0.000000  0.000000  0.000000  -38.259874261055124  1.8378796484620836  -13.198605061939386  56.877804242238895  12.833510301244079  18.20065532432869  13.217517543868317  60.53662296031586  -11.681654217668441  23.56178589149668  120.000000
5.11305  0.000000  0.000000  0.000000  -38.80136394286131  2.635926863101269  -11.394768474799315  57.37905271446508  13.200173867438334  17.951766924450546  13.387684109794913  63.585545185712036  -13.455727675684626  22.904612966242667  120.000000
5.1705000000000005  0.000000  0.000000  0.000000  -39.40593374919599  3.4614559793007733  -9.380743714603478  57.80334635841064  13.541897440867306  17.607881267565144  13.561092169430932  66.30218205834923  -15.356093186333846  22.172590465861067  120.000000
5.22795  0.000000  0.000000  0.000000  -40.073394130549545  4.265682336803239  -7.237934749931554  58.14984156143847  13.826231394656732  17.19857691041513  13.721976499393872  68.71544542003353  -17.319293265439487  21.42517997463979  120.000000
5.2854  0.000000  0.000000  0.000000  -40.782311090596295  5.000120704176162  -5.064874617993433  58.42150625498834  14.023860465854796  16.7498307353648  13.858669975407441  70.84104083724087  -19.26887612243262  20.719137609744855  120.000000
5.34285  0.000000  0.000000  0.000000  -41.49018144591071  5.623050007644874  -2.972278519047451  58.62561177746321  14.113063524359106  16.282122007867333  13.962697472011811  72.67532719451107  -21.126815021239114  20.095301030765675  120.000000
5.4003  0.000000  0.000000  0.000000  -42.139874129674276  6.104343994357288  -1.0760658574400113  58.771449389291014  14.081860321267948  15.811177520940825  14.029557771797935  74.19367210597703  -22.81912766033375  19.571657772067965  120.000000
5.45775  0.000000  0.000000  0.000000  -42.669162669726546  6.4265233365176755  0.5111353767031914  58.86749617447007  13.928103455121505  15.349429955179733  14.058525175045737  75.35421541155489  -24.28010669598023  19.147556951549856  120.000000
5.5152  0.000000  0.000000  0.000000  -43.021085614922825  6.580941928441521  1.6894172225729143  58.91972139729876  13.658012329661995  14.908311165182132  14.051416413201965  76.10499232839327  -25.45797788779467  18.816119640251088  120.000000
5.57265  0.000000  0.000000  0.000000  -43.152802531112826  6.562574651975134  2.3796769063648866  58.9309433381194  13.284167537664569  14.499882101579564  14.009629785971125  76.39233924453639  -26.32090643472615  18.576919248975784  120.000000
5.6301000000000005  0.000000  0.000000  0.000000  -43.04205805366032  6.365655561615214  2.5295402501343753  58.89908482035297  12.823319798838606  14.138320452204765  13.93109362561132  76.16741254965952  -26.86008919063901  18.44318490386961  120.000000
5.68755  0.000000  0.000000  0.000000  -42.69130939483065  5.983950113116017  2.1165943906903846  58.81368254133297  12.29480350495997  13.840179359446557  13.80944131092254  75.39001911396134  -27.08605600034519  18.43910621685152  120.000000
5.745  0.000000  0.000000  0.000000  -42.128709707244425  5.4155874616707385  1.150098458251561  58.65159839304647  11.720914656642014  13.623167106503926  13.63521276113289  74.03127293369266  -27.01963676341815  18.586120258057864  120.000000
5.80245  0.000000  0.000000  0.000000  -41.404790647307664  4.670456109195166  -0.32756691556342865  58.376083331920775  11.130676391257833  13.503139151139218  13.398933947920872  72.0773082880679  -26.682944353202895  18.881187377319534  120.000000
5.8599  0.000000  0.000000  0.000000  -40.58255592067234  3.7784715737587535  -2.241224361802316  57.94329985770604  10.56475721927528  13.48822808569353  13.09437442635135  69.53356046722847  -26.095191110883995  19.277764649292315  120.000000
5.91735  0.000000  0.000000  0.000000  -39.723750358216925  2.7926952496130086  -4.4864341248157835  57.314681676949526  10.076058098941294  13.574998726342162  12.724046659915926  66.42512355655286  -25.275502898400116  19.68673498379498  120.000000
5.9748  0.000000  0.000000  0.000000  -38.87141680660235  1.7831827178745623  -6.938962994583465  56.47309168059363  9.723133056502585  13.747496478561008  12.305793684516702  62.793125968793895  -24.251432203647813  19.99886021816765  120.000000
6.03225  0.000000  0.000000  0.000000  -38.044108000250795  0.8259115039547125  -9.466842851569092  55.43707036742179  9.55932062621248  13.97801198693571  11.879315764531128  58.69282178383241  -23.067398662274563  20.117682524027565  120.000000
6.089700000000001  0.000000  0.000000  0.000000  -37.24920239372371  -0.013562224307529703  -11.93973969471937  54.25637392229553  9.623819913224672  14.233934966409477  11.505017456975947  54.19990026235701  -21.78658674396494  19.988714239271797  120.000000
6.14715  0.000000  0.000000  0.000000  -36.501787513953914  -0.6919576578256244  -14.238119842560296  53.00265139576003  9.932936105712876  14.48794327237745  11.26534761903299  49.420150214112624  -20.49084265412468  19.60836498372853  120.000000
6.2046  0.000000  0.000000  0.000000  -35.83626929416293  -1.189634031226764  -16.263896723227003  51.766057815347274  10.473346398950747  14.719743928721092  11.273547655752827  44.493068738014564  -19.283698996001466  19.0181121542444  120.000000
6.26205  0.000000  0.000000  0.000000  -35.301176708543075  -1.513034111302602  -17.9437549517658  50.62991697184194  11.20105164538447  14.919920729095011  11.665033959765415  39.58016473836109  -18.28715898095825  18.282077399711362  120.000000
6.3195  0.000000  0.000000  0.000000  -34.94842045881698  -1.6838321560010605  -19.23294268794407  49.65152396057367  12.047561776708443  15.086231333318961  12.58035589665349  34.842862654313166  -17.631813618094807  17.47721234300922  120.000000
6.37695  0.000000  0.000000  0.000000  -34.80469592737961  -1.7237935621941256  -20.12194757001766  48.86802624395775  12.934434053108603  15.202262290627564  14.14272674896959  30.418878817911207  -17.43939357424665  16.688178838424587  120.000000
6.4344  0.000000  0.000000  0.000000  -34.853747151409635  -1.6627711314137137  -20.625781416411368  48.29416506662729  13.788311265500615  15.244638338617385  16.42861433971884  26.402114460239904  -17.799706142432154  15.996118595844663  120.000000
6.49185  0.000000  0.000000  0.000000  -35.044845241810236  -1.5382453944985264  -20.772780919933005  47.925287358253286  14.552096408333089  15.198799401363203  19.45392459498805  22.839072813106252  -18.7589026818317  15.473369568872906  120.000000
6.549300000000001  0.000000  0.000000  0.000000  -35.31504377910286  -1.386334055690623  -20.60387114750838  47.74749729754656  15.189329050553358  15.054660154430948  23.171102023475868  19.74200430322758  -20.320412949122076  15.168385754946755  120.000000
6.60675  0.000000  0.000000  0.000000  -35.61641120927218  -1.2334058696236319  -20.168544437707173  47.73335830620208  15.678652329246937  14.812145542347535  27.472821108701694  17.09860171895315  -22.44734914194967  15.096129408048267  120.000000
6.6642  0.000000  0.000000  0.000000  -35.92563886452257  -1.0922211686406962  -19.52116501126908  47.84431859519315  16.012123385782186  14.48105400170446  32.19565373704361  14.879819275004767  -25.058479805322644  15.24153333790502  120.000000
6.72165  0.000000  0.000000  0.000000  -36.236393017638896  -0.96573914177216  -18.718757232740966  48.03903641391962  16.192229588732776  14.076370933820915  37.12687105297047  13.043242703719558  -28.019390199161883  15.5673157913775  120.000000
6.7791  0.000000  0.000000  0.000000  -36.54608799938115  -0.85310429682886  -17.816519968275646  48.27687750019708  16.225541541341347  13.618724289418902  42.02152133279656  11.530870380622215  -31.14204555234671  16.01668176659903  120.000000
6.83655  0.000000  0.000000  0.000000  -36.847622471867865  -0.7535261284336854  -16.8637439259389  48.527098908253045  16.12317770673467  13.12810711433788  46.6393176894277  10.276617122087472  -34.21471563740834  16.513197320444146  120.000000
6.894  0.000000  0.000000  0.000000  -37.12196046999132  -0.6653301551479821  -15.900926329641964  48.77544502040687  15.901114266820672  12.619468862428786  50.78981683345712  9.215333253732599  -37.04975709811927  16.968698933737286  120.000000
6.95145  0.000000  0.000000  0.000000  -37.34551390780071  -0.5886870123979744  -14.956812480813186  49.017366981310346  15.576949101745306  12.107482663548138  54.36271725729046  8.291290460908085  -39.52460064264157  17.302204268501534  120.000000
7.008900000000001  0.000000  0.000000  0.000000  -37.50226968090848  -0.5242948184701318  -14.04900758885848  49.251744751608975  15.169586352712923  11.606704009106693  57.32348886793873  7.4659511523235125  -41.59051318257807  17.46719347203754  120.000000
7.06635  0.000000  0.000000  0.000000  -37.59277280350906  -0.4710678205286693  -13.18662088720791  49.47677336347927  14.700589562731336  11.12768836824633  59.671564326672105  6.72023613228242  -43.23952528029917  17.473059132951946  120.000000
7.1238  0.000000  0.000000  0.000000  -37.635159284404686  -0.42605630683303586  -12.372996868088372  49.688310019766654  14.192790501617933  10.676190480371995  61.40728020066059  6.0509291928654365  -44.472526312010714  17.381707442229615  120.000000
7.18125  0.000000  0.000000  0.000000  -37.65689666303726  -0.38593533589932444  -11.6082255345062  49.880772419745625  13.668343368490582  10.253461453008548  62.51124611502025  5.462229605608424  -45.27214652302809  17.27937638305761  120.000000
7.2387  0.000000  0.000000  0.000000  -37.6831584959351  -0.3478149365401739  -10.890488523694344  50.04997042082661  13.146800045285593  9.858149179053285  62.94501371292284  4.958364958387019  -45.59493135133346  17.240696309036657  120.000000
7.29615  0.000000  0.000000  0.000000  -37.72649978685737  -0.30982303500581226  -10.21688577494008  50.19585460561391  12.643648635358097  9.488726623032484  62.67083819334297  4.538527624764322  -45.38342078370593  17.30222514956731  120.000000
7.3536  0.000000  0.000000  0.000000  -37.784325755267744  -0.2721769034438877  -9.584345178394255  50.32195197755695  12.169674545451691  9.144923516165326  61.671117254458274  4.1947473197357485  -44.58484104520119  17.457136903069927  120.000000
7.41105  0.000000  0.000000  0.000000  -37.84416738946124  -0.23520960695357146  -8.990968498520926  50.433817425451146  11.731171196630513  8.827029028291962  59.96092326201393  3.9136444758008184  -43.16989767637426  17.671610863007228  120.000000
7.468500000000001  0.000000  0.000000  0.000000  -37.89224157365037  -0.1988539943370059  -8.43675647121148  50.53650675836108  11.3311386007744  8.534403182331605  57.58640958477834  3.68027646667515  -41.14118335450062  17.90733682218244  120.000000
7.52595  0.000000  0.000000  0.000000  -37.92029837879398  -0.16320534792075528  -7.92316579573577  50.63202307883635  10.970442705618266  8.265347368761526  54.62449034998184  3.48186027281084  -38.54103240334502  18.13798799838856  120.000000
7.5834  0.000000  0.000000  0.000000  -37.92879648375538  -0.12955086924150763  -7.452155298822572  50.71802867032103  10.648798926457491  8.017668663508907  51.184753929136704  3.3092740050320812  -35.457450882204135  18.354733860801495  120.000000
7.64085  0.000000  0.000000  0.000000  -37.92440952464814  -0.1004730424520001  -7.025423663007006  50.789889980779705  10.366143168320887  7.78836128181926  47.40288080145754  3.1563765643159143  -32.01556094336042  18.561278010134917  120.000000
7.6983  0.000000  0.000000  0.000000  -37.916424872729884  -0.07872585908573573  -6.6439319061670865  50.84317026916652  10.123457890168266  7.573562075902667  43.424533272484965  3.018958371082658  -28.357407831920177  18.765207661572223  120.000000
7.75575  0.000000  0.000000  0.000000  -37.913646639499774  -0.0665886344029573  -6.307795202648625  50.8752734924827  9.923017339797507  7.368685218941039  39.38159496030629  2.894070900253324  -24.614094851641283  18.971176500561988  120.000000
7.8132  0.000000  0.000000  0.000000  -37.9230604527014  -0.06621149176901736  -6.016540190127648  50.88562588517675  9.767586944809532  7.1692874473263775  35.390515137550096  2.780037886742402  -20.901903524233717  19.178271140982865  120.000000
7.87065  0.000000  0.000000  0.000000  -37.948794533587126  -0.080724600823361  -5.769611507980688  50.87555299494391  9.659256800578543  6.971965891651394  31.57716873488972  2.6762790474678333  -17.345674244613736  19.38188806827513  120.000000
7.928100000000001  0.000000  0.000000  0.000000  -37.99146516027403  -0.11489094010299927  -5.56691518684739  50.847976962089184  9.598239128834278  6.7749457618208435  28.116662103559953  2.58269617376501  -14.118043335618507  19.57859553392825  120.000000
7.98555  0.000000  0.000000  0.000000  -38.047289053328846  -0.17496852526834486  -5.40908159060118  50.806925725665714  9.582336962583245  6.5778941814096274  25.238584365088897  2.498542711529234  -11.443641818649974  19.771395898296106  120.000000
8.043  0.000000  0.000000  0.000000  -38.108592326929006  -0.2665707495377352  -5.297221246167936  50.75487362862781  9.607329848371592  6.381543354409643  23.153549025490133  2.42202148201695  -9.525869168437248  19.971987359568832  120.000000
8.10045  0.000000  0.000000  0.000000  -38.16591732144248  -0.38979731493751396  -5.232210651856605  50.68824374857312  9.66969566138852  6.186026531470132  21.874920924464345  2.352397775197296  -8.370628087669013  20.19644978034471  120.000000
8.1579  0.000000  0.000000  0.000000  -38.212430068120824  -0.5344585906479085  -5.214139410327029  50.59052512448621  9.769550753198494  5.990072751905189  21.00803767976573  2.2928825006630364  -7.581064550884901  20.45370474795425  120.000000
8.21535  0.000000  0.000000  0.000000  -38.245744145939014  -0.6818220650594119  -5.2449679627011125  50.43292371823866  9.908391264278888  5.794426888744851  19.819014152424405  2.2513267404168693  -6.431476741277564  20.733587391202434  120.000000
8.2728  0.000000  0.000000  0.000000  -38.26320406219701  -0.8112752951585814  -5.3347651590581  50.18875193658837  10.082163744274505  5.604224960125583  17.721262440390188  2.241032449488101  -4.356650720398326  21.00160779911391  120.000000
8.33025  0.000000  0.000000  0.000000  -38.25949177457718  -0.9027893873760414  -5.504084880633642  49.843010289468324  10.279415222888781  5.426903988982897  14.676988143027172  2.28143108809214  -1.3508767517857219  21.204357919004984  120.000000
8.3877  0.000000  0.000000  0.000000  -38.228179001309464  -0.9418977919175692  -5.777394942002214  49.38930322210104  10.486890140306373  5.273653397635549  11.24696765866063  2.3957617010966934  1.9918672375978108  21.28740689460372  120.000000
8.44515  0.000000  0.000000  0.000000  -38.155802533060495  -0.9272681501713604  -6.17359779786805  48.83537152997926  10.69554536788005  5.161414112899386  8.481603816510823  2.6065226701494715  4.603748214935532  21.222579792224714  120.000000
8.502600000000001  0.000000  0.000000  0.000000  -38.02215144731029  -0.8743446114909924  -6.7003646131569985  48.20718431609675  10.901536614992988  5.111114949273274  7.443146233635071  2.9319704437404774  5.434696080711943  21.03062306718592  120.000000
8.56005  0.000000  0.000000  0.000000  -37.80982813364952  -0.8072287517624485  -7.354467032682174  47.54783567274049  11.103243132628975  5.142441471997825  8.68323410285208  3.3923985053913177  3.9767913765641634  20.783067653088345  120.000000
8.6175  0.000000  0.000000  0.000000  -37.51221642506512  -0.7489290749750215  -8.123668029611682  46.91866207438873  11.298827282083652  5.268866153734373  12.209344709922282  4.024391943555314  0.2818857628364281  20.580354980132075  120.000000
8.67495  0.000000  0.000000  0.000000  -37.136379080381246  -0.7221619951905701  -8.985850709899806  46.389110753116164  11.481701054173344  5.501110996655769  17.591403176097597  4.888259451860379  -5.17236374147959  20.512045681305437  120.000000
8.7324  0.000000  0.000000  0.000000  -36.7110382197246  -0.7472948592066754  -9.906938376323545  46.01274913135271  11.645055067327107  5.850739833637343  24.030819031762483  6.06762318216448  -11.577851380444496  20.621141205254904  120.000000
8.78985  0.000000  0.000000  0.000000  -36.284930425017585  -0.8257003541393018  -10.844909921497653  45.81335444982388  11.792040775662112  6.323927778921634  30.58087431603466  7.654646243091352  -18.025701473740718  20.888536865450998  120.000000
8.8473  0.000000  0.000000  0.000000  -35.91406586612046  -0.9357109611594385  -11.760905870891996  45.79056131037659  11.934678922249926  6.912462335638677  36.51428128619237  9.720296813924538  -23.860202438209182  21.249728580746503  120.000000
8.90475  0.000000  0.000000  0.000000  -35.64468921494028  -1.0461032022120416  -12.626334141837175  45.931189533067595  12.083715921193532  7.594342502531254  41.50235767346753  12.289964196315703  -28.830767750378282  21.626225430499147  120.000000
8.9622  0.000000  0.000000  0.000000  -35.49821296885083  -1.1247970359487416  -13.420567074846945  46.223568213253486  12.242869836288815  8.338528814985807  45.54180000159109  15.343009790404965  -32.99314449346013  21.954045975535255  120.000000
9.01965  0.000000  0.000000  0.000000  -35.477565740055994  -1.1451235308955894  -14.121843928883901  46.6606594686957  12.408283620242152  9.116037227481288  48.78473185458077  18.828377251092068  -36.52412468756946  22.199366393672886  120.000000
9.0771  0.000000  0.000000  0.000000  -35.57447206814665  -1.0884357036022954  -14.698860424480237  47.23034716274692  12.569312965566558  9.911885233081662  51.41521202618859  22.673641946971653  -39.59336677558131  22.35520919041997  120.000000
9.13455  0.000000  0.000000  0.000000  -35.77961760741132  -0.94377034338465  -15.10804078960595  47.912421428475916  12.717925489433492  10.719781385615812  53.5923836247006  26.794878943889422  -42.317780401934115  22.426903629880726  120.000000
9.192  0.000000  0.000000  0.000000  -36.0830787495156  -0.6962178204873376  -15.298149323549575  48.688188717656246  12.859172031120766  11.525437179358462  55.436134719507244  31.10654032485098  -44.76533732082246  22.418171470671858  120.000000
9.24945  0.000000  0.000000  0.000000  -36.46434622725186  -0.32267546088262783  -15.213380170279708  49.54326826635624  13.010514485556607  12.304822442624053  57.035450412817355  35.52749605660432  -46.97523821803704  22.32376792098067  120.000000
9.3069  0.000000  0.000000  0.000000  -36.89476543653225  0.1967599828870934  -14.79744552601622  50.4631678740459  13.19104677871086  13.0330555162715  58.45430564624184  39.98793553538422  -48.97248858219007  22.130878604397903  120.000000
9.36435  0.000000  0.000000  0.000000  -37.34811413418124  0.8712774325754151  -14.004879379192344  51.43035869355821  13.409686630155333  13.688644123975521  59.733808301244494  44.428804780265786  -50.77286208949722  21.828032282523395  120.000000
9.421800000000001  0.000000  0.000000  0.000000  -37.81203054752443  1.6941898929866706  -12.814769213738051  52.42233829680379  13.657840570145957  14.25449614062859  60.89084318459383  48.79865495738779  -52.38490307772652  21.41618765392886  120.000000
9.47925  0.000000  0.000000  0.000000  -38.295263470435565  2.6382657601054693  -11.238935741644573  53.41209542250354  13.909130862237406  14.717946011035043  61.91850375981011  53.052351479190875  -53.81153628120571  20.916819984216275  120.000000
9.5367  0.000000  0.000000  0.000000  -38.825259333931726  3.655774442315379  -9.3236149417829  54.37145246816598  14.125709976965737  15.068869181746571  62.79189180798231  57.14831376659921  -55.05115773991712  20.370340664968236  120.000000
9.59415  0.000000  0.000000  0.000000  -39.43314494228892  4.681909345179508  -7.145513564499825  55.272642200185835  14.268577259292435  15.299850477182588  63.48180476517582  61.03969347525096  -56.098819399306585  19.824600006218144  120.000000
9.6516  0.000000  0.000000  0.000000  -40.13078682371542  5.647082084679933  -4.806285687100133  56.09089337315651  14.308677944352986  15.405697083473683  63.97112449015399  64.66435059589709  -56.94814460516498  19.323317644091116  120.000000
9.70905  0.000000  0.000000  0.000000  -40.89645977418209  6.491726579949473  -2.426633211087775  56.805738243295245  14.233632592110908  15.385405570369299  64.26781001176595  67.93911363690077  -57.59373512009426  18.898162615933828  120.000000
9.7665  0.000000  0.000000  0.000000  -41.67200962564726  7.174901192319385  -0.13842542122441256  57.399006887629625  14.047411840358363  15.246844787456428  64.4052202930342  70.76239477271903  -58.033899206636974  18.567856958488793  120.000000
9.82395  0.000000  0.000000  0.000000  -42.37976794417369  7.6776885140361095  1.9240583363824817  57.857290758405604  13.765127642916303  15.005142182921785  64.43126294699043  73.02828028320656  -58.27328038476742  18.341677512670522  120.000000
9.8814  0.000000  0.000000  0.000000  -42.939810751326235  7.99651963086348  3.6346409595550653  58.17280030752731  13.406018562999678  14.680710786739235  64.3933308287253  74.64267598090939  -58.324134068091105  18.220648009055665  120.000000
9.93885  0.000000  0.000000  0.000000  -43.288174964952226  8.135394345330424  4.886021028285682  58.34519205880456  12.990005788621264  14.294846628114948  64.32682045854477  75.53903079147865  -58.20606865793919  18.194923349135514  120.000000
9.9963  0.000000  0.000000  0.000000  -43.38556133719346  8.098312285125152  5.5967168319891405  58.37919558582395  12.534744434129077  13.869441470759813  64.24996026602128  75.6868719144991  -57.94414620826583  18.24329362273958  120.000000
10.05375  0.000000  0.000000  0.000000  -43.22260120851583  7.886249134529442  5.717074705593993  58.280377122280846  12.057209905610554  13.426544198013923  64.16527788434374  75.09270780364265  -57.56184658198679  18.337190323859964  120.000000
10.1112  0.000000  0.000000  0.000000  -42.82148118346592  7.4982614949338355  5.235492730246793  58.05013496044265  11.57911678903543  12.988803229517625  64.06225768920967  73.79782439295741  -57.07016536865296  18.44689051902528  120.000000
10.16865  0.000000  0.000000  0.000000  -42.23448318499183  6.936308045362625  4.18536407320164  57.683975577735005  11.13609024214003  12.576846847628671  63.91831400864873  71.8751976255517  -56.454454533381  18.545930801191773  120.000000
10.2261  0.000000  0.000000  0.000000  -41.536498975041695  6.211875678797028  2.645166211864971  57.17559450823687  10.779760395123924  12.206973316017983  63.70052000850593  69.42378353430624  -55.67210568366311  18.613435255010586  120.000000
10.28355  0.000000  0.000000  0.000000  -40.80691394372431  5.351205726349404  0.7268162053975702  56.52474132473361  10.568400885975603  11.890971718576527  63.36983939174909  66.55778022760857  -54.66384754266687  18.63649216243743  120.000000
10.341000000000001  0.000000  0.000000  0.000000  -40.11133731632336  4.398000224575699  -1.4439398193080362  55.74411122526843  10.550337050467048  11.63638033731072  62.889761644125926  63.39089701561656  -53.37574620831272  18.61700239187622  120.000000
10.39845  0.000000  0.000000  0.000000  -39.485905370279305  3.4042123844686394  -3.746848463810237  54.85532549578899  10.748516030591878  11.451767780819319  62.236137819807155  60.01695124970775  -51.778189505538066  18.582716508390202  120.000000
10.4559  0.000000  0.000000  0.000000  -38.93884044291369  2.4240574197613975  -6.080614123560333  53.883193767614856  11.155850987815768  11.344839418740953  61.40056263178554  56.49964722177428  -49.873920416439155  18.593323905568784  120.000000
10.51335  0.000000  0.000000  0.000000  -38.458847145794394  1.5068185162297731  -8.365942319493294  52.85040678321742  11.743948361967883  11.31725812217542  60.38381178085363  52.87379423404429  -47.68834149295325  18.72918628472409  120.000000
10.5708  0.000000  0.000000  0.000000  -38.03078590767247  0.6896610357472895  -10.541923388769877  51.77550567816986  12.473624265414232  11.363080205212812  59.1861128604549  49.15815539102998  -45.25319774911803  19.063635065623227  120.000000
10.62825  0.000000  0.000000  0.000000  -37.64476765045785  -0.0057009200206355505  -12.561184405222424  50.6767771284544  13.304402767436308  11.467746068844116  57.797452666627954  45.37165951236652  -42.590112813067854  19.629156630718924  120.000000
10.6857  0.000000  0.000000  0.000000  -37.30077551099913  -0.5743054185442856  -14.387615893518962  49.575652467951514  14.19600199253231  11.611889609442592  56.19656269264475  41.54399127031061  -39.705703673372625  20.394657911374363  120.000000
10.74315  0.000000  0.000000  0.000000  -37.003971520525354  -1.0257538505854373  -15.996927218626555  48.50010128882206  15.10850769912182  11.773159549408813  54.35385327864357  37.71780510838721  -36.59285214967068  21.273088254792178  120.000000
10.8006  0.000000  0.000000  0.000000  -36.76070949039414  -1.3822728954316281  -17.376434591441786  47.48081123992159  16.000242337088384  11.931832761186525  52.2396062326901  33.94389413199671  -33.24136655747267  22.15201077508984  120.000000
10.85805  0.000000  0.000000  0.000000  -36.57394756811233  -1.67334124720352  -18.52414513654071  46.54946472022531  16.83018834299097  12.072760835942876  49.83063365906701  30.275709988609183  -29.64608475344675  22.927592585486092  120.000000
10.9155  0.000000  0.000000  0.000000  -36.445195129310164  -1.9298097542129067  -19.444278507625356  45.732996515240636  17.563895070283092  12.18690363298205  47.11368859357  26.766648884599395  -25.814759761400424  23.525000457220774  120.000000
10.97295  0.000000  0.000000  0.000000  -36.37733005108467  -2.173108660632514  -20.14162989075718  45.05158941686356  18.18305979290591  12.268640780493623  44.08116130403426  23.47007907658926  -21.763605758502234  23.900270271718465  120.000000
11.0304  0.000000  0.000000  0.000000  -36.38114167347716  -2.4067597454290954  -20.61725735785221  44.51309683799126  18.690797901080774  12.312296989854332  40.72572843270258  20.435245649860672  -17.511718446643403  24.0279690537029  120.000000
11.08785  0.000000  0.000000  0.000000  -36.472635157576825  -2.6204617677046462  -20.86928844346079  44.11119074755449  19.112100980671986  12.307245205619157  37.02125667170072  17.699445385679887  -13.05940403872595  23.88477759835495  120.000000
11.1453  0.000000  0.000000  0.000000  -36.66800230921539  -2.789963025048155  -20.897011470072826  43.84019343033282  19.487713190441966  12.240617482269025  32.956292716886914  15.291462062192803  -8.417422719224247  23.447774895385603  120.000000
11.20275  0.000000  0.000000  0.000000  -36.97382344431486  -2.895790397489445  -20.705051042161717  43.7055635188269  19.86165516364507  12.102357745071501  28.583343558450828  13.231682233157494  -3.653012804288224  22.692187608299957  120.000000
11.260200000000001  0.000000  0.000000  0.000000  -37.39616396458005  -2.9286463625765866  -20.3076476050966  43.71745084204126  20.263531849300776  11.892938557869066  24.068638841337865  11.520976698481007  1.0620334554515478  21.59585406166861  120.000000
11.31765  0.000000  0.000000  0.000000  -37.93275486649697  -2.9099518611054496  -19.735225699945193  43.88929531455222  20.699582662881085  11.623325527605935  19.69578128416043  10.128525961465211  5.449867563626293  20.141943111255564  120.000000
11.3751  0.000000  0.000000  0.000000  -38.56439719819656  -2.8828271328850477  -19.036983343958635  44.23882975297916  21.14599455508239  11.320158608341178  15.884017209972582  8.981671243820161  9.114332568524233  18.348477042453112  120.000000
11.43255  0.000000  0.000000  0.000000  -39.247055767053624  -2.9131747335886993  -18.274198354897248  44.77785452952035  21.5645145072076  11.013889815267076  13.043567190617793  7.974889889170346  11.687174647657617  16.29584485463819  120.000000
11.49  0.000000  0.000000  0.000000  -39.92106776468079  -3.0856014110272674  -17.50052230753194  45.482595147628174  21.894352356660175  10.759285836715206  11.488436347051174  6.977703782808767  12.914990231118141  14.144299007076782  120.000000
