Simulation
nRows=201
nColumns=15
endheader
time  TH_x TH_y TH_z SC_y  SC_z  SC_x  AC_y  AC_z  AC_x  GH_y  GH_z  GH_yy  EL_x  PS_y
0.0  0.000000  0.000000  0.000000  -40.97484877243665  6.293857566463187  5.290427962726946  44.254292685239896  7.316807208057888  0.035069720654575996  175.20088635279163  6.663374923225085  -150.01151286884314  22.65151142952582  120.000000
0.05745  0.000000  0.000000  0.000000  -38.97990936794381  5.7914439789532155  3.1620898759888987  43.464303056090934  7.465211491679669  0.24995300488346017  171.64864529625672  3.474484342691536  -147.6728552003923  22.06630267751109  120.000000
0.1149  0.000000  0.000000  0.000000  -37.14216085592363  5.13703231558846  1.0235214580207286  42.76009751496563  7.429715226802225  0.5019625723656486  128.33950481105717  0.6412846568748162  -105.56738955605682  21.6624136904666  120.000000
0.17235  0.000000  0.000000  0.000000  -35.565335044628505  4.392142578999412  -1.030257351064841  42.17958861211744  7.270468296459167  0.8100716991278131  13.339552278467641  2.593060049722429  8.224794610478288  21.51952829352722  120.000000
0.2298  0.000000  0.000000  0.000000  -34.296492827684936  3.6356226518967127  -2.9316395714068526  41.742693091176186  7.07724090402265  1.1908556170054023  8.115136769100232  5.441758464863568  12.226939672751845  21.645598538911322  120.000000
0.28725  0.000000  0.000000  0.000000  -33.34422470716769  2.9506395664921903  -4.645633544598994  41.43748856535521  6.951044475707331  1.6593774251207807  6.532372677356911  8.318617815366695  12.552470151135761  21.976716817980424  120.000000
0.3447  0.000000  0.000000  0.000000  -32.70550552682318  2.4145258235950497  -6.153413832523238  41.23236098380669  6.9702923028442525  2.2184473533564475  5.443877345771508  11.27114464396822  12.32213971835222  22.412880516422007  120.000000
0.40215  0.000000  0.000000  0.000000  -32.38364449492828  2.0817791809440283  -7.423415269751363  41.09377079174512  7.161624441958018  2.8404983632918603  4.400581815939414  14.35470377281311  11.959816303274977  22.843600361995037  120.000000
0.4596  0.000000  0.000000  0.000000  -32.383049254217525  1.9873815835236959  -8.415529135036062  40.996447651810655  7.499234220300577  3.479903393945726  3.3700940472263  17.60754286835283  11.486893974410894  23.17622554700132  120.000000
0.51705  0.000000  0.000000  0.000000  -32.69990022947981  2.147951395851044  -9.089303169749737  40.92658285897964  7.922303079602317  4.09534566260325  2.4070491501664657  21.035983884217032  10.858289592373065  23.349607532750717  120.000000
0.5745  0.000000  0.000000  0.000000  -33.31283234460799  2.5655775141412165  -9.42531987516872  40.8877895445908  8.36453042160449  4.672469522061494  1.584973143275739  24.609418711499394  10.030056256582236  23.34208363988432  120.000000
0.63195  0.000000  0.000000  0.000000  -34.19347867642464  3.2212574127616698  -9.461033443653081  40.89853503617292  8.79044652992995  5.248413926331587  0.9839345139915823  28.275912365785604  8.960909681174046  23.164251804962234  120.000000
0.6894  0.000000  0.000000  0.000000  -35.31698385694177  4.07442213120578  -9.260696996551706  40.99216044010213  9.182869441856003  5.878316713909003  0.684294782845579  31.980741429750296  7.604840031607324  22.846509146173112  120.000000
0.74685  0.000000  0.000000  0.000000  -36.66056555364271  5.068327517536947  -8.872123426649457  41.20856548681063  9.52825277687017  6.593758901673598  0.7367008783970479  35.67201648572155  5.92818755994126  22.42653769628883  120.000000
0.8043  0.000000  0.000000  0.000000  -38.19343019006856  6.145533013543561  -8.32558373270801  41.57745489145789  9.826900780403276  7.401712452416823  1.1431160765257422  39.29706990588857  3.9235068174842676  21.942439304984074  120.000000
0.86175  0.000000  0.000000  0.000000  -39.87049446184434  7.250664383881474  -7.635789675377809  42.103786268375146  10.099484277671833  8.282883423192661  1.8479899300048435  42.80071187134437  1.6216447283748867  21.428645656032476  120.000000
0.9192  0.000000  0.000000  0.000000  -41.627209493895975  8.331271029386913  -6.807982457267761  42.75996888257189  10.38218869464914  9.19586917641551  2.750629073713089  46.12232355819085  -0.9060769932346301  20.913257740197764  120.000000
0.97665  0.000000  0.000000  0.000000  -43.38006797441777  9.348579300991895  -5.839449234962301  43.49090057038694  10.710489030431585  10.092563417646709  3.7395664641051076  49.202306941269335  -3.5600062322825523  20.416137534704088  120.000000
1.0341  0.000000  0.000000  0.000000  -45.03827089347357  10.287562918108028  -4.723160486765746  44.227258302448114  11.103349773648123  10.927034788963297  4.720861793065938  51.994838341930596  -6.219215640242285  19.948539414291847  120.000000
1.09155  0.000000  0.000000  0.000000  -46.52791089359979  11.151453276205675  -3.455485456550219  44.8986722132053  11.554549911094002  11.662318426332721  5.626369919041735  54.47642674674762  -8.74785982329972  19.512510383841743  120.000000
1.149  0.000000  0.000000  0.000000  -47.81019944378372  11.945779078855425  -2.045129020424162  45.45051115818308  12.036522766187867  12.273794542943481  6.414695053200894  56.64209620172435  -11.01336904689117  19.1047185128403  120.000000
1.20645  0.000000  0.000000  0.000000  -48.8812735958015  12.66765015692613  -0.5208722406678786  45.85965902016258  12.511265875566526  12.750162778433806  7.069991354835294  58.4995781130128  -12.914732040812181  18.720615328352597  120.000000
1.2639  0.000000  0.000000  0.000000  -49.7611508768296  13.303145021725282  1.0650216642267676  46.13408862389624  12.940762276476251  13.091503933197387  7.599306465158632  60.06607265700071  -14.40746649590164  18.359978166738554  120.000000
1.32135  0.000000  0.000000  0.000000  -50.4751130278726  13.831855512690208  2.6366450372693393  46.303651419840214  13.294245373377635  13.304301510803116  8.022831112238066  61.3642144105436  -15.510946072265144  18.027373940362345  120.000000
1.3788  0.000000  0.000000  0.000000  -51.03846982728467  14.233731177001827  4.099039089840183  46.40604567023667  13.551481759535362  13.396771655185018  8.364327701094899  62.41623839249068  -16.29551019984633  17.730760168323563  120.000000
1.43625  0.000000  0.000000  0.000000  -51.45111725554001  14.494326635731607  5.345982281504878  46.47610180523428  13.70190878283486  13.37705195029197  8.643559580254117  63.239952101892364  -16.85614304575509  17.478837665770858  120.000000
1.4937  0.000000  0.000000  0.000000  -51.699274313786596  14.606790740333503  6.269282960505091  46.53876610276139  13.741242599173416  13.25396353373414  8.872601163470595  63.845964642458505  -17.28444292804625  17.2791924885131  120.000000
1.55115  0.000000  0.000000  0.000000  -51.763196719016705  14.569702831573554  6.76826030847554  46.60761202487022  13.667933656998326  13.039678588806076  9.054820951426363  64.23933977750201  -17.646608341247003  17.137637783736384  120.000000
1.6086  0.000000  0.000000  0.000000  -51.62318345201867  14.381442943431946  6.75894772457799  46.68543706471728  13.48237158108067  12.75221288951039  9.18392046680528  64.42303428457207  -17.97265778412564  17.057655857441947  120.000000
1.66605  0.000000  0.000000  0.000000  -51.268713356990546  14.03821898217891  6.1936065536099845  46.7597553001364  13.197761472572967  12.42233494891457  9.251991659583569  64.3756089392432  -18.26619158945841  17.03969520532207  120.000000
1.7235  0.000000  0.000000  0.000000  -50.702519225915715  13.537239720673869  5.077953946669354  46.7992226039168  12.854913463798264  12.09522317169479  9.257711946019885  64.02975784327235  -18.523415428651404  17.07829690307627  120.000000
1.78095  0.000000  0.000000  0.000000  -49.93283322888332  12.873609716785616  3.463515048626928  46.76379032640916  12.520445685389126  11.816769233018865  9.198800390187703  63.306149867697584  -18.73645066083422  17.158118603932497  120.000000
1.8384  0.000000  0.000000  0.000000  -48.96833128629481  12.043230346703178  1.4330645224573564  46.61529987104035  12.27581611286876  11.618625496464983  9.065485897560492  62.14564543123054  -18.896924019275552  17.254288225227732  120.000000
1.89585  0.000000  0.000000  0.000000  -47.822089278097735  11.05099890215373  -0.9084606752829325  46.32129986100875  12.204532834719428  11.513095437877627  8.84576627613491  60.51021072041124  -19.004436001925914  17.338135568057197  120.000000
1.9533  0.000000  0.000000  0.000000  -46.51697787626597  9.915313980593066  -3.4464008068724086  45.86052877952456  12.37408584844558  11.495508405980049  8.53464609825718  58.38613545644223  -19.07184508257143  17.385883094792455  120.000000
2.01075  0.000000  0.000000  0.000000  -45.09514570281474  8.670183558273694  -6.069325743008542  45.2302026273286  12.820159198513974  11.551080436226384  8.144094805941835  55.78768639977068  -19.126368123917953  17.38496852190969  120.000000
2.0682  0.000000  0.000000  0.000000  -43.62422769654172  7.3596722815776685  -8.67870133977373  44.444523915424114  13.538350639918006  11.664906816184187  7.705633168642011  52.75824094579506  -19.204352226251775  17.33489678436598  120.000000
2.1256500000000003  0.000000  0.000000  0.000000  -42.19387800762431  6.038385141031664  -11.195675647543606  43.53529222325245  14.484032165918137  11.830705684284906  7.274985066264923  49.36883446525523  -19.344731962208915  17.241644549606995  120.000000
2.1831  0.000000  0.000000  0.000000  -40.888955807899904  4.769193211878938  -13.563244311216925  42.550516870081  15.583437368743182  12.055356156918672  6.937114468574342  45.70848831061461  -19.582126070456084  17.109394275925435  120.000000
2.24055  0.000000  0.000000  0.000000  -39.76641808095267  3.6127166935965658  -15.74418833113888  41.546595924913156  16.744955803617124  12.351108021987509  6.795325801022299  41.866831673696  -19.931291709394575  16.93266281778949  120.000000
2.298  0.000000  0.000000  0.000000  -38.848240605588785  2.6149769448026854  -17.715413274655678  40.57367107210391  17.87555900720233  12.72283367521292  6.941212317197224  37.91893268761561  -20.36723321724935  16.695067372578226  120.000000
2.3554500000000003  0.000000  0.000000  0.000000  -38.1208023511451  1.8050933159915796  -19.461126110029003  39.672909114325286  18.900743638667546  13.162597516581812  7.435780228503438  33.92599398219783  -20.82575941399512  16.374644355258464  120.000000
2.4129  0.000000  0.000000  0.000000  -37.54338357464695  1.192717028012034  -20.966866065053626  38.87628598063091  19.77916991645132  13.650570660974022  8.303851976647245  29.944373321772908  -21.2197011954389  15.959400772151787  120.000000
2.47035  0.000000  0.000000  0.000000  -37.06593195144114  0.7657206811786516  -22.22233014127688  38.20624062044656  20.504513379338647  14.158089460458791  9.540510655935595  26.033706540892375  -21.4624697850613  15.463047894292028  120.000000
2.5278  0.000000  0.000000  0.000000  -36.64681817594988  0.4884158618159997  -23.228936526697456  37.67745633890948  21.099151111355578  14.653499516203308  11.135949323384516  22.26460879415669  -21.50200006294339  14.93077485395371  120.000000
2.5852500000000003  0.000000  0.000000  0.000000  -36.2665741482139  0.30528930648781455  -24.002683593222418  37.299551391640826  21.6025778266604  15.109261907693313  13.123191110856299  18.729158080150874  -21.370791298077293  14.430928983789567  120.000000
2.6427  0.000000  0.000000  0.000000  -35.92870567411891  0.16193011959304487  -24.545462598839848  37.0896246942403  22.04057852294463  15.483102046627042  15.633177659564236  15.529727294825726  -21.24711911164476  14.034429382268419  120.000000
2.70015  0.000000  0.000000  0.000000  -35.64637708861892  0.022750228995457592  -24.837128895620264  37.05875946035465  22.413246391914114  15.724715785424694  18.90918201384384  12.741957490541438  -21.480743904131696  13.790873860006895  120.000000
2.7576  0.000000  0.000000  0.000000  -35.43222207036412  -0.11579410997792866  -24.8663319645452  37.1955476150387  22.71160180963752  15.809651965769742  23.340054976229474  10.395449149547671  -22.62723767124135  13.718133157309712  120.000000
2.8150500000000003  0.000000  0.000000  0.000000  -35.29736546278443  -0.2330921061915133  -24.6293158066951  37.473982960975455  22.923955262459295  15.732137141428902  29.50868117020583  8.491051182025679  -25.474802277050056  13.81077312493235  120.000000
2.8725  0.000000  0.000000  0.000000  -35.25130859551227  -0.30313798009722  -24.129975636127913  37.85529117599799  23.036326827534086  15.499199214965667  38.099747811107854  7.030241434851473  -30.915316347675702  14.051925513447364  120.000000
2.92995  0.000000  0.000000  0.000000  -35.29304924570793  -0.30232220496749235  -23.391843799515318  38.293968076929936  23.034052147832075  15.128549521702938  49.47476384491936  6.031241281809647  -39.48070247726358  14.415142301121914  120.000000
2.9874  0.000000  0.000000  0.000000  -35.40675668032773  -0.21715573165051716  -22.45380192356841  38.74596056135024  22.90545776208431  14.642889860536952  62.86693164229819  5.503984856712691  -50.511250074185014  14.862845376422309  120.000000
3.0448500000000003  0.000000  0.000000  0.000000  -35.56677469191053  -0.046339611760337074  -21.3625752656065  39.17679633372594  22.648353616294226  14.068436763915509  76.22154299984794  5.394408329441034  -61.990922473468075  15.349876137346985  120.000000
3.1023  0.000000  0.000000  0.000000  -35.744431972937974  0.2016127726333636  -20.17049658279536  39.56956640856739  22.27519054725007  13.4324030046979  87.55577050674452  5.572185058032609  -71.919221604631  15.833461927685914  120.000000
3.15975  0.000000  0.000000  0.000000  -35.91779756010801  0.5069663771246163  -18.929839910268687  39.91956133699823  21.8087709334169  12.764866001140136  96.11946871253913  5.885423005090589  -79.48921322146813  16.28400455146975  120.000000
3.2172  0.000000  0.000000  0.000000  -36.0714143286086  0.8417925484946823  -17.686806713657685  40.232059051867274  21.27521986626607  12.09265117428143  102.13398656686437  6.215364877606824  -84.84201452831486  16.690974784531118  120.000000
3.2746500000000003  0.000000  0.000000  0.000000  -36.191543160849484  1.1785079587558869  -16.480271839606075  40.522119761823475  20.700121328588693  11.434926125281914  106.12358698223584  6.494166521738352  -88.41124393932057  17.061779445923072  120.000000
3.3321  0.000000  0.000000  0.000000  -36.26797875959087  1.4923061941998872  -15.338973347520904  40.80435699320461  20.104306508033407  10.806990758808475  108.5826031060688  6.694834589814495  -90.60254224909777  17.413789215512452  120.000000
3.38955  0.000000  0.000000  0.000000  -36.29572309138109  1.764010433840624  -14.282050094052375  41.08815795962595  19.50280218928253  10.219496410461899  109.90439897371488  6.817715609703838  -91.73481452980451  17.762432953441813  120.000000
3.447  0.000000  0.000000  0.000000  -36.27785156489464  1.9852684715449882  -13.321309092396216  41.37761322434944  18.906450872894087  9.677251505463328  110.38628119444753  6.881060194963021  -92.0530387975537  18.11691653669172  120.000000
3.5044500000000003  0.000000  0.000000  0.000000  -36.22569638655455  2.1548172267276824  -12.461611345720652  41.66818637772634  18.324376938742766  9.182264626417862  110.24770224710495  6.909427981849346  -91.74746271154098  18.479461945656084  120.000000
3.5619  0.000000  0.000000  0.000000  -36.153735325409265  2.2757097725572186  -11.702300502158845  41.94858366682409  17.765081989582317  8.735217200011721  109.6527735937161  6.925453848031123  -90.97060225357683  18.847612473841465  120.000000
3.61935  0.000000  0.000000  0.000000  -36.073831698644234  2.3554983596349413  -11.040737872981428  42.20716658031761  17.2366892308856  8.334314199746881  108.72069501025852  6.947891615831324  -89.83953683099789  19.218464737258145  120.000000
3.6768  0.000000  0.000000  0.000000  -35.991928322681034  2.404496098631686  -10.474798675070346  42.433770632439085  16.745898908715557  7.97567694421329  107.53163776878804  6.99063290029643  -88.4355066505907  19.59055822380243  120.000000
3.7342500000000003  0.000000  0.000000  0.000000  -35.9086611513254  2.4320108571679993  -10.003849670085692  42.61749012854852  16.29623834258364  7.654764890606443  106.12941102171602  7.060889583210764  -86.80261106865443  19.96392440998807  120.000000
3.7917  0.000000  0.000000  0.000000  -35.81973618515644  2.4431285440300883  -9.629080778170549  42.7465753386008  15.887779770236035  7.36636939927002  104.51773457885696  7.159430182966919  -84.94246971834983  20.339020562287295  120.000000
3.84915  0.000000  0.000000  0.000000  -35.71709325806201  2.4380401202762934  -9.352900104419922  42.810782682678116  15.517499058281125  7.105025162996536  102.64706809826363  7.283761646270444  -82.8004350790318  20.716066422903356  120.000000
3.9066  0.000000  0.000000  0.000000  -35.590286759550146  2.4137313972464174  -9.178106656470124  42.80277798537718  15.17996863351365  6.866137854825758  100.40888506809218  7.431231558925137  -80.25970919729957  21.09433788633092  120.000000
3.9640500000000003  0.000000  0.000000  0.000000  -35.42797639910059  2.365355070400056  -9.10786123767595  42.71944849038224  14.86943049655275  6.64495557135934  97.63612688620417  7.602711912527276  -77.1437958003975  21.47153391549165  120.000000
4.0215  0.000000  0.000000  0.000000  -35.2190168330643  2.2888305140603946  -9.145941416028572  42.5627322702947  14.580760288552291  6.435989200884789  94.13548571065269  7.810087716018693  -73.2535819937565  21.843719788657  120.000000
4.07895  0.000000  0.000000  0.000000  -34.95458483232498  2.1823232376182338  -9.295974742284528  42.338641643958816  14.309258666134992  6.234720593200617  89.75751406382551  8.086091601881625  -68.44447518960455  22.204715689089866  120.000000
4.1364  0.000000  0.000000  0.000000  -34.631759629768695  2.0472106929100247  -9.558529182975482  42.05396089154092  14.049384227272817  6.042662352446389  84.51035507444296  8.49133775473117  -62.74696367180006  22.543933675571406  120.000000
4.19385  0.000000  0.000000  0.000000  -34.25868598384198  1.8902008220313682  -9.926923093885494  41.71044420190078  13.794422542643224  5.872920376670171  78.66311877599433  9.107271413959605  -56.47243596572123  22.84388386651133  120.000000
4.2513000000000005  0.000000  0.000000  0.000000  -33.85607401639287  1.7341831484669623  -10.386001881785152  41.308649385914414  13.540052263210638  5.747447256258876  72.72584438669814  10.016112644952091  -50.18744135375945  23.081332836434186  120.000000
4.30875  0.000000  0.000000  0.000000  -33.45820260773142  1.6282694336384933  -10.913948072398663  40.86417917221682  13.287942044895289  5.689606887448135  67.28143404577096  11.285625798419458  -44.53355851560346  23.237355554726225  120.000000
4.3662  0.000000  0.000000  0.000000  -33.124725486466374  1.6350431031018968  -11.478143595777654  40.40382972682714  13.040022593248656  5.732269784226706  62.773634002393386  12.958569595574088  -40.00174523804575  23.311650665607228  120.000000
4.42365  0.000000  0.000000  0.000000  -32.943555828012876  1.8183895765865483  -12.03068781831578  39.95239812363723  12.79272395446509  5.9248119094463485  59.38275563419451  15.04619283158643  -36.79794492151463  23.333205592646532  120.000000
4.4811  0.000000  0.000000  0.000000  -33.01234126521494  2.2445367142314283  -12.515273407141672  39.544560760440035  12.547720318658634  6.30867398731233  57.03663771915411  17.535326731045263  -34.860590776530245  23.3570819688845  120.000000
4.53855  0.000000  0.000000  0.000000  -33.40490246368112  2.9700265028939747  -12.87417140101138  39.230542930216416  12.322121942560065  6.893596744345089  55.50283516164375  20.388654282016972  -33.96397220580812  23.443381879204008  120.000000
4.596  0.000000  0.000000  0.000000  -34.14527622867136  4.013216478046295  -13.042096238324396  39.04998524827945  12.1376550802223  7.668234356789325  54.49438153839358  23.53137526992734  -33.82443585859296  23.628913652818714  120.000000
4.65345  0.000000  0.000000  0.000000  -35.19838496115233  5.349014072808628  -12.945981611428566  39.02415756642816  12.01343713667416  8.605027848323983  53.753001993383016  26.851693843221547  -34.180664790079696  23.906683007376643  120.000000
4.7109000000000005  0.000000  0.000000  0.000000  -36.477042406841456  6.924481140810983  -12.51486503955314  39.15909502759598  11.96957298843169  9.655001909730805  53.07953828046843  30.21031749493288  -34.82262370215509  24.2236233445442  120.000000
4.76835  0.000000  0.000000  0.000000  -37.87150532793229  8.671449485588736  -11.685021308301755  39.43841795613151  12.020884201782113  10.760337249870313  52.3418805192427  33.455062686388736  -35.598684106432984  24.50034971211693  120.000000
4.8258  0.000000  0.000000  0.000000  -39.28790109471437  10.511887576198571  -10.40738488295219  39.82883561687435  12.168959912553204  11.86418059843  51.46648155913387  36.45265551779601  -36.41232543800874  24.660556012206683  120.000000
4.88325  0.000000  0.000000  0.000000  -40.67695647600008  12.362698629515995  -8.65778468552757  40.29260879822214  12.397227888731663  12.911061187475939  50.41654229436118  39.117388518351234  -37.2082892891673  24.652566508285233  120.000000
4.9407  0.000000  0.000000  0.000000  -42.04393285867175  14.137784151075909  -6.442069016682666  40.80021934605364  12.669255786326902  13.853125928902825  49.17794063141099  41.42602955617909  -37.96019736920906  24.457620013508887  120.000000
4.99815  0.000000  0.000000  0.000000  -43.42628225717773  15.756204634981378  -3.7976526430325106  41.33877624993823  12.937687653541788  14.658953104458327  47.75483691685592  43.41227961204286  -38.657332484792704  24.082242053834722  120.000000
5.0556  0.000000  0.000000  0.000000  -44.85485068558865  17.154193506469596  -0.7969581045815387  41.915901616516756  13.163307187563484  15.31553793267899  46.16990602915352  45.145289996667486  -39.29396067889995  23.54875424175384  120.000000
5.11305  0.000000  0.000000  0.000000  -46.33230898461901  18.285434055997364  2.451880680956005  42.54668979283112  13.325618946733416  15.831115860073298  44.45576713413323  46.70423854953477  -39.85807642010291  22.893527327480996  120.000000
5.1705000000000005  0.000000  0.000000  0.000000  -47.83141570843651  19.12718819872886  5.808944478382407  43.2370746753406  13.419916627728503  16.229166994509182  42.64905073993026  48.15603345966309  -40.32980188723761  22.166359841702462  120.000000
5.22795  0.000000  0.000000  0.000000  -49.30264471649679  19.68060383750693  9.113119643035542  43.97941913811949  13.450979896829718  16.533316575387072  40.79417245539538  49.54619320796355  -40.69703519504291  21.42448841358765  120.000000
5.2854  0.000000  0.000000  0.000000  -50.682371835064764  19.969055613390175  12.198961883813665  44.75336702668465  13.428307378319518  16.75534724825835  38.95365750285448  50.89477503425045  -40.971694668067585  20.722318433479863  120.000000
5.34285  0.000000  0.000000  0.000000  -51.9013855902058  20.034304158983005  14.913700149988498  45.52427055977678  13.363829442239359  16.889709887392517  37.2143037903286  52.194101087043045  -41.1933159217989  20.099794547837565  120.000000
5.4003  0.000000  0.000000  0.000000  -52.892251806809114  19.927483093450384  17.130245446008146  46.23991821360336  13.270621871503016  16.914416825455643  35.682570678270494  53.408101078701094  -41.41889461807818  19.575260327585344  120.000000
5.45775  0.000000  0.000000  0.000000  -53.597004046267706  19.700671962060014  18.753091217370972  46.836471016764406  13.161041158379536  16.797097599827254  34.470820275505  54.47757087377982  -41.70716594151542  19.14917477516197  120.000000
5.5152  0.000000  0.000000  0.000000  -53.97319880249838  19.397279098821066  19.71713812760779  47.25328286291698  13.042506759609513  16.50547959837339  33.674821844033616  55.33311205885378  -42.103048537574566  18.81590062491083  120.000000
5.57265  0.000000  0.000000  0.000000  -53.999051803136624  19.04603286169619  19.982885315960477  47.45200568344448  12.912977159307866  16.018184512560207  33.35195666110957  55.91065842722545  -42.62744081269435  18.575664126301803  120.000000
5.6301000000000005  0.000000  0.000000  0.000000  -53.675020436619775  18.65745387601232  19.531179493469335  47.42900614130768  12.758150024583118  15.334025109986015  33.50827201695006  56.163186085803225  -43.27206781763694  18.441591906404042  120.000000
5.68755  0.000000  0.000000  0.000000  -53.02010775240721  18.222223005736296  18.361452448096106  47.211063723334085  12.553233616740355  14.4785530351392  34.098236769382275  56.06134503622464  -43.996153438055494  18.437132128761235  120.000000
5.745  0.000000  0.000000  0.000000  -52.065038770289505  17.710975325906805  16.495498146801  46.83494808302413  12.272671581156967  13.505273143533762  35.03571118240985  55.58431002558405  -44.72693712476621  18.58304608199672  120.000000
5.80245  0.000000  0.000000  0.000000  -50.84677420054809  17.07874033378306  13.985484446708814  46.325181063023415  11.906581573138656  12.488713965593384  36.208608900280645  54.70933980726546  -45.36785173999304  18.87590421623047  120.000000
5.8599  0.000000  0.000000  0.000000  -49.406240022160205  16.275456804438477  10.920901904747735  45.68528098429578  11.476005243153471  11.511772499044477  37.49271904807521  53.40847867550712  -45.81665879131132  19.269030665412217  120.000000
5.91735  0.000000  0.000000  0.000000  -47.78606779609786  15.262212257495781  7.4279840031815265  44.908685710258425  11.038898091453627  10.651955837118312  38.766746405121125  51.65387066149581  -45.99171465541821  19.672978785011875  120.000000
5.9748  0.000000  0.000000  0.000000  -46.027376793776085  14.025614554755553  3.660507194982039  43.99893138108722  10.683315278889246  9.971054206272083  39.93089393679512  49.42800635513626  -45.8583081365881  19.97914174021435  120.000000
6.03225  0.000000  0.000000  0.000000  -44.16942623179154  12.580513358455772  -0.21420279890264696  42.98392951307939  10.511576362485615  9.509492945464832  40.923229694657  46.73618838411373  -45.44265662584258  20.09337004744231  120.000000
6.089700000000001  0.000000  0.000000  0.000000  -42.25658261778611  10.966098692948114  -4.029739786794826  41.918505566542585  10.618097913168366  9.287283631675981  41.732036193642564  43.619247526765044  -44.829133065235844  19.96329367826374  120.000000
6.14715  0.000000  0.000000  0.000000  -40.35058528132102  9.242352355245222  -7.636552106857535  40.87629574120555  11.066012608472748  9.307425921410294  42.405031502057625  40.16511007166316  -44.14575244126257  19.58771543491054  120.000000
6.2046  0.000000  0.000000  0.000000  -38.53504266150689  7.488459756929423  -10.92040299439572  39.9384425538043  11.869652448657053  9.555904482597073  43.05539558096417  36.510259439779404  -43.54943569510567  19.00455401722204  120.000000
6.26205  0.000000  0.000000  0.000000  -36.90870723547397  5.794828055184518  -13.812879289919016  39.17339993286079  12.986457419615672  10.004962867723338  43.860885818301014  32.8200087915007  -43.212990532827654  18.27433600751315  120.000000
6.3195  0.000000  0.000000  0.000000  -35.565680516173465  4.251035793433193  -16.28907143572293  38.61933183489687  14.32730908468741  10.616762830306277  45.04735409163524  29.25674062743818  -43.31068006658639  17.47146038673674  120.000000
6.37695  0.000000  0.000000  0.000000  -34.56691303101271  2.934352024306659  -18.354126936810047  38.28306383628011  15.780439521031738  11.347184736746154  46.85927406866663  25.952735663505223  -44.00371123584611  16.679497295770332  120.000000
6.4344  0.000000  0.000000  0.000000  -33.9249634786314  1.8954493013738811  -20.026442725735162  38.144373849335956  17.23573232031809  12.151598428710424  49.51451325677494  22.99718074009608  -45.421200198539395  15.983872842053783  120.000000
6.49185  0.000000  0.000000  0.000000  -33.6077571960589  1.1548577683711103  -21.328601663808247  38.16445251259871  18.60310172587237  12.98633560491292  53.152692417429215  20.43776807835626  -47.63835925808442  15.45939261727183  120.000000
6.549300000000001  0.000000  0.000000  0.000000  -33.55426083377342  0.7050523698015763  -22.286526097650988  38.295942271647164  19.82043717414028  13.809179755973407  57.79530111264488  18.290490680638218  -50.659559786659365  15.155267048509504  120.000000
6.60675  0.000000  0.000000  0.000000  -33.69097252664389  0.5113269580515085  -22.932039921335612  38.49294035132379  20.854858750242347  14.578186263845167  63.32531905359636  16.55013066178443  -54.40582452139908  15.085933034139526  120.000000
6.6642  0.000000  0.000000  0.000000  -33.94639590645784  0.5208641687778114  -23.302421091854523  38.71331144893014  21.696567284722  15.255364245747485  69.48869613458406  15.191636864945876  -58.704541636458465  15.234812122920175  120.000000
6.72165  0.000000  0.000000  0.000000  -34.260289774342795  0.6747445958576972  -23.43935816603263  38.91995319472746  22.351307092123637  15.809941085970943  75.93168490888054  14.16738170397914  -63.301559093507855  15.563018660206248  120.000000
6.7791  0.000000  0.000000  0.000000  -34.58664828349223  0.9149195375433122  -23.387581275220537  39.088356305159884  22.83297885160088  16.219678077902564  82.28652673942183  13.41218595886083  -67.9182474875662  16.01271528841726  120.000000
6.83655  0.000000  0.000000  0.000000  -34.89049525244247  1.1877135985275127  -23.190409502956776  39.21110947912639  23.156349525946375  16.473641335621718  88.2641488530914  12.855699816506684  -72.32305025814402  16.507380824257773  120.000000
6.894  0.000000  0.000000  0.000000  -35.147551172352635  1.4519595563086087  -22.885163994955757  39.297177520597295  23.33476958240467  16.572511110708646  93.69948889140642  12.436466263556731  -76.3742437900787  16.960056893239667  120.000000
6.95145  0.000000  0.000000  0.000000  -35.34208339195147  1.6834467469898335  -22.50142605680513  39.36690768917306  23.38355697298381  16.525359175093016  98.53487423163489  12.108058479199634  -80.01515455215146  17.291745680762517  120.000000
7.008900000000001  0.000000  0.000000  0.000000  -35.467546655841886  1.870111625001146  -22.059986237706944  39.440435722765265  23.32124108882676  16.34833490420068  102.77982562286446  11.837186131965044  -83.2491455158739  17.45680874186635  120.000000
7.06635  0.000000  0.000000  0.000000  -35.533291050706154  2.0077699914091127  -21.572577624986586  39.52609438956506  23.16650675225416  16.065410060194097  106.47766417927214  11.600289738848092  -86.11803399812909  17.464321688876392  120.000000
7.1238  0.000000  0.000000  0.000000  -35.56154341441996  2.098050617604121  -21.044559794903382  39.62076017085273  22.938560895534145  15.702359904059888  109.68012695032057  11.380536942975233  -88.68045810120901  17.3745511030664  120.000000
7.18125  0.000000  0.000000  0.000000  -35.57651665100923  2.1500672795687374  -20.47893805306951  39.72263970837726  22.659315337788186  15.277835979233295  112.42534646249995  11.169932895536405  -90.98523953026054  17.272591049300416  120.000000
7.2387  0.000000  0.000000  0.000000  -35.59696603286886  2.1781775185970496  -19.878150650130088  39.837044487602824  22.349793298196833  14.804075501746064  114.73045954084927  10.967733043705458  -93.0541343068255  17.233663323067475  120.000000
7.29615  0.000000  0.000000  0.000000  -35.632960885306936  2.193553042059827  -19.243810868412417  39.96844365361147  22.0222422038306  14.295788737388522  116.61735097028665  10.770573019761242  -94.8965094321111  17.29468176958338  120.000000
7.3536  0.000000  0.000000  0.000000  -35.68501056636654  2.202620319245228  -18.57748574658609  40.11726715261895  21.67897094739998  13.772471336574377  118.13270323876269  10.569226952880799  -96.52714555585091  17.448713135448603  120.000000
7.41105  0.000000  0.000000  0.000000  -35.74507681678667  2.2109109080270453  -17.883450717079924  40.286557556415836  21.31926318403414  13.250299874835237  119.33126342115331  10.353769203743223  -97.95823136115712  17.662121467352126  120.000000
7.468500000000001  0.000000  0.000000  0.000000  -35.79944497722377  2.224242688328692  -17.170142940359504  40.483195289456816  20.943419140010775  12.737204613690096  120.26649666659078  10.116557357075054  -99.20073443286114  17.89708400000715  120.000000
7.52595  0.000000  0.000000  0.000000  -35.83791310777088  2.2463205691467363  -16.448032820952037  40.709959949592594  20.551311170493086  12.23686281469907  120.99344924725933  9.85272436240808  -100.27604972274867  18.12738680199381  120.000000
7.5834  0.000000  0.000000  0.000000  -35.858492394940036  2.2776672296783573  -15.727028662590092  40.96178222857857  20.142081352341414  11.752273524682638  121.56874463552514  9.560955800741604  -101.21971331016991  18.343929988777653  120.000000
7.64085  0.000000  0.000000  0.000000  -35.86563889112941  2.3166384833954825  -15.015028116436023  41.228703778796834  19.71546640883865  11.286298262880367  122.04728301417286  9.244141272203006  -102.07613901821378  18.550154380534757  120.000000
7.6983  0.000000  0.000000  0.000000  -35.86664181908739  2.3610255356425034  -14.317625112595543  41.5006694350238  19.27327275591142  10.840575743417851  122.47820125701737  8.909083425313463  -102.89046990692565  18.75367187515209  120.000000
7.75575  0.000000  0.000000  0.000000  -35.86775180763075  2.408895242434212  -13.638445459570624  41.77121607611362  18.819872956337115  10.414485845120968  122.90319462144925  8.565514569398879  -103.70284887018742  18.959547188419965  120.000000
7.8132  0.000000  0.000000  0.000000  -35.87339318646065  2.4573074043033  -12.979043231565111  42.037305351108564  18.361247806049757  10.005980118546763  123.35559628150698  8.224572844080514  -104.54499956406451  19.167432821194748  120.000000
7.87065  0.000000  0.000000  0.000000  -35.88581317524346  2.502513095431246  -12.33900279181696  42.29780861243824  17.903366598291566  9.612770032980189  123.86387175674562  7.897164329614426  -105.44145854956987  19.373268015628994  120.000000
7.928100000000001  0.000000  0.000000  0.000000  -35.90535375333938  2.5405387109612256  -11.716718861513462  42.55330309901996  17.45190166105683  9.231295572725516  124.44647287534418  7.5929511458738  -106.40339380581854  19.57369951248187  120.000000
7.98555  0.000000  0.000000  0.000000  -35.933824260126926  2.56663348771945  -11.109452849236824  42.801836558617616  17.011023716109293  8.857431025090834  125.10824774963851  7.317546658841314  -107.42484514243414  19.770498431913495  120.000000
8.043  0.000000  0.000000  0.000000  -35.97283414942254  2.5783123208703027  -10.513947183369504  43.035181444388186  16.5826037284602  8.486851858695056  125.85332779796757  7.068994189173575  -108.49561989208773  19.972824258191032  120.000000
8.10045  0.000000  0.000000  0.000000  -36.021958121136876  2.578748411801959  -9.928571130982975  43.241546793313915  16.168734899482416  8.111837376451525  126.67048769543955  6.838355810874029  -109.59154050037554  20.194855811947182  120.000000
8.1579  0.000000  0.000000  0.000000  -36.07518796460126  2.573650485819463  -9.355311254012882  43.40505180861673  15.770876019145033  7.724839534913126  127.53944877476886  6.611624233468153  -110.68681490142829  20.44684298575208  120.000000
8.21535  0.000000  0.000000  0.000000  -36.121520254022116  2.5673297569279603  -8.801362481607404  43.50361887525832  15.386794667151712  7.324449237031853  128.43304128074456  6.373078241950105  -111.76223468212818  20.7218281189622  120.000000
8.2728  0.000000  0.000000  0.000000  -36.14717295871961  2.566673908967392  -8.283359552230635  43.51719530806636  15.014197981785939  6.909447762157774  129.2660708316004  6.1101159851476625  -112.75645543986784  20.987521772908842  120.000000
8.33025  0.000000  0.000000  0.000000  -36.139011005485656  2.580519305801455  -7.82832551293274  43.429310454979365  14.653137300534931  6.478161594263575  129.85574679949613  5.817817914622782  -113.52093721890581  21.190267233466002  120.000000
8.3877  0.000000  0.000000  0.000000  -36.08590424016748  2.6094104311375506  -7.467810803958658  43.22674851244465  14.307030694947109  6.0338924796255435  129.88196311046505  5.502858415474345  -113.76599124001639  21.274892772220188  120.000000
8.44515  0.000000  0.000000  0.000000  -35.97508440372659  2.6414217892128193  -7.231144956167572  42.909122404891455  13.984629277330107  5.583668576550155  128.81938326140732  5.189421617929715  -112.97449173489082  21.212857808841395  120.000000
8.502600000000001  0.000000  0.000000  0.000000  -35.79403552179284  2.6518669132138353  -7.137102672644089  42.49021089285904  13.699210864332658  5.1369399574729355  125.94737539636954  4.923045681735819  -110.39873412980788  21.024489121180586  120.000000
8.56005  0.000000  0.000000  0.000000  -35.53933010838413  2.611760213275917  -7.188515862065763  41.99505407831295  13.466418887670121  4.701722806475534  120.55641646346878  4.778622873949342  -105.26832202405645  20.78191991522442  120.000000
8.6175  0.000000  0.000000  0.000000  -35.21910058910554  2.5040997330867487  -7.3754853952813795  41.46603001824652  13.301985296155962  4.277007040561209  112.48812053353706  4.879718117500648  -97.35303651867662  20.58297005334174  120.000000
8.67495  0.000000  0.000000  0.000000  -34.85277916820839  2.3230253577534925  -7.675133795692018  40.95369593308899  13.215549131674655  3.862498611189352  102.94605319050228  5.393687870701781  -87.80602271727388  20.512751468106913  120.000000
8.7324  0.000000  0.000000  0.000000  -34.475098737454246  2.075230423752795  -8.050392143943283  40.497795015108075  13.20670637170361  3.476054151156216  94.23527515616921  6.472055126001041  -78.93259662131895  20.612878386493755  120.000000
8.78985  0.000000  0.000000  0.000000  -34.124724079411045  1.7940639141128867  -8.457852829267422  40.13070659151683  13.276059712281432  3.145198432519239  87.97238881064729  8.194067260536757  -72.40937276677005  20.868035858414682  120.000000
8.8473  0.000000  0.000000  0.000000  -33.83413472011057  1.5433891321093338  -8.850966936711462  39.87036445319044  13.428504095298859  2.9046673872424003  84.31403093981338  10.563232929724295  -68.49582170776577  21.221734636638576  120.000000
8.90475  0.000000  0.000000  0.000000  -33.619896357338575  1.3976381964532651  -9.180033245604749  39.708365709398876  13.66965331101337  2.8000380815622012  82.64989768264617  13.510147553747657  -66.69677560268498  21.599943444278388  120.000000
8.9622  0.000000  0.000000  0.000000  -33.48443793129626  1.4221730407970907  -9.393935435919117  39.62033355343957  14.004499499238229  2.8794505222563624  82.28304072318308  16.905249043065226  -66.41655089740524  21.93537679068661  120.000000
9.01965  0.000000  0.000000  0.000000  -33.42388337725286  1.681941763887711  -9.43976915960392  39.58717375313349  14.4275894334367  3.1900244209694595  82.68821758079896  20.597652655367714  -67.19744821542047  22.18853758466181  120.000000
9.0771  0.000000  0.000000  0.000000  -33.44448314448328  2.2296525260296445  -9.261587005209574  39.60575968624054  14.917485308550884  3.7660724266941523  83.49095486815604  24.45226268394831  -68.69690343381629  22.34852822707174  120.000000
9.13455  0.000000  0.000000  0.000000  -33.57113940001187  3.0896719794208582  -8.801845617511379  39.6906881651271  15.435885256406234  4.618002831485453  84.42002664715903  28.363283411614315  -70.64684661415433  22.41912749402912  120.000000
9.192  0.000000  0.000000  0.000000  -33.83630696923605  4.260317128582752  -8.005394292941805  39.8752640116148  15.930876457511644  5.730653014386424  85.28416652365789  32.25386344391306  -72.83351084002584  22.405635493861755  120.000000
9.24945  0.000000  0.000000  0.000000  -34.270581638560756  5.716538746317258  -6.8206321365294365  40.2093244197472  16.352756186687564  7.059515218331521  85.9425592711402  36.067500803968585  -75.07557634090196  22.306165483911016  120.000000
9.3069  0.000000  0.000000  0.000000  -34.89871049146261  7.4170379431779185  -5.199600473700358  40.74615924023985  16.664722024946204  8.536954983064794  86.29832064032428  39.75658575804418  -77.22261456747654  22.110442653711715  120.000000
9.36435  0.000000  0.000000  0.000000  -35.75000164606015  9.298154562816842  -3.0977351979371295  41.50696498598201  16.838587943344773  10.097199446126332  86.30501124796729  43.27049765953228  -79.16184410946425  21.807756573139738  120.000000
9.421800000000001  0.000000  0.000000  0.000000  -36.85725238448309  11.266149148551348  -0.48502212898514996  42.46959998686814  16.851781839180727  11.68940703613645  85.96800855961119  46.55563494191919  -80.82449953912335  21.398433119176325  120.000000
9.47925  0.000000  0.000000  0.000000  -38.24181505669417  13.204686080817332  2.630445768597282  43.591586087836255  16.695137588576124  13.268575491358517  85.33008585927342  49.56937176401224  -82.18306792435841  20.90413533589362  120.000000
9.5367  0.000000  0.000000  0.000000  -39.89794690001909  14.993246702039135  6.183132658328603  44.82228812585794  16.382247163070407  14.785774867726587  84.45078932644252  52.2826305108484  -83.23876981732118  20.3645869554393  120.000000
9.59415  0.000000  0.000000  0.000000  -41.786410374738594  16.521697012418574  10.04353777592231  46.10015325538795  15.946001866313136  16.18805179400755  83.39132871160861  54.67626190226907  -84.00522568618948  19.825940724652163  120.000000
9.6516  0.000000  0.000000  0.000000  -43.81955987449931  17.70879970385751  14.024018245790321  47.354083877104365  15.428511914277227  17.424345989587884  82.21294039872949  56.737490796169716  -84.49770751743335  19.33031014723492  120.000000
9.70905  0.000000  0.000000  0.000000  -45.85930363998077  18.524915543240247  17.899251791568886  48.51583667295462  14.872097158576036  18.4494981346995  80.98604350034095  58.4595989746799  -84.73235910412107  18.90786785652843  120.000000
9.7665  0.000000  0.000000  0.000000  -47.73767398111069  18.99566198765892  21.435964628801806  49.52958729350896  14.311090243868811  19.226708945789607  79.79241654601105  59.84011819316143  -84.72999656651506  18.57756855102986  120.000000
9.82395  0.000000  0.000000  0.000000  -49.29085648578607  19.19205293413075  24.423446337544323  50.35528083248242  13.769912907893744  19.7271996221841  78.71782263383729  60.8786614551658  -84.5212389696137  18.34958373942129  120.000000
9.8814  0.000000  0.000000  0.000000  -50.387089825820965  19.205933113739963  26.693163105032056  50.96728975159968  13.266895803050518  19.929690000895313  77.83778094755417  61.57648234457239  -84.14774415003478  18.22648182871573  120.000000
9.93885  0.000000  0.000000  0.000000  -50.93897675002013  19.121975818674812  28.125017468463533  51.351500540245674  12.819008336950668  19.82251999798254  77.20521514804007  61.936641117469684  -83.65871187457907  18.19907322251368  120.000000
9.9963  0.000000  0.000000  0.000000  -50.90401130440911  18.99481595635391  28.643938457025094  51.50463055916967  12.443891680240188  19.407422488175918  76.84352577219906  61.96550622702908  -83.10205635162468  18.246398712721454  120.000000
10.05375  0.000000  0.000000  0.000000  -50.28207633934844  18.836693950821996  28.215432955074906  51.43320296352657  12.158625060490051  18.704729954347204  76.74653582983252  61.67229270932412  -82.51089960679711  18.33994961714777  120.000000
10.1112  0.000000  0.000000  0.000000  -49.11762804455765  18.61443993961873  26.84840714443227  51.14998185235189  11.979604695877414  17.754854260328244  76.88050456432606  61.06672671325517  -81.88695913322383  18.44970529545739  120.000000
10.16865  0.000000  0.000000  0.000000  -47.50395121154802  18.25724657755903  24.605911052989565  50.67023018215985  11.925355934121862  16.6174118381935  77.18804492745777  60.15776193830139  -81.18642628200196  18.54824944627394  120.000000
10.2261  0.000000  0.000000  0.000000  -45.58108203886405  17.675659301506457  21.61119526523944  50.010773967044926  12.016695275113467  15.36951454913721  77.59290983265142  58.95443487905359  -80.32091363375451  18.614073254717994  120.000000
10.28355  0.000000  0.000000  0.000000  -43.5217771374671  16.795984987821093  18.03867841277579  49.194466744069  12.275522558530193  14.097759828832432  78.00478464596533  57.4677369585649  -79.17650341628494  18.634187883222047  120.000000
10.341000000000001  0.000000  0.000000  0.000000  -41.50153007864707  15.58957048096822  14.085750254269042  48.25255084037522  12.713826116881497  12.890125539349643  78.32886471695723  55.71109689096185  -77.64581483293428  18.610847554522614  120.000000
10.39845  0.000000  0.000000  0.000000  -39.663832411259456  14.08536488104604  9.937297536644575  47.224787260346126  13.323193075152382  11.826362231981506  78.47784746596385  53.70044549526512  -75.65607868430307  18.5730052032923  120.000000
10.4559  0.000000  0.000000  0.000000  -38.0968345246015  12.360496785021468  5.741859277080399  46.150101416219414  14.069408512139084  10.971157112156604  78.38208178321096  51.45074597476825  -73.1851772280395  18.58113836234742  120.000000
10.51335  0.000000  0.000000  0.000000  -36.83459503811772  10.516551684674672  1.6078669238711214  45.05576724013085  14.90103411339728  10.368177326315307  77.99032284551421  48.97414720617008  -70.25649177382394  18.71577622706118  120.000000
10.5708  0.000000  0.000000  0.000000  -35.87217685517158  8.664254636585481  -2.3864560588821906  43.957011508605525  15.767977799656688  10.033607979852828  77.26494655179296  46.28400250452473  -66.92619702275279  19.04986666596253  120.000000
10.62825  0.000000  0.000000  0.000000  -35.18051633497617  6.903751072674419  -6.179523010244582  42.86227854812483  16.633534292267623  9.959795113078663  76.1815951862772  43.399387851020386  -63.2698970989773  19.614638199752548  120.000000
10.6857  0.000000  0.000000  0.000000  -34.714357512863955  5.317770877271165  -9.718109225632684  41.7871721219669  17.47878024148333  10.119658899898404  74.73810653280735  40.349489027837116  -59.377697162742024  20.37858739067586  120.000000
10.74315  0.000000  0.000000  0.000000  -34.41290942057767  3.9606673423855465  -12.955145528760813  40.76849073130068  18.302154203216308  10.4694374827581  72.96487640333373  37.17367628089005  -55.354025845389565  21.255922439827145  120.000000
10.8006  0.000000  0.000000  0.000000  -34.20964732638098  2.845746854660946  -15.847802210030169  39.85053282839735  19.104514394447357  10.965142955253755  70.93441714490407  33.91009488174383  -51.31987301371529  22.136789006444705  120.000000
10.85805  0.000000  0.000000  0.000000  -34.05986748851436  1.9440484207766235  -18.35611273671893  39.05619443192025  19.876721022643544  11.57866710879225  68.74982746008034  30.585657706857134  -47.400138668515154  22.91799652050863  120.000000
10.9155  0.000000  0.000000  0.000000  -33.952191221397136  1.2132007771911049  -20.44866576903413  38.38041664185136  20.60439383541619  12.292426045839303  66.52311080715234  27.221960692475385  -43.70779420061144  23.524259829086688  120.000000
10.97295  0.000000  0.000000  0.000000  -33.88921323233128  0.6315045321725109  -22.113119655790197  37.821588195613934  21.293282728651704  13.06938527107275  64.3487591651394  23.85558927323273  -40.32732108289547  23.907864981278756  120.000000
11.0304  0.000000  0.000000  0.000000  -33.89703869681157  0.19886476096955638  -23.355939321487778  37.38537115827801  21.97702625463191  13.849017783268906  62.288592217212965  20.553825131847294  -37.31156474899508  24.037355682141264  120.000000
11.08785  0.000000  0.000000  0.000000  -34.0170617550131  -0.07604125130407366  -24.197053641403226  37.06741648512928  22.693037453964983  14.578474171142412  60.429934616836995  17.400358408870627  -34.72169010323456  23.88916991566571  120.000000
11.1453  0.000000  0.000000  0.000000  -34.28773493067969  -0.194982552705645  -24.671160653175512  36.84194999253998  23.467516876972663  15.233465907828547  58.97267844137949  14.46865779208703  -32.70855545142571  23.44420811256748  120.000000
11.20275  0.000000  0.000000  0.000000  -34.74021021342755  -0.18230691718157174  -24.8382768889324  36.67564457513164  24.32594587617791  15.807954798045584  58.27167947944038  11.818613842463831  -31.583271684469096  22.67942149962793  120.000000
11.260200000000001  0.000000  0.000000  0.000000  -35.37487612790489  -0.06683349469793406  -24.768625607497896  36.56187478798003  25.28046478280215  16.298123244454356  58.981592194709904  9.491538820641631  -31.96234504579981  21.577126401129394  120.000000
11.31765  0.000000  0.000000  0.000000  -36.178348664601785  0.09088521244637647  -24.518366242837978  36.51524302543433  26.306265877954928  16.70320930423791  62.23419166000686  7.508585058055488  -34.94868290768625  20.124872760326927  120.000000
11.3751  0.000000  0.000000  0.000000  -37.119756511276364  0.21549494460542265  -24.154116688544956  36.55633452797003  27.34164419648139  17.03315203825337  69.92113889419917  5.892683623770839  -42.41120985263668  18.34043718436911  120.000000
11.43255  0.000000  0.000000  0.000000  -38.15448838028724  0.23894442518087297  -23.76469202815828  36.69593268477913  28.303919439409086  17.312741540207135  84.74171307919126  4.727950814740695  -57.02998997367508  16.29541299948338  120.000000
11.49  0.000000  0.000000  0.000000  -39.22637637589224  0.11962365218145227  -23.445149179470683  36.952375194799735  29.109534289221205  17.56381249781737  108.17998395246362  4.254518177115477  -80.26175454781412  14.149843666693563  120.000000
