Simulation
nRows=201
nColumns=15
endheader
time  TH_x TH_y TH_z SC_y  SC_z  SC_x  AC_y  AC_z  AC_x  GH_y  GH_z  GH_yy  EL_x  PS_y
0.0  0.000000  0.000000  0.000000  -41.02050803693333  6.22602390554664  5.263889421023131  35.533814516593566  -11.626756259042931  -11.482195678648221  -121.77592617870681  23.229744716831437  158.99778403066148  26.041007775946962  120.000000
0.05745  0.000000  0.000000  0.000000  -31.965862632467445  9.388031178219329  1.956687838424668  36.278949763403126  0.1274033781280532  -3.8827002738124885  -136.8851056663935  20.36587344181368  167.90422649850458  29.735489280792045  120.000000
0.1149  0.000000  0.000000  0.000000  -46.4695900166477  21.34976957408953  6.176488670214996  39.69811541548338  1.6037996722528691  6.9133872156347795  172.53963714574235  18.600381960104613  -157.91815221621619  20.581103771704907  120.000000
0.17235  0.000000  0.000000  0.000000  -58.44578371333518  22.11561812926243  13.858194152329634  41.47528352876273  1.4720197303011673  6.07002644958039  117.63482974076278  26.029127039104456  -110.82149076782589  21.11432507093492  120.000000
0.2298  0.000000  0.000000  0.000000  -49.153558319838474  5.206232829099248  12.877814086356326  44.727411265302656  1.3892788947333088  -8.014489821699312  74.37220286654996  46.76849349132464  -59.16054221649111  26.15621529934036  120.000000
0.28725  0.000000  0.000000  0.000000  -37.874322070348526  -9.085667873961945  6.990779759506623  46.796200608119776  8.627179038977587  -12.750550825759792  63.79247415775644  66.2570709450939  -57.4763597741351  29.587248792068703  120.000000
0.3447  0.000000  0.000000  0.000000  -39.04799658500827  -0.8792647147696261  -4.256919250196239  57.91976616169352  15.498862110499715  10.397612004186099  66.07488783943676  65.43676398490294  -87.61123111927299  29.84982606689304  120.000000
0.40215  0.000000  0.000000  0.000000  -41.403169364456716  4.523117572107954  -22.400982210621795  69.4144810905494  15.633760150017954  33.659189485252135  67.51977399219378  68.54014461961974  -94.77330566076695  21.89301478268163  120.000000
0.4596  0.000000  0.000000  0.000000  -39.572760219787654  4.016192614103416  -20.029795713922358  71.10638381082418  7.597833041533714  38.033766472059604  72.15751922930811  70.47501690468071  -89.9288795527568  15.327024304073412  120.000000
0.51705  0.000000  0.000000  0.000000  -43.08323446807418  12.901960811327385  -11.759516840676579  70.42847843403605  20.166413429716467  31.61211586038373  70.70261542309864  65.18210590415968  -74.25472784811011  14.003051272829365  120.000000
0.5745  0.000000  0.000000  0.000000  -65.04432558736868  0.4282954642578495  5.582147198880295  70.20699147854216  32.05510461384257  15.310985211075614  83.77484306710367  65.84128292224216  -45.13397930189529  15.043736271825404  120.000000
0.63195  0.000000  0.000000  0.000000  -53.92486407861535  -5.4103199262015425  23.01008538647829  54.819582148683736  10.244907753015235  -11.983632112282354  87.08863288185026  74.29861787530749  -32.56090914973882  22.04279036543838  120.000000
0.6894  0.000000  0.000000  0.000000  -34.54848122095689  6.207566780563713  21.204604530242626  43.18172377728121  -9.247037092395178  -16.40391518139853  68.36266721669517  70.657092948984  -14.310968565418316  28.110055695731678  120.000000
0.74685  0.000000  0.000000  0.000000  -37.602159994888005  -12.545069069721942  23.239810140935397  53.55963274598922  -8.244438700563913  -16.269467914178016  47.043130259985126  62.12164494519534  3.6869973714915996  30.979195464904414  120.000000
0.8043  0.000000  0.000000  0.000000  -47.446843165236665  -15.508938528437112  7.396963128665894  51.43466206879775  14.035878007551263  -27.652187515344764  68.27822312801958  60.284349498379015  -33.47107666982704  27.514525115685903  120.000000
0.86175  0.000000  0.000000  0.000000  -59.64341517219599  8.033140835342314  3.68657984984333  46.262680144133924  28.439493771550698  2.3120777913449615  111.79269392470454  48.833546434164525  -73.44353911361628  18.262829763708503  120.000000
0.9192  0.000000  0.000000  0.000000  -65.48879341686008  17.83292350825698  4.000011476256792  52.73614930754663  13.545244428177092  15.682348744112966  108.4000771575021  35.94985950559368  -63.27801284863219  14.93750086123247  120.000000
0.97665  0.000000  0.000000  0.000000  -53.758575068550876  -5.095388574196853  3.383690716437731  54.57021954357484  -10.8704025594132  -2.188311423092065  59.212111202228975  36.558417711907104  -13.389725996630455  18.794544611815784  120.000000
1.0341  0.000000  0.000000  0.000000  -30.87699572427639  -17.526449882761188  31.607144984220202  71.98496534120505  -24.66458233016794  -2.8082566517597227  12.761993698783836  18.54254529214815  9.446574202860042  17.989967891353224  120.000000
1.09155  0.000000  0.000000  0.000000  -45.625500626870284  8.783047630161596  29.05766071223818  49.00266467670736  -15.136036577724454  -9.466757299362317  157.09720797368774  20.475633667527795  -152.8221107207365  17.969366009708285  120.000000
1.149  0.000000  0.000000  0.000000  -67.96916252618496  26.621577290293793  21.61794094619821  34.12637121206732  -9.555702323887008  -10.005736428222678  102.50206401628769  34.86837325528992  -128.22143155273642  30.433965900979622  120.000000
1.20645  0.000000  0.000000  0.000000  -62.32208317193004  -0.6374686365212675  19.64314230018542  55.05498246724681  -6.805178295025684  -7.3780046901479395  19.516104319685443  44.33423178096648  -46.1618525594805  31.831262048192396  120.000000
1.2639  0.000000  0.000000  0.000000  -45.722823643989805  -14.796799619504808  11.751312720931912  52.07629137779733  1.6492613226767252  -20.14225576378808  -8.030555034047614  71.62186097608433  33.392223111181046  29.613558772690133  120.000000
1.32135  0.000000  0.000000  0.000000  -42.033359567366965  13.664321638871595  27.82122741779685  68.6538003384252  -3.893106148157866  -19.7181903875652  -17.43590221201148  37.41299006288088  63.48998512535772  29.832728242929395  120.000000
1.3788  0.000000  0.000000  0.000000  -70.10605539236082  21.93158871984737  53.77700130425811  69.97348730675272  14.394840770361485  7.961394437059962  -101.52925899960613  29.109389845581912  146.56758007134687  25.410598636550816  120.000000
1.43625  0.000000  0.000000  0.000000  -75.35530656299943  8.113622006642077  2.8427575433883323  43.00082487743182  15.8456327309939  12.384159627180377  -2.3499649671523035  54.18886440947275  51.367767022419685  18.075774329468942  120.000000
1.4937  0.000000  0.000000  0.000000  -58.543988039337655  -0.14472074309773708  -0.5990114793539809  51.009152045983704  4.094841828079258  -10.654426657873737  6.12621135777473  68.04494873869223  29.878389768670264  8.943566120678774  120.000000
1.55115  0.000000  0.000000  0.000000  -29.053450084477866  -1.811062404400535  -2.8979707147706257  29.481400050847554  -5.617760350617106  -5.288702213662706  4.718130174516629  68.25362580852503  47.77943350216842  6.244851192238297  120.000000
1.6086  0.000000  0.000000  0.000000  -43.60564228675209  -1.8088603275774  5.360721505425964  54.152165021040425  -16.73474087824305  -4.993873778644642  1.3412289837371478  61.76771737010017  49.18108358391182  18.163613284934783  120.000000
1.66605  0.000000  0.000000  0.000000  -67.78400372112596  3.2400813446836  41.30682405642006  53.27078800995679  21.1173179893044  -14.610469658726922  -105.5576799573637  30.564947541407193  150.3739069906545  31.7959406459399  120.000000
1.7235  0.000000  0.000000  0.000000  -66.16576861134726  8.894928488953594  11.076779429880666  55.01268794223052  41.103355285323076  23.262690927855218  -118.24376738355859  30.609670974756114  137.62110878790048  32.7593458080668  120.000000
1.78095  0.000000  0.000000  0.000000  -64.64760972357239  3.412849248281345  1.4063323762929205  76.35863875595597  33.242812825817076  24.239599161771608  -140.54564821740996  30.583343200695932  115.38762021614434  32.901578523900845  120.000000
1.8384  0.000000  0.000000  0.000000  -44.438800656019254  -4.843945274128606  -3.697953083131885  33.210755690152844  -2.9813073299138706  -16.80959050106201  92.74958003976454  66.32240166444639  -121.76471067561432  24.57039854896003  120.000000
1.89585  0.000000  0.000000  0.000000  -37.824227528600176  0.8183713005457193  14.590195043362085  40.667546260280226  -15.556572382631641  -14.448777373710701  88.28710845573332  81.88937031433366  -120.35188298304287  5.4562894297954045  120.000000
1.9533  0.000000  0.000000  0.000000  -34.18303392242345  5.803915324493788  29.26245466091357  51.60668733577565  -7.072750833718134  -9.686138368944139  89.49124566931641  81.8546595067596  -119.024932284036  5.327211506419692  120.000000
2.01075  0.000000  0.000000  0.000000  -47.62373899671542  -1.5323971021168117  31.505782847580655  62.25651351538162  -6.3803586896405795  -4.381873495977369  88.31961793765127  81.87499195651233  -120.33134028505557  16.251331327682998  120.000000
2.0682  0.000000  0.000000  0.000000  -65.25182884311745  2.4763221774388855  33.03180295362582  72.22031415828756  8.962308422337978  5.2385162153947205  96.2835498259189  56.53172318225067  -123.75859644726846  22.086675841051658  120.000000
2.1256500000000003  0.000000  0.000000  0.000000  -44.23310202684729  8.174369750036231  -1.2557101333260434  39.38909882245034  -5.156684574633386  -18.0165234590825  101.3435473433061  81.81670443115144  -107.31881322072412  27.104656498820283  120.000000
2.1831  0.000000  0.000000  0.000000  -53.61063923329165  -2.440547994056368  9.799098628366448  39.333801639042804  14.466837285309621  -25.2548822573358  123.12377892405237  81.86229873216219  -85.4771941153086  8.563196294275608  120.000000
2.24055  0.000000  0.000000  0.000000  -48.04625224918792  -0.5938006502543802  -7.331406699037196  43.97425832480077  16.96212273558587  -26.613760492813572  92.42048017366763  84.95520617321598  -47.24386145814031  5.7933197872682465  120.000000
2.298  0.000000  0.000000  0.000000  -20.872577753039938  -0.15909626568107713  -8.786435003721339  25.887869284635045  -9.539619707554305  -12.837571503627109  23.3930483870986  45.12567780194421  -14.891518206669447  32.57057951825904  120.000000
2.3554500000000003  0.000000  0.000000  0.000000  -42.32199622640598  0.9370901699253443  20.376020057449598  58.97579288780512  22.10525996898192  -6.4335325405592885  -147.1632184462893  26.35058811858522  122.21949877384674  24.05226097806406  120.000000
2.4129  0.000000  0.000000  0.000000  -70.49407050934713  1.7539694958512237  15.698067456505886  47.98943378716163  19.43230045047856  -18.416659543734674  133.4600489646397  16.356643939865116  -137.52859335010464  5.612930274161509  120.000000
2.47035  0.000000  0.000000  0.000000  -45.33322659978732  6.163352993211323  -5.94315357876864  37.05235708935044  -2.341423601635311  -18.901306473025723  30.688384204164095  9.223849432940769  -37.843320036282506  15.532351005964712  120.000000
2.5278  0.000000  0.000000  0.000000  -25.451501019832634  -2.1957981560063344  -17.09828116940781  40.228025168230204  22.932275059046454  -5.901522461217487  -129.51132767259972  28.79180649319848  116.75417495698697  33.142515279845945  120.000000
2.5852500000000003  0.000000  0.000000  0.000000  -72.76447916122125  19.141103606870832  0.4856471653138161  45.11423592884934  15.818020447115426  31.85080893752314  -106.46836259112168  30.452206936119747  149.46683663822358  32.9622976841968  120.000000
2.6427  0.000000  0.000000  0.000000  -75.78401829839552  29.350616898450326  4.806475286561463  44.28032958073318  1.8660408955501553  3.889787205145366  132.682643360028  66.90943499698027  -81.49631548396293  10.189786518544148  120.000000
2.70015  0.000000  0.000000  0.000000  -37.0210866011267  5.0212110093411075  2.410343758545604  38.49911317671686  13.8457922149562  -4.773776320513309  113.36799407614896  79.05679732427139  -58.10604879478962  21.58294292633838  120.000000
2.7576  0.000000  0.000000  0.000000  -33.01780584618367  -12.82305363978325  -17.51124919275682  49.37166332478403  31.677841725267434  9.740966363458709  53.70471678882307  94.17676849696693  -30.732033511218805  32.27862718274788  120.000000
2.8150500000000003  0.000000  0.000000  0.000000  -38.86143193171868  8.767656004748119  -25.498716028411746  33.627332172405055  30.554106846996582  23.775911390750462  40.95308967750008  92.84849738801829  -68.162708141761  24.479656023128115  120.000000
2.8725  0.000000  0.000000  0.000000  -62.367086855700784  9.837720909184789  12.387101673933364  56.195835187557115  18.01367031827016  16.172127903861874  87.8160539678007  80.45354005415793  -118.677388282842  16.270422083154536  120.000000
2.92995  0.000000  0.000000  0.000000  -51.21651406283705  -3.953043129395298  22.856753296570965  66.5598683411834  4.34154475992151  -14.896966862905943  89.30428279640954  79.86496763168154  -119.83290208393137  11.737910625024128  120.000000
2.9874  0.000000  0.000000  0.000000  -43.285009413886264  -11.319676636781999  -3.1538636236846065  54.15493480667714  8.921497995238619  -25.738477324995003  89.01154890725539  81.84223052621181  -119.64638066422228  10.809204059191947  120.000000
3.0448500000000003  0.000000  0.000000  0.000000  -24.978857433446343  -14.08930964561422  -30.3369757671283  26.763933755403087  20.363826949318174  -7.515155709515253  97.25844252475837  55.13093911924929  -123.78224021492765  14.980545142633623  120.000000
3.1023  0.000000  0.000000  0.000000  -27.214363135089933  -8.87394238028896  -26.981035150338464  53.155904165043104  16.7299586455441  29.509810740491133  -140.58884620739505  30.333828598248015  116.082037608623  22.206332791264312  120.000000
3.15975  0.000000  0.000000  0.000000  -56.807271355513976  2.3889764614202003  -29.206798625512597  74.8721895529139  44.60247630504511  16.605840738018305  -140.08653258475138  30.599020817368284  115.68713471964632  13.631526272877807  120.000000
3.2172  0.000000  0.000000  0.000000  -41.63575048599804  0.05870542649073998  -26.572519534549166  33.86563302032365  28.68886904976233  9.74842505230883  -63.974416651396666  30.510906609682422  39.58845948666806  27.645496716905857  120.000000
3.2746500000000003  0.000000  0.000000  0.000000  -34.23234701241147  2.0238715286127347  -26.47379218571874  33.0011538509395  0.7004437166905739  7.713607774012362  -20.494806083288747  64.44976665694855  -6.442727289776654  32.840665161489184  120.000000
3.3321  0.000000  0.000000  0.000000  -63.17543084527823  6.421637163238515  -0.27962111748803664  43.29860766648603  21.065812125227644  -15.458428067002666  67.05786996720576  79.7953688144449  -35.024050463827  5.189113376831821  120.000000
3.38955  0.000000  0.000000  0.000000  -55.05874642917031  -0.1860689109573905  8.335855077055161  48.83627676761297  4.1857157269286756  -5.6594980392133305  75.14048814263235  94.55836981802418  -39.73449683995755  6.373732161730731  120.000000
3.447  0.000000  0.000000  0.000000  -32.784773144573535  -5.779409330867441  -20.617879847299278  34.80908838463781  4.410103954602969  -0.12386323707373906  88.12259167244714  80.31358248534434  -117.28288766527032  23.357319854096765  120.000000
3.5044500000000003  0.000000  0.000000  0.000000  -38.4981397366005  4.761616248703628  -11.633934924595144  32.03845399190308  20.453503869909145  -19.766628586411407  90.28814941811626  78.77265518385245  -118.59716254306186  8.338820864777578  120.000000
3.5619  0.000000  0.000000  0.000000  -48.090081369501156  -2.4961478560450363  -0.18492467587595962  45.00097178907351  -13.883987373015087  1.8069455307286608  0.730325696379838  52.35855863207131  45.006052153076126  21.442992834515586  120.000000
3.61935  0.000000  0.000000  0.000000  -34.893506178362976  -14.800179477380611  -5.290933835728823  38.20524953864794  13.300168260340415  -23.956340297671364  -28.009854510300634  17.471401768037985  69.16449586280362  32.707057007450715  120.000000
3.6768  0.000000  0.000000  0.000000  -44.03537870628001  0.5555964591099511  -6.470561988595622  41.17699295580317  17.997542415961092  -16.31299564644373  -175.7562843967526  15.736492104440154  -149.2479479462973  9.937249974228164  120.000000
3.7342500000000003  0.000000  0.000000  0.000000  -31.689505278557284  3.6975577478482027  -5.0185556484783005  30.604684681141904  -20.499196421654165  -6.128259000599911  -58.83583883296581  19.640326105619952  79.69347554535949  11.508208647243704  120.000000
3.7917  0.000000  0.000000  0.000000  -38.5630151115703  -5.874719514586319  -10.45918460296242  43.629242189594386  22.795899952472944  -5.417535102979274  173.23727226773212  15.605372384267344  163.27299834475875  8.547992288077204  120.000000
3.84915  0.000000  0.000000  0.000000  -67.71666307429724  -1.6262666137398396  0.2793083063408788  56.333505790848  37.47447463988663  17.373777608859672  -144.28624210309346  26.104775315897868  120.36467565523526  7.57066821469671  120.000000
3.9066  0.000000  0.000000  0.000000  -47.3519531217394  11.994472928368262  -13.178056627795176  42.47430860485445  34.83421808717536  28.47108044630265  -142.07074318163086  25.572014283760332  118.38132146616229  22.49826957382206  120.000000
3.9640500000000003  0.000000  0.000000  0.000000  -29.364143939344576  13.990494544824923  -19.80103076164401  24.329310920286147  29.822701041108758  28.261735401242905  -141.0809503143652  19.242440055915033  117.73737659821593  32.53478254795371  120.000000
4.0215  0.000000  0.000000  0.000000  -40.157019423111564  12.423551305553833  -22.664687726299434  40.84334080366399  27.038524858032236  31.928375572316465  -33.79114611296462  19.10687882921399  14.711249726328928  31.96450367585715  120.000000
4.07895  0.000000  0.000000  0.000000  -56.66498330951084  5.008528101032552  3.1511334048159023  52.278157189927754  36.45927467614888  17.634981148128453  142.84647942033828  21.002822288078402  -161.97859318190353  19.99009031339839  120.000000
4.1364  0.000000  0.000000  0.000000  -25.517561289864496  1.7281614406834642  -15.628897528755445  35.15744850552471  2.5799385990971437  -1.5360140602349983  96.41821720031622  77.00132224645428  -113.78344915521876  24.541692076609042  120.000000
4.19385  0.000000  0.000000  0.000000  -48.722825734324  16.27459084375176  2.6910663292430943  36.03021251071817  -11.105216655971594  0.6291282014878585  114.61694940268457  80.36374351243533  -94.46477464371932  15.098282027427523  120.000000
4.2513000000000005  0.000000  0.000000  0.000000  -68.52835655864325  3.7402921748836158  23.065138120152444  65.75224828973859  1.5403228440784007  0.4432669311450765  29.484254670521494  14.836597094442485  -35.39122651831388  6.117447111704482  120.000000
4.30875  0.000000  0.000000  0.000000  -31.25518193407759  2.2247130346338095  -27.084660320184078  49.5532687251342  28.28031231740202  29.830401471274165  -27.284748453694686  71.68554798667077  14.386384481746433  33.13139373223224  120.000000
4.3662  0.000000  0.000000  0.000000  -33.94426075041119  14.668543964413244  -24.06605975456534  23.859574395061383  33.35664372514942  31.195868103003953  2.549134081452462  68.29925949473598  -28.448757434646343  23.96612376649261  120.000000
4.42365  0.000000  0.000000  0.000000  -65.14476799915143  5.002174852123251  -27.35338518787961  40.64538019071042  27.875815352717712  11.541154440469404  34.71516160012233  108.5023155199108  -62.26197219644472  5.576188914429816  120.000000
4.4811  0.000000  0.000000  0.000000  -62.92072251383061  -9.730183709660452  8.19308253775286  57.50765718453488  15.657580280273647  -3.8335763863515298  22.40770600220459  70.39632669544872  -19.1754435138544  11.71897650940827  120.000000
4.53855  0.000000  0.000000  0.000000  -29.28491899427105  -3.7891913404399324  -9.876908718967423  35.80145680158043  18.385599130235242  -23.584787956193274  -19.432929352429998  69.96329129840854  21.755569955056433  11.712268806573768  120.000000
4.596  0.000000  0.000000  0.000000  -45.48550363350392  2.78583911033025  -18.940529525025404  30.547082335269288  22.421844903010204  -14.11969358648736  5.847158171213975  69.07625999873561  41.5837490287621  6.925349707237764  120.000000
4.65345  0.000000  0.000000  0.000000  -71.25806832241331  -4.919185792069535  14.38929028434357  63.41549684748252  23.506465794675297  -1.7464877017645428  4.703263486672273  68.03725952988864  36.609480023445656  15.340099820721033  120.000000
4.7109000000000005  0.000000  0.000000  0.000000  -32.69269900468579  -2.99819969308013  17.18021780190869  54.49182568308181  5.8367788065900905  -11.358685338868888  -33.08211464346145  62.711399237020586  11.662831787915112  32.240209496854455  120.000000
4.76835  0.000000  0.000000  0.000000  -20.19257116003448  -5.8335734412617155  -26.510984104053723  28.14483616295297  8.90533431239784  1.1959525819645052  22.768333058958724  66.83321390347221  10.354674905225144  12.193493277442343  120.000000
4.8258  0.000000  0.000000  0.000000  -50.54374179073021  6.73149859213167  -25.849111403266427  56.90731081981282  10.873034426041473  29.672481466058084  27.803300701171825  61.678109999037105  -5.938671773114549  6.669002280848548  120.000000
4.88325  0.000000  0.000000  0.000000  -58.88426989660918  15.211740768388783  13.333584706485748  77.13942523654339  35.42456713920859  21.7103927952329  -106.23871702979892  21.06217171668211  127.95404326244753  7.661401700416828  120.000000
4.9407  0.000000  0.000000  0.000000  -17.099938422364477  1.8299671208690391  -25.42031149753277  25.00199916885064  -21.29219026162243  -1.5963339651870145  19.541841817031685  66.51772068627528  27.484294974153404  12.683245809630195  120.000000
4.99815  0.000000  0.000000  0.000000  -52.62473499146585  -7.2541251854159245  23.640892573924248  64.56232349632671  -18.458582696629062  -2.7338555911688283  -33.96425456822962  43.640803509106206  33.96113233859402  23.611057531579938  120.000000
5.0556  0.000000  0.000000  0.000000  -78.14167575658124  24.914710558346126  11.76706517109609  49.799974807953745  17.71795802068376  11.695974517865986  165.13622015624892  22.56506336191982  -124.8831428733277  5.246785035634682  120.000000
5.11305  0.000000  0.000000  0.000000  -19.67498345991921  32.81255884905437  -22.007934587880893  37.381439651449995  -11.312176300867534  28.299403189979348  -95.6471095730874  24.055153172883976  79.66216395210657  5.078819317832768  120.000000
5.1705000000000005  0.000000  0.000000  0.000000  -12.949226116394513  -14.084413659121816  39.65646796814776  43.58504750946891  -5.267085414619113  43.879580556223516  -175.40203833935163  18.899756605454307  152.20588735839263  5.054433560251702  120.000000
5.22795  0.000000  0.000000  0.000000  -17.460029988885285  32.516488741743466  -20.721377789802958  34.317020877565255  -15.186404011301313  21.036148970573027  28.75438300347349  79.2686890183957  -55.86637699777824  5.166066554753954  120.000000
5.2854  0.000000  0.000000  0.000000  -90.21296489106889  30.263255573798528  35.22673179306135  53.85345144752408  13.922495917118967  13.774921925454978  58.099944272226104  44.74249393117892  -15.27527775550763  5.6808261377074665  120.000000
5.34285  0.000000  0.000000  0.000000  -64.0732684821876  -12.688339796874121  36.53999866003176  74.34892301205451  13.514371793760668  8.485004636639028  -9.508854274962257  53.86017984411665  37.584387842973875  5.347432194646901  120.000000
5.4003  0.000000  0.000000  0.000000  -34.600435275649836  29.940987791644783  6.176950593813096  51.1767666447958  5.487292569912398  9.057902151025466  -15.501928185655085  66.11911777783301  -9.236048816360949  14.457581488960065  120.000000
5.45775  0.000000  0.000000  0.000000  -45.66143629481693  16.562537599813172  46.15026184768441  39.98725474786684  1.5366953388137166  12.452287497125793  1.395558677408407  55.00450955029411  11.301987678167027  27.04896291817171  120.000000
5.5152  0.000000  0.000000  0.000000  -49.919490611738944  15.29461038495306  51.087685761312954  66.21693199696841  -7.493706511608076  1.635229261328349  16.32125763138839  44.929906286884595  -40.66675065614688  31.218400921001344  120.000000
5.57265  0.000000  0.000000  0.000000  -75.14873078909004  12.30547320670855  41.70633844824643  51.454012727658686  0.5876584247968081  8.282045358256704  74.51382457537453  67.74055424313815  -88.4061847849147  20.062564875394884  120.000000
5.6301000000000005  0.000000  0.000000  0.000000  -79.2183700864134  14.326239497602513  20.265907743435907  64.21833112111925  29.7013425259077  24.373573158628254  87.10526337376582  72.00016463871326  -108.20758719553393  14.355574388333931  120.000000
5.68755  0.000000  0.000000  0.000000  -41.67859723117015  13.925604641932393  -16.649548413100835  66.11744109723867  12.12257520196926  31.560490897929146  79.69455886156078  78.32089000689139  -100.50191620771857  18.76822766922516  120.000000
5.745  0.000000  0.000000  0.000000  -34.293944918600936  -2.215683496720959  -23.282844469784497  60.48868555931631  -3.696797478714537  32.56254648882803  93.05486111871184  56.03843989230945  -117.84689531941108  20.37363634687694  120.000000
5.80245  0.000000  0.000000  0.000000  -31.84462748474206  -13.946820692778868  -6.7616567013748625  54.16966166205842  -17.73693776280438  8.951854912163311  79.77310432738912  35.287779603078725  -103.3333367557991  22.715909964003682  120.000000
5.8599  0.000000  0.000000  0.000000  -27.60987125673088  -15.31549411540668  -6.706373449263397  40.27911230509344  -21.266215769683356  0.49934526085193426  46.339691556229475  24.606488671748668  -23.249743692822655  28.930459560841708  120.000000
5.91735  0.000000  0.000000  0.000000  -33.136157643870256  -14.465359193045414  -0.11083168226532665  53.83953486218372  -20.694497535755968  4.085667198921217  -17.688981350082813  30.804429066513215  57.01226933528195  30.71986221025192  120.000000
5.9748  0.000000  0.000000  0.000000  -32.71648752237511  -2.2007621943198523  1.4056140544005344  56.76856347909526  -15.51603741071097  14.166487828797612  -33.7091455240011  30.16162801151897  64.99175672608679  32.570330222995395  120.000000
6.03225  0.000000  0.000000  0.000000  -36.546010334516716  5.65379492352348  -8.555891775061362  53.12286561746734  -9.790549741347471  15.255438332966923  27.16072347972021  36.71551685059679  -7.604633371317152  32.209489592474036  120.000000
6.089700000000001  0.000000  0.000000  0.000000  -38.70396371523231  -1.1549236349783059  -21.871491655022318  32.99868684299694  5.0062429452299435  2.0134512630089274  78.1770351518966  86.77480339639293  -25.22981450452887  15.935458800520843  120.000000
6.14715  0.000000  0.000000  0.000000  -26.701991714895616  5.743524178867202  -21.422256026325382  35.88092834768541  4.939442779693219  11.376258677495365  68.52669316700461  90.61067594547346  -15.950183157913308  12.845289498386622  120.000000
6.2046  0.000000  0.000000  0.000000  -33.349189757491196  8.518121204073669  -10.706191858708976  50.670010772742906  15.587801713832123  19.25638453524541  65.81697053736501  41.25256206421087  -61.07771223481137  16.208180708254012  120.000000
6.26205  0.000000  0.000000  0.000000  -44.369033036099694  15.352163656836792  -17.04841201640139  23.645468464998153  18.142273167826115  13.786029874402528  118.53815564425925  72.70914066232075  -91.4599969999012  9.97791789446692  120.000000
6.3195  0.000000  0.000000  0.000000  -58.47879292984832  45.33074501942634  1.1731519806689916  48.20640613945099  12.634642169376116  34.72971582017202  126.74169207831935  53.171330047499964  -94.58093974008776  20.313459308759153  120.000000
6.37695  0.000000  0.000000  0.000000  -69.13635153508112  13.728921046539087  21.332577299986873  79.85900207727589  18.360218493397436  17.764729710190764  98.12263663952007  50.685386632931994  -65.4531001442442  5.4102152900785185  120.000000
6.4344  0.000000  0.000000  0.000000  -46.89087122239545  -20.24320294803061  -3.9117875513887497  53.047731678888  -4.277778358778253  -15.796179214489998  96.63461202293195  83.57511550275402  -44.75113891795124  5.974922565650427  120.000000
6.49185  0.000000  0.000000  0.000000  -33.39632747819194  -2.444029299966334  -7.433522770314863  30.95290294194285  12.836168832268692  -2.8938179612707775  123.54995070209407  79.79377939204053  -72.91074551308968  19.593890211841984  120.000000
6.549300000000001  0.000000  0.000000  0.000000  -70.63037269320809  16.450647708059744  17.91480428431673  59.43312599965039  29.719589982092202  3.872539991536851  130.13387639577013  68.53504665534312  -82.916036481296  18.107394403411334  120.000000
6.60675  0.000000  0.000000  0.000000  -84.53640321994102  6.856280548715386  43.51105549237725  57.17558347986718  5.470490956171834  16.24584719489487  178.97037054663235  19.325647896035132  -146.59300782876707  29.257517854160188  120.000000
6.6642  0.000000  0.000000  0.000000  -54.55413655174007  9.756494877095856  26.246178404061585  64.00278628661461  1.1762512113792503  -6.675893410602297  162.94244447773258  19.15058908028091  -169.89678019272034  32.545129632798336  120.000000
6.72165  0.000000  0.000000  0.000000  -42.690166700032584  1.991781003084431  11.378505171035348  81.18402017177841  -3.7657203548071694  -20.268267204898727  123.28180035278008  31.47809357081339  -122.91783235704034  29.062726434558027  120.000000
6.7791  0.000000  0.000000  0.000000  -45.97489903067078  -0.19206585083511007  7.664526479659666  52.12280146974199  1.4372315020325355  -21.66466787458599  136.24298595631018  44.84031939431898  -93.3583345644469  21.82273594728672  120.000000
6.83655  0.000000  0.000000  0.000000  -43.234029302701934  -0.3967740452068224  2.334582327743908  61.495936144175026  7.49278652261615  -25.886527821933345  121.27340976590563  79.36016620913568  -70.93226812228289  14.495320730408743  120.000000
6.894  0.000000  0.000000  0.000000  -48.71873053305057  -7.430502690156961  25.05402877240121  69.63536186218268  4.461955355649218  -12.146679116836667  129.68017141046982  81.79094019976156  -78.6398557818386  5.907693248713178  120.000000
6.95145  0.000000  0.000000  0.000000  -45.95327358029037  -14.694671138661631  19.375884533525678  57.313628480704025  -22.806792407099962  -9.401359603887316  121.24378967953622  81.80079708164293  -87.25807795251207  12.919556774650369  120.000000
7.008900000000001  0.000000  0.000000  0.000000  -42.92415611473891  12.674612305977165  27.892789935999183  80.58100811432858  -26.959816094787584  -0.21979067102022215  90.69036319353616  76.94843643325764  -118.5598524508257  32.395261640696035  120.000000
7.06635  0.000000  0.000000  0.000000  -68.34211279268385  25.75183270018161  47.35854374805486  71.78074135691631  10.912234710133191  39.98459432051972  130.33062442910938  22.881652431015276  -153.5223266580981  32.75846097539623  120.000000
7.1238  0.000000  0.000000  0.000000  -66.74512397844128  41.79006232472458  23.534494901018775  36.28442493874023  13.744875872919595  36.25907669568842  138.4947338923311  22.410007098403714  -154.019304914036  32.86564432093763  120.000000
7.18125  0.000000  0.000000  0.000000  -40.96939742633704  35.59416567012576  -9.460076660365251  24.90286055095174  26.160461871663955  4.499259070104444  76.19081938167116  78.76835509605806  -104.2889431216966  19.606259151973426  120.000000
7.2387  0.000000  0.000000  0.000000  -50.49024148448159  -4.673459165591329  -7.560968035050259  42.22762260219183  26.387687439118036  -1.8854742825804827  36.426921963348526  104.95206079210683  -69.8691660726974  5.306761984648064  120.000000
7.29615  0.000000  0.000000  0.000000  -64.78438789605696  -4.191460897599318  -0.18145408706836394  58.03997478960507  30.526379991743237  3.965563577182133  35.458540340113245  75.6181404306601  -56.624988836883475  12.660054138268649  120.000000
7.3536  0.000000  0.000000  0.000000  -62.972645767708286  10.617328626714075  23.013114403154976  58.18785987877284  33.22632483555156  27.065930917122447  -122.10659853981322  27.616771340212406  122.87844111228603  20.314350344964296  120.000000
7.41105  0.000000  0.000000  0.000000  -28.846450701240705  14.748272163872604  5.748075633730969  42.32822418441936  14.592310914891355  16.678066522203363  -123.82874854098148  30.18515182905396  130.98897211863326  25.15197801022537  120.000000
7.468500000000001  0.000000  0.000000  0.000000  -43.90758566226022  2.9379210600860066  1.5195976036077568  41.60176621420431  7.528628169526848  -9.984382010774103  66.16683757417987  22.406242376072797  -89.05065825479777  24.072801538264986  120.000000
7.52595  0.000000  0.000000  0.000000  -61.7662086435913  -8.277960138602928  4.025660194746353  43.71317382546811  -1.1739315100033174  -19.86742917026056  86.02716321619245  50.20769319303795  -108.82960036640378  20.070317542809565  120.000000
7.5834  0.000000  0.000000  0.000000  -43.99712561899722  4.543729793201558  -2.305269260790499  41.12388317667824  20.393428223208527  -18.172998119123047  111.92541502668522  81.08689551207154  -95.21834718698324  8.209791768200974  120.000000
7.64085  0.000000  0.000000  0.000000  -42.384965620867234  12.705972318620926  -4.741462634007592  31.482751592626787  15.831579971832255  -4.851868295535062  120.16789165627024  73.62896728820208  -84.4045890688089  5.442012885653643  120.000000
7.6983  0.000000  0.000000  0.000000  -50.61608898108605  -2.5176420683952014  9.701145604804445  45.41387839323493  -25.20344737551356  -9.42263777824393  54.768520206635976  50.51178651155101  -58.10219986926406  19.666196329629358  120.000000
7.75575  0.000000  0.000000  0.000000  -34.329328812604714  -14.273322962307047  36.12668096327112  69.83477471069776  -24.69173946124088  -3.1851468185480196  -22.559295808166016  64.70943454879989  -3.3644648839772944  31.6730113268981  120.000000
7.8132  0.000000  0.000000  0.000000  -31.061297736762864  11.008724761628866  14.481060542206679  42.71693455752032  -10.224931651728657  -9.004482816621449  19.931917880053287  34.06528593478359  -43.31220353778409  30.95857123497893  120.000000
7.87065  0.000000  0.000000  0.000000  -79.38966256390283  28.090837821265247  31.455198084313672  36.57086134187236  -9.98452757167061  -13.407416648155113  99.24968662895986  55.62181795016465  -120.89374692007408  5.613677148367854  120.000000
7.928100000000001  0.000000  0.000000  0.000000  -63.54176187049417  3.1878351059181163  32.877612322016574  55.26871960910244  -8.51962836123448  -16.27848556097613  140.769356657492  21.101700156774786  -162.07617347498754  11.880081619425498  120.000000
7.98555  0.000000  0.000000  0.000000  -38.595656310929996  -9.092161688013238  28.123574496282316  62.692532280276986  16.012161323738876  -7.086772480085159  -135.8794469242872  28.85237654096214  125.06411187316975  14.454371343965501  120.000000
8.043  0.000000  0.000000  0.000000  -67.7797698591377  19.623645577799802  12.43858647326395  53.409168945741506  29.2212720852253  27.564510359287688  -139.52543175011036  30.30354777871636  116.13846808265028  6.005687878107277  120.000000
8.10045  0.000000  0.000000  0.000000  -42.97557906215306  17.29085812685835  -6.168414965967181  35.482282280959836  -9.82209158403382  1.2105498569138078  -35.95271979947879  63.91193009584944  10.07275100643071  32.910167089372635  120.000000
8.1579  0.000000  0.000000  0.000000  -37.38039177023678  -8.1585593726503  -2.5495544256097795  38.82332175838105  14.724895845494572  -24.8604012167689  10.098946871430277  66.16642005528756  33.90599990147198  30.27317651974888  120.000000
8.21535  0.000000  0.000000  0.000000  -39.23320940326597  15.27091303213435  15.005610854423834  45.62342807106724  26.18324305415819  -2.6809731999159614  -65.58441939780289  23.436173736433727  106.33001674892986  28.582452773309463  120.000000
8.2728  0.000000  0.000000  0.000000  -66.71518352587523  36.30320543872866  26.231597886386638  40.14899154962154  0.5927710372734478  25.366808050158212  -126.93381556589873  21.840903970135532  167.60195309859736  31.737383593573647  120.000000
8.33025  0.000000  0.000000  0.000000  -73.00737022512546  11.475399574516867  22.504999386945148  56.90528935100626  4.921983279529943  -1.8120548718778124  128.88214336467607  61.62746267276644  -84.52751506831831  5.6525615103364055  120.000000
8.3877  0.000000  0.000000  0.000000  -32.88651151880038  -14.264387604466783  7.532421100329689  47.532212303310466  -13.6270123996243  -14.27431907135304  91.50256004374222  67.6733472276372  -87.84514872894309  13.32139708115598  120.000000
8.44515  0.000000  0.000000  0.000000  -26.16008304309539  -19.097504950968062  -4.317355044751285  41.90023324537966  -21.001886268747853  -0.8016563280477018  86.11533727747268  46.96458875993104  -105.48825332393712  25.566560127585085  120.000000
8.502600000000001  0.000000  0.000000  0.000000  -33.85272934288376  -4.361716877252677  -10.465486480308787  53.90096136005573  -11.066046120399639  11.510069954077684  82.68859941828144  34.48916675748779  -106.12767223290417  27.171546788995418  120.000000
8.56005  0.000000  0.000000  0.000000  -34.16289104217719  -2.2452232674222876  -14.045079235723012  47.72225926199116  -14.963659306065793  16.51043011521152  33.199858735857376  40.445548339278005  -44.63743160546205  32.72034367390905  120.000000
8.6175  0.000000  0.000000  0.000000  -29.936353894107196  -12.651812194252999  1.3682182678789923  41.282479434582335  -18.374127605069795  -11.908621182779976  23.933977364407752  67.84618826903368  -17.571195621871986  27.05176640057316  120.000000
8.67495  0.000000  0.000000  0.000000  -31.563338974048737  -15.187444636404033  -11.490090145839286  37.26772216598327  15.45261872490148  -11.423056171572547  47.635933569195025  76.29977637198475  -10.487797075322456  15.96002240979187  120.000000
8.7324  0.000000  0.000000  0.000000  -58.35514792499548  -1.669058263273924  -18.09415111468572  50.529697539819225  29.45624260071405  14.726859295285333  50.29835519993757  67.0438076942474  -29.298471415785116  7.361411848473139  120.000000
8.78985  0.000000  0.000000  0.000000  -70.14055595023459  9.561787545581211  13.647610855658826  68.93355155610374  27.051118546524634  18.981424243888043  45.53288975546272  15.328543626693893  -38.89118240058793  13.106624758105154  120.000000
8.8473  0.000000  0.000000  0.000000  -45.95207199885942  -6.216889349786096  19.647170880733178  48.41975325165467  23.873423145004445  -5.542906161210001  -24.000471275921317  36.767568018084084  57.692309427619364  32.726551873571054  120.000000
8.90475  0.000000  0.000000  0.000000  -33.93735602369078  0.8816712015491363  -0.11474057319709408  49.66297235748747  7.646999366566293  -11.55059260253924  3.1470764222847105  71.72549197304343  44.663645411689146  31.338076896657082  120.000000
8.9622  0.000000  0.000000  0.000000  -41.648190276781335  13.952820394669669  4.082881364956062  44.6158165498008  -20.321161882898064  3.1117664999769983  30.401901764436982  67.0426504698334  15.813804027048223  22.18824902980063  120.000000
9.01965  0.000000  0.000000  0.000000  -43.007421663047054  -3.4617783282248693  18.584357557502997  51.2297684549376  -23.741342635192844  -3.955784784786457  10.942292369434563  69.47026615663246  -21.081095300639404  32.61862835757271  120.000000
9.0771  0.000000  0.000000  0.000000  -46.56639313757498  -3.2767345445591025  22.75309326747138  58.75769785116939  -23.414061300088367  -2.6658987057352164  18.11154796608463  69.7218771684105  -15.916136465979829  14.602931280131902  120.000000
9.13455  0.000000  0.000000  0.000000  -56.77887371058653  -1.7583913833289588  26.52001273278601  77.00770336818692  -5.795588947116463  10.302126939616732  35.193173165579594  44.807807117740694  -9.80466995664436  5.309680374603313  120.000000
9.192  0.000000  0.000000  0.000000  -49.61821981365946  -3.10387735126483  1.8278273564890926  61.42111993753102  29.49962728613009  1.7486347468393952  29.813199064541763  52.076026728514165  11.925671173459499  16.842561422570096  120.000000
9.24945  0.000000  0.000000  0.000000  -32.31410266390604  -0.0862179294794679  -27.92996732517847  39.032972888449116  11.255197595294753  17.784984376236828  -0.555491233112829  70.73471709630252  40.521886013536886  26.776177333611123  120.000000
9.3069  0.000000  0.000000  0.000000  -48.01245589416602  19.145498627669298  -17.607634305766524  29.935385445336372  33.96201281426864  29.106814863402587  -114.54063535929518  30.173984633208867  141.4361447102094  9.484868735721479  120.000000
9.36435  0.000000  0.000000  0.000000  -38.65202300366313  30.51956978844989  -6.89834085277079  30.69221918366233  23.08611536628292  33.81209448388422  -127.26204722495333  29.37337972370044  130.44897476789444  31.257075885638315  120.000000
9.421800000000001  0.000000  0.000000  0.000000  -55.936383480290594  33.46888299542288  16.904650185101453  31.541391297754444  -9.217598104894748  -16.167609724558627  133.97822503670585  23.53357367764031  -125.8021404329848  24.016348027819955  120.000000
9.47925  0.000000  0.000000  0.000000  -63.15371812874675  -21.452798204253806  13.067802283414622  63.644499251708915  1.968895438883906  -8.379095485969394  -140.58596467844666  25.976052445377725  117.65492885142856  5.110274226171663  120.000000
9.5367  0.000000  0.000000  0.000000  -22.052922035523853  -17.587097367894227  3.7604053566207445  62.15100059279777  -18.99795173686392  -7.157626303874447  137.65523066370665  23.403074744035724  -144.18373663721522  5.222070848078378  120.000000
9.59415  0.000000  0.000000  0.000000  -64.06789571881923  24.611316483423042  18.707680868748763  65.79481389505516  8.76489013451173  34.985358317319225  96.90178263209854  57.63072782082913  -122.14359410129127  5.101096099858483  120.000000
9.6516  0.000000  0.000000  0.000000  -52.76696690731282  9.07957915624245  -16.640459428349573  78.03847499306075  6.730108530820667  30.950250113615667  99.76192154243171  81.82651615809489  -108.53076331039834  5.0671436895251665  120.000000
9.70905  0.000000  0.000000  0.000000  -42.72932418709802  14.612585342428723  -5.815184912409514  76.69216823634929  16.82849499839193  36.852368705093006  93.5113180054737  70.23526172758162  -119.27208828851703  33.26506731584958  120.000000
9.7665  0.000000  0.000000  0.000000  -79.94140342837792  2.0534010174106654  55.613070541540516  62.39891947181113  36.923161306071776  17.89552777121991  109.01917799555461  74.30902176351313  -102.16814992713468  5.038012486203958  120.000000
9.82395  0.000000  0.000000  0.000000  -16.453856807923565  6.310140253995496  -9.00571771705825  45.59515031510828  -10.53061225468514  -11.031505334758346  42.324930857734834  41.95523855537115  -65.85391363426972  7.140868378210182  120.000000
9.8814  0.000000  0.000000  0.000000  -76.96930204349695  -18.62918508265962  33.28502288110458  62.33496626948249  10.361528350933217  -18.63323128913152  59.33941417791407  16.958890738903552  -82.20443690091908  5.036926170750417  120.000000
9.93885  0.000000  0.000000  0.000000  -31.92389682624336  -17.52914594019528  -12.888038048727308  63.86128572014015  -6.1123700053178665  -12.533071560360566  72.69289976724365  16.813519416488138  -60.46747649395057  7.021058910043113  120.000000
9.9963  0.000000  0.000000  0.000000  -21.851661981606018  -15.330727556288764  -30.70067029476695  40.331805521128175  -7.899348153502346  40.18610362236265  -115.16701703898721  30.631601399246346  140.6849816378166  5.036220139325728  120.000000
10.05375  0.000000  0.000000  0.000000  -49.76506793604325  29.22174640578278  57.71354434445097  51.67518556913507  -3.5425608450391812  39.70509546106526  10.91175885042553  21.48409672829649  -33.53119767106881  10.402577120491554  120.000000
10.1112  0.000000  0.000000  0.000000  -48.78427498383647  29.084221655835513  59.480732702365614  56.008182521751465  -7.014046756522376  31.352886789181483  15.218012807638473  30.24734727946302  -38.56232271658341  5.036422696980067  120.000000
10.16865  0.000000  0.000000  0.000000  -21.87450240352142  -15.290134190121533  -30.89347216464175  30.88013565778302  -10.366943054836513  43.22617676940372  -117.20137187784825  30.631712869186906  138.65238442232948  5.037318708470088  120.000000
10.2261  0.000000  0.000000  0.000000  -34.69670182799052  -17.162165913767573  -13.476914569805805  83.45674749091232  -22.83039494383844  5.269680559595671  4.072437430943368  27.210087174119  -4.0502907372263435  8.60501214588419  120.000000
10.28355  0.000000  0.000000  0.000000  -76.00371181345055  -17.628399367562594  38.80205141640143  63.144274432206984  5.080474843065304  -10.28343837483337  142.54526351490975  20.8211228869788  -165.31665441113546  5.055403841016121  120.000000
10.341000000000001  0.000000  0.000000  0.000000  -14.98218243713402  12.744808296704257  -20.79174279887224  53.71221074245645  -17.39510307955521  1.8916264020539166  32.28072397285896  38.973769006061985  -56.02624078059969  18.82484732636688  120.000000
10.39845  0.000000  0.000000  0.000000  -85.03771068011625  1.7817579993349268  44.67339763693732  78.9892737418589  26.64708055190433  28.21377340875168  119.13840054482041  74.14410257849617  -92.10055357272728  5.052365700249877  120.000000
10.4559  0.000000  0.000000  0.000000  -47.2150407989029  31.806487781114882  52.662053296059064  53.95700954977034  2.084245914853956  42.53394288819959  113.52657586769905  81.90119383338632  -95.13972758667059  33.13467241246668  120.000000
10.51335  0.000000  0.000000  0.000000  -55.98466422923457  20.81880389404062  44.90991020137665  71.42080343758555  -18.650767427570745  8.08487305370784  88.62709809304901  79.4215194563834  -77.86813177076053  5.6599979761283885  120.000000
10.5708  0.000000  0.000000  0.000000  -76.9381913244694  0.45990952042066724  15.906584058613225  67.8389214580355  12.318913763310475  14.767772934343794  102.63907405881737  38.82735260257739  -125.19000366212838  6.347467370671463  120.000000
10.62825  0.000000  0.000000  0.000000  -27.734091539356818  3.3221238330933343  -8.168844651019826  29.05549694880174  10.429114732393865  -18.319577417000954  103.63282883497176  69.30962826001718  -67.25789347158043  17.509034812576566  120.000000
10.6857  0.000000  0.000000  0.000000  -39.852033999997936  12.782704939301171  12.94662266785236  48.797750541342914  22.0810959782505  15.428282663644627  162.81234315262583  10.512613677409133  -171.6983834050903  29.76248195431848  120.000000
10.74315  0.000000  0.000000  0.000000  -56.382321230212476  5.451480453462359  10.55586411778607  48.42788492295917  15.568577176767713  3.620456537058216  44.06832121282401  35.21275876152159  -66.32913129765625  17.637437588984056  120.000000
10.8006  0.000000  0.000000  0.000000  -69.89131296995642  12.381137057680133  4.362801660093241  47.490100001732394  5.74141699180236  3.847550058224845  40.50037139111624  54.36388400790099  -44.716062286650164  22.58031287746647  120.000000
10.85805  0.000000  0.000000  0.000000  -66.01417488272162  16.854648683973785  13.494290748065538  42.55743796364858  -1.6074363743816118  -1.1845384780511459  31.05328723331936  37.45770965061686  -17.563283518280016  29.027344033990637  120.000000
10.9155  0.000000  0.000000  0.000000  -50.209685139763785  7.993026181661871  9.771440104337168  44.12695837668771  -1.8994419958394724  -4.681379708367735  0.9475357586729305  40.74990940403575  -2.2697574224170154  29.905789391981227  120.000000
10.97295  0.000000  0.000000  0.000000  -46.172467686711705  -2.0934139445047575  2.0552010450080425  48.26235673871521  -5.7430820334193005  -2.3946076883504532  -3.2879842031410718  57.08835325174278  -5.470045802816386  24.986042732845128  120.000000
11.0304  0.000000  0.000000  0.000000  -46.28945676497132  -1.8461525875903417  -1.4292691792750691  51.70488675448762  -8.157813694865172  4.833155720857108  -3.170904624097568  52.271131761476404  -7.99011592965629  24.292230332205722  120.000000
11.08785  0.000000  0.000000  0.000000  -45.126871255275034  -0.7205819117064002  -0.6525395036252222  55.28117850107068  -8.489407134644877  8.475489506283983  -5.278488563425846  42.63251370530885  -1.8870223348209234  24.067778672196447  120.000000
11.1453  0.000000  0.000000  0.000000  -44.69779771866971  -2.087655676739115  -2.9406509778456478  56.238417944527896  -7.729779206183547  10.597059658320697  1.0393204027669367  40.184981613488496  -5.117752215574514  24.338615782544572  120.000000
11.20275  0.000000  0.000000  0.000000  -43.018045916833515  -2.1485521153327687  -5.021046966424759  57.44260111433557  -7.034197854555722  12.927320159971327  5.219011653080946  37.679547809985664  -11.549040493058179  25.887719860627875  120.000000
11.260200000000001  0.000000  0.000000  0.000000  -42.49555924170957  -2.510258071160604  -5.685565456209186  58.69538963055253  -6.747113331612094  14.968743979708789  7.68021469613885  36.06172421004267  -12.802754754857974  25.802238057239173  120.000000
11.31765  0.000000  0.000000  0.000000  -41.87525467911663  -2.745829369869887  -5.765650470001185  59.72453082143551  -6.977605745143879  15.643183684705848  10.512643025612588  34.10121066429514  -16.50962206511749  26.026861694269314  120.000000
11.3751  0.000000  0.000000  0.000000  -40.380440093274125  -3.1532205667084265  -6.468284736761572  60.172091715995556  -6.757901415556889  17.070177258849174  8.673345003216058  30.273476537540763  -15.230441299584664  26.247917713070635  120.000000
11.43255  0.000000  0.000000  0.000000  -38.24058823830824  -5.3562092392938165  -8.323433659876429  60.469545108386725  -6.658354150045593  17.357517552777406  5.221221960847987  26.92068199476437  -12.778981804341896  24.520844386058336  120.000000
11.49  0.000000  0.000000  0.000000  -35.58807115843325  -7.6664510160336015  -13.401760947852507  59.3661439884647  -5.168704412060043  19.38198344719021  7.8216176344954365  22.024506708013163  -17.152685962569457  12.820991770363177  120.000000
