Simulation
nRows=201
nColumns=15
endheader
time  TH_x TH_y TH_z SC_y  SC_z  SC_x  AC_y  AC_z  AC_x  GH_y  GH_z  GH_yy  EL_x  PS_y
0.0  0.000000  0.000000  0.000000  -40.97484877243665  6.293857566463187  5.290427962726946  38.477736873227826  -1.9184779452811103  -7.894534200614513  109.64652646728234  6.957487739762392  -77.94877758834265  22.65697905942602  120.000000
0.05745  0.000000  0.000000  0.000000  -39.1560750995173  5.135446616650096  4.2296113373330755  39.7383776877804  -2.3660947396498497  -6.486696855847561  62.57850156859607  5.915375199118966  -34.46336166924304  22.10199373127581  120.000000
0.1149  0.000000  0.000000  0.000000  -37.330351653877834  3.8900785180464332  2.9868485049105047  41.11854580312082  -2.955316895986747  -4.966763573072729  25.315915347737683  8.53854013223404  -0.7347493961329071  21.722007783996034  120.000000
0.17235  0.000000  0.000000  0.000000  -35.63942997411322  2.443810707440116  1.6092282858267906  42.662926660853394  -3.778205155428458  -3.2680042442401027  7.240025755535466  12.963128160787198  13.87605173079418  21.59667869826296  120.000000
0.2298  0.000000  0.000000  0.000000  -34.273389737471376  0.6713856302391205  0.17926470942795508  44.47660174871242  -4.940051025546814  -1.3266410052093132  -2.870447591969538  18.401209061745924  20.61917696192925  21.740113939435545  120.000000
0.28725  0.000000  0.000000  0.000000  -33.28749053403645  -1.4637844316235131  -1.2177651367648223  46.57656141121082  -6.530398451613189  0.8444276171731855  -9.674810030891052  24.724260359296412  24.19372187127922  22.097563152064982  120.000000
0.3447  0.000000  0.000000  0.000000  -32.66109949504117  -3.859388449441729  -2.4831850621255844  48.790794664429484  -8.583337019649072  3.1760942636414202  -14.838560125660452  31.787600144504463  26.237302617540696  22.56303800856987  120.000000
0.40215  0.000000  0.000000  0.000000  -32.33225209003919  -6.314266030133881  -3.5813337329147257  50.8504278788305  -10.942339109071803  5.581944239271579  -18.927213855073028  39.25439309220172  27.225799219543422  22.992542993466  120.000000
0.4596  0.000000  0.000000  0.000000  -32.198606825567246  -8.530100598985708  -4.586271641388366  52.564231228471385  -13.21324773041086  7.984802396197337  -22.0235436988836  46.58132304767582  27.21118860406745  23.282493059370267  120.000000
0.51705  0.000000  0.000000  0.000000  -32.20682751094509  -10.17626099845655  -5.57432805018603  53.896708952165284  -14.909570534369527  10.245471372769188  -24.034109416986574  53.19409907039427  26.147708086975122  23.4004963094962  120.000000
0.5745  0.000000  0.000000  0.000000  -32.30880056093896  -11.052556300838692  -6.537665195319736  54.94481494563877  -15.647914875922732  12.174656623124667  -25.001313945807286  58.73965078678935  24.1552718104394  23.331762310091996  120.000000
0.63195  0.000000  0.000000  0.000000  -32.53034677583285  -11.09398928675032  -7.442172312903568  55.91198311211555  -15.251680228540256  13.758546432130633  -25.246387880547232  63.17581918538901  21.63163345267474  23.08526508190837  120.000000
0.6894  0.000000  0.000000  0.000000  -32.98242119804501  -10.327192200522322  -8.255339564389182  57.05269334489716  -13.734154257462167  15.200318257640973  -25.333125970909435  66.66000300643876  19.23523796936221  22.718881159951554  120.000000
0.74685  0.000000  0.000000  0.000000  -33.80549811170617  -8.810265915972222  -8.964662792998825  58.5237299691214  -11.207379768507241  16.733306969591244  -25.634341095763688  69.2674851585943  17.3792502593745  22.290396518565878  120.000000
0.8043  0.000000  0.000000  0.000000  -35.056093119890534  -6.605315906025403  -9.576478544743651  60.26054153491744  -7.8276673564509585  18.446279521507723  -26.124185864214635  70.91425908566708  15.975026506995137  21.828813759327634  120.000000
0.86175  0.000000  0.000000  0.000000  -36.57278992097468  -3.8996520435935618  -10.068611493382743  62.08256630352263  -3.7958475482255665  20.312704253463064  -26.791944273596215  71.65003452895486  14.914357975445423  21.359858168699375  120.000000
0.9192  0.000000  0.000000  0.000000  -38.11447358940978  -1.0258828889021254  -10.44830377487079  63.77238214170508  0.6195883975447439  22.228326389674265  -27.584940238660973  71.80549128303473  14.039535385182068  20.904694158929406  120.000000
0.97665  0.000000  0.000000  0.000000  -39.53661332815458  1.7328990086938274  -10.754390848543267  65.11409763325206  5.14046577312831  24.019962050299526  -28.22290940482371  71.69173835464849  12.985486093046271  20.459124675018888  120.000000
1.0341  0.000000  0.000000  0.000000  -40.80530110006624  4.2555071962032  -10.944249262865045  65.98396914520745  9.57348147767611  25.55916047135325  -28.48558224449214  71.38331020566434  11.56635063919725  20.02465974981527  120.000000
1.09155  0.000000  0.000000  0.000000  -41.943690686249006  6.482119226444397  -10.927926345278276  66.35943115713083  13.758900959426242  26.811832728829284  -28.33572941107542  70.91745035365564  9.88392388714709  19.611972940235276  120.000000
1.149  0.000000  0.000000  0.000000  -43.002769449203306  8.365447636345671  -10.627226223735866  66.30417930916903  17.527967769308813  27.799516672755313  -27.837259510458143  70.38568542211232  8.146583153601268  19.22174785963448  120.000000
1.20645  0.000000  0.000000  0.000000  -44.029622539495094  9.883918803761334  -9.985569409256438  65.94142634658911  20.72990631984563  28.555633797607204  -27.095418063485628  69.8728671489077  6.558417220458997  18.84899988109997  120.000000
1.2639  0.000000  0.000000  0.000000  -45.04880339897653  11.046324250301922  -8.98913451805449  65.42313665998407  23.263970461824826  29.098615791893067  -26.21826466384254  69.4293439466201  5.252762979620972  18.490776680855568  120.000000
1.32135  0.000000  0.000000  0.000000  -46.053991030164404  11.88550246923997  -7.691102104305423  64.8923502514386  25.101217341153387  29.43455807325796  -25.297700396058712  69.07096633446729  4.270954335091256  18.151928219676343  120.000000
1.3788  0.000000  0.000000  0.000000  -47.003115263920954  12.4497310367896  -6.222849093171639  64.45481457908286  26.289422063975778  29.576980174107245  -24.412053123818957  68.7927097857621  3.576543105847901  17.84405075936222  120.000000
1.43625  0.000000  0.000000  0.000000  -47.82329536091748  12.799825105151678  -4.783948228834812  64.16654996160635  26.939743463463618  29.572558230737954  -23.63401428114476  68.58301438859138  3.09365339714265  17.58162109306168  120.000000
1.4937  0.000000  0.000000  0.000000  -48.42880969827842  13.010831779924262  -3.6183766233383112  64.04243959654467  27.203307005630492  29.51381417240197  -23.040790638926694  68.43311399707422  2.743031958820847  17.374538253143182  120.000000
1.55115  0.000000  0.000000  0.000000  -48.74568623872478  13.151631602868006  -2.9482577569273825  64.07639495597938  27.21628962647625  29.503484530874367  -22.703046057385095  68.33871816451862  2.466184467373742  17.227010640245513  120.000000
1.6086  0.000000  0.000000  0.000000  -48.73251835311227  13.247976826744704  -2.8810075078889734  64.26245493788063  27.027077705268177  29.577742640357837  -22.65083893291572  68.29498643781785  2.2279654452105686  17.14540371087246  120.000000
1.66605  0.000000  0.000000  0.000000  -48.391275862867516  13.274901172332848  -3.40054626940555  64.60398089083617  26.598097228627978  29.70728428859575  -22.870006282992776  68.29614461337698  2.0165378439507413  17.135194621102467  120.000000
1.7235  0.000000  0.000000  0.000000  -47.76846029327074  13.179752543634454  -4.4251225379299495  65.10841576249705  25.8670189006939  29.861888429491135  -23.324919232201747  68.33835360283088  1.8419054914879909  17.189523964118578  120.000000
1.78095  0.000000  0.000000  0.000000  -46.94437540787527  12.895651978912394  -5.832110917315833  65.77313512128288  24.778200927179345  30.03046239177482  -23.965585899065722  68.41962494103369  1.7314088295768193  17.286010379981523  120.000000
1.8384  0.000000  0.000000  0.000000  -46.01421370115375  12.34541597928923  -7.46376225342819  66.56738805254263  23.287566871862378  30.206313600590292  -24.7270139251805  68.53773071334831  1.7194821189639193  17.393574674381604  120.000000
1.89585  0.000000  0.000000  0.000000  -45.06803699743517  11.456158986979744  -9.15065772002375  67.42150371834558  21.365351149446578  30.368985556238208  -25.534732914200436  68.6883205645154  1.8343209784655319  17.48028535816031  120.000000
1.9533  0.000000  0.000000  0.000000  -44.173344467037886  10.172220201933385  -10.73647879091175  68.22725897635917  19.00226066980459  30.47583517479518  -26.314677315411455  68.86292249995037  2.082057679048205  17.524516144042654  120.000000
2.01075  0.000000  0.000000  0.000000  -43.354105743531456  8.473046818808937  -12.100002716096318  68.85811512221008  16.215133607790314  30.46180386216519  -27.004172313301947  69.0471169394952  2.4328370626181686  17.520707982892397  120.000000
2.0682  0.000000  0.000000  0.000000  -42.57432392929804  6.374445252070679  -13.160789862897614  69.19668586919028  13.050805494105793  30.25221726287239  -27.56782119205597  69.22136007154992  2.815942879009864  17.47638112269831  120.000000
2.1256500000000003  0.000000  0.000000  0.000000  -41.72952558345855  3.9237118047284856  -13.876994285718636  69.15387804675358  9.575009610886312  29.77606265741197  -28.016165051983428  69.3668978215571  3.1330442100972866  17.39556626085667  120.000000
2.1831  0.000000  0.000000  0.000000  -40.6844689309569  1.2029869434916354  -14.225035685660293  68.67562533401043  5.857277143968642  28.986738864815102  -28.38884956976097  69.4527514696378  3.2863560733658663  17.268484897384784  120.000000
2.24055  0.000000  0.000000  0.000000  -39.36071966000093  -1.6888358880473078  -14.203236355120085  67.75623873779783  1.9372344713543561  27.88576348701798  -28.664677404501894  69.50303132351718  3.181229562873363  17.07126932674047  120.000000
2.298  0.000000  0.000000  0.000000  -37.84741624783486  -4.578488462745319  -13.80221440162408  66.4270605199012  -2.105485681441448  26.492287434441806  -28.747014554838756  69.44437670693279  2.800913965418096  16.786734511045278  120.000000
2.3554500000000003  0.000000  0.000000  0.000000  -36.38518209822384  -7.13048827684978  -12.967726130780195  64.73835323566219  -6.012798329355021  24.745265423569673  -28.57094170765722  68.81472618900392  2.3235372306092663  16.42461849223129  120.000000
2.4129  0.000000  0.000000  0.000000  -35.17868721225123  -9.011778335654078  -11.67889579626848  62.77578122531817  -9.463222406432353  22.53188378933121  -28.107619529581587  67.11496309404633  1.9949405343159625  15.993259535458062  120.000000
2.47035  0.000000  0.000000  0.000000  -34.273313677835894  -10.050250868056693  -9.967128797065648  60.647130334870496  -12.2539833049568  19.81923836153605  -27.31740228865153  64.16226167567258  1.9814130825112628  15.497777778757305  120.000000
2.5278  0.000000  0.000000  0.000000  -33.60143021921442  -10.21053235849525  -7.9117229876452475  58.44175485095343  -14.228011538117658  16.66568936690937  -26.085697398981424  59.92652776767331  2.3499746828320514  14.971126389839545  120.000000
2.5852500000000003  0.000000  0.000000  0.000000  -33.08276408248102  -9.59260085063008  -5.712481742635659  56.213914573320004  -15.145984198310337  13.170124791316573  -24.200267853260605  54.412967422598804  3.043885054260789  14.482805314548873  120.000000
2.6427  0.000000  0.000000  0.000000  -32.69171414161666  -8.358473121512167  -3.6827368308285338  54.00072664117492  -14.848419084827913  9.562647972684465  -21.428076667662957  47.74599845655983  3.875425389234122  14.107756659810438  120.000000
2.70015  0.000000  0.000000  0.000000  -32.474597074153586  -6.678750229084307  -2.159768792016381  51.82310871796127  -13.426391118086329  6.237710583928565  -17.57240589547173  40.30421083472324  4.5352264755334275  13.895887480594894  120.000000
2.7576  0.000000  0.000000  0.000000  -32.498680960877714  -4.770534676444564  -1.4136133130658552  49.70641692271863  -11.125751367269638  3.582394138751615  -12.477646712832003  32.71656114116052  4.602127035477821  13.850587875708687  120.000000
2.8150500000000003  0.000000  0.000000  0.000000  -32.82089817763864  -2.877318962304644  -1.511024794648532  47.71267416613163  -8.264719861742337  1.8061132439753727  -5.936191534094706  25.662887240136637  3.5292725311176545  13.95338812444765  120.000000
2.8725  0.000000  0.000000  0.000000  -33.49198805727347  -1.191575326110549  -2.172050276025239  45.944619255648604  -5.269737285111247  0.8430493069699804  2.5208855800118495  19.65390884935673  0.5033810717739362  14.186173206357203  120.000000
2.92995  0.000000  0.000000  0.000000  -34.490770004289935  0.16614102410816697  -2.9412174192572196  44.488159428423096  -2.5343890056213336  0.40589854907917755  13.590294820413176  14.963253582940068  -5.470643442876778  14.523510192952552  120.000000
2.9874  0.000000  0.000000  0.000000  -35.72691541456472  1.1675639367275736  -3.5453070366254424  43.384490249537194  -0.22507044972005466  0.2387413947404523  27.678657503685997  11.658245654968495  -14.999928644669406  14.934438176552638  120.000000
3.0448500000000003  0.000000  0.000000  0.000000  -37.12010918577134  1.901574231667708  -3.91394561669561  42.629133168744985  1.6395976803200447  0.2146997876536598  44.21198635137561  9.648579002739435  -27.624676381073048  15.386701275989807  120.000000
3.1023  0.000000  0.000000  0.000000  -38.59287557568914  2.4623596587664722  -4.047402828137855  42.17756761000705  3.093049437771063  0.25090104029922117  61.0159472604549  8.703162274012854  -41.20152860108822  15.84835835505818  120.000000
3.15975  0.000000  0.000000  0.000000  -40.059647222170994  2.9021214070130843  -3.9849735931786223  41.96563821694597  4.203054697884763  0.30132364594992045  75.50907563407785  8.465766684759291  -53.11969397176703  16.291427273106365  120.000000
3.2172  0.000000  0.000000  0.000000  -41.44678348916525  3.2505056304042843  -3.7746910920041725  41.92625710914343  5.041688541757054  0.34351836823939247  86.56564567285784  8.593857298176877  -62.182023879360884  16.7011501237734  120.000000
3.2746500000000003  0.000000  0.000000  0.000000  -42.68478924895747  3.5199216810648046  -3.456154761584059  41.987770953761  5.669465912442112  0.35448033484491753  94.43410114067159  8.84703683705975  -68.5230736940056  17.077831259106556  120.000000
3.3321  0.000000  0.000000  0.000000  -43.7145594861785  3.724062323297325  -3.0633007520928923  42.08053063011597  6.130114415266946  0.30712774325826886  99.85680651367251  9.094757758706924  -72.7615118279958  17.432607385373746  120.000000
3.38955  0.000000  0.000000  0.000000  -44.50363855200957  3.878064789594144  -2.6246664156071184  42.150062888494446  6.45050638240842  0.173654710915875  103.47575572041437  9.289465799280553  -75.43828172909615  17.776653589591326  120.000000
3.447  0.000000  0.000000  0.000000  -45.04228989632765  3.9974441018102316  -2.1658529316499098  42.16333772562646  6.63940603060981  -0.05953458628132988  105.70925709298265  9.431891947188728  -76.90798433083833  18.11765448743965  120.000000
3.5044500000000003  0.000000  0.000000  0.000000  -45.33435993225713  4.089658737826598  -1.7116024734042632  42.118871060361585  6.693911602269913  -0.3862194143149852  106.7830577436233  9.542207584489129  -77.37136979085994  18.460232098784026  120.000000
3.5619  0.000000  0.000000  0.000000  -45.387318891825494  4.1531349031323135  -1.2861731131417953  42.038677956724165  6.606636939038325  -0.7786522815276561  106.83151966034524  9.63913347974713  -76.97074986535237  18.80820485407876  120.000000
3.61935  0.000000  0.000000  0.000000  -45.21272446597982  4.176136447317711  -0.9103340855769546  41.949096401650344  6.369845775886684  -1.185604932403106  105.96675519678081  9.719131925261035  -75.84617419752699  19.162989396895924  120.000000
3.6768  0.000000  0.000000  0.000000  -44.81398114237807  4.147282881399191  -0.6047664253953909  41.882586789846414  5.980720929214616  -1.542916182770694  104.28480369475425  9.753591120640591  -74.13081963050098  19.526826685586776  120.000000
3.7342500000000003  0.000000  0.000000  0.000000  -44.19413232578078  4.065704817843169  -0.3919997729704983  41.89325220844088  5.442418745493  -1.7830395153962213  101.77140267801133  9.704231058855994  -71.85675981716454  19.90268751684389  120.000000
3.7917  0.000000  0.000000  0.000000  -43.372886426888016  3.933754478898901  -0.28324197317966077  42.04766738449896  4.759272169392688  -1.8497031106010169  98.20978851746388  9.53838396176021  -68.85544253150236  20.289288049111985  120.000000
3.84915  0.000000  0.000000  0.000000  -42.38098888324032  3.7455828160002103  -0.28461260216470596  42.404474753308435  3.945369628405783  -1.6981514696123665  93.16098984952616  9.24155738231821  -64.70932238648666  20.682908001380902  120.000000
3.9066  0.000000  0.000000  0.000000  -41.257517368118414  3.4796806375030194  -0.39979084435287315  42.994578464183206  3.021836410322896  -1.2864645686526124  85.94537622858867  8.835821179839142  -58.71885055211779  21.0798783059578  120.000000
3.9640500000000003  0.000000  0.000000  0.000000  -40.04512095945454  3.1281780041695186  -0.6232516409388174  43.83313278357992  2.0015675979032657  -0.5919370761187102  75.64097579179946  8.423690825750514  -49.897946023307405  21.483002879096283  120.000000
4.0215  0.000000  0.000000  0.000000  -38.79322460275268  2.6787453567047885  -0.9448949817695316  44.92389934554402  0.8971075947857312  0.367944845829607  61.332966442014026  8.242702070659545  -37.24399378972187  21.890878036263068  120.000000
4.07895  0.000000  0.000000  0.000000  -37.57432522478022  2.097523004365207  -1.362502368476919  46.22942325595135  -0.2916028647715094  1.587619312042932  43.5296537267262  8.69448391939079  -21.171624879692104  22.294985241438727  120.000000
4.1364  0.000000  0.000000  0.000000  -36.48038983480308  1.3626225603860562  -1.8858189300342887  47.70830794770895  -1.6079059534686726  3.078046717594215  25.596430823454163  10.230348238911853  -4.971277667738406  22.67920927254304  120.000000
4.19385  0.000000  0.000000  0.000000  -35.58723545028267  0.43701822384256894  -2.5404423444927833  49.34825483159162  -3.0861225503111744  4.82243477506054  11.152595310564084  13.061791901152388  7.800671249946543  23.002247820200964  120.000000
4.2513000000000005  0.000000  0.000000  0.000000  -34.888412778851084  -0.6889928828757008  -3.347050134023352  51.118269246778965  -4.74067822796356  6.822396928456419  0.9277024298265475  17.074151820154395  16.49160264965931  23.233739253579945  120.000000
4.30875  0.000000  0.000000  0.000000  -34.35661940125327  -1.9941839702950994  -4.312376862206085  52.98408649393906  -6.542091992043332  9.110743675278401  -6.0744891861851515  21.997043355701624  22.13328144382099  23.36613356773519  120.000000
4.3662  0.000000  0.000000  0.000000  -34.05548800752428  -3.40874153777123  -5.469541056867631  54.914611787833444  -8.329360835840152  11.73235762242524  -10.822067629512652  27.475186986341583  25.654936172113505  23.40512580819325  120.000000
4.42365  0.000000  0.000000  0.000000  -34.05005155429543  -4.779440559929694  -6.806479012572177  56.88289888354463  -9.820419258295418  14.639738685843476  -13.943674381670617  33.036957512311254  27.62517796142576  23.390125849495487  120.000000
4.4811  0.000000  0.000000  0.000000  -34.28455233541201  -5.914058914276573  -8.178263943417548  58.866854836821865  -10.697584596662654  17.625561494612082  -15.897130289710567  38.16256570724684  28.44213457819227  23.384263159072855  120.000000
4.53855  0.000000  0.000000  0.000000  -34.69849203579432  -6.594338234586698  -9.351889616841067  60.85905484155361  -10.75102697589505  20.40497926003301  -16.959955506933557  42.456010065198406  28.31560712202618  23.445556634153867  120.000000
4.596  0.000000  0.000000  0.000000  -35.38367876829468  -6.607007230762653  -10.087013388624749  62.86345142521137  -9.99600484579721  22.772731800327758  -17.252870746717065  45.75408725991693  27.323536054396957  23.613352805990584  120.000000
4.65345  0.000000  0.000000  0.000000  -36.47789214798519  -5.788575845368374  -10.16567046971585  64.89155702566885  -8.714499893974459  24.72215940965429  -16.882243806853403  48.1464026027883  25.534275357420448  23.876906735805335  120.000000
4.7109000000000005  0.000000  0.000000  0.000000  -37.94706667669017  -4.093342633936857  -9.430932163757486  66.96279951194731  -7.2667546046351275  26.392747500876336  -16.034650468214338  49.8672356506701  23.07317243891035  24.182136257143576  120.000000
4.76835  0.000000  0.000000  0.000000  -39.53614189488657  -1.6516723222507554  -7.819090405093101  69.02307230899004  -5.850168317782355  27.87880281413046  -14.979004367527015  51.11290861914032  20.137080145742512  24.457255740308153  120.000000
4.8258  0.000000  0.000000  0.000000  -40.95048701148216  1.257943024040015  -5.35695883415125  70.93021504147778  -4.549034029125497  29.143897029156637  -14.015689897758763  52.053625269544476  16.950878372749923  24.60851202539763  120.000000
4.88325  0.000000  0.000000  0.000000  -42.08214537672438  4.340911215981231  -2.1621095562359094  72.5456974582564  -3.4546018077810534  30.125358103025434  -13.340853050314708  52.856444293988574  13.703238634331374  24.579776513887015  120.000000
4.9407  0.000000  0.000000  0.000000  -43.03449162870362  7.34714016482255  1.599803722107159  73.80393992662012  -2.642883456004299  30.79149525124671  -12.924180635286964  53.65048996351584  10.47285021350676  24.366242573863527  120.000000
4.99815  0.000000  0.000000  0.000000  -43.97235458082281  10.09189985594626  5.76028716986497  74.70883077643792  -2.1406380700450147  31.14246668074399  -12.606336261921475  54.51731221007565  7.267864853874563  23.98230134237669  120.000000
5.0556  0.000000  0.000000  0.000000  -45.00763111400698  12.48449283912425  10.16168529901142  75.28879880431542  -1.933950051942552  31.210691929331563  -12.252176062783828  55.47512564460898  4.111972012578195  23.45644302759939  120.000000
5.11305  0.000000  0.000000  0.000000  -46.151344748534754  14.508068563202373  14.658643249460056  75.5720598382873  -1.982333241556654  31.050176802739635  -11.819038510113359  56.50140052995235  1.0632663566908753  22.817498245961378  120.000000
5.1705000000000005  0.000000  0.000000  0.000000  -47.34416526194789  16.189028467998643  19.112679672251332  75.59265034026873  -2.2270463464103716  30.726761713181336  -11.341690189937554  57.55716341976576  -1.8009596924821394  22.103052882304212  120.000000
5.22795  0.000000  0.000000  0.000000  -48.51154935650548  17.561937363557444  23.38559625358555  75.39845772878672  -2.5999884654668746  30.30843274912408  -10.881944993148206  58.598941299439495  -4.413498735071901  21.36340031012144  120.000000
5.2854  0.000000  0.000000  0.000000  -49.59151763436662  18.653431328286423  27.333804275272364  75.0553196007887  -3.034999913955377  29.854043305122488  -10.486626415066985  59.588627204683384  -6.7337874758976985  20.65281500504844  120.000000
5.34285  0.000000  0.000000  0.000000  -50.53543659685945  19.48139372324086  30.809033945562096  74.63605243459949  -3.4764244794758024  29.409122416875277  -10.171994667329548  60.4942247988178  -8.747892076332489  20.01611635068675  120.000000
5.4003  0.000000  0.000000  0.000000  -51.30198479289448  20.065902118851398  33.66246411487507  74.21107943971644  -3.8846757965097694  29.002588556168877  -9.925500477917586  61.288428343867615  -10.460154028853244  19.476886263001447  120.000000
5.45775  0.000000  0.000000  0.000000  -51.85158370736114  20.42983753816056  35.75460349240441  73.8388168889623  -4.235668613556065  28.649656000252335  -9.72262824342157  61.94556219766179  -11.881207347997233  19.04004775854319  120.000000
5.5152  0.000000  0.000000  0.000000  -52.1466243669982  20.596155727088234  36.963143894282574  73.56437399466073  -4.517436241352366  28.35514438331031  -9.542437248224742  62.44190110698202  -13.01921605753016  18.70150229057255  120.000000
5.57265  0.000000  0.000000  0.000000  -52.15152441730181  20.57349151149955  37.1926919590944  73.4165058069105  -4.724516470661129  28.12054585935781  -9.381666050521675  62.75558544603834  -13.871806523111252  18.46262069595974  120.000000
5.6301000000000005  0.000000  0.000000  0.000000  -51.837069834778866  20.346322213105847  36.381649934321025  73.4062620466435  -4.853923997321  27.94891785680901  -9.2608614137211  62.868431588374  -14.421495523071455  18.336511022967997  120.000000
5.68755  0.000000  0.000000  0.000000  -51.18695860516333  19.86996704742337  34.512954541711316  73.52260153470779  -4.904587905116958  27.846343026485304  -9.226341522532495  62.76904790872583  -14.627413759444988  18.344973888465237  120.000000
5.745  0.000000  0.000000  0.000000  -50.209630309142646  19.075646691998102  31.62486238179365  73.72870458653608  -4.880940888630518  27.817859810009654  -9.341788459425253  62.4612159262662  -14.421595519197934  18.5041535865808  120.000000
5.80245  0.000000  0.000000  0.000000  -48.95209980244471  17.887239429013967  27.819263445933125  73.96009796432155  -4.800136514330355  27.858579716485814  -9.667436954542767  61.972968248415754  -13.71852114156571  18.803807944584513  120.000000
5.8599  0.000000  0.000000  0.000000  -47.50563778931327  16.23651349612985  23.261450581196286  74.12536910263076  -4.698904910455046  27.945369430787302  -10.2300439506611  61.36291307885222  -12.441576039172967  19.193222658627867  120.000000
5.91735  0.000000  0.000000  0.000000  -45.99903828091676  14.080314149372912  18.167325885113016  74.11565254468533  -4.637130991432  28.030494962627444  -10.995409083693689  60.71376756405991  -10.561148191647561  19.587573429172014  120.000000
5.9748  0.000000  0.000000  0.000000  -44.566108871144365  11.407576450871566  12.787352809993527  73.81966233639837  -4.691197558368275  28.045532835314837  -11.876453833765593  60.11233247665309  -8.125969233036441  19.89295677501202  120.000000
6.03225  0.000000  0.000000  0.000000  -43.29340175198164  8.256061058777878  7.392779209576907  73.14649927869506  -4.9384089614269335  27.911434056910405  -12.785125727990556  59.61781279279472  -5.270337962860031  20.030850540106425  120.000000
6.089700000000001  0.000000  0.000000  0.000000  -42.154632206491314  4.730893722523547  2.278953184605642  72.04465018102165  -5.436986459839762  27.553152205578755  -13.707360599005431  59.22147825079806  -2.1847895166381917  19.948255186287025  120.000000
6.14715  0.000000  0.000000  0.000000  -40.99074730384224  1.0371627564595536  -2.2336671366919054  70.52147668905498  -6.206928189442574  26.915013010683428  -14.70790361013827  58.803922434639894  0.92145221022541  19.611944629758046  120.000000
6.2046  0.000000  0.000000  0.000000  -39.61034992863851  -2.513351005116201  -5.821832939904327  68.65754753356477  -7.22079964455306  25.972120438947883  -15.813549402456957  58.13266423250712  3.8447629493534485  19.015089115760826  120.000000
6.26205  0.000000  0.000000  0.000000  -38.022272317025575  -5.525420240574921  -8.259300261849564  66.59991253351217  -8.407142382363977  24.7383639825051  -16.824733637176532  56.9160353781443  6.383949494832536  18.222818247148446  120.000000
6.3195  0.000000  0.000000  0.000000  -36.49827315437505  -7.617094781515281  -9.477630152513765  64.52247748376386  -9.678016401613972  23.237120577929446  -17.354764208638887  54.88780961271313  8.376558610785978  17.380159557723584  120.000000
6.37695  0.000000  0.000000  0.000000  -35.3191172071758  -8.557069977652379  -9.505150801129481  62.583302600218865  -11.02415721352492  21.516972358072238  -17.13414423467333  51.95996857680566  9.75104527521854  16.602668969530065  120.000000
6.4344  0.000000  0.000000  0.000000  -34.57187117303088  -8.375637756668965  -8.477498779041653  60.84062188285058  -12.36031215332807  19.59617647083045  -16.1178927346544  48.16048045492419  10.530577235205795  15.932254146694852  120.000000
6.49185  0.000000  0.000000  0.000000  -34.20099662651424  -7.393899926629978  -6.722016606082464  59.24267407145315  -13.309517565856012  17.365510355310832  -14.26626584900358  43.49905584386551  10.719132268889295  15.41997306698997  120.000000
6.549300000000001  0.000000  0.000000  0.000000  -34.06875374949695  -6.012553401121313  -4.678434267497725  57.70803060243904  -13.482815207755358  14.78937823402038  -11.433808723456224  38.09041867136624  10.202392757229006  15.125618635117835  120.000000
6.60675  0.000000  0.000000  0.000000  -34.06954531576223  -4.501987328626639  -2.7753365738705047  56.17188449162761  -12.761529425247579  12.06021754302894  -7.349289975011189  32.25616608717215  8.704571991759423  15.08038066769576  120.000000
6.6642  0.000000  0.000000  0.000000  -34.202723797123774  -3.0459063798537716  -1.3635876211794504  54.58558028535361  -11.237444244547405  9.44204530497461  -1.547497108062305  26.477871061742515  5.732862034337133  15.274542167047283  120.000000
6.72165  0.000000  0.000000  0.000000  -34.48569492199407  -1.793685559183352  -0.6418422911523031  52.92473308257601  -9.092115326675291  7.122795304485955  6.552805837374928  21.273315507780904  0.6362792807995334  15.654262436270226  120.000000
6.7791  0.000000  0.000000  0.000000  -34.92920548074763  -0.8159945201878653  -0.638193337439117  51.20064920132427  -6.541162152333722  5.204155352253715  17.44846928861501  17.06242057910465  -7.191958211953238  16.130720136735935  120.000000
6.83655  0.000000  0.000000  0.000000  -35.52760529649719  -0.11396972229920581  -1.2371360614198192  49.4568247877633  -3.800068648366212  3.718291582684186  31.17654706484888  14.086846160544585  -17.86052604169528  16.61176113002321  120.000000
6.894  0.000000  0.000000  0.000000  -36.25459216342893  0.34961059991773746  -2.256228759467315  47.75360933334052  -1.0456646980431152  2.656691192648771  46.63464665971745  12.368104373494122  -30.288960720247598  17.03224466024525  120.000000
6.95145  0.000000  0.000000  0.000000  -37.069053705826455  0.6249517441332669  -3.51786735982861  46.12525889849577  1.612498369456688  1.9733869419279604  61.52548857076151  11.66559775649583  -42.219752303342304  17.329333481335386  120.000000
7.008900000000001  0.000000  0.000000  0.000000  -37.914830276089134  0.7731753203131291  -4.875605096725933  44.626894950101544  4.092210102947307  1.5953157699551033  74.05578992879855  11.600670078406031  -51.948008107688  17.4625138253217  120.000000
7.06635  0.000000  0.000000  0.000000  -38.747160667738484  0.8410957695559036  -6.214756737824643  43.31217140480106  6.3053787795864435  1.4800518150073858  83.84792443375376  11.843389517011486  -59.20259390415733  17.44890606943308  120.000000
7.1238  0.000000  0.000000  0.000000  -39.54970049868164  0.8489308883469789  -7.451824102341876  42.218207591206614  8.20231830377209  1.586532860751813  91.26072674027469  12.168698531109788  -64.44461778491025  17.349171475224473  120.000000
7.18125  0.000000  0.000000  0.000000  -40.32018097926412  0.8368959672044515  -8.534443393570044  41.393687877722115  9.777952421401855  1.8467456068089336  96.77190982329923  12.446847677287609  -68.23175768229046  17.24420683171126  120.000000
7.2387  0.000000  0.000000  0.000000  -41.06666281244074  0.8443412420179363  -9.424715464078265  40.86382442992706  11.045591637890322  2.1981944536118334  100.81840501572879  12.60722321406052  -71.03547736469912  17.201684639514358  120.000000
7.29615  0.000000  0.000000  0.000000  -41.78649640083369  0.8905851181693333  -10.09439790197394  40.60641376883121  12.018789945005016  2.5990962009839302  103.81712787662636  12.622284109220614  -73.24256401211863  17.25639483917808  120.000000
7.3536  0.000000  0.000000  0.000000  -42.4565261696415  0.9778868283034298  -10.531038887877862  40.55342659709183  12.714495973307416  3.021037311500939  106.16285312156454  12.500174900261436  -75.1655903537144  17.40637781105587  120.000000
7.41105  0.000000  0.000000  0.000000  -43.04997594791653  1.09517940434974  -10.7417567187563  40.62636785971158  13.161475001247378  3.431296326080932  108.13202875570965  12.274985746346749  -76.98506128935134  17.61989224534107  120.000000
7.468500000000001  0.000000  0.000000  0.000000  -43.5463457439381  1.2384379855478407  -10.750329344599828  40.769982313982744  13.397583717867308  3.7872750908580315  109.85655260248609  11.998026274915052  -78.74291705605243  17.858849948972125  120.000000
7.52595  0.000000  0.000000  0.000000  -43.93988148202455  1.4151523477141263  -10.58808749135871  40.951638477561865  13.460325707189744  4.047680713267739  111.36224209966224  11.7191302137497  -80.39035697408951  18.09687602756095  120.000000
7.5834  0.000000  0.000000  0.000000  -44.24076303704158  1.6298320794953658  -10.283190383471684  41.14248369012204  13.382230694412126  4.185457769852135  112.648187808837  11.465045708989273  -81.87157392143348  18.32272390978157  120.000000
7.64085  0.000000  0.000000  0.000000  -44.46987608500235  1.8784862730024523  -9.855615190186212  41.31444226357949  13.189506845834579  4.191518185593039  113.74270228447318  11.240558294007448  -83.18008122113842  18.53696775894907  120.000000
7.6983  0.000000  0.000000  0.000000  -44.649651646604624  2.154137169156432  -9.317664909037475  41.45344660563714  12.900932344223985  4.073177605486951  114.71205050021692  11.03992271707053  -84.3647523482365  18.744784255795828  120.000000
7.75575  0.000000  0.000000  0.000000  -44.8009409616685  2.4486973850994436  -8.676703866292192  41.56267914386229  12.529706789877553  3.848702373645278  115.64204256111624  10.855280992383017  -85.5053423697104  18.95103421089698  120.000000
7.8132  0.000000  0.000000  0.000000  -44.941126131391925  2.756154538897371  -7.938414472490837  41.660065314212844  12.085342342848918  3.542319375902952  116.62147904033168  10.682225512808131  -86.69175287847527  19.156933994607336  120.000000
7.87065  0.000000  0.000000  0.000000  -45.08693499416308  3.0715884215707887  -7.108634844981164  41.76972613791233  11.574249855177237  3.182547372332973  117.72339376943029  10.517346367371285  -88.00041513554501  19.360668906214933  120.000000
7.928100000000001  0.000000  0.000000  0.000000  -45.25386940440685  3.3887881698084987  -6.195249045811797  41.91518243224427  11.003239929002474  2.7971362079566044  118.99771507322053  10.356595795127486  -89.48368425626334  19.560163732211503  120.000000
7.98555  0.000000  0.000000  0.000000  -45.455210823866985  3.700532110741002  -5.209681311253507  42.1137747966758  10.381030151101212  2.409999700875929  120.46748554140461  10.192076351067964  -91.16274078635163  19.75772169051417  120.000000
8.043  0.000000  0.000000  0.000000  -45.69800706504622  3.997845934149532  -4.1688848673779235  42.373048519370435  9.721862434133772  2.035283353082645  122.13225070160921  10.011556351281056  -93.03040849030285  19.962175460123483  120.000000
8.10045  0.000000  0.000000  0.000000  -45.98175335674114  4.270782195990115  -3.096577436338951  42.68189427989232  9.044915897109576  1.6770658261396172  123.97605530441876  9.797396505786189  -95.06180495868051  20.186340765942163  120.000000
8.1579  0.000000  0.000000  0.000000  -46.29535564955791  4.510150851961312  -2.025982136356007  43.012702170580404  8.374290390726022  1.3267952654759  125.95588070098155  9.53093358710485  -97.21069137564675  20.43821137817289  120.000000
8.21535  0.000000  0.000000  0.000000  -46.61316262532616  4.708584081515643  -1.0029807378063142  43.32625490228528  7.735487348303255  0.9661575065089401  127.98002055132143  9.197070561553048  -99.39559534489157  20.71031508076953  120.000000
8.2728  0.000000  0.000000  0.000000  -46.894007060748585  4.852932857650302  -0.08735887262704668  43.575473536132186  7.15032607957341  0.5771586713244864  129.88678095870407  8.785269276388624  -101.48655123728221  20.970057950691114  120.000000
8.33025  0.000000  0.000000  0.000000  -47.07991624262094  4.918015126878644  0.6492959500779368  43.71654054054427  6.632160794461909  0.15047184012848963  131.40130639368604  8.291975362770502  -103.26100416052495  21.164602926574197  120.000000
8.3877  0.000000  0.000000  0.000000  -47.09676769480787  4.87318326029376  1.133208288167106  43.71317856422169  6.181704450855946  -0.3129545200289225  132.10968406658563  7.719834199327031  -104.36616977492251  21.241106008717107  120.000000
8.44515  0.000000  0.000000  0.000000  -46.859502644337965  4.684067606926144  1.3044679221150821  43.54417574253776  5.78912834221503  -0.8138641931908995  131.37965757877402  7.072195299411301  -104.21765209460014  21.171783354225614  120.000000
8.502600000000001  0.000000  0.000000  0.000000  -46.29705516949101  4.325442264070985  1.1204686020134897  43.19888371900622  5.440044409759162  -1.3467751331439244  128.1956720062574  6.376311613791651  -101.82369437673144  20.976883687498503  120.000000
8.56005  0.000000  0.000000  0.000000  -45.353576340351935  3.786777354321573  0.5491294509891418  42.70075712447324  5.123453156414727  -1.8893898959215998  121.01200050812618  5.720508115609314  -95.6154004865199  20.729063857343842  120.000000
8.6175  0.000000  0.000000  0.000000  -43.99649375044826  3.0492562329874944  -0.4273966259386061  42.096746840397536  4.834122686513424  -2.384538812622515  108.3430256328694  5.321083864441937  -84.04323016178245  20.528129511941053  120.000000
8.67495  0.000000  0.000000  0.000000  -42.263030851341895  2.0884513903634865  -1.7968494615957276  41.42295033763982  4.580131890131516  -2.7355217504748284  91.34465097516323  5.532892972780653  -68.1914659408786  20.45311827475032  120.000000
8.7324  0.000000  0.000000  0.000000  -40.27120919290189  0.9494286278978487  -3.505835488327816  40.719412817730756  4.402098906407496  -2.871385161479657  75.52456937349577  6.648011343661253  -53.50434379082253  20.53265368786064  120.000000
8.78985  0.000000  0.000000  0.000000  -38.219791714287076  -0.23866158476750043  -5.4603922024748455  40.01301666865367  4.373700671196196  -2.76772623639865  65.17102453218405  8.673690602202543  -44.240173713368726  20.733749303371994  120.000000
8.8473  0.000000  0.000000  0.000000  -36.32329678690831  -1.2934723021887424  -7.507527017664783  39.32282070716885  4.5599038405225985  -2.429548681981585  60.265649118454924  11.428116260223316  -40.376329641479515  20.994604496488247  120.000000
8.90475  0.000000  0.000000  0.000000  -34.669633849574716  -1.9801163672145294  -9.389072971684424  38.69301345655986  4.976295302705109  -1.9134476599164423  59.39388248959362  14.629394764853899  -40.51088525155983  21.27210052528555  120.000000
8.9622  0.000000  0.000000  0.000000  -33.26998659783872  -2.1195840521388845  -10.786937908859384  38.16058323653101  5.657939993598566  -1.2776561525954717  61.31050951412335  17.93168030376481  -43.50160034836514  21.515454130691925  120.000000
9.01965  0.000000  0.000000  0.000000  -32.13746473428797  -1.5522129679477186  -11.452457072253472  37.75398395224439  6.655848023194684  -0.4867074762792339  65.24477601672629  21.05267493915771  -48.73341490985319  21.681443770024487  120.000000
9.0771  0.000000  0.000000  0.000000  -31.313902889308626  -0.08508322075835027  -11.211309408765615  37.575052114347855  7.949295921797586  0.5082431649957996  70.70592358841625  23.922895009506995  -55.835866274337555  21.770418847663176  120.000000
9.13455  0.000000  0.000000  0.000000  -30.947415197483487  2.341797538291473  -9.865350735822853  37.595195614552644  9.372218221924934  1.757462155743923  77.21673517731928  26.62524413494518  -64.37539183715457  21.80731092221867  120.000000
9.192  0.000000  0.000000  0.000000  -31.206935115712067  5.7342704248638  -7.210644592851287  37.839139533670526  10.613983012241283  3.3129203123126065  84.223818955717  29.354839667061267  -73.77806273561767  21.816400441932252  120.000000
9.24945  0.000000  0.000000  0.000000  -32.2804518003393  9.874754147363218  -3.097998720606763  38.44167555809523  11.316796832493052  5.2576238302554765  90.8713047725807  32.30860286596656  -83.16726073221186  21.78670639512965  120.000000
9.3069  0.000000  0.000000  0.000000  -34.31617650042622  14.355370867284925  2.5648790489409814  39.437112261212356  11.155884287833555  7.704715324808606  96.40834713222645  35.53324274289727  -91.71434681706818  21.702438567363856  120.000000
9.36435  0.000000  0.000000  0.000000  -37.367965673888385  18.842889702674775  9.633341063375466  41.13358590188798  9.93248046284027  10.568539281638499  99.71644236230091  38.846570444013715  -98.39813564867698  21.538740381061363  120.000000
9.421800000000001  0.000000  0.000000  0.000000  -41.40728168519446  22.881051113320783  17.739417867981274  43.7844205371547  7.64580861983905  13.603906491608875  99.79618177921606  41.614084685386466  -102.44001512036685  21.209027293297485  120.000000
9.47925  0.000000  0.000000  0.000000  -46.06656481741694  25.98552507748727  26.411083151997964  47.16002786931264  4.643107351200851  16.41931584617977  96.92563886972135  43.451393360731636  -103.94924976046137  20.700853616177653  120.000000
9.5367  0.000000  0.000000  0.000000  -50.590958377485876  27.86299002147047  34.936612635515544  50.802727656262874  1.3769970754044536  18.64191888465676  91.98678140331708  44.59177872923605  -103.35024992232148  20.093205250026323  120.000000
9.59415  0.000000  0.000000  0.000000  -54.182125482554156  28.493838859774673  42.50643365097764  54.316932556733335  -1.8490860548033379  20.17316067890898  85.87244661761491  45.408842148262515  -101.1124893042155  19.457952306653343  120.000000
9.6516  0.000000  0.000000  0.000000  -56.41990171405232  28.172541242447497  48.572614909159725  57.447349761959316  -4.757401649992561  21.118628893921986  79.46200362400876  46.190709181376974  -97.81464452588656  18.845026556511172  120.000000
9.70905  0.000000  0.000000  0.000000  -57.42535854603508  27.29158332857704  53.01993156509279  60.028550223789715  -7.136363826212284  21.625100489814905  73.53415996914937  47.09708696907609  -94.08078420592784  18.299354322360415  120.000000
9.7665  0.000000  0.000000  0.000000  -57.65284356228354  26.20811106021915  56.09006288846734  61.935345435150154  -8.879644482559605  21.788225253179178  68.70215941692452  48.12838872880275  -90.51751113809998  17.870639549009205  120.000000
9.82395  0.000000  0.000000  0.000000  -57.614414741467165  25.269836285499185  58.18087217835055  63.104965141987186  -10.039637309716031  21.71245407016745  65.30122978983105  49.143603037818714  -87.58794400705882  17.587103318045084  120.000000
9.8814  0.000000  0.000000  0.000000  -57.57598117390416  24.643897448463633  59.58900131194819  63.599972405587835  -10.746255209152354  21.470114514930575  63.328490780991174  49.9548124284266  -85.51282989485253  17.449759522049128  120.000000
9.93885  0.000000  0.000000  0.000000  -57.51350239497191  24.292480340513258  60.43284822588305  63.60315504454819  -11.149277942412755  21.089277286503037  62.533757914397064  50.43263913927989  -84.27983766889446  17.433268542860944  120.000000
9.9963  0.000000  0.000000  0.000000  -57.374189476597  24.18578583574006  60.82205675512635  63.32026843330777  -11.456702773495543  20.601935767633876  62.62422342770074  50.515647520547176  -83.7321277565554  17.503983435860718  120.000000
10.05375  0.000000  0.000000  0.000000  -57.13713054413803  24.33853549469732  60.748179935505696  62.92141225245933  -11.833941110109688  20.026108861805934  63.35077381010731  50.23881787199499  -83.63564296940415  17.61568347433335  120.000000
10.1112  0.000000  0.000000  0.000000  -56.65518168232228  24.6584840340068  59.87403609737112  62.57636886890143  -12.32461425093904  19.336507723063765  64.37048787026376  49.765438819638945  -83.59830796634225  17.730357806975242  120.000000
10.16865  0.000000  0.000000  0.000000  -55.686543974619994  24.868645589560572  57.688668959822024  62.414425561160535  -12.850025084149829  18.480917888777824  65.2824780102182  49.277715078816  -83.08340024109421  17.824507316225706  120.000000
10.2261  0.000000  0.000000  0.000000  -54.07611532731055  24.62153220223462  53.7848929898769  62.40859573206447  -13.226341234224186  17.43314651943314  65.80212370425566  48.84955764303331  -81.56793004992836  17.878516070327247  120.000000
10.28355  0.000000  0.000000  0.000000  -51.886525519999  23.632793440554504  48.036746104290295  62.39257141729815  -13.238170137672633  16.22914923694732  65.76812800047907  48.43824862414585  -78.66437049646647  17.875759449349356  120.000000
10.341000000000001  0.000000  0.000000  0.000000  -49.353548666433234  21.737588521729784  40.63352754836718  62.12845404139845  -12.71920860959506  14.965165680063366  65.0870944954767  47.94399062973563  -74.20342939359642  17.811806257196817  120.000000
10.39845  0.000000  0.000000  0.000000  -46.78141481993482  19.021229708789686  32.02740571598286  61.386008628555665  -11.569561903592675  13.74536047998928  63.762763439567976  47.303957377416765  -68.3158600835481  17.704867642987423  120.000000
10.4559  0.000000  0.000000  0.000000  -44.39242588306674  15.803332615961589  22.80512313780686  59.985801789630116  -9.773630582874562  12.632215363719999  61.961301516294625  46.531321022150905  -61.47495792410864  17.61115807494293  120.000000
10.51335  0.000000  0.000000  0.000000  -42.27312284786396  12.515118121494613  13.564686849507241  57.86274549357468  -7.3699824312271565  11.63590388595953  60.05194942968866  45.69385970335319  -54.42136291416975  17.637910130151255  120.000000
10.5708  0.000000  0.000000  0.000000  -40.393859381298455  9.548483937222095  4.815091599817151  55.06605473100098  -4.449204728867111  10.81099358901708  58.581415992806946  44.77193014411436  -48.00085179062137  17.876004642474122  120.000000
10.62825  0.000000  0.000000  0.000000  -38.71768852367064  7.056580263021679  -3.0538583845918263  51.69226446080261  -1.1574022342674308  10.304488233349902  58.0564658527119  43.54449114672046  -42.844001618842476  18.387556780735085  120.000000
10.6857  0.000000  0.000000  0.000000  -37.26137872512402  5.115727747646583  -9.804703353870886  47.979052209557565  2.315597398374817  10.218266904778734  58.655056185944666  41.81770722582252  -39.18143996822003  19.2044040855234  120.000000
10.74315  0.000000  0.000000  0.000000  -36.09465786648865  3.7945614148757714  -15.379786208391101  44.25792610322505  5.694361623243261  10.537390555662581  60.19118972311563  39.59610737853628  -36.9267692200579  20.25225992196959  120.000000
10.8006  0.000000  0.000000  0.000000  -35.37997559636629  3.0650531344406793  -19.83250669974426  40.83339308147177  8.694237554734093  11.183362682214373  62.264215236663766  36.98665999187555  -35.76834588424798  21.363275627851902  120.000000
10.85805  0.000000  0.000000  0.000000  -35.28672041058631  2.8145958010750816  -23.219999898280324  37.982866984402264  11.188021631467748  12.038608900741593  64.41820966519013  34.0635419166579  -35.266553430176934  22.357153385183192  120.000000
10.9155  0.000000  0.000000  0.000000  -35.844284061244274  2.929943154734138  -25.581570831808015  35.9749032318217  13.26309498474369  12.960256749001365  66.29337573842146  30.845489203897625  -35.01314475351786  23.113905882318374  120.000000
10.97295  0.000000  0.000000  0.000000  -36.92558229651456  3.303156483830078  -26.969877058942313  34.910406266558795  15.081675540702715  13.853678330420603  67.80296108969497  27.331136579873316  -34.831156885742494  23.584016476594776  120.000000
11.0304  0.000000  0.000000  0.000000  -38.40244371047194  3.822972464829874  -27.474385158130865  34.620179628151  16.72705571974273  14.727640111945036  69.2437390921025  23.5662353115739  -34.8910383034249  23.774492617171994  120.000000
11.08785  0.000000  0.000000  0.000000  -40.18522632101683  4.383835469066004  -27.179199919224875  34.83228692756147  18.20576322107588  15.59025988775462  71.20423547631528  19.657161392847396  -35.671987947285004  23.684905274658295  120.000000
11.1453  0.000000  0.000000  0.000000  -42.207324955429605  4.902672001313057  -26.122686977895917  35.38878265646251  19.510533315687308  16.336946356278517  74.59000755394453  15.766742850715993  -38.00208499517395  23.288878202323644  120.000000
11.20275  0.000000  0.000000  0.000000  -44.411395218287204  5.373293727013938  -24.367430722688702  36.25697162861461  20.63111133934127  16.814842019750024  81.13080771334457  12.141103268548523  -43.553873823762935  22.569583966554024  120.000000
11.260200000000001  0.000000  0.000000  0.000000  -46.74623113946995  5.819006214418115  -22.043469988341013  37.413696076049575  21.544314022129942  16.917359109071803  94.0414093623992  9.17214847981205  -55.52297736608636  21.51309949922155  120.000000
11.31765  0.000000  0.000000  0.000000  -49.17893539045743  6.253744959495157  -19.308884607242973  38.77565018266817  22.203534258337395  16.634934821774955  116.70683249907485  7.508417855149095  -77.2912568334786  20.110318321101026  120.000000
11.3751  0.000000  0.000000  0.000000  -51.707007418402824  6.6446991846943595  -16.31327173353667  40.20936667009831  22.55523509717796  16.060386634909502  143.86106874795937  7.7881065281827775  -103.62265265598982  18.35557302275086  120.000000
11.43255  0.000000  0.000000  0.000000  -54.330632562025045  6.928070917350288  -13.199909579591143  41.754661593494966  22.606803005107853  15.274674826388567  163.58690204449687  9.759872572097693  -122.64449410625654  16.318534113963548  120.000000
11.49  0.000000  0.000000  0.000000  -56.89350201628797  6.991263787154322  -10.137055991658986  43.553346415179234  22.34632503103491  14.368743698580303  174.7660622492886  12.706905930861685  -133.2106039485602  14.162411799611043  120.000000
