Simulation
nRows=201
nColumns=15
endheader
time  TH_x TH_y TH_z SC_y  SC_z  SC_x  AC_y  AC_z  AC_x  GH_y  GH_z  GH_yy  EL_x  PS_y
0.0  0.000000  0.000000  0.000000  -40.97484877243665  6.293857566463187  5.290427962726946  45.004311437309255  -3.5755963445469434  -1.061233755665817  16.000960394582524  5.084205016373122  8.509265127025952  22.602285844156185  120.000000
0.05745  0.000000  0.000000  0.000000  -40.64175428951718  5.179579144794328  3.6285212101744038  44.98600168795147  -2.5257468694321576  -0.7865144619203227  5.737106321832017  7.357237134074322  18.36697545862249  22.037799577384604  120.000000
0.1149  0.000000  0.000000  0.000000  -40.32822678705943  3.9177281771300594  1.9350564165391717  45.0347364047698  -1.6947375791858679  -0.495402041398445  0.8990316379150469  9.583903836962646  22.775998612550385  21.64349886936342  120.000000
0.17235  0.000000  0.000000  0.000000  -40.07526394567581  2.642087822132836  0.2711448637824166  45.14665443712724  -1.0329102915629342  -0.15155047150196246  -1.6458132298987371  11.735338830098955  24.81468195604129  21.50103903314846  120.000000
0.2298  0.000000  0.000000  0.000000  -39.909728706018214  1.4517408711464712  -1.2943455193808775  45.326502657319175  -0.45698248054650553  0.27320832189704886  -3.0550452595230726  13.880124088181233  25.596440350037813  21.618827295185756  120.000000
0.28725  0.000000  0.000000  0.000000  -39.847706080240414  0.4408671815562406  -2.7117436393063366  45.574235161115936  0.11349176082455766  0.7946418724680245  -3.868330514627152  16.10993209209625  25.626790002328736  21.94071902424128  120.000000
0.3447  0.000000  0.000000  0.000000  -39.91494731160253  -0.32336480910491416  -3.949595456299462  45.88248581945063  0.7383455808845847  1.4080363671445717  -4.360932391048105  18.515679319903366  25.156658022233348  22.36863399909373  120.000000
0.40215  0.000000  0.000000  0.000000  -40.15239851640163  -0.8076793182392551  -4.981506204149572  46.240520102556  1.435959964347144  2.091394435022962  -4.669918606621479  21.166743754327538  24.31148040011276  22.79138772343411  120.000000
0.4596  0.000000  0.000000  0.000000  -40.602629226688435  -1.0010535376963383  -5.78485373691025  46.64155223293192  2.1817005256940054  2.82104124171574  -4.863741429739559  24.092545486479533  23.165486598252883  23.114681639715073  120.000000
0.51705  0.000000  0.000000  0.000000  -41.29139977397477  -0.9049816121969072  -6.363838320127033  47.0871668982054  2.9432348632153227  3.600142351879546  -4.974273658826187  27.27410859783912  21.77139750460093  23.27836374134415  120.000000
0.5745  0.000000  0.000000  0.000000  -42.21465146693948  -0.5293828692089632  -6.736773101429106  47.587913452793416  3.703085931953516  4.454346270093486  -5.012558570368038  30.645760813022807  20.169763313280452  23.26410496391793  120.000000
0.63195  0.000000  0.000000  0.000000  -43.336418239982564  0.11333221127328305  -6.897956527236134  48.161469651590686  4.46007395185354  5.401855693639669  -4.982976536963495  34.099893041955106  18.38963536809619  23.085780717989195  120.000000
0.6894  0.000000  0.000000  0.000000  -44.585683144650524  1.0054054576204823  -6.813864139220755  48.822007721272  5.241770506591246  6.444249872681507  -4.905966814121751  37.48964034742933  16.45977316209808  22.77228363960809  120.000000
0.74685  0.000000  0.000000  0.000000  -45.86991778685283  2.1120812427592033  -6.429958531920788  49.56640635334651  6.095702435182116  7.566318793511518  -4.82102652352602  40.637887397304134  14.40962994942331  22.356799744855365  120.000000
0.8043  0.000000  0.000000  0.000000  -47.08975973686515  3.378991705911303  -5.690971772362708  50.3749658641388  7.068269064156824  8.731493123421481  -4.770168683439671  43.369257483440634  12.264321187630744  21.872962379995094  120.000000
0.86175  0.000000  0.000000  0.000000  -48.17219839825774  4.7476590231327  -4.556835386836738  51.212475700708595  8.179527795564793  9.891501244025216  -4.775261922121765  45.56142074827835  10.042301456288786  21.35396008291184  120.000000
0.9192  0.000000  0.000000  0.000000  -49.099313992341216  6.1628208221814464  -3.0128993100007286  52.028485192839256  9.41103928622164  11.007575427241036  -4.829767897842564  47.18035758523542  7.770905834016042  20.83238610551483  120.000000
0.97665  0.000000  0.000000  0.000000  -49.90042378001  7.576234755333102  -1.073915799928315  52.76900795554871  10.710502045981166  12.057705689934961  -4.908980138126161  48.27865993512894  5.506913875738005  20.33297842723669  120.000000
1.0341  0.000000  0.000000  0.000000  -50.62899900542145  8.945423089527377  1.2202848710982166  53.38857814707557  12.00942128524678  13.032280193862611  -4.986451988745642  48.96469694119394  3.349543371034205  19.86979466784674  120.000000
1.09155  0.000000  0.000000  0.000000  -51.33524722606832  10.220347341988361  3.807410741259716  53.8570657908101  13.236706022527553  13.930134710146136  -5.048881705614  49.36578059017613  1.4305810468459588  19.443189469996614  120.000000
1.149  0.000000  0.000000  0.000000  -52.04759052283424  11.34599403480873  6.6006590541213495  54.16846966276435  14.329806255780646  14.747219773423387  -5.095297734486436  49.59879779600161  -0.11945390409977526  19.046723076500378  120.000000
1.20645  0.000000  0.000000  0.000000  -52.76543990093647  12.270954061774926  9.488044706198334  54.342109543352855  15.24163046325583  15.474493171771975  -5.129172842704741  49.75995530401632  -1.2152512629895935  18.673419001127915  120.000000
1.2639  0.000000  0.000000  0.000000  -53.46250037620256  12.960913198000908  12.337692072915607  54.41783717870146  15.946692842685172  16.096829293362315  -5.151174516487542  49.91893084395845  -1.848989362859547  18.321409474106634  120.000000
1.32135  0.000000  0.000000  0.000000  -54.09834737463797  13.409760518058459  15.006327073105673  54.44615378170816  16.441428055864275  16.595431646034775  -5.157167757020203  50.119202663800195  -2.0985572421278254  17.99477473164359  120.000000
1.3788  0.000000  0.000000  0.000000  -54.629719510440204  13.639501359252245  17.351614091673678  54.475408312190154  16.740689810228577  16.95111714593894  -5.142201581632452  50.37729125231729  -2.105882638700073  17.70173296295132  120.000000
1.43625  0.000000  0.000000  0.000000  -55.0196885693308  13.69558861031914  19.241273485409426  54.543724184907596  16.869677663149165  17.14655077229861  -5.104275985539273  50.685981045600414  -2.0393626251839603  17.45160590019008  120.000000
1.4937  0.000000  0.000000  0.000000  -55.24104727786588  13.63431215913815  20.560842508078213  54.673427445465514  16.854768658762282  17.17033578793376  -5.0470025948688395  51.01947676868385  -2.053509166527881  17.2525385560177  120.000000
1.55115  0.000000  0.000000  0.000000  -55.278171165648395  13.509585012819908  21.218038475039428  54.87071128601803  16.714534933097596  17.021355507917928  -4.976896545109183  51.34217677595151  -2.2594484681484106  17.110659475763576  120.000000
1.6086  0.000000  0.000000  0.000000  -55.12530493572047  13.357449277767842  21.14913400992048  55.12606084567955  16.455354348383757  16.714253268268422  -4.898848194205052  51.617820255532436  -2.710509702732876  17.029789630967752  120.000000
1.66605  0.000000  0.000000  0.000000  -54.785530198965695  13.183637187318206  20.326585440131993  55.415754441997336  16.072155440033356  16.283117874385276  -4.809870152254818  51.81789698367543  -3.4027499599923905  17.010641062896454  120.000000
1.7235  0.000000  0.000000  0.000000  -54.2706628892789  12.95798015891416  18.768218790295187  55.70545622692918  15.555602235572149  15.777216411573544  -4.697065279086916  51.92575688302641  -4.285447866096889  17.047524348925606  120.000000
1.78095  0.000000  0.000000  0.000000  -53.60439444917119  12.620179117595155  16.54421644380612  55.95489322448785  14.901940165958738  15.250036422096624  -4.54160618481679  51.93486879683875  -5.275824757172881  17.124741250422698  120.000000
1.8384  0.000000  0.000000  0.000000  -52.82818174345471  12.100236104181166  13.775801786764191  56.123976944803005  14.119004856903604  14.74347206074041  -4.3270692736995775  51.84271285923504  -6.2775124291313364  17.217122431118945  120.000000
1.89585  0.000000  0.000000  0.000000  -52.000004869047075  11.343371134782604  10.626131677934717  56.173909723039216  13.228362371993384  14.279599745387909  -4.047868909967437  51.64075985717505  -7.198869730889993  17.29589916501381  120.000000
1.9533  0.000000  0.000000  0.000000  -51.181130663006456  10.333394260127081  7.279995761437901  56.06944505203955  12.265248738888154  13.858013229636441  -3.711328164456731  51.30698483040157  -7.974146788429039  17.33774932876987  120.000000
2.01075  0.000000  0.000000  0.000000  -50.41581145731163  9.100219914724669  3.920181511407592  55.78128334345578  11.27896646063129  13.46005231069892  -3.335808585391892  50.79705198378074  -8.578355195962102  17.33272746353343  120.000000
2.0682  0.000000  0.000000  0.000000  -49.71275680987582  7.70897720775241  0.7043955759411945  55.28989137561546  10.332715362864247  13.053113153305622  -2.9503496939349616  50.040163888418576  -9.03019956108193  17.2836124085047  120.000000
2.1256500000000003  0.000000  0.000000  0.000000  -49.04151086105625  6.24127048216216  -2.2460306928876723  54.58986617279423  9.499511041009917  12.599650231315703  -2.5915837839657034  48.938600329562334  -9.378013652042327  17.19643083321831  120.000000
2.1831  0.000000  0.000000  0.000000  -48.34095984393762  4.7792677938806385  -4.849749927149621  53.696389921666146  8.852646409413191  12.070833739985854  -2.2933158762228594  47.38433164295377  -9.673342734561555  17.0686394642761  120.000000
2.24055  0.000000  0.000000  0.000000  -47.54667787507547  3.3986168919670194  -7.059172847129581  52.64604808136806  8.449024725912821  11.461333431759089  -2.06839893595168  45.29795470633791  -9.93926877166859  16.888951407108088  120.000000
2.298  0.000000  0.000000  0.000000  -46.62365693221049  2.1651782559487898  -8.860160220188085  51.497504727028335  8.304539369598062  10.792721581267926  -1.8925832920292958  42.676698300853616  -10.153147104209859  16.641666720090072  120.000000
2.3554500000000003  0.000000  0.000000  0.000000  -45.590534387769075  1.1222589129339977  -10.276848621344223  50.32123236046481  8.373136247957184  10.111356276298222  -1.7051565884443172  39.616452489774304  -10.252278909034331  16.31129497973701  120.000000
2.4129  0.000000  0.000000  0.000000  -44.51516119390386  0.28304830677461684  -11.370363632967953  49.18217030971447  8.5637370022185  9.473375275380311  -1.4384386303435006  36.292537156430086  -10.146419135063283  15.890570090046415  120.000000
2.47035  0.000000  0.000000  0.000000  -43.46742486842266  -0.36860084162959383  -12.226326326142331  48.14170410681768  8.780795933006893  8.914196936825302  -1.0559461860730266  32.90500391732092  -9.728224363241395  15.396670698946737  120.000000
2.5278  0.000000  0.000000  0.000000  -42.49320512714055  -0.8862072799043871  -12.916925950174267  47.25037188867278  8.95538792927375  8.457330770371739  -0.5658430354899143  29.624629529780343  -8.894147845800582  14.876295170987325  120.000000
2.5852500000000003  0.000000  0.000000  0.000000  -41.60087472677761  -1.3283717517512192  -13.485326095728293  46.547532115258065  9.06680213850789  8.111466756095242  -0.017694967634568518  26.576940703272882  -7.567244833019152  14.393149515866776  120.000000
2.6427  0.000000  0.000000  0.000000  -40.78136354369921  -1.7333473353855195  -13.950192215971903  46.05906241168667  9.136313143750952  7.872436124747471  0.5204681506331871  23.846794058899622  -5.724551830256573  14.01015376594797  120.000000
2.70015  0.000000  0.000000  0.000000  -40.03056738691927  -2.1234420505791274  -14.318650458951803  45.78905368287417  9.202304653275933  7.7346561638168705  1.0058977639997269  21.47776656474737  -3.4389405512944204  13.772232541858301  120.000000
2.7576  0.000000  0.000000  0.000000  -39.354189855236584  -2.5056636668994132  -14.60313632176355  45.72274506976749  9.302630256145072  7.687700502713683  1.463253005934921  19.475383832852433  -0.9095998607919982  13.698876499375102  120.000000
2.8150500000000003  0.000000  0.000000  0.000000  -38.76866028406863  -2.880153431088023  -14.827705180703163  45.82307182044919  9.466662570780413  7.7189122389557125  1.9939526105768117  17.817687720021656  1.5556421014263881  13.78941249504549  120.000000
2.8725  0.000000  0.000000  0.000000  -38.29169920349409  -3.2437670052534964  -15.016003118870865  46.03770941801627  9.702322575486464  7.803726815980292  2.7398716064319846  16.465189690256132  3.614152818369665  14.029546531209945  120.000000
2.92995  0.000000  0.000000  0.000000  -37.9321975218871  -3.591945501615606  -15.18039993261283  46.30683994995364  9.995406429509893  7.907084592302974  3.8119043620929434  15.369553892840411  4.9969509086983  14.39297766014209  120.000000
2.9874  0.000000  0.000000  0.000000  -37.68158144742564  -3.9163591495117416  -15.32923965740172  46.57465187064513  10.32590385953283  7.998662412925593  5.2351480169733815  14.483897237322617  5.587721450181748  14.84154464114379  120.000000
3.0448500000000003  0.000000  0.000000  0.000000  -37.517266388229224  -4.2071075143762355  -15.467109878528317  46.80005922598887  10.676857093211838  8.058332303931339  6.947487517945442  13.772358635967654  5.426728530201227  15.33065419513359  120.000000
3.1023  0.000000  0.000000  0.000000  -37.412148636911716  -4.457996568051117  -15.592904128955645  46.96008443303768  11.035914335635553  8.076436379652952  8.828126748808364  13.212287139290508  4.6674418284009445  15.81845850665894  120.000000
3.15975  0.000000  0.000000  0.000000  -37.34369493955374  -4.66787223258303  -15.701130850759695  47.04963799626727  11.393589485562458  8.051597205622071  10.732418696888367  12.790632798996604  3.52312853360985  16.275920030741393  120.000000
3.2172  0.000000  0.000000  0.000000  -37.295398203210375  -4.840359688019449  -15.786370815440321  47.0759691323989  11.741861202236027  7.98827556441819  12.505002251415059  12.496313809617922  2.2365908960319434  16.691736118497563  120.000000
3.2746500000000003  0.000000  0.000000  0.000000  -37.25591796339961  -4.981156950989251  -15.849221524300482  47.05278719434695  12.073464974196925  7.89751364110548  13.999840441161236  12.313901393646995  1.0455944914713362  17.070103807401136  120.000000
3.3321  0.000000  0.000000  0.000000  -37.214636508835994  -5.097498533110461  -15.89968719281004  46.999172469838314  12.381507894624114  7.795665936356351  15.124586111189108  12.22253500059486  0.12603440962120638  17.42387287913424  120.000000
3.38955  0.000000  0.000000  0.000000  -37.160618038005886  -5.197897424901487  -15.953263875496285  46.93845547427689  12.656526283972662  7.705175407145445  15.890882942943039  12.200338999945789  -0.4678604478737368  17.768280761038774  120.000000
3.447  0.000000  0.000000  0.000000  -37.085706179994204  -5.291796878207938  -16.022481286754022  46.890988849785636  12.887242507161979  7.649596335740854  16.399342739131917  12.23036068403969  -0.7950594306802234  18.116769873208156  120.000000
3.5044500000000003  0.000000  0.000000  0.000000  -36.98791828994498  -5.386498193428433  -16.11555245868463  46.86890800001226  13.066835063662491  7.642381771520851  16.760941993531315  12.304729566722713  -0.9509945882691525  18.47542967804227  120.000000
3.5619  0.000000  0.000000  0.000000  -36.87169956345546  -5.482896960401256  -16.23853325520143  46.8749930460562  13.195904196223157  7.684093975948597  17.04167824884628  12.42273844292575  -1.0050335645411048  18.843453973087758  120.000000
3.61935  0.000000  0.000000  0.000000  -36.745197447959356  -5.5778900606591995  -16.39402975051474  46.90294256126861  13.279065699917414  7.769139895425703  17.25435644272995  12.586109579494773  -0.9816182294366973  19.21679147221376  120.000000
3.6768  0.000000  0.000000  0.000000  -36.615377353333  -5.667751999022569  -16.581354188748417  46.94272539138845  13.321064824077018  7.890559690219682  17.38245461085247  12.79560042014185  -0.8757869100570511  19.5917243789772  120.000000
3.7342500000000003  0.000000  0.000000  0.000000  -36.48568244185049  -5.749137388530021  -16.798390047447892  46.985665699024494  13.324706008691368  8.042777098978089  17.40522670698873  13.04985391374085  -0.6738300603997819  19.966764075955954  120.000000
3.7917  0.000000  0.000000  0.000000  -36.35651406541881  -5.819807894886211  -17.04282025501426  47.026304933355185  13.290982015798347  8.223015696179598  17.308219103644987  13.346292619638705  -0.36261396952607966  20.342347566868913  120.000000
3.84915  0.000000  0.000000  0.000000  -36.22660760495763  -5.878469267188899  -17.311911014943778  47.06292666027703  13.220300090664402  8.431095613250516  17.082544695863483  13.683319999974758  0.07154625620213026  20.719597260545708  120.000000
3.9066  0.000000  0.000000  0.000000  -36.094446259316385  -5.923459246481169  -17.6013594965148  47.097079877731915  13.114413827948388  8.667812366870669  16.71620301059092  14.062514511638257  0.6516858974123175  21.098722821745355  120.000000
3.9640500000000003  0.000000  0.000000  0.000000  -35.959788705984764  -5.950824102190949  -17.904424917106695  47.13219424777327  12.977853264805487  8.933507186448088  16.187821464053293  14.489719670889365  1.4152833407594059  21.477736648375597  120.000000
4.0215  0.000000  0.000000  0.000000  -35.825915478806834  -5.953235398447556  -18.21187115219822  47.17304814840975  12.81732697231115  9.228173996434796  15.478243597562424  14.974756944255919  2.3988380398388083  21.852134883526677  120.000000
4.07895  0.000000  0.000000  0.000000  -35.70237493141755  -5.919901341798953  -18.51256242585611  47.22643947082294  12.639339070147715  9.552861241914385  14.59845459471969  15.529841684689249  3.603283779896072  22.214362133320435  120.000000
4.1364  0.000000  0.000000  0.000000  -35.60842938707397  -5.837390915468232  -18.794920255650133  47.30336774612944  12.44851339984123  9.911459409967554  13.620558797081785  16.167457201691448  4.954882745805712  22.55237056818689  120.000000
4.19385  0.000000  0.000000  0.000000  -35.57482373858731  -5.691768638611337  -19.049028855018292  47.42111881352471  12.249440395435826  10.312219013987026  12.689771707059029  16.898232266756136  6.287300665867042  22.848440773279847  120.000000
4.2513000000000005  0.000000  0.000000  0.000000  -35.643234435734755  -5.470656062841359  -19.266908859782127  47.60243373438737  12.051781996135526  10.767084405472742  12.000883020138108  17.729855248691806  7.364461913474019  23.081718086519704  120.000000
4.30875  0.000000  0.000000  0.000000  -35.862609115534156  -5.1643811125707355  -19.435105590181486  47.872200463832364  11.874486174258484  11.28511101578358  11.748969511826667  18.66884764944063  7.932856635582948  23.235728414179032  120.000000
4.3662  0.000000  0.000000  0.000000  -36.27885734294813  -4.76209739683597  -19.525471323317003  48.25372401261438  11.74945227850727  11.864794467131606  12.078201962209734  19.723056691829957  7.7770191008392615  23.31110430413627  120.000000
4.42365  0.000000  0.000000  0.000000  -36.92004411254855  -4.248672095079854  -19.490599263766143  48.76441053517568  11.72473458504228  12.489856415063947  13.043947529373495  20.90273068104513  6.761782556207763  23.335993216984885  120.000000
4.4811  0.000000  0.000000  0.000000  -37.78296044123841  -3.608055061019044  -19.2630527552501  49.40820382149307  11.860283810011818  13.129562896953825  14.591749806529078  22.215163164904755  4.858627472304001  23.362535974455067  120.000000
4.53855  0.000000  0.000000  0.000000  -38.82392587042198  -2.8237392446249587  -18.762094214887778  50.17186712864195  12.213951216688992  13.742242545143922  16.566574822566725  23.65394183462271  2.1481351745433606  23.44857338144471  120.000000
4.596  0.000000  0.000000  0.000000  -39.959914933895696  -1.8808650823478328  -17.905195190683948  51.025661983004646  12.823150148605288  14.283240580081932  18.751492987783948  25.191042753892297  -1.1997727702500145  23.630837223678295  120.000000
4.65345  0.000000  0.000000  0.000000  -41.090054004012444  -0.7706000133702708  -16.621893934864932  51.920797180532254  13.683933148056324  14.723163211801513  20.91862112213805  26.773643721443154  -4.955137549000173  23.902736601348543  120.000000
4.7109000000000005  0.000000  0.000000  0.000000  -42.127863300628  0.5084896942481372  -14.86798789026003  52.79154549161861  14.73950638345262  15.062888074238954  22.877378004023655  28.330147470610534  -8.865269721233112  24.212124217574473  120.000000
4.76835  0.000000  0.000000  0.000000  -43.029425108333015  1.9552251789432362  -12.631396009781522  53.56608956196085  15.888685909751077  15.335472684806135  24.506385366573245  29.78872116502001  -12.6953019448299  24.481617741571526  120.000000
4.8258  0.000000  0.000000  0.000000  -43.80701146990785  3.565731348799857  -9.925861513319894  54.178569256918095  17.008219816552387  15.598143157072155  25.757883336510982  31.097147437076387  -16.25927646416226  24.636834414645875  120.000000
4.88325  0.000000  0.000000  0.000000  -44.52394936095446  5.3220958883195815  -6.781684921477099  54.58283134647446  17.977912580822586  15.913943674009326  26.641479151627312  32.235838258378976  -19.43867441574911  24.627796985206313  120.000000
4.9407  0.000000  0.000000  0.000000  -45.27455520524941  7.181062522937953  -3.2406628941369697  54.7656330896721  18.701754040068955  16.32889239640067  27.197814703908186  33.219570792126504  -22.182221990103354  24.435676785288358  120.000000
4.99815  0.000000  0.000000  0.000000  -46.15539033861359  9.066310341230883  0.642218462778462  54.75150407177659  19.121982115699574  16.85771733489642  27.471289319680007  34.08899225410433  -24.485867582202307  24.065218960984346  120.000000
5.0556  0.000000  0.000000  0.000000  -47.234531845372786  10.874976699440873  4.791174745222097  54.59842973061816  19.224828406053856  17.483415811000505  27.494504633872552  34.896365757619535  -26.368442073256713  23.536304713020026  120.000000
5.11305  0.000000  0.000000  0.000000  -48.53024850192579  12.497809374419539  9.101418024429567  54.38484719943954  19.036862813070098  18.167373332691287  27.2868249234731  35.6939903028506  -27.855680745282037  22.88307163324596  120.000000
5.1705000000000005  0.000000  0.000000  0.000000  -50.0064727364026  13.845306668828663  13.437976932799055  54.19086514014383  18.613034306914848  18.863374647457018  26.863352357334037  36.5254751735251  -28.978701534350332  22.15444262938994  120.000000
5.22795  0.000000  0.000000  0.000000  -51.58538291145721  14.868201661473432  17.644828098573782  54.08165760846324  18.021753101962066  19.525784384184764  26.249944845352008  37.4183178479068  -29.78479241026264  21.40908545366875  120.000000
5.2854  0.000000  0.000000  0.000000  -53.16701426558763  15.563576636556634  21.56044805241392  54.09530366896997  17.332303344149427  20.11101133230081  25.495312038316428  38.37537006166042  -30.346439730528257  20.703761309260774  120.000000
5.34285  0.000000  0.000000  0.000000  -54.64678888095187  15.969235535538212  25.03398166739382  54.23680848960976  16.60824257400276  20.575358198299632  24.674513684049177  39.366836094106056  -30.757529266528213  20.079792467002125  120.000000
5.4003  0.000000  0.000000  0.000000  -55.92590305826624  16.148232920943965  27.936736933084134  54.477240219905745  15.904559358582414  20.875923522234338  23.88477782600552  40.32970562064909  -31.120583318032892  19.555443327700957  120.000000
5.45775  0.000000  0.000000  0.000000  -56.91723375057689  16.17023787827261  30.16765560757161  54.75890524345251  15.266837888703659  20.97404199321683  23.23379429273243  41.17557834147566  -31.531898659802746  19.130253407961927  120.000000
5.5152  0.000000  0.000000  0.000000  -57.55172888553429  16.09711105556427  31.652213963250983  55.01068587870075  14.729401123211806  20.837899513025125  22.825176106049923  41.80857686099235  -32.07209029993989  18.797839095350156  120.000000
5.57265  0.000000  0.000000  0.000000  -57.78435510266909  15.974450446835048  32.337705554043154  55.17142610125587  14.31044702425187  20.44667332840769  22.74164140295987  42.14961216278557  -32.80054649159145  18.558038677461514  120.000000
5.6301000000000005  0.000000  0.000000  0.000000  -57.60278686728657  15.830698578749205  32.187830609338164  55.214290696082614  14.00631365398481  19.793315998604175  23.02957245822012  42.15911401015555  -33.748066409908745  18.42387107982025  120.000000
5.68755  0.000000  0.000000  0.000000  -57.02968008227995  15.673207003564993  31.18145796827852  55.15202782495475  13.787741077219316  18.88985509210627  23.691759128502596  41.844778127403174  -34.90383416880007  18.418981949042884  120.000000
5.745  0.000000  0.000000  0.000000  -56.116088195404636  15.47815314020332  29.318395428536103  55.018464704698125  13.602193402517205  17.773860485649397  24.69085706423795  41.25069626757667  -36.200878953979135  18.564754550797556  120.000000
5.80245  0.000000  0.000000  0.000000  -54.932125431951704  15.183369050870601  26.63296349523826  54.8403788727553  13.385560664674804  16.51001474047586  25.95349433158748  40.435836669804075  -37.506312332494595  18.85883937123203  120.000000
5.8599  0.000000  0.000000  0.000000  -53.56253758001152  14.694673437975734  23.209553113856174  54.61793596282372  13.080981236623286  15.183957199350564  27.370760400172756  39.45308742430775  -38.62700906341445  19.25503118169329  120.000000
5.91735  0.000000  0.000000  0.000000  -52.10676263897979  13.915045288615115  19.190327921043608  54.32479471153531  12.657740446381442  13.886620546938602  28.803188577022784  38.33513365056628  -39.33966336241865  19.663137795834803  120.000000
5.9748  0.000000  0.000000  0.000000  -50.67022081892482  12.781873034297226  14.768277975497377  53.921003718839565  12.121739971502231  12.698620037738683  30.09774828768527  37.092812272003755  -39.44230302116032  19.972327551064282  120.000000
6.03225  0.000000  0.000000  0.000000  -49.34521727302858  11.29817945921219  10.16353316744379  53.37270636418997  11.513521438572182  11.678164493674437  31.11647677026847  35.72837593927718  -38.80987617135914  20.086794575998642  120.000000
6.089700000000001  0.000000  0.000000  0.000000  -48.185166701008676  9.536419723626587  5.592095783370655  52.66939711596622  10.897699592190632  10.855244523652948  31.766361827175654  34.25065921323063  -37.43323950154202  19.955392416991547  120.000000
6.14715  0.000000  0.000000  0.000000  -47.1875454594632  7.61256470197705  1.2389749332158049  51.83244768593487  10.348084981367915  10.233597212077111  32.022281528064916  32.680339896727276  -35.43087020298116  19.579396811595807  120.000000
6.2046  0.000000  0.000000  0.000000  -46.29751915914857  5.64932641410784  -2.7541350839167444  50.9154250698013  9.936495624055505  9.795506779156943  31.936104429927326  31.03980428380921  -33.02915939527869  18.998274278005955  120.000000
6.26205  0.000000  0.000000  0.000000  -45.42569427484691  3.744890723292754  -6.287434403982137  49.992408182358446  9.723608790024315  9.513530602725721  31.625408314155337  29.340877337699563  -30.51356040580484  18.270918134553607  120.000000
6.3195  0.000000  0.000000  0.000000  -44.48376547265159  1.9665800042746044  -9.297512338198933  49.13985774527703  9.748559974221347  9.361944940415599  31.24103332652463  27.589248707297774  -28.15741132428083  17.46973549840109  120.000000
6.37695  0.000000  0.000000  0.000000  -43.42069494564361  0.3647943225000806  -11.763302699351398  48.421675650832015  10.015510968482351  9.314377939809129  30.915859005565892  25.807608011370544  -26.14687912359705  16.677025529339662  120.000000
6.4344  0.000000  0.000000  0.000000  -42.24931963199954  -1.029832671701424  -13.71003259560125  47.87440048574788  10.480725706434386  9.345823856094123  30.732982605335234  24.050723213458603  -24.54626437316835  15.978855253690774  120.000000
6.49185  0.000000  0.000000  0.000000  -41.037225302763936  -2.210908597616405  -15.201800815973368  47.507445057514026  11.061832476535868  9.435658967012484  30.721024094209803  22.397141461397197  -23.313044510907584  15.453088491665685  120.000000
6.549300000000001  0.000000  0.000000  0.000000  -39.86076350124365  -3.185351155265647  -16.325724586470518  47.316987300779836  11.671046186710688  9.555894229498737  30.856844169655435  20.919102218478287  -22.33785056844338  15.150716434388489  120.000000
6.60675  0.000000  0.000000  0.000000  -38.78762755895964  -3.978448114254211  -17.167360737526263  47.27301438261626  12.238570758834713  9.681493794167984  31.06667970936039  19.646772805226323  -21.479053713223866  15.084880011893746  120.000000
6.6642  0.000000  0.000000  0.000000  -37.866920588969975  -4.624827202490739  -17.796629826793275  47.32028370093225  12.721806469387477  9.800667640054812  31.254620106063097  18.566562956008536  -20.60772506324181  15.23554979544008  120.000000
6.72165  0.000000  0.000000  0.000000  -37.125405501977234  -5.1444230883926485  -18.267434274754752  47.406468717538864  13.106091068114143  9.907015763721764  31.349423910804102  17.64792831386104  -19.65045992886117  15.563268715018692  120.000000
6.7791  0.000000  0.000000  0.000000  -36.573082325309166  -5.5435380004107495  -18.62012792210077  47.491833028635284  13.394662661999401  9.998493372938988  31.316783871468854  16.85840489865762  -18.587802828087835  16.012390561529447  120.000000
6.83655  0.000000  0.000000  0.000000  -36.19901951163184  -5.827883463380255  -18.884076668527403  47.55306262695044  13.599309821340128  10.07539340375875  31.150896043847222  16.164915763264364  -17.431566108275813  16.50823941121274  120.000000
6.894  0.000000  0.000000  0.000000  -35.9707936426823  -6.009852333295874  -19.079681454475033  47.58361492195563  13.735516444084018  10.137863990095783  30.86347905919848  15.534833484537144  -16.207398205641724  16.963609618890782  120.000000
6.95145  0.000000  0.000000  0.000000  -35.84355484180021  -6.10820235019208  -19.219900178465608  47.58708757137949  13.820076716867364  10.186529417350037  30.47323660233548  14.940160461886384  -14.946209044264426  17.297690493193045  120.000000
7.008900000000001  0.000000  0.000000  0.000000  -35.77594297245556  -6.145534265368983  -19.312846091412446  47.570077672366374  13.86976534051109  10.22188368910151  30.001532493032464  14.364152384859691  -13.685531469744273  17.463606541296162  120.000000
7.06635  0.000000  0.000000  0.000000  -35.74094538871189  -6.142991420357092  -19.36507204029356  47.53891844693609  13.90014319868166  10.24219903708409  29.474882727796146  13.804449972511096  -12.47545748901082  17.470103505000722  120.000000
7.1238  0.000000  0.000000  0.000000  -35.72988249355056  -6.1174350842859235  -19.38308835710216  47.497482704610825  13.925057095029256  10.244062038799816  28.927632580403145  13.271111462518805  -11.378874018735665  17.37896790572987  120.000000
7.18125  0.000000  0.000000  0.000000  -35.74651776632976  -6.081743055778446  -19.372751882278617  47.44761660326922  13.955288437158508  10.223273942627417  28.397950947349415  12.780639636322372  -10.45967103345978  17.276393338215843  120.000000
7.2387  0.000000  0.000000  0.000000  -35.79679747267226  -6.0445880960933955  -19.337798189294457  47.39089309771121  13.997139357546247  10.176406402543481  27.918940395692733  12.348491902362492  -9.763739432716115  17.237322702311708  120.000000
7.29615  0.000000  0.000000  0.000000  -35.880110455302784  -6.011285547769933  -19.279934462920494  47.32966323178748  14.052538994471153  10.103269952102568  27.503930772863534  11.983500825534856  -9.297011168587767  17.29848006725631  120.000000
7.3536  0.000000  0.000000  0.000000  -35.985962131031975  -5.984883426792781  -19.20040215074031  47.26784121401368  14.12020480660551  10.006897674789597  27.13804303453066  11.6859520740176  -9.017079584218163  17.453206923732832  120.000000
7.41105  0.000000  0.000000  0.000000  -36.097404322203694  -5.966692565714602  -19.101680431179275  47.20973162220176  14.196924992574724  9.892579366239628  26.780903878527745  11.448844539733559  -8.84373364712256  17.667671014285617  120.000000
7.468500000000001  0.000000  0.000000  0.000000  -36.197817761323186  -5.956785249094698  -18.988306757728164  47.15801943228796  14.278705019238327  9.766656677080864  26.382491112659345  11.26096827562063  -8.686002560513954  17.903471426758905  120.000000
7.52595  0.000000  0.000000  0.000000  -36.27678226592884  -5.954537364229497  -18.866931819943975  47.11285556768956  14.361812353680333  9.635317549942636  25.90351602602886  11.110380593981038  -8.472179226985599  18.134176506127645  120.000000
7.5834  0.000000  0.000000  0.000000  -36.332403290015456  -5.958901293660478  -18.745605379326722  47.07161986197733  14.443731844241823  9.504079823345757  25.32832170368572  10.986429374739505  -8.167124226573241  18.35094078917168  120.000000
7.64085  0.000000  0.000000  0.000000  -36.36950935547663  -5.968822980904099  -18.632441311067094  47.03020135430707  14.524026920016773  9.377353576326101  24.664490663628793  10.880397660251582  -7.770259108500681  18.55753165435326  120.000000
7.6983  0.000000  0.000000  0.000000  -36.396090759345235  -5.983405615891517  -18.534198599015724  46.984530732658335  14.60473515828631  9.257992496136517  23.934306162000695  10.785208397254301  -7.302418074905514  18.761575634641083  120.000000
7.75575  0.000000  0.000000  0.000000  -36.420654837837915  -6.001908274109117  -18.455370287926346  46.93165254798616  14.6899958106279  9.147242895620515  23.164896687105387  10.695162946183743  -6.791430718327237  18.96768578931731  120.000000
7.8132  0.000000  0.000000  0.000000  -36.45106208012692  -6.023836337111602  -18.39800535366976  46.87031654064041  14.785021482770272  9.045068172823147  22.38504601600833  10.605819859968737  -6.2657741544841565  19.17488744733626  120.000000
7.87065  0.000000  0.000000  0.000000  -36.49418259991265  -6.049074731661055  -18.362064556886434  46.80173120342354  14.894565799842354  8.950711187448032  21.629452580954624  10.513964866842354  -5.756776538996922  19.378545455221566  120.000000
7.928100000000001  0.000000  0.000000  0.000000  -36.55586633423867  -6.078199595174565  -18.345990962373193  46.72942966899461  15.021473808187487  8.863742702174077  20.945661568099638  10.417046229905681  -5.304190506149246  19.575207688065117  120.000000
7.98555  0.000000  0.000000  0.000000  -36.64080494432027  -6.112339347589945  -18.347302455821826  46.65803635279325  15.165850016895869  8.784992893584413  20.392931834828065  10.3123793270122  -4.953986663307288  19.767700382533885  120.000000
8.043  0.000000  0.000000  0.000000  -36.75289352079097  -6.151367129438738  -18.363343510189644  46.59081489349589  15.324974592388289  8.716175166056688  20.029774781315098  10.196593983175104  -4.7462599098818945  19.96768303192198  120.000000
8.10045  0.000000  0.000000  0.000000  -36.895958398481014  -6.191273947627642  -18.3915945854638  46.523921477406546  15.493986947735477  8.659644090226726  19.882728327235238  10.065884363105297  -4.687453430188037  20.191166084521072  120.000000
8.1579  0.000000  0.000000  0.000000  -37.076928458936074  -6.21965652881422  -18.43028840352613  46.44063720462489  15.667873795595586  8.617015151337073  19.914579848546932  9.918251785779752  -4.725526362184829  20.448200491370294  120.000000
8.21535  0.000000  0.000000  0.000000  -37.30437623775067  -6.214162253146675  -18.480816824246645  46.3124132289748  15.843131298402048  8.585741108551606  20.017375923616843  9.756242186255525  -4.751369924033086  20.7289149326225  120.000000
8.2728  0.000000  0.000000  0.000000  -37.584104911442864  -6.148186153721172  -18.547506404101824  46.107204466384225  16.014859662407442  8.561906652774574  20.07402899691242  9.587788686746416  -4.664540636470178  20.996752603984586  120.000000
8.33025  0.000000  0.000000  0.000000  -37.912929400110826  -5.999942262400909  -18.63131436710051  45.801538525899204  16.170135255443153  8.5472594915324  20.062952821941483  9.425341661338646  -4.472926098659491  21.197487021163184  120.000000
8.3877  0.000000  0.000000  0.000000  -38.276060685781054  -5.757396495389033  -18.72546215501838  45.39054091063597  16.287573549668053  8.546147718441013  20.09760298834383  9.284528850254885  -4.32087545068779  21.279210501992974  120.000000
8.44515  0.000000  0.000000  0.000000  -38.64873141039601  -5.417565520874268  -18.820365462167924  44.89262795524052  16.3491809842552  8.55729581558735  20.363927942521837  9.183658572698496  -4.411200834347895  21.21562234229447  120.000000
8.502600000000001  0.000000  0.000000  0.000000  -39.004683254280266  -4.989519016113753  -18.913457683026813  44.34080627292808  16.35108618688896  8.584097328260873  21.039263821612998  9.142597595768693  -4.910453695181151  21.026583786844544  120.000000
8.56005  0.000000  0.000000  0.000000  -39.327169906875014  -4.499136293085546  -19.006570485802428  43.78053932242142  16.298755956773924  8.637943612250334  22.280871669091294  9.186787833463294  -5.935900951192193  20.78060533697479  120.000000
8.6175  0.000000  0.000000  0.000000  -39.607713433809806  -3.9832553002306543  -19.092989149644623  43.279221303909985  16.195156297833122  8.731250482756735  24.306077315300815  9.354281027013409  -7.65213739353848  20.575610634213003  120.000000
8.67495  0.000000  0.000000  0.000000  -39.84697840644036  -3.4773481234277233  -19.15299624048749  42.92223692140558  16.036453144425572  8.881469249611824  27.39931007196936  9.701598566676282  -10.305717732287151  20.50404573218184  120.000000
8.7324  0.000000  0.000000  0.000000  -40.064854152819755  -3.0066911845776327  -19.159155108186063  42.78435784223379  15.823108791101282  9.103497592442356  31.68309631226834  10.304499021494285  -14.025759467555227  20.612393340812343  120.000000
8.78985  0.000000  0.000000  0.000000  -40.305321157098156  -2.5746612239235986  -19.082836965554996  42.9056767487549  15.56948712764584  9.398730592749041  36.92314279573167  11.246173159697447  -18.641057906106237  20.880904722116615  120.000000
8.8473  0.000000  0.000000  0.000000  -40.62153712728235  -2.1600886732688385  -18.894964307676542  43.29047898179959  15.299061534826729  9.757358781919217  42.63191555772628  12.592678847123796  -23.76943806048295  21.24246543588424  120.000000
8.90475  0.000000  0.000000  0.000000  -41.052524003500004  -1.726968754507457  -18.563647239377428  43.921997221801035  15.036673600646251  10.164573798995361  48.322542431468065  14.37376296987704  -29.044680605660545  21.617699943035245  120.000000
8.9622  0.000000  0.000000  0.000000  -41.60525669126585  -1.2347028641310154  -18.050638216890786  44.77268043099245  14.803872269004415  10.607503679374764  53.68241708634333  16.57541081236439  -34.26652482180102  21.943943797406206  120.000000
9.01965  0.000000  0.000000  0.000000  -42.25248070674692  -0.6457782108722105  -17.307779974521747  45.807824792889555  14.620760492616135  11.078501322551258  58.58756366782343  19.14639593843981  -39.400853976818794  22.188080290508434  120.000000
9.0771  0.000000  0.000000  0.000000  -42.94057224487258  0.07728217075921283  -16.276640336828397  46.99096395027702  14.512331822098524  11.571335057718283  63.02459277409442  22.0166602789944  -44.49761828410748  22.342457506222754  120.000000
9.13455  0.000000  0.000000  0.000000  -43.61023746749225  0.9731001118538595  -14.891354530240223  48.28681560844556  14.509936143633455  12.078397386960626  67.00758254115772  25.11648961066435  -49.605791969065315  22.411868357203847  120.000000
9.192  0.000000  0.000000  0.000000  -44.221736789431986  2.075993160166936  -13.083952796384297  49.65378535804934  14.640658717289972  12.598552115414686  70.53395298834849  28.383425723701816  -54.725658444022145  22.399645434414968  120.000000
9.24945  0.000000  0.000000  0.000000  -44.77638789483454  3.408016287983422  -10.791710739290384  51.03450144129021  14.91034760021943  13.148331071820827  73.58506710419653  31.75836756632322  -59.80452152591853  22.30107630413604  120.000000
9.3069  0.000000  0.000000  0.000000  -45.318932683417714  4.971409795924745  -7.966773863378774  52.358671693330386  15.294139746730218  13.762882606547496  76.14532367312162  35.17794247909632  -64.75579931082682  22.103769191542558  120.000000
9.36435  0.000000  0.000000  0.000000  -45.92534808431495  6.7420028605081175  -4.5846261387710525  53.558438153409625  15.739645154144126  14.484118877896922  78.21938318219702  38.57201800260505  -69.48212359576493  21.797514586610436  120.000000
9.421800000000001  0.000000  0.000000  0.000000  -46.68427275671268  8.661601297729426  -0.6522799522509587  54.58463386803047  16.176344043231087  15.343007343556595  79.83458697694  41.864692267103045  -73.89124470020813  21.385123918110313  120.000000
9.47925  0.000000  0.000000  0.000000  -47.68138697570582  10.630116285347148  3.783441716960517  55.41004697722001  16.524468414373924  16.346628943244156  81.03198784866666  44.975024599601674  -77.90246302484863  20.89000545481803  120.000000
9.5367  0.000000  0.000000  0.000000  -48.980696637638744  12.509618394858817  8.628110314215773  56.02654578133327  16.705273688908797  17.47156297419734  81.85685082237525  47.819422453990356  -81.44813340484856  20.351713940872585  120.000000
9.59415  0.000000  0.000000  0.000000  -50.59770434415599  14.147909636682286  13.732798332589534  56.44302473470112  16.6547876675132  18.662529133985245  82.35293117098527  50.31946248420788  -84.47374591569964  19.81455921274847  120.000000
9.6516  0.000000  0.000000  0.000000  -52.47107979374085  15.422873542091223  18.898099967692712  56.6923890696751  16.345528643964418  19.83565785030801  82.56581131119296  52.41931893078292  -86.94168650183893  19.318542679416236  120.000000
9.70905  0.000000  0.000000  0.000000  -54.46170206166737  16.28719814495808  23.889122520685927  56.830439781423074  15.796574808554956  20.89274419825354  82.54875345650989  54.09818560047047  -88.83624375509427  18.894174863287777  120.000000
9.7665  0.000000  0.000000  0.000000  -56.385840681198864  16.768502836711672  28.460903136218757  56.914439323498996  15.060361646436416  21.74347376607595  82.36610154382588  55.36364452813564  -90.16937897861871  18.56175309257896  120.000000
9.82395  0.000000  0.000000  0.000000  -58.05359730156064  16.958277139833218  32.39027868959437  56.9873510507366  14.210050391613184  22.316921489634055  82.08891164504966  56.23898419287553  -90.98259009137128  18.33209421532117  120.000000
9.8814  0.000000  0.000000  0.000000  -59.30485429951284  16.97707212405764  35.494828327760544  57.07191017018443  13.324499471026286  22.567052891131492  81.78665162534783  56.75383324185873  -91.3412131174677  18.20804090746173  120.000000
9.93885  0.000000  0.000000  0.000000  -60.02012856175684  16.94002584431092  37.63799813209957  57.17064285018979  12.475604779235862  22.47831202043217  81.51412245553217  56.9336619638117  -91.32087002193379  18.179889345502435  120.000000
9.9963  0.000000  0.000000  0.000000  -60.128299719833336  16.931042698171243  38.72624996985184  57.27866565093814  11.717188783418633  22.063964502101186  81.29527236998632  56.79799591575335  -90.98682173845152  18.226441916481786  120.000000
10.05375  0.000000  0.000000  0.000000  -59.60580141718659  16.988738219074094  38.7055104614669  57.392610057112854  11.07722349644259  21.36462061192399  81.10922927148472  56.357167532361466  -90.37097918466975  18.31911477290061  120.000000
10.1112  0.000000  0.000000  0.000000  -58.478627366429066  17.097023347721137  37.56559982873559  57.51518572398452  10.55735330622107  20.444807526227223  80.88810117470287  55.61130011358218  -89.45271099945161  18.42886944524944  120.000000
10.16865  0.000000  0.000000  0.000000  -56.82134075437215  17.181628855468563  35.35330976772635  57.65242012339045  10.136923185190462  19.38952507335594  80.53011810221055  54.54883874573895  -88.15046211756346  18.529821596380337  120.000000
10.2261  0.000000  0.000000  0.000000  -54.753736603633094  17.120565451566137  32.18799262752382  57.805187690894954  9.780543086449407  18.29527400683982  79.9153414519323  53.14801307253527  -86.33134575326989  18.60030462787825  120.000000
10.28355  0.000000  0.000000  0.000000  -52.43972631934024  16.782490415148345  28.268447623028678  57.97108798927693  9.449407655203926  17.2519125407482  78.91243322369876  51.38850424343569  -83.83461532331367  18.625950446768833  120.000000
10.341000000000001  0.000000  0.000000  0.000000  -50.06377120715869  16.07200348448791  23.854440169880707  58.145227318208654  9.101450512815179  16.33286707016468  77.38352867628802  49.265148867731774  -80.50346396794308  18.606414943903264  120.000000
10.39845  0.000000  0.000000  0.000000  -47.80058467826656  14.959683989315987  19.227056450488117  58.32497231595811  8.684872198806337  15.587527507028902  75.18716853308231  46.80600163431577  -76.20832409383618  18.569180073112857  120.000000
10.4559  0.000000  0.000000  0.000000  -45.775875082619294  13.492835808845705  14.650295240039107  58.50725053370679  8.140346306816342  15.038075861669418  72.17849361120935  44.07957719137552  -70.85470731259251  18.575271254525916  120.000000
10.51335  0.000000  0.000000  0.000000  -44.051661095021416  11.762730564522066  10.344805088918946  58.677250266598215  7.402909808285965  14.681853251074607  68.20106022362042  41.194834780556064  -64.37097298799749  18.706396720468888  120.000000
10.5708  0.000000  0.000000  0.000000  -42.632907664795276  9.880599747292713  6.483170302598234  58.80806009339487  6.417411675348988  14.48676846019542  63.084247898200296  38.30153950764556  -56.695519675094864  19.03752193660529  120.000000
10.62825  0.000000  0.000000  0.000000  -41.47964409169886  7.9451034862194145  3.1953472709185475  58.867206240402766  5.149578751541598  14.397228480324632  56.677014429366245  35.58914576805622  -47.796684232135306  19.60137054294181  120.000000
10.6857  0.000000  0.000000  0.000000  -40.524015194940496  6.031531022147329  0.5715497141186296  58.834508657997084  3.589513787806231  14.336937979326915  48.93804612935758  33.27441172903352  -37.74997629682044  20.36954437342649  120.000000
10.74315  0.000000  0.000000  0.000000  -39.68325754046999  4.189810225886274  -1.3355003913689403  58.708448787774564  1.7523005925770296  14.216199779038408  40.05438114253017  31.5546457294372  -26.845552831239292  21.25597679718744  120.000000
10.8006  0.000000  0.000000  0.000000  -38.8760714093591  2.449646543510666  -2.5097672127447113  58.496226555643666  -0.3275688238984648  13.94652156287289  30.49531573966107  30.53661651260763  -15.634395132622448  22.143338126069654  120.000000
10.85805  0.000000  0.000000  0.000000  -38.049704928483465  0.8274989094891839  -2.9682661024022643  58.199919359403566  -2.6048446858962095  13.461643947676219  20.909553743873253  30.187254620058397  -4.810381390508596  22.92233138500387  120.000000
10.9155  0.000000  0.000000  0.000000  -37.19585852107627  -0.6520132051392142  -2.7574452325839633  57.81468625301156  -5.033305775855044  12.731556807973174  11.917756045618386  30.35011487167711  5.007031294543641  23.51798388408527  120.000000
10.97295  0.000000  0.000000  0.000000  -36.35816764551599  -1.9600526620872754  -1.9529795404546377  57.33860517949356  -7.564123746009775  11.751237123913622  3.9473039769651375  30.81754916075849  13.436653785178988  23.88844939718822  120.000000
11.0304  0.000000  0.000000  0.000000  -35.61537437286405  -3.058753656718059  -0.6511347475289614  56.76909409512701  -10.14251035521556  10.539500852011756  -2.793179058578713  31.396164856457606  20.34520227561499  24.012007966767268  120.000000
11.08785  0.000000  0.000000  0.000000  -35.03905577830942  -3.918701459346461  1.0439265416041559  56.11429946121609  -12.703957735763462  9.128458431588205  -8.26684721898341  31.946549787546257  25.782988599059898  23.87384888915192  120.000000
11.1453  0.000000  0.000000  0.000000  -34.65665654408036  -4.53228789447683  3.0319912483845894  55.392508326640375  -15.180830100839698  7.560981988275221  -12.550446000462992  32.386197710387755  29.896606741033914  23.451999495151295  120.000000
11.20275  0.000000  0.000000  0.000000  -34.44498869962984  -4.899336959490613  5.226878956536134  54.62470870685597  -17.504934947627177  5.879212379072341  -15.807167120379907  32.69271803465999  32.88850788456229  22.711507161329678  120.000000
11.260200000000001  0.000000  0.000000  0.000000  -34.37573252460004  -5.021843555011897  7.560907143518121  53.842822601793365  -19.629717290086592  4.1360924208007885  -18.203998303792194  32.876166427168286  34.94374368261445  21.623003095490677  120.000000
11.31765  0.000000  0.000000  0.000000  -34.41977697056239  -4.959191517267394  9.984673159120533  53.09889519756597  -21.55463208373764  2.386597332422741  -19.873263241406086  32.94844929963662  36.209934244170555  20.167676651945982  120.000000
11.3751  0.000000  0.000000  0.000000  -34.558847504159516  -4.808825193684121  12.462448252121549  52.453731713017156  -23.34992343895635  0.707315185200466  -20.898772627219596  32.890649195299765  36.79326613490313  18.37056093218856  120.000000
11.43255  0.000000  0.000000  0.000000  -34.74748561492798  -4.715527800707211  14.961344248287698  51.967358244744254  -25.13804107050087  -0.8252750985629828  -21.34265452216681  32.65638163250806  36.79021655242016  16.32477359687742  120.000000
11.49  0.000000  0.000000  0.000000  -34.894586453775666  -4.816828028207868  17.4535795262178  51.67202869804026  -27.069079189135298  -2.121999270105786  -21.25568967754902  32.16795527884751  36.30211110371361  14.212918249973152  120.000000
