Simulation
nRows=201
nColumns=15
endheader
time  TH_x TH_y TH_z SC_y  SC_z  SC_x  AC_y  AC_z  AC_x  GH_y  GH_z  GH_yy  EL_x  PS_y
0.0  0.000000  0.000000  0.000000  -40.97484877243665  6.293857566463187  5.290427962726946  39.03144340109962  -2.2919615299819114  -7.266864030532977  90.28871523455116  6.6049507959779135  -59.55189378337151  22.661684942138557  120.000000
0.05745  0.000000  0.000000  0.000000  -38.997082677729644  4.768210696213769  3.8673094226258575  39.903608816095414  -2.482705689375644  -6.321135835728553  46.9060727238279  7.115937189858332  -19.39559784632241  22.07050893511988  120.000000
0.1149  0.000000  0.000000  0.000000  -37.06763656722288  3.1805581366619604  2.2905465560310376  40.841642833262014  -2.757591921056253  -5.224457468872949  20.458795961890534  10.255761975275318  3.8694320469683148  21.649092406406083  120.000000
0.17235  0.000000  0.000000  0.000000  -35.302028311194206  1.531077979700261  0.5297277727917937  41.86282170101399  -3.1267069602944395  -3.87815566171551  7.009660063669807  14.37559816632252  14.213007141955543  21.483031180191826  120.000000
0.2298  0.000000  0.000000  0.000000  -33.827662997900646  -0.20150274702712265  -1.3997636542536158  43.03771422962134  -3.570351664620865  -2.2239177288340963  -0.9163439161427112  18.901963142026155  19.13944077160104  21.591485573565215  120.000000
0.28725  0.000000  0.000000  0.000000  -32.73172779390227  -1.9876469208297227  -3.468971497817457  44.39117244514644  -4.003448878345718  -0.270222093249307  -6.231983574149376  23.656646582658812  21.57574126243452  21.91591991617925  120.000000
0.3447  0.000000  0.000000  0.000000  -32.033909417062446  -3.715318385170673  -5.626810974256669  45.858189887476605  -4.292440318954884  1.9097405483399137  -10.067361668140599  28.492464797043535  22.667849134581793  22.3570818328536  120.000000
0.40215  0.000000  0.000000  0.000000  -31.68850646552098  -5.205680244717796  -7.801602296735055  47.30740151907464  -4.279146928811427  4.191991875040295  -12.906392548450084  33.22773790682968  22.911744977622455  22.794389851382732  120.000000
0.4596  0.000000  0.000000  0.000000  -31.60367967307554  -6.238453487227316  -9.901919363496555  48.59911261073043  -3.828422156602563  6.428181897340443  -14.99483948306214  37.66768134638705  22.571881311866655  23.124817233950246  120.000000
0.51705  0.000000  0.000000  0.000000  -31.735608565910315  -6.614250953078413  -11.829949201693557  49.63421722203187  -2.8784458067932555  8.497494345323954  -16.465062467332483  41.66020212099728  21.81016147127139  23.280596150575388  120.000000
0.5745  0.000000  0.000000  0.000000  -32.149279887224665  -6.247070181856089  -13.519760132634838  50.386868436072945  -1.4377514057732  10.355270004465208  -17.374414526112936  45.13514337526246  20.73625270195302  23.232482401589987  120.000000
0.63195  0.000000  0.000000  0.000000  -33.016837313066645  -5.19225593659349  -14.96437517679827  50.92454944377695  0.44863680751811347  12.054338824530278  -17.700363699278796  48.10636602723057  19.39945826619037  22.99416934936095  120.000000
0.6894  0.000000  0.000000  0.000000  -34.4943917550998  -3.624685513614845  -16.15159579691135  51.37368265383525  2.6995896254323055  13.685930917347271  -17.39053712625429  50.636861821108624  17.809056296440364  22.613245829178297  120.000000
0.74685  0.000000  0.000000  0.000000  -36.59921567174992  -1.7736772138307064  -17.02507607894116  51.86237241801571  5.199776598653611  15.295783917726558  -16.456251082011267  52.79295376869536  15.966365230541955  22.145391315758015  120.000000
0.8043  0.000000  0.000000  0.000000  -39.17202870547132  0.13754574743288353  -17.511304644863213  52.46029993600863  7.830102580211407  16.851936508918374  -15.040397563163504  54.607969798889066  13.890974480600471  21.632456327803077  120.000000
0.86175  0.000000  0.000000  0.000000  -41.93761007442383  1.939697654355344  -17.537835352768198  53.15669657937117  10.477391170612751  18.274107218910995  -13.387327937255257  56.07591803673178  11.622519148550547  21.104246802648376  120.000000
0.9192  0.000000  0.000000  0.000000  -44.58489244335798  3.549689288174164  -17.04289127731515  53.89807549799975  13.040091951474976  19.46363107148943  -11.75354319944271  57.18440194322784  9.212064275039586  20.583426963283316  120.000000
0.97665  0.000000  0.000000  0.000000  -46.86154845093757  4.950656307423575  -15.974865406428428  54.61763043165322  15.423592189219132  20.354541284725247  -10.335338695466348  57.954061180420325  6.732573145693428  20.088071445743715  120.000000
1.0341  0.000000  0.000000  0.000000  -48.644255589521286  6.163164725855865  -14.321984205607173  55.2635840066944  17.540191122817056  20.939655762877234  -9.23420767798189  58.441728196779785  4.289763717593526  19.628723958295243  120.000000
1.09155  0.000000  0.000000  0.000000  -49.9436640300916  7.216439107548289  -12.14050446412757  55.80884239384913  19.32382023158316  21.2596187351004  -8.460857551455977  58.73036653506295  2.0192897032944015  19.205954866483516  120.000000
1.149  0.000000  0.000000  0.000000  -50.85821197805937  8.130825576458426  -9.550366874487626  56.245464940837735  20.748783870854176  21.38200767676058  -7.965886829650787  58.907468858972  0.0630504306954594  18.81533740077662  120.000000
1.20645  0.000000  0.000000  0.000000  -51.50719272023505  8.908125377528561  -6.715318135936546  56.57728802183559  21.83062361320173  21.37666138641835  -7.675635956063241  59.04491458048341  -1.4702007638734687  18.451732173928683  120.000000
1.2639  0.000000  0.000000  0.000000  -51.98608565893975  9.537239411195353  -3.816435784704144  56.81593947341532  22.607621413439865  21.29713053404228  -7.518291647115854  59.18608531275548  -2.538782255570251  18.112403248584652  120.000000
1.32135  0.000000  0.000000  0.000000  -52.3491573728104  10.005764829572984  -1.0342533531872147  56.98056966435516  23.1236835822116  21.17141366308012  -7.434620623168102  59.34966880742843  -3.1831812646643165  17.798967987241603  120.000000
1.3788  0.000000  0.000000  0.000000  -52.61328866720575  10.30893523720042  1.466190013394614  57.09669451962709  23.42053569844474  21.00556624922441  -7.382659161392089  59.535284087010176  -3.5109779404303474  17.51772565816335  120.000000
1.43625  0.000000  0.000000  0.000000  -52.774427871823455  10.455388721040629  3.5395379842701966  57.19396054711402  23.533473792954936  20.791661138058448  -7.337155510691069  59.73147218516174  -3.6643267717201273  17.27723915893079  120.000000
1.4937  0.000000  0.000000  0.000000  -52.82163930607647  10.46383543030202  5.065084029027333  57.30008200750381  23.489603928384163  20.517802180665615  -7.289299695887299  59.919441774591604  -3.7808393003660146  17.085681706502186  120.000000
1.55115  0.000000  0.000000  0.000000  -52.748563264908995  10.357725919184057  5.949951771963415  57.436436893098296  23.304155699977436  20.177784038368838  -7.241059398690339  60.07773318793352  -3.9644299408716823  16.949189103443413  120.000000
1.6086  0.000000  0.000000  0.000000  -52.556436032861235  10.156630512337543  6.134839813896655  57.6131090477778  22.97851118602573  19.7796248560129  -7.199178601797261  60.18639772679283  -4.269251251276372  16.871257140237386  120.000000
1.66605  0.000000  0.000000  0.000000  -52.25439637327689  9.868884105922474  5.6011397985252  57.826156828658455  22.500304739621114  19.35155808737342  -7.168278874928376  60.23198493848334  -4.698785766127005  16.85205618910711  120.000000
1.7235  0.000000  0.000000  0.000000  -51.856535460369116  9.488469215411977  4.376702078010968  58.05803674618553  21.847065864733942  18.939704022101157  -7.1487225909777035  60.21341706089153  -5.2144406968344965  16.885756850771966  120.000000
1.78095  0.000000  0.000000  0.000000  -51.37705600405577  8.995366227877795  2.5409979822668327  58.28019038721172  20.9949401790736  18.59720093585496  -7.143130363971705  60.14109427278816  -5.749249892248207  16.9571887964743  120.000000
1.8384  0.000000  0.000000  0.000000  -50.82538564181392  8.365609999986107  0.22018495012759512  58.45750487234619  19.925788399666207  18.367888286118358  -7.165705517300177  60.03178262024422  -6.225980333070503  17.04287650012759  120.000000
1.89585  0.000000  0.000000  0.000000  -50.194738106514805  7.582433880146628  -2.424140532802763  58.55061279960866  18.636798403782326  18.273345036897233  -7.250635939242272  59.89354905620353  -6.577217923080825  17.116773903632765  120.000000
1.9533  0.000000  0.000000  0.000000  -49.45140264682992  6.645722174875377  -5.217246563988594  58.51825011034175  17.14963229100191  18.305378606093665  -7.45177459417907  59.71067197967456  -6.766568966356472  17.15832726349242  120.000000
2.01075  0.000000  0.000000  0.000000  -48.5285251112258  5.572721956256498  -7.993725287334031  58.31824625718682  15.517927374342078  18.42583219911645  -7.83659286454463  59.429000099213695  -6.801965092873201  17.157585969873207  120.000000
2.0682  0.000000  0.000000  0.000000  -47.339754715351354  4.39217174113307  -10.615916819881432  57.915917440253956  13.827860293918189  18.572411938944658  -8.468349346314904  58.95290487768319  -6.735708191411028  17.114018838589963  120.000000
2.1256500000000003  0.000000  0.000000  0.000000  -45.813387934725974  3.139498899406076  -12.983116673699525  57.29326912470839  12.186601583488518  18.67218276962911  -9.379693096002162  58.16070763420491  -6.644934653463033  17.029560222584905  120.000000
2.1831  0.000000  0.000000  0.000000  -43.944582349941186  1.8563404399857335  -15.036422229164357  56.46374779711741  10.697472369958007  18.661852607957105  -10.534589882526918  56.93985253402837  -6.600711620877803  16.903262684777317  120.000000
2.24055  0.000000  0.000000  0.000000  -41.832353056978775  0.5907774309177033  -16.763660339836317  55.47453528808735  9.434600803250518  18.509294217919287  -11.802215225196973  55.22505977063676  -6.637662668814393  16.72849186181865  120.000000
2.298  0.000000  0.000000  0.000000  -39.67522495024469  -0.6022757795547293  -18.192616469254695  54.386864554493265  8.438569521329063  18.22933881704723  -12.9640599058296  53.01340772979482  -6.739393748522403  16.495341980185046  120.000000
2.3554500000000003  0.000000  0.000000  0.000000  -37.70201015141584  -1.6496950336207685  -19.383711792535305  53.256190085472106  7.73388071349126  17.86289225648771  -13.765040055933643  50.34388989790819  -6.843441414136685  16.192407922317326  120.000000
2.4129  0.000000  0.000000  0.000000  -36.093402706683484  -2.4699969477757695  -20.412629108156015  52.10020013089631  7.347809448987887  17.4579509484982  -13.990036936460923  47.254260959982915  -6.8546722556546  15.811863382551824  120.000000
2.47035  0.000000  0.000000  0.000000  -34.93427052719811  -2.991057693674929  -21.35798380842621  50.8863219792025  7.312651723404826  17.061029069976772  -13.510162003489649  43.761258576593285  -6.669988075076528  15.36041194930751  120.000000
2.5278  0.000000  0.000000  0.000000  -34.21481616873311  -3.168487782287778  -22.29109000117417  49.565460771214575  7.654154295938913  16.706601115386313  -12.252441952070338  39.89231423225539  -6.232818668562483  14.871573818327159  120.000000
2.5852500000000003  0.000000  0.000000  0.000000  -33.87902831788345  -2.997171338817799  -23.226019980376716  48.10872654328455  8.34574110570466  16.415595422887474  -10.14086360512624  35.72556178722164  -5.586170896184273  14.40659323207414  120.000000
2.6427  0.000000  0.000000  0.000000  -33.86748241842782  -2.527227218025137  -24.090069645856094  46.53813824821161  9.291031454445749  16.172271597815204  -7.084980962399422  31.398857350933465  -4.890625648607642  14.03028623685615  120.000000
2.70015  0.000000  0.000000  0.000000  -34.143856687402206  -1.8502943062630848  -24.76524247556864  44.93218887215926  10.361852336465864  15.936744262233246  -2.987171402983373  27.079438497709802  -4.423285930952469  13.78935973616764  120.000000
2.7576  0.000000  0.000000  0.000000  -34.70022197173271  -1.0626201523023298  -25.13364319863041  43.40537323534691  11.435527244516942  15.663525814073422  2.2916744981601087  22.930062351578492  -4.59491343165591  13.706746982939448  120.000000
2.8150500000000003  0.000000  0.000000  0.000000  -35.53059525025733  -0.25583083724483796  -25.10496925081937  42.07559149073052  12.424593635601124  15.297962267874802  8.982224502955672  19.100630248459026  -5.965933655471764  13.78425295451635  120.000000
2.8725  0.000000  0.000000  0.000000  -36.60692771809396  0.49376215765978054  -24.63454595835763  41.02908353512128  13.280141145699352  14.795616669457841  17.43551558642075  15.729136539830668  -9.224070150021362  14.009576363376741  120.000000
2.92995  0.000000  0.000000  0.000000  -37.87231553236252  1.1384976648653113  -23.728668774146215  40.312164624732674  13.976438231212024  14.131617568885874  28.081716648315226  12.948544251799385  -15.08827777148691  14.360657651882647  120.000000
2.9874  0.000000  0.000000  0.000000  -39.24746918768769  1.6593588238726376  -22.42984777257636  39.928257822838134  14.493012549041659  13.301506528715814  41.12773435643206  10.880147154822193  -23.96639934340719  14.804690918049683  120.000000
3.0448500000000003  0.000000  0.000000  0.000000  -40.64602413607356  2.0629677822463632  -20.800665324206804  39.84101736026957  14.806604790183464  12.318778330759331  55.928727316830084  9.584980528852803  -35.31239832742529  15.297947988845667  120.000000
3.1023  0.000000  0.000000  0.000000  -41.99233151780184  2.3815828631642395  -18.919739842841338  39.99311373215111  14.899965313600285  11.2055590842757  70.74371353314831  8.999434077297884  -47.39160969983275  15.79762350281708  120.000000
3.15975  0.000000  0.000000  0.000000  -43.23182611362778  2.6488276809887665  -16.8772044439797  40.30976418364033  14.774571533105068  9.997170507285356  83.63716265766882  8.930558646926062  -58.20470877426004  16.269585210777237  120.000000
3.2172  0.000000  0.000000  0.000000  -44.326375407286605  2.8845186233944  -14.770223774566826  40.69944907961588  14.452572297249471  8.745790321442094  93.63131789848018  9.136687425643094  -66.66205079218142  16.696448771020403  120.000000
3.2746500000000003  0.000000  0.000000  0.000000  -45.245302444628756  3.1050448169211875  -12.68859463272361  41.07971867690896  13.966143785806794  7.492736212401668  100.76324825422425  9.42537910615858  -72.66814166745297  17.08025033480611  120.000000
3.3321  0.000000  0.000000  0.000000  -45.95848908939634  3.3233399758208177  -10.703676847947827  41.398048431142946  13.347890071848422  6.251977599988523  105.46484973096356  9.690494224494268  -76.53177450714635  17.434416095439605  120.000000
3.38955  0.000000  0.000000  0.000000  -46.443919896017974  3.5418323382987773  -8.867554269582948  41.627102250695444  12.618867289014291  5.034689476614639  108.16208709084833  9.894253617951694  -78.5877679872224  17.772989764946033  120.000000
3.447  0.000000  0.000000  0.000000  -46.6882844460271  3.7539322638405457  -7.218873090767944  41.76334906272545  11.79035728473068  3.862001375370406  109.17640947090547  10.040201591438814  -79.10569439316878  18.10729464693151  120.000000
3.5044500000000003  0.000000  0.000000  0.000000  -46.68515784476705  3.9463771886250782  -5.78927486827887  41.81724552800272  10.875099267460445  2.7619042938172353  108.7591022769417  10.15373976737424  -78.3229488648415  18.445486806279387  120.000000
3.5619  0.000000  0.000000  0.000000  -46.43248442631648  4.098322998701559  -4.604108152912653  41.798925474462976  9.894203580290732  1.7690069882398811  107.15201688188534  10.259673996100222  -76.49622325831496  18.792015047171873  120.000000
3.61935  0.000000  0.000000  0.000000  -45.929821409532344  4.194424748996852  -3.67061478731007  41.72684961702101  8.867048641484223  0.915611446133526  104.60011389879824  10.369991194151513  -73.9028960017336  19.150680503149573  120.000000
3.6768  0.000000  0.000000  0.000000  -45.18563443483898  4.223430747522873  -2.9641591639674685  41.6413195276711  7.798488495748438  0.22066165282933306  101.27517630995442  10.47152222660163  -70.75870683507016  19.52313460898843  120.000000
3.7342500000000003  0.000000  0.000000  0.000000  -44.22356550166464  4.177732821490721  -2.45219513315331  41.6100767822193  6.689845610159104  -0.29506377402266504  97.17704523652488  10.528494895480943  -67.11040452889061  19.90619704965699  120.000000
3.7917  0.000000  0.000000  0.000000  -43.08389665254576  4.057479230911905  -2.1112908356730555  41.715360249793925  5.547366076873522  -0.5991866556303787  92.09712745173113  10.501895554582495  -62.78426422688326  20.2959671751172  120.000000
3.84915  0.000000  0.000000  0.000000  -41.8255342156238  3.862734200702805  -1.9227548601512847  42.023112150564785  4.379903319760296  -0.6520443292492364  85.60893680274701  10.369191340256602  -57.363413106185554  20.687507398987925  120.000000
3.9066  0.000000  0.000000  0.000000  -40.51586054130246  3.586462164506142  -1.8703075392860062  42.57358392687879  3.198189046542058  -0.41938536814784594  77.06870578170613  10.159004505943843  -50.17960074476969  21.07674989351555  120.000000
3.9640500000000003  0.000000  0.000000  0.000000  -39.21570217399714  3.2202574054255138  -1.9387297092360312  43.39749071780985  2.0029274561952315  0.11853778580782619  65.75953917128965  10.006591863551055  -40.45689358299949  21.4629134052006  120.000000
4.0215  0.000000  0.000000  0.000000  -37.979904364795885  2.7396099047804254  -2.1165247964826923  44.51484753417514  0.7800039047765891  0.9676196413192801  51.43127945933176  10.19638449996085  -27.861240728651605  21.845557916253238  120.000000
4.07895  0.000000  0.000000  0.000000  -36.85952721617974  2.1014190095932683  -2.4114085638912144  45.91024133072417  -0.49396972849151  2.1483619922335935  35.30900475294993  11.118143398725607  -13.518972966710527  22.218438767878084  120.000000
4.1364  0.000000  0.000000  0.000000  -35.89223571495945  1.2776514288270862  -2.8358675844450096  47.545046159633486  -1.8652315416483551  3.6731439463684614  20.1255936629231  13.089301287523519  -0.06499102047231144  22.573041284500107  120.000000
4.19385  0.000000  0.000000  0.000000  -35.10212677195784  0.26021737538874784  -3.387366881080776  49.36840855544893  -3.377065034281501  5.482998297918986  8.054060055354926  16.17090542074487  10.399210850757457  22.88319929685354  120.000000
4.2513000000000005  0.000000  0.000000  0.000000  -34.50443704092947  -0.9124209556303715  -4.021460503241954  51.26572884129757  -5.057944282901068  7.46964488688235  -0.5731956630422905  20.158405616986833  17.590441139460996  23.11061231545072  120.000000
4.30875  0.000000  0.000000  0.000000  -34.115081953816905  -2.17668633296721  -4.634826580002037  53.09960356824875  -6.924156140859474  9.517500072741315  -6.379243463434593  24.706407181369066  22.163282297742967  23.239728850311877  120.000000
4.3662  0.000000  0.000000  0.000000  -33.92673220814301  -3.454846026044887  -5.18138368904595  54.784870980249934  -8.86045956460461  11.56278046569756  -10.041050370559768  29.429670214059612  24.79704156138943  23.274258931092387  120.000000
4.42365  0.000000  0.000000  0.000000  -33.90469083000032  -4.600356244609694  -5.65633917357858  56.285227877191815  -10.630800444378137  13.55458251360903  -12.09000938792114  33.98171609971998  25.98438088216349  23.2573379797036  120.000000
4.4811  0.000000  0.000000  0.000000  -34.01747270503897  -5.47338877310963  -6.0089157808301294  57.623686649675626  -11.99588997462174  15.389293052877221  -12.916775900149052  38.13543458205252  26.028681385045665  23.24881459171467  120.000000
4.53855  0.000000  0.000000  0.000000  -34.256738444549306  -5.988649646920025  -6.166474904162908  58.88003652680486  -12.76844897937602  16.962117670258934  -12.812223776024027  41.78260743266878  25.119810173754622  23.297483549246323  120.000000
4.596  0.000000  0.000000  0.000000  -34.68638874314453  -6.060065683833181  -6.039703285536251  60.154753018311844  -12.891771923504827  18.241224797571807  -12.012466173818918  44.9019042514832  23.408268449666046  23.440459529963306  120.000000
4.65345  0.000000  0.000000  0.000000  -35.39586888495535  -5.584527518872921  -5.524740194949203  61.518394535250785  -12.470813709090793  19.278664160466782  -10.72438182571222  47.53107704798871  21.049428694009784  23.68216037645515  120.000000
4.7109000000000005  0.000000  0.000000  0.000000  -36.43316814470744  -4.456230901511947  -4.502201601350668  62.98800353580306  -11.76471110461527  20.195576644688124  -9.14807912395801  49.73856374588152  18.20784274550398  23.975850890607294  120.000000
4.76835  0.000000  0.000000  0.000000  -37.699883860620616  -2.650132834847233  -2.841636113533708  64.5284435443893  -11.02015240189344  21.086736359713232  -7.532850968588979  51.54836002615259  15.071401743697143  24.237320507299984  120.000000
4.8258  0.000000  0.000000  0.000000  -38.955899229374445  -0.285216602008562  -0.4468613805074469  66.07665833636405  -10.30201033550553  21.924187978572917  -6.131238909763539  52.91371989753311  11.819482331738962  24.38554331100097  120.000000
4.88325  0.000000  0.000000  0.000000  -40.053869908253866  2.4593006681016587  2.7029738167790467  67.55040216228981  -9.623371146343366  22.64865379306474  -5.105378228686634  53.8221510423506  8.567398846565851  24.364964463712603  120.000000
4.9407  0.000000  0.000000  0.000000  -41.046000197768464  5.411235403556605  6.548902068011099  68.85368177221648  -9.039378037825125  23.230490056321383  -4.4562838753850125  54.333200719473524  5.353075079095397  24.160539694263495  120.000000
4.99815  0.000000  0.000000  0.000000  -42.082117756047694  8.396435910218624  10.972332607463795  69.89542731955596  -8.596720877646405  23.64164234721225  -4.0358654876476265  54.547994007137405  2.162384842100674  23.78987674940646  120.000000
5.0556  0.000000  0.000000  0.000000  -43.28163032731217  11.257037745927608  15.823442524648167  70.5859156834536  -8.339766765861478  23.85235069212034  -3.682602775183684  54.58050575489686  -0.9991785628687113  23.27813118972308  120.000000
5.11305  0.000000  0.000000  0.000000  -44.669474104331876  13.85903626864511  20.93126667863993  70.86564420839883  -8.304363119334711  23.83851924887322  -3.302801422294499  54.53464617617316  -4.0823432372028545  22.653873479030757  120.000000
5.1705000000000005  0.000000  0.000000  0.000000  -46.16256893897584  16.103595043985777  26.115072940458752  70.74496693063564  -8.492465095658549  23.598344514773164  -2.8756104496110435  54.496799495467975  -7.006470397019669  21.960307512813333  120.000000
5.22795  0.000000  0.000000  0.000000  -47.64122870392306  17.934605636323315  31.184657502056208  70.29728201415156  -8.868835059093502  23.159188863704344  -2.430678924213654  54.53434443809179  -9.686193063656404  21.248648864295813  120.000000
5.2854  0.000000  0.000000  0.000000  -49.013861116416116  19.33020793808721  35.93809283303507  69.62844202996152  -9.375611581440142  22.569453997540776  -2.0107123038048225  54.6824348739463  -12.0582700153941  20.567787946072695  120.000000
5.34285  0.000000  0.000000  0.000000  -50.21271851407595  20.302321216645126  40.16961068269356  68.8625235667951  -9.94848285990731  21.88599628236125  -1.6353173148772768  54.943640211991664  -14.099497542852655  19.9590203812776  120.000000
5.4003  0.000000  0.000000  0.000000  -51.18028511817735  20.892970650880674  43.68016326517866  68.11900101939187  -10.52735873437727  21.168592418527428  -1.30258437311766  55.29756182818287  -15.820701433805894  19.444903597516248  120.000000
5.45775  0.000000  0.000000  0.000000  -51.862973490311454  21.167041655860633  46.29009448291043  67.49487220730913  -11.064266515569988  20.472682292860092  -1.0109523462360195  55.70862045323221  -17.24554927911438  19.027983934157504  120.000000
5.5152  0.000000  0.000000  0.000000  -52.21281627787157  21.195244568509864  47.848886683950006  67.0623911008235  -11.524827274848256  19.844793017404704  -0.7667031176623254  56.136323198885336  -18.395806899649717  18.70193030337671  120.000000
5.57265  0.000000  0.000000  0.000000  -52.19152464052888  21.024939221424013  48.24742978181566  66.86269868106645  -11.885505232529445  19.323558516033113  -0.587879740551181  56.53883859219761  -19.27784601575385  18.466031601168112  120.000000
5.6301000000000005  0.000000  0.000000  0.000000  -51.77521181005356  20.664832488502796  47.4243898880974  66.90468144793928  -12.131997293704535  18.938053322363782  -0.5002401402864713  56.88043679017812  -19.876389930335623  18.33254845254615  120.000000
5.68755  0.000000  0.000000  0.000000  -50.95889412778579  20.075790345702952  45.375746548981105  67.15903441354597  -12.25830786299344  18.70690542718936  -0.5341132346223295  57.133090252827095  -20.148689511685983  18.325523203958635  120.000000
5.745  0.000000  0.000000  0.000000  -49.76613087203002  19.182778276339604  42.163478219798975  67.55892774877077  -12.269997421863991  18.631905363854727  -0.7194903786021892  57.281621042404964  -20.026178383892265  18.466331941280732  120.000000
5.80245  0.000000  0.000000  0.000000  -48.259487094321216  17.89791325799802  37.92357761759033  68.00217704485797  -12.1897621935264  18.690543384664874  -1.081056415817035  57.326535375569904  -19.425011071947395  18.75322964557428  120.000000
5.8599  0.000000  0.000000  0.000000  -46.54570936531078  16.1447093900897  32.86444743428404  68.35478861824348  -12.062084387444685  18.832006399222802  -1.6303373047259966  57.28207653418609  -18.270016452927823  19.140571438805587  120.000000
5.91735  0.000000  0.000000  0.000000  -44.766637519564966  13.891555879156853  27.25379632943818  68.46381023257085  -11.953594354669205  18.978246601675576  -2.357076323727573  57.16732816647845  -16.52714342234497  19.537648884990542  120.000000
5.9748  0.000000  0.000000  0.000000  -43.07592005364808  11.168889408565978  21.403754230924093  68.18528781317015  -11.938419123784383  19.041550744278606  -3.229683512653164  56.99110299162122  -14.230619373081483  19.83594528174161  120.000000
6.03225  0.000000  0.000000  0.000000  -41.57949122944647  8.085828144308627  15.650367547642249  67.43715168154928  -12.071406536206245  18.951232590013735  -4.2026495474776935  56.73825818561485  -11.494861416786977  19.944903709845835  120.000000
6.089700000000001  0.000000  0.000000  0.000000  -40.27750651600334  4.817722758570769  10.329884815454081  66.25104635641154  -12.369477959675232  18.66796378609888  -5.245085013700336  56.34672512530358  -8.493346818311453  19.819125930382615  120.000000
6.14715  0.000000  0.000000  0.000000  -39.07522342800149  1.5739703588445964  5.741358787349991  64.75564751549501  -12.817768286361057  18.1774262128508  -6.368108506129864  55.692248112538685  -5.4116928059749965  19.455028660919684  120.000000
6.2046  0.000000  0.000000  0.000000  -37.85706171474633  -1.4196029271951955  2.121509116748488  63.12303127765085  -13.382059370150422  17.486450873731332  -7.591182172221602  54.610206595889196  -2.412330853106728  18.873331953503254  120.000000
6.26205  0.000000  0.000000  0.000000  -36.60229807599869  -3.929949689563515  -0.3974213872356076  61.521863282010166  -14.013652740270821  16.6179024964937  -8.846514285675521  52.97011939511184  0.37069526118178486  18.126508456375188  120.000000
6.3195  0.000000  0.000000  0.000000  -35.46346319364286  -5.740914876568446  -1.8200265540764282  60.06848155334156  -14.675126230666827  15.616112863251193  -9.93963265297629  50.735797126521405  2.8256043104301587  17.30399301040623  120.000000
6.37695  0.000000  0.000000  0.000000  -34.642115930530586  -6.723364188859753  -2.262193182743011  58.82729420240144  -15.367274998741383  14.546111458801894  -10.639414644058283  47.98466631734343  4.874921150997653  16.512094360824946  120.000000
6.4344  0.000000  0.000000  0.000000  -34.195042179958236  -6.910876253408468  -1.9186590463676185  57.80961494675932  -16.02261631496101  13.432408017207793  -10.784147954446468  44.80857752833634  6.486650917124745  15.845486524377085  120.000000
6.49185  0.000000  0.000000  0.000000  -34.021121248606036  -6.503208946708928  -1.060791385401746  56.95230893303476  -16.403634132251963  12.202022200615229  -10.282994645223607  41.2302555131697  7.641956837886967  15.359249590100703  120.000000
6.549300000000001  0.000000  0.000000  0.000000  -33.99313494458034  -5.729583768647672  0.0028587803442812793  56.15481368792148  -16.262866110042477  10.790324696598496  -9.00699614898857  37.276245310918064  8.249181792364611  15.08618378739242  120.000000
6.60675  0.000000  0.000000  0.000000  -34.03474676940927  -4.75787324012412  0.9886844304548985  55.31851137065463  -15.478927313111575  9.224320482088324  -6.7479345370479145  33.03860842578009  8.114370127666135  15.04171051082849  120.000000
6.6642  0.000000  0.000000  0.000000  -34.123699596724364  -3.700667599401134  1.666471723314824  54.36084052501838  -14.042815247972303  7.596364552247943  -3.237424474992895  28.673157195248255  6.955243481600996  15.213936679958804  120.000000
6.72165  0.000000  0.000000  0.000000  -34.289097437111515  -2.6534367394223355  1.8798753814954192  53.22927468096649  -12.031651765951487  6.020308228215071  1.8621315083162655  24.390788012766077  4.40341981844183  15.5642289637729  120.000000
6.7791  0.000000  0.000000  0.000000  -34.576069112582374  -1.7361710888663955  1.5613662687187853  51.91458887220468  -9.564993115711662  4.577031436562502  8.928767413697448  20.453550010031872  0.03649966668966187  16.02398787181209  120.000000
6.83655  0.000000  0.000000  0.000000  -35.02235015097417  -1.0121691017489238  0.7805361079010168  50.46474254491688  -6.82415462362568  3.321827961596303  18.316569234710094  17.123512374418794  -6.544523142127743  16.519186361139635  120.000000
6.894  0.000000  0.000000  0.000000  -35.61802487691965  -0.4958670512800718  -0.2776830732653723  48.963010729619306  -4.0264773260573525  2.278477877450193  30.065603331174398  14.609673838247373  -15.427064702431723  16.970303910159192  120.000000
6.95145  0.000000  0.000000  0.000000  -36.33624082965609  -0.17651763319439573  -1.4524169137772232  47.479428999291144  -1.3231250064602755  1.4642862037444864  43.42728151168486  12.993562220200095  -25.923488534016926  17.298224906741822  120.000000
7.008900000000001  0.000000  0.000000  0.000000  -37.15187785792102  0.011056902024718698  -2.649281626809255  46.068717554670116  1.2140371587815917  0.8798607665790947  56.903764598163214  12.17457691327366  -36.612533998743025  17.457693199666483  120.000000
7.06635  0.000000  0.000000  0.000000  -38.03204283506616  0.13531656166639663  -3.7945621420864333  44.780759055208435  3.5367571401098536  0.4949954154111683  69.0749849534033  11.929304189033497  -46.16551666464719  17.457453262652244  120.000000
7.1238  0.000000  0.000000  0.000000  -38.95066890923344  0.22960424171587082  -4.82571331512047  43.65370746921447  5.600076059036334  0.2832899863078757  79.27380464780431  12.018297270048812  -54.010823091880475  17.359746139721015  120.000000
7.18125  0.000000  0.000000  0.000000  -39.88765917977895  0.3083564463980057  -5.697855146954541  42.72234326405003  7.369728600765603  0.21938934935876905  87.48545715755631  12.25357957746376  -60.217119149531456  17.252838358745446  120.000000
7.2387  0.000000  0.000000  0.000000  -40.82808940761351  0.3898391357195045  -6.385472452825658  42.02549734956975  8.831709792720103  0.2703588502441606  93.97126376771807  12.511916259120747  -65.10533110414573  17.2130536924193  120.000000
7.29615  0.000000  0.000000  0.000000  -41.75058966602163  0.49357026092272877  -6.876349011875822  41.59094243570561  9.993247520503191  0.39738904212773657  99.04002841081494  12.714557758427192  -69.0046883079529  17.275583799660026  120.000000
7.3536  0.000000  0.000000  0.000000  -42.62914824587376  0.6328414939020687  -7.164423135484426  41.41001788313601  10.873238476371956  0.5682856285377637  102.99682928814623  12.810577029493055  -72.1937657509691  17.430802740589797  120.000000
7.41105  0.000000  0.000000  0.000000  -43.43611479740566  0.8051401857852599  -7.249247182896334  41.426955713234456  11.492892795103774  0.7619809650483581  106.14048143330852  12.775534124321073  -74.90266327830135  17.643209017829488  120.000000
7.468500000000001  0.000000  0.000000  0.000000  -44.14334711087437  0.9939423916003096  -7.142995306660275  41.561405364841036  11.875274784517662  0.9596880353073816  108.73144738598724  12.617648031185656  -77.30249361894565  17.875360289183647  120.000000
7.52595  0.000000  0.000000  0.000000  -44.73029548953237  1.187478851383557  -6.874977035109278  41.74977643338122  12.049258446604325  1.133388172862337  110.91821264507804  12.374955409582215  -79.46166414098752  18.103127377667917  120.000000
7.5834  0.000000  0.000000  0.000000  -45.18933939575402  1.3913433569733331  -6.485577152674928  41.95700848980823  12.047945137845243  1.2494192171159928  112.73326172454163  12.098290090994169  -81.35514805277943  18.32022801356054  120.000000
7.64085  0.000000  0.000000  0.000000  -45.527591701693474  1.6103819788692157  -6.0144460648947025  42.15490691012786  11.906167384585055  1.2809388230223533  114.15962651397602  11.825059399446072  -82.93007596003594  18.530338013743997  120.000000
7.6983  0.000000  0.000000  0.000000  -45.760213213892264  1.8403391217023197  -5.492995663471487  42.31706631612101  11.656305644266606  1.2165681724449633  115.196687271687  11.570098896713729  -84.1653738894433  18.738230588931483  120.000000
7.75575  0.000000  0.000000  0.000000  -45.90055695226489  2.073749772030942  -4.9440885737290685  42.42892374659574  11.323697577012226  1.0618998737341327  115.87848276793764  11.333369416535865  -85.08435577652669  18.946826387684474  120.000000
7.8132  0.000000  0.000000  0.000000  -45.96246043846856  2.300249338798428  -4.384476689915881  42.49331799003082  10.925250741603993  0.8368473660547605  116.24639709645237  11.106808022656  -85.72562328510709  19.155095318573164  120.000000
7.87065  0.000000  0.000000  0.000000  -45.958770091730074  2.511817874515393  -3.82791997129105  42.52839232737307  10.469253554586556  0.5719310636718742  116.33138476886228  10.879595612049394  -86.1225706353063  19.360266477787942  120.000000
7.928100000000001  0.000000  0.000000  0.000000  -45.90327364727916  2.701177800200837  -3.2877911547120453  42.5623639544623  9.959696976903045  0.30100360710004154  116.13176311232728  10.639316445951525  -86.27894512711765  19.560366515426104  120.000000
7.98555  0.000000  0.000000  0.000000  -45.80795275181612  2.859269461903662  -2.777951951321092  42.62306915049385  9.39995224611578  0.05568420970444315  115.62022162951514  10.371022981163062  -86.17142142235998  19.758116676024297  120.000000
8.043  0.000000  0.000000  0.000000  -45.67789478896422  2.9763260256967774  -2.31424619979278  42.72978472293081  8.79673687130789  -0.14035692521278204  114.75500254887756  10.060851659086032  -85.75635866446196  19.96384765461315  120.000000
8.10045  0.000000  0.000000  0.000000  -45.5112964700719  3.0446797100698264  -1.9126938034675234  42.87839817618643  8.16444001926813  -0.2784712153128297  113.48231047126139  9.695017795880366  -84.97378894702054  20.191842574953082  120.000000
8.1579  0.000000  0.000000  0.000000  -45.30013210494582  3.0652366298238314  -1.5917378595418004  43.04207037582136  7.531818173963473  -0.3741485752042542  111.69675605115174  9.261676433539954  -83.71473642840112  20.448992730725248  120.000000
8.21535  0.000000  0.000000  0.000000  -45.02898905922703  3.0459319655703427  -1.3787793706589742  43.17227345722651  6.940080134325445  -0.45823987135151306  109.22141783745134  8.75995396680576  -81.80591636667393  20.724180373387007  120.000000
8.2728  0.000000  0.000000  0.000000  -44.673263886311986  2.9929219310913386  -1.3074028205033799  43.20733424506336  6.423145397091369  -0.5579615815845501  105.8174033563907  8.214176498466852  -79.02125462033527  20.98393668895726  120.000000
8.33025  0.000000  0.000000  0.000000  -44.19842839701682  2.8996686116363612  -1.4097149660877928  43.09132472217172  5.996103227090035  -0.6926998049067701  101.18442442729933  7.6833811327328165  -75.08571133697153  21.176170651952116  120.000000
8.3877  0.000000  0.000000  0.000000  -43.568499267822816  2.7493651352247817  -1.7146948981145467  42.788643295162  5.660120017000069  -0.8718699058131909  95.03956285155299  7.261448311514422  -69.74494769305083  21.247753932486297  120.000000
8.44515  0.000000  0.000000  0.000000  -42.75295238806779  2.5253565022762112  -2.2484636367502056  42.289862773175955  5.413704907284614  -1.0953836778041732  87.38615961246177  7.069208001856073  -63.014549784536335  21.171832193273435  120.000000
8.502600000000001  0.000000  0.000000  0.000000  -41.7414788710079  2.213068219095128  -3.026745206136667  41.60102553100325  5.258714675134247  -1.3506187454079932  78.85490208061718  7.22441194415344  -55.50396628125926  20.967649024498968  120.000000
8.56005  0.000000  0.000000  0.000000  -40.54776216160785  1.8101887235784715  -4.054828902025203  40.7590535402738  5.202397669762  -1.6131544789175496  70.6504548899385  7.814508891359126  -48.360064352114826  20.705565071058103  120.000000
8.6175  0.000000  0.000000  0.000000  -39.203169841226305  1.3310057517164942  -5.32984733756893  39.869649680333765  5.25024617708357  -1.8398114547061126  63.972582151502664  8.891344246863355  -42.70135056805982  20.48825947700847  120.000000
8.67495  0.000000  0.000000  0.000000  -37.76955918825604  0.8013551781845125  -6.816455244330119  39.06283044909309  5.380723311538496  -1.9372557718170036  59.45008741044966  10.455325254852909  -39.07563915353293  20.414489647630738  120.000000
8.7324  0.000000  0.000000  0.000000  -36.35920820889909  0.23858710740406075  -8.43493281470543  38.41790109061817  5.563415887759775  -1.7573145161905557  56.899375008102716  12.43245991396989  -37.250144864023355  20.530924816383997  120.000000
8.78985  0.000000  0.000000  0.000000  -35.11893455640162  -0.33042711846439865  -10.109238426605625  37.98050325251187  5.798410554205087  -1.1174966614279949  55.68130233586351  14.694998738224982  -36.59770797990327  20.81129787734588  120.000000
8.8473  0.000000  0.000000  0.000000  -34.18227598335406  -0.8217869668617358  -11.807276447160287  37.87065806127284  6.12297753136983  0.10305551834211304  55.23501669053541  17.139595232472004  -36.63838886040161  21.190161375855205  120.000000
8.90475  0.000000  0.000000  0.000000  -33.643596793565294  -1.1502382015324917  -13.5220724968926  38.272366337785414  6.615009967973695  1.8863515062400629  55.13015738836707  19.71284716225452  -37.08175230091518  21.576838865344108  120.000000
8.9622  0.000000  0.000000  0.000000  -33.58468373781879  -1.259846888918094  -15.228916296172523  39.25986768540846  7.347413396614644  4.147835645784243  55.110623940114635  22.35270603726518  -37.81041309783139  21.887816059618675  120.000000
9.01965  0.000000  0.000000  0.000000  -34.050013067163746  -1.1043640195617115  -16.870840558558005  40.758799657902294  8.340938696914522  6.775775720894315  55.16880017810047  24.986496393122703  -38.90249911906287  22.08978806406981  120.000000
9.0771  0.000000  0.000000  0.000000  -34.95706464293456  -0.641169226820358  -18.370660952930667  42.71337305496801  9.590868026294213  9.590901055809733  55.40620007925269  27.59622835011176  -40.50437628425097  22.188503730561756  120.000000
9.13455  0.000000  0.000000  0.000000  -36.09537247596386  0.16182370058355547  -19.610014972593582  45.11845769240722  11.096881312929874  12.378698578434207  55.8868794584301  30.21526935945153  -42.693704224192004  22.20433335259786  120.000000
9.192  0.000000  0.000000  0.000000  -37.268573498037064  1.3029090778673926  -20.401575727348405  47.86511615251932  12.830932331290906  14.996756443768327  56.604536723691126  32.833794280077946  -45.43561610517813  22.152464239965937  120.000000
9.24945  0.000000  0.000000  0.000000  -38.399204641297494  2.756233370460169  -20.509231077292434  50.69525975649055  14.696368517942348  17.429373034957997  57.55296445026576  35.3456322809607  -48.63894447753257  22.033456290171447  120.000000
9.3069  0.000000  0.000000  0.000000  -39.49626230577295  4.478215667252195  -19.705182954021737  53.31977254246005  16.54388925902548  19.732285214756487  58.76256905938715  37.6331181424627  -52.23362994271909  21.830906728579404  120.000000
9.36435  0.000000  0.000000  0.000000  -40.59900187802281  6.429563293540663  -17.826430713584124  55.557057163659316  18.232530118132505  21.935780081028952  60.25250633858335  39.687061709192896  -56.18289276414583  21.52962717186369  120.000000
9.421800000000001  0.000000  0.000000  0.000000  -41.75727941410549  8.635716694652428  -14.8112659798851  57.36700497027002  19.66080870897171  23.989238198941006  61.95428025937251  41.61938972816696  -60.42624465717729  21.133859902482623  120.000000
9.47925  0.000000  0.000000  0.000000  -43.053577605363095  11.165347342776574  -10.703460384871516  58.803711490672235  20.771132943820366  25.767867112190352  63.67371405326202  43.5805871783548  -64.81653343401112  20.66594542028157  120.000000
9.5367  0.000000  0.000000  0.000000  -44.62545375475978  13.915418661195023  -5.6267180123272205  59.873310288104896  21.46734327416181  27.242372122820463  65.19979059351029  45.60393392149737  -69.13827467327714  20.159613601579824  120.000000
9.59415  0.000000  0.000000  0.000000  -46.56289634022332  16.57799420085063  0.23151921285710658  60.52719808245835  21.621435900743226  28.519690371887126  66.43800641862944  47.55621986240311  -73.18006884012048  19.64900433332284  120.000000
9.6516  0.000000  0.000000  0.000000  -48.78770578414051  18.86360879411693  6.58327924963443  60.79260895855625  21.20352147170701  29.648803733566986  67.34385768036961  49.266922038230085  -76.73974511094742  19.16920446175371  120.000000
9.70905  0.000000  0.000000  0.000000  -51.09449258345392  20.609338664923516  13.052515761992177  60.777953822552085  20.28668603585612  30.58511317000742  67.90078190936534  50.60635411728522  -79.65151634879578  18.749917038222808  120.000000
9.7665  0.000000  0.000000  0.000000  -53.24332471499961  21.781352219273074  19.239092982438084  60.60982969457198  18.990274696580563  31.259423509322353  68.16327047294463  51.5153844051649  -81.83601453500884  18.413547888433534  120.000000
9.82395  0.000000  0.000000  0.000000  -55.042895606079696  22.45537879691087  24.78015781634233  60.402947884433615  17.43441370404694  31.596056063075675  68.22927116391979  52.02921422165304  -83.30130602734133  18.17825364194437  120.000000
9.8814  0.000000  0.000000  0.000000  -56.35722381372937  22.76464184080784  29.399796952263934  60.23928619591119  15.72626186005438  31.52375814333563  68.20826796170185  52.238855844375195  -84.12695866332763  18.050811725349508  120.000000
9.93885  0.000000  0.000000  0.000000  -57.09756466293248  22.858951564797287  32.90362892660515  60.16506315730313  13.972046843474752  30.995576927157984  68.18988224290364  52.246513211673864  -84.42665850348216  18.02241615508469  120.000000
9.9963  0.000000  0.000000  0.000000  -57.212650831359106  22.847898812679745  35.145021455625944  60.18706244074391  12.270800340907059  30.01708649713762  68.22786446850827  52.1264130964828  -84.30475566053592  18.071503547335517  120.000000
10.05375  0.000000  0.000000  0.000000  -56.67952145513678  22.772470083204148  36.016616243101254  60.28183544076948  10.70777451772177  28.64691084459697  68.33678568059982  51.90744393498625  -83.82693587506502  18.166910522746356  120.000000
10.1112  0.000000  0.000000  0.000000  -55.514010930087146  22.599108683667332  35.460244709867645  60.40643490530702  9.351720028502683  26.984504637382337  68.49383296827743  51.5809870510634  -82.99474277952426  18.279121376590496  120.000000
10.16865  0.000000  0.000000  0.000000  -53.77811702362241  22.226284075161796  33.48613935958285  60.49848175755092  8.25834282157855  25.157368857454387  68.64698256395653  51.110671769878046  -81.7442281468917  18.379796194572496  120.000000
10.2261  0.000000  0.000000  0.000000  -51.59829214612768  21.524440239010232  30.197978954760195  60.47960456932813  7.478632044650954  23.293709029789568  68.72861726342639  50.458880533821414  -79.96441654265107  18.445753427764004  120.000000
10.28355  0.000000  0.000000  0.000000  -49.17055580391447  20.38853938704931  25.799026619364962  60.254464172914695  7.044925939519987  21.496540879675994  68.6764407821703  49.61488940006903  -77.54281851026744  18.459239845072528  120.000000
10.341000000000001  0.000000  0.000000  0.000000  -46.754815272609136  18.789202890394126  20.576995506211937  59.708529657019945  6.94525968134114  19.822562818186505  68.46667237650746  48.61876465558471  -74.42239111034054  18.42118335105781  120.000000
10.39845  0.000000  0.000000  0.000000  -44.60287637538099  16.801818966230357  14.854049342058186  58.72121499699799  7.12078001847246  18.289052387007995  68.13485076790691  47.57085549374829  -70.64835435169496  18.362508625649152  120.000000
10.4559  0.000000  0.000000  0.000000  -42.871553948603704  14.60816368356471  8.923829779596026  57.19923212924281  7.494442828479508  16.89278726473909  67.78502234786754  46.58804852898472  -66.39060805651424  18.343776925831218  120.000000
10.51335  0.000000  0.000000  0.000000  -41.59499633920324  12.448581897649605  3.0079135591687147  55.127905443776825  8.003944394081252  15.608842858583436  67.54283350701384  45.7588147405946  -61.90033683802962  18.445944243437832  120.000000
10.5708  0.000000  0.000000  0.000000  -40.68114183568843  10.543080272847245  -2.722047678678116  52.56335516218518  8.621770304279275  14.418811579618751  67.50839130768215  45.08784913090914  -57.43951243280035  18.7440593091832  120.000000
10.62825  0.000000  0.000000  0.000000  -39.99154873361207  8.978352188611034  -8.094512942285126  49.57034136667558  9.32318111369487  13.391318491602108  67.75526812743527  44.43823542934454  -53.22916254839946  19.276728753457974  120.000000
10.6857  0.000000  0.000000  0.000000  -39.4119855704276  7.71007992765602  -12.937894384204082  46.24310351455234  10.073539444486697  12.660359893073275  68.28072882469178  43.5778739509661  -49.42741349075666  20.02080338899496  120.000000
10.74315  0.000000  0.000000  0.000000  -38.86166283714114  6.678462590326246  -17.10483617084531  42.79110188066192  10.860277676055421  12.320347800407598  68.97315986887438  42.28423731683975  -46.11690659622786  20.898202961349803  120.000000
10.8006  0.000000  0.000000  0.000000  -38.31370048686449  5.868795424013084  -20.514013258197732  39.55285907229271  11.685538750950808  12.373263230388753  69.62862602829416  40.418555058889176  -43.30493899784866  21.804350010738926  120.000000
10.85805  0.000000  0.000000  0.000000  -37.81043629977657  5.315087063136627  -23.171187402557518  36.938976694473354  12.559547498597562  12.722832898453351  69.97120609000783  37.97125370441168  -40.90291729002683  22.625772946274143  120.000000
10.9155  0.000000  0.000000  0.000000  -37.43960021159356  5.030963396704974  -25.12823425499911  35.2583335957413  13.504296297554728  13.228469878880885  69.74255371523442  35.01650953569635  -38.72318749610168  23.26200159889946  120.000000
10.97295  0.000000  0.000000  0.000000  -37.34766578876532  4.950066166726138  -26.419237884026757  34.496907585501816  14.493047161812356  13.828697843006422  68.9321184950952  31.629676381520024  -36.61475881968856  23.665055173550638  120.000000
11.0304  0.000000  0.000000  0.000000  -37.67772061032949  4.950060165444463  -27.062164336639537  34.35282758799056  15.45828277625513  14.550921850794072  67.83929747780157  27.88524521320134  -34.594268667348935  23.82438924128872  120.000000
11.08785  0.000000  0.000000  0.000000  -38.46315629235618  4.90359720928967  -27.109364634698593  34.559392088317416  16.430075821255844  15.3487502960269  66.81925605671594  23.91862796708339  -32.7836974594841  23.717058107233715  120.000000
11.1453  0.000000  0.000000  0.000000  -39.67861392418237  4.781986733079637  -26.6496542604663  35.03090595096069  17.50668855736519  16.06984960121017  66.32381137497632  19.925874805833914  -31.51033402630077  23.313102024612082  120.000000
11.20275  0.000000  0.000000  0.000000  -41.30924162268416  4.620884350050511  -25.768484374959147  35.73799068893068  18.7424944846854  16.559732893024986  67.15756410939994  16.090875668336455  -31.516910479292058  22.59629354772244  120.000000
11.260200000000001  0.000000  0.000000  0.000000  -43.312342908264405  4.433630436321725  -24.55027588160487  36.624494742475676  20.128866988859137  16.73245214136718  70.6868972062816  12.556920686159906  -34.1500649916737  21.54475287415121  120.000000
11.31765  0.000000  0.000000  0.000000  -45.63849953908534  4.2222897108545006  -23.077463947603945  37.587636722140914  21.58469741929666  16.620131392604137  79.36245148480018  9.490559544788  -41.87750823443821  20.139598534478786  120.000000
11.3751  0.000000  0.000000  0.000000  -48.18679749350863  3.964232772261699  -21.4374578228321  38.54721909186014  23.02395951947266  16.30508765159674  97.11546055402962  7.232920315646762  -58.66427078852638  18.37961254550219  120.000000
11.43255  0.000000  0.000000  0.000000  -50.86853171445877  3.625606891057261  -19.729641371798273  39.53752423619824  24.39436619577472  15.852310011826587  124.9726131748866  6.476401195470957  -85.57611948049022  16.325951418682777  120.000000
11.49  0.000000  0.000000  0.000000  -53.48807404072899  3.1660592258255082  -18.076070895699594  40.67646097923887  25.63282688877706  15.306200080025391  151.7576086046573  7.603476641548128  -111.40977962431613  14.14779056802084  120.000000
