Simulation
nRows=201
nColumns=15
endheader
time  TH_x TH_y TH_z SC_y  SC_z  SC_x  AC_y  AC_z  AC_x  GH_y  GH_z  GH_yy  EL_x  PS_y
0.0  0.000000  0.000000  0.000000  -40.97484877243665  6.293857566463187  5.290427962726946  44.18857780014494  7.3247771044168415  -0.02305897325077928  174.45086586493966  6.801306419521782  -149.16120940604222  22.660371809075603  120.000000
0.05745  0.000000  0.000000  0.000000  -38.92143257761256  5.6772689660295015  3.0197594381220023  43.431297971667554  7.5626758223192665  0.22881881419618968  170.82466715579537  3.4906442918282647  -146.85194562132875  22.071048127223513  120.000000
0.1149  0.000000  0.000000  0.000000  -37.02727922140491  4.904639358681828  0.7415959321931255  42.76107455213752  7.61438817428757  0.5242129375434144  119.6104305546363  0.576756578041359  -96.94733706171131  21.664968049606763  120.000000
0.17235  0.000000  0.000000  0.000000  -35.39373589838319  4.039153038013503  -1.4531669469715012  42.2176817394531  7.5375836350357135  0.8838907350051398  10.976038608636795  2.812316407942516  10.3675606821501  21.521396922334453  120.000000
0.2298  0.000000  0.000000  0.000000  -34.065666171537245  3.160672748974859  -3.499933044542304  41.82181218489351  7.418640925359976  1.328786848717171  6.278736495313377  5.7917437660961095  13.722367725573966  21.648384355460678  120.000000
0.28725  0.000000  0.000000  0.000000  -33.04741936926817  2.354498224248568  -5.367497075935223  41.5610828542139  7.356253242516515  1.87855368383555  4.7224942683992985  8.804925221228425  13.890031235908294  21.98166396071117  120.000000
0.3447  0.000000  0.000000  0.000000  -32.3302822476347  1.701923049487695  -7.052374474472199  41.40300691064144  7.4336066041743845  2.544956253374357  3.576430733070289  11.90402187387726  13.57285981129417  22.420758290393778  120.000000
0.40215  0.000000  0.000000  0.000000  -31.911727534051884  1.262164176579319  -8.541596723775143  41.31029080443308  7.6854744875779515  3.3133503344253414  2.45094397284372  15.147433482500652  13.134485762023479  22.854729905607122  120.000000
0.4596  0.000000  0.000000  0.000000  -31.79163528991804  1.076161435910577  -9.798660970256847  41.25507410579333  8.087436613520216  4.142017405121413  1.327040056749001  18.574764355995857  12.5836714692166  23.1905544720164  120.000000
0.51705  0.000000  0.000000  0.000000  -31.96659882126641  1.1704912674945211  -10.779288726857654  41.22280916476791  8.57717491396686  4.987471992359437  0.2549957213816222  22.186489610910076  11.8834578973096  23.367032569280802  120.000000
0.5745  0.000000  0.000000  0.000000  -32.42229056415793  1.5549357695011439  -11.456077321424898  41.216348464380594  9.091061792031132  5.8320438159506205  -0.7022757432576742  25.93935154662703  11.007740588878473  23.361538366511937  120.000000
0.63195  0.000000  0.000000  0.000000  -33.14410625153036  2.21431018356059  -11.848511490749427  41.25849539493217  9.596957141601932  6.702654924327271  -1.4656329897500306  29.767561866997102  9.926539064902315  23.184236156237997  120.000000
0.6894  0.000000  0.000000  0.000000  -34.124230182106245  3.1065911401371498  -11.997625701550096  41.390064050085115  10.079834372253154  7.639045219480238  -1.9469800561307304  33.60570677129073  8.598331997775782  22.865852393493093  120.000000
0.74685  0.000000  0.000000  0.000000  -35.3559673275702  4.167010361583434  -11.928603318903019  41.65761150625557  10.527647995182146  8.656124357500119  -2.082785018787769  37.39541161660851  6.988319194022824  22.44446552631028  120.000000
0.8043  0.000000  0.000000  0.000000  -36.8195162786878  5.326713257282623  -11.652308918140863  42.09613316438107  10.939317151006591  9.741934178919173  -1.855277879429523  41.08090423984962  5.081994743807025  21.958619172737013  120.000000
0.86175  0.000000  0.000000  0.000000  -38.47362417968183  6.517365266451696  -11.167691039570807  42.71067290928583  11.330649983433409  10.858359016785808  -1.3053381175521492  44.60725912814203  2.8992002514031494  21.44316304958401  120.000000
0.9192  0.000000  0.000000  0.000000  -40.25058861779826  7.677968437932659  -10.468267653659773  43.46923033451339  11.729605617362038  11.947408007726697  -0.5223066407762909  47.91631946670853  0.4977000194588508  20.92656441176095  120.000000
0.97665  0.000000  0.000000  0.000000  -42.05588304275935  8.762543647038171  -9.543867786223192  44.30864765972704  12.163049369313882  12.947202625246048  0.3861021608300294  50.949280233034635  -2.0335853274525673  20.42896905485501  120.000000
1.0341  0.000000  0.000000  0.000000  -43.78192830773168  9.749742322264943  -8.382859132551355  45.14804957786692  12.642989907806063  13.80538320538457  1.322808570234442  53.6554850591864  -4.580568089608085  19.961539332015725  120.000000
1.09155  0.000000  0.000000  0.000000  -45.33781672778281  10.643363422897476  -6.981108695824323  45.90653122893129  13.159843686116307  14.486259768380746  2.2139953476564234  56.00425083904434  -7.011455393576855  19.52584880743946  120.000000
1.149  0.000000  0.000000  0.000000  -46.67413249921244  11.453961833032407  -5.351809684753618  46.52129507758158  13.68676673157971  14.975985146043321  3.01247667922932  57.986787197935655  -9.194117013659715  19.118024646141347  120.000000
1.20645  0.000000  0.000000  0.000000  -47.784712772731524  12.183679357551034  -3.534713823700398  46.96537707029622  14.189101420021625  15.282767171927814  3.698245831295059  59.612208297123765  -11.02550240799073  18.733433349080553  120.000000
1.2639  0.000000  0.000000  0.000000  -48.69259250703351  12.8223616813105  -1.60082608414555  47.24815820865733  14.633759922743813  15.43033578664413  4.275850898746847  60.90401707114713  -12.458044924334473  18.372132160596948  120.000000
1.32135  0.000000  0.000000  0.000000  -49.42879983463666  13.352202173205674  0.35005132573904446  47.403930126324255  14.995184709966153  15.44811676887931  4.762407886658024  61.89540076935172  -13.508749134817826  18.03899589477774  120.000000
1.3788  0.000000  0.000000  0.000000  -50.01469287256054  13.754904142580983  2.1976461131117997  47.47696928108465  15.256336627056738  15.362369605449876  5.176279614156578  62.62362919766744  -14.247657232159305  17.742093241155636  120.000000
1.43625  0.000000  0.000000  0.000000  -50.45376076837679  14.017774082783168  3.8109357852308228  47.51134786096546  15.406252792947148  15.192116140043149  5.529820644862205  63.127135543743954  -14.772641148315355  17.49008451762943  120.000000
1.4937  0.000000  0.000000  0.000000  -50.731747258827646  14.135605648045878  5.057496615693426  47.54385492129609  15.435886850306652  14.949207805792573  5.8258234049646935  63.44569693899784  -15.18006600088859  17.290566265417453  120.000000
1.55115  0.000000  0.000000  0.000000  -50.82454188719765  14.107161195875337  5.811998388952019  47.60128009710007  15.334193848830585  14.641787648416972  6.056451618264314  63.62612312151207  -15.53909366549314  17.149315233355434  120.000000
1.6086  0.000000  0.000000  0.000000  -50.70403897208489  13.926584227451874  5.963612034273589  47.70032106286727  15.086259369039887  14.277498899758953  6.201885756113446  63.72935974588524  -15.875189546924787  17.069212950226817  120.000000
1.66605  0.000000  0.000000  0.000000  -50.354918806628795  13.585299381076757  5.450426377633583  47.83209762448239  14.693717113979098  13.88229165019321  6.247948330884923  63.76807801116612  -16.185878963649426  17.05035657059881  120.000000
1.7235  0.000000  0.000000  0.000000  -49.786540767041785  13.083030167608829  4.292493777222036  47.94936673245955  14.202597640188072  13.510922846774234  6.2034213845622865  63.64270501531759  -16.46933350362511  17.08800177159573  120.000000
1.78095  0.000000  0.000000  0.000000  -49.01718218786076  12.42040140461662  2.56824761893118  47.99012951256509  13.693649369428005  13.221576742285796  6.082922331079453  63.21574152032417  -16.719827036085064  17.16747482319319  120.000000
1.8384  0.000000  0.000000  0.000000  -48.05949355972335  11.597478509760071  0.3848430878207097  47.90034560700784  13.262222642075256  13.049897153112443  5.889939019872146  62.382730979877174  -16.92547573650134  17.263827347320134  120.000000
1.89585  0.000000  0.000000  0.000000  -46.9233536270826  10.623041539133313  -2.130349486269586  47.638118940168226  13.0051785856506  13.004150752487494  5.6223884194668186  61.0695423134402  -17.08191155582515  17.348456603047595  120.000000
1.9533  0.000000  0.000000  0.000000  -45.624196607485636  9.518835977277272  -4.842693597036259  47.17720774395594  13.001427306196062  13.06721432320397  5.28066537159717  59.23310216271025  -17.200058063150223  17.397062753397698  120.000000
2.01075  0.000000  0.000000  0.000000  -44.19606637940743  8.31911264596822  -7.622093221952489  46.51100298033939  13.293983109033288  13.206082527162938  4.8787276284921655  56.86530670795071  -17.306981041739093  17.397003770302565  120.000000
2.0682  0.000000  0.000000  0.000000  -42.70212036312028  7.066551289480888  -10.353862918445936  45.65474499481323  13.879693198120643  13.386098191690417  4.4537635468890295  53.99634380203313  -17.442782675009642  17.347385018171572  120.000000
2.1256500000000003  0.000000  0.000000  0.000000  -41.23675161211637  5.810775108030413  -12.94637985974827  44.64122525655003  14.711387230092555  13.582109783170408  4.067458607924956  50.6934894501226  -17.64995982345588  17.25406662987237  120.000000
2.1831  0.000000  0.000000  0.000000  -39.900074066884336  4.608874162946396  -15.33316973274364  43.520005018974814  15.711251282320216  13.787583606482135  3.8100624061334796  47.05136328146869  -17.964245630878573  17.12143841649918  120.000000
2.24055  0.000000  0.000000  0.000000  -38.76135188264187  3.5189047369775586  -17.47222433140783  42.35672515614796  16.784077121600465  14.008304547858215  3.794961061781583  43.17016045456382  -18.403895751746848  16.943724555557445  120.000000
2.298  0.000000  0.000000  0.000000  -37.84795651402456  2.581725038953529  -19.33929360529635  41.21483432947568  17.834971106174272  14.249093843662331  4.124408626777649  39.135092678815795  -18.948894688817138  16.705383905500966  120.000000
2.3554500000000003  0.000000  0.000000  0.000000  -37.14877098411114  1.821421822778804  -20.921737596747736  40.14861485086517  18.789478112901122  14.506730222969146  4.863509501967746  35.01672883976627  -19.538843101667748  16.384764622719413  120.000000
2.4129  0.000000  0.000000  0.000000  -36.62497035702781  1.2457564819117637  -22.212437078582678  39.20162215775545  19.60635950048082  14.771007571571513  6.033027213411349  30.88226787057894  -20.08786133178105  15.969629809019306  120.000000
2.47035  0.000000  0.000000  0.000000  -36.22789590247083  0.8441932503228843  -23.21369585976456  38.407264880471665  20.27890553765944  15.026831693185304  7.618662139273233  26.80262440260672  -20.509422097716843  15.473381340632981  120.000000
2.5278  0.000000  0.000000  0.000000  -35.91428816477716  0.582841698652289  -23.94312619375962  37.787654081830965  20.829772561570458  15.260025307627659  9.597574808970123  22.86007065144719  -20.750349807676095  14.94063921789032  120.000000
2.5852500000000003  0.000000  0.000000  0.000000  -35.658945343748336  0.40950214917795946  -24.4338503031822  37.35510012611541  21.297375827852644  15.461728616308736  11.989851951426877  19.15698831437377  -20.84209892960981  14.439291774910291  120.000000
2.6427  0.000000  0.000000  0.000000  -35.45574326133529  0.27482917731366496  -24.708667087284734  37.12168703893192  21.70592907907684  15.607666151460743  14.916247061645459  15.80339948107354  -20.962902311151055  14.040180841408946  120.000000
2.70015  0.000000  0.000000  0.000000  -35.304476172333544  0.1479863213377559  -24.77329150007524  37.08503492959775  22.055992871731203  15.66676107256368  18.624882650603368  12.882967013438074  -21.474512246314895  13.793936673607586  120.000000
2.7576  0.000000  0.000000  0.000000  -35.20607287614234  0.025114800399091898  -24.626677986105445  37.22452871661604  22.339848687188933  15.61980881927538  23.532413115521596  10.432689945963702  -22.96485838158524  13.719834095200014  120.000000
2.8150500000000003  0.000000  0.000000  0.000000  -35.168504564841264  -0.07986279830916375  -24.25135811574643  37.512863219454836  22.544779880016883  15.447876564666998  30.25737724811575  8.456852177550479  -26.260866530516495  13.81262957124964  120.000000
2.8725  0.000000  0.000000  0.000000  -35.20060886466218  -0.1446597343348407  -23.640494470872298  37.91078589767798  22.654387345213113  15.143350196403508  39.512163433214546  6.960371482761906  -32.2838409670356  14.054514227019073  120.000000
2.92995  0.000000  0.000000  0.000000  -35.301143843589074  -0.1460131435073168  -22.815108203340134  38.36877844051847  22.65125650408873  14.716517028101029  51.59786552055774  5.964296028007651  -41.50498020171591  14.418299515389242  120.000000
2.9874  0.000000  0.000000  0.000000  -35.45522963954961  -0.06972787689844796  -21.81135517012174  38.83939064245155  22.521141434074934  14.186419426039322  65.51434274449264  5.471376044286605  -53.02831695500267  14.866123550315523  120.000000
3.0448500000000003  0.000000  0.000000  0.000000  -35.63839934216199  0.08714226568328226  -20.67359699508051  39.28661523993504  22.259880156581396  13.577705938236504  78.9792389499897  5.407298215921383  -64.60613762231715  15.352719871835221  120.000000
3.1023  0.000000  0.000000  0.000000  -35.824549806395275  0.3186764790397149  -19.451016788946397  39.69325456495566  21.878293958769326  12.917019415458558  90.06191454517756  5.621031103395681  -74.28638517665588  15.835814319303699  120.000000
3.15975  0.000000  0.000000  0.000000  -35.99322483712795  0.6083232743171777  -18.194691919690626  40.05667024042348  21.400453625074825  12.234089466330921  98.22194628406773  5.952994885897592  -81.4685874273802  16.28605912488542  120.000000
3.2172  0.000000  0.000000  0.000000  -36.1319388260012  0.9290314692257082  -16.95018076271863  40.381335659386274  20.854951969775378  11.558441447258708  103.81783896189278  6.285787108140456  -86.42783966089759  16.693340018852876  120.000000
3.2746500000000003  0.000000  0.000000  0.000000  -36.23097200160533  1.2531378280915377  -15.755061994837225  40.6801149834883  20.26885655949753  10.910591008473604  107.42449009188626  6.55482163676812  -89.6453187845666  17.064849952627874  120.000000
3.3321  0.000000  0.000000  0.000000  -36.282646818527596  1.5568795188234592  -14.638232202890519  40.96838545918117  19.66470267186951  10.30236595745084  109.54573529187651  6.737305002054841  -91.53331864721983  17.41661702953034  120.000000
3.38955  0.000000  0.000000  0.000000  -36.28548849067252  1.8213474399295024  -13.617370492610274  41.25506412874939  19.0587828215566  9.74209018049438  110.56991038608639  6.837537530004091  -92.40220035523573  17.76479962647491  120.000000
3.447  0.000000  0.000000  0.000000  -36.24540772626631  2.037115911827473  -12.701151167102594  41.542343126390826  18.46265751056554  9.23440166583096  110.78763005821341  6.876681992838944  -92.48726552358019  18.11876316129487  120.000000
3.5044500000000003  0.000000  0.000000  0.000000  -36.17493241157729  2.202414789705917  -11.891967743960027  41.82647896613533  17.886650154045707  8.77880268584705  110.41030160727847  6.882132723188096  -91.96850053865259  18.48062623262561  120.000000
3.5619  0.000000  0.000000  0.000000  -36.08891173971846  2.3207382549527193  -11.187089350126575  42.09806831692298  17.339706674428445  8.372961415369971  109.59887599470626  6.8791513476029245  -90.99404305272543  18.848279170112026  120.000000
3.61935  0.000000  0.000000  0.000000  -35.99946136528934  2.398772901241956  -10.581599310957364  42.345519537511564  16.829000953846275  8.014033578089025  108.47689038284398  6.887658941179012  -89.68529769811856  19.218731465268792  120.000000
3.6768  0.000000  0.000000  0.000000  -35.912341536370555  2.445701427106388  -10.071488440322387  42.55809307226651  16.359960986282967  7.6977527206372205  107.13177762167739  6.921209845171414  -88.13140251852725  19.59048609446125  120.000000
3.7342500000000003  0.000000  0.000000  0.000000  -35.82674547487847  2.470774072056002  -9.655349423187937  42.72603152877398  15.935560655178936  7.417715967301303  105.60984874222048  6.9866931573016355  -86.3800604870663  19.963516974588924  120.000000
3.7917  0.000000  0.000000  0.000000  -35.73679185373916  2.4788045861005275  -9.334055836191391  42.838988976500126  15.555420675229778  7.16671246162231  103.91292924677566  7.084593003704135  -84.43226647236715  20.338348494389855  120.000000
3.84915  0.000000  0.000000  0.000000  -35.63335933288921  2.469774056801214  -9.10962012789325  42.88676855108852  15.21519303304566  6.938894394093482  101.98966411316295  7.211970973046712  -82.23250693360805  20.715188908465866  120.000000
3.9066  0.000000  0.000000  0.000000  -35.50543027255603  2.440126491501459  -8.984649755557943  42.86176313900508  14.908367347955421  6.729422093475739  99.72523258718722  7.365840060449903  -79.65835679618054  21.093399351720784  120.000000
3.9640500000000003  0.000000  0.000000  0.000000  -35.34150161659088  2.3844295571185037  -8.962317345695368  42.760680743601526  14.628495674011058  6.5330486545379465  96.94406705037191  7.547213822595223  -76.52532282249804  21.47060639299691  120.000000
4.0215  0.000000  0.000000  0.000000  -35.13036791833035  2.299169046293025  -9.046258201248158  42.58499102554247  14.369785320134856  6.344380027316936  93.45124130099938  7.768347931064112  -72.63270712803713  21.842973358388704  120.000000
4.07895  0.000000  0.000000  0.000000  -34.863470308935966  2.1836330306797804  -9.239536442044272  42.3399184125692  14.127074342115668  6.159661740142987  89.1052116590938  8.062354478534038  -67.84371286208723  22.204317025484226  120.000000
4.1364  0.000000  0.000000  0.000000  -34.53789872879614  2.0412727001479647  -9.541649233800968  42.03129211683896  13.894760745410395  5.981627951631602  83.93243431211805  8.489098290515463  -62.20661313939188  22.543871352140975  120.000000
4.19385  0.000000  0.000000  0.000000  -34.16306644679711  1.8832374284013886  -9.944316253737275  41.6595253791078  13.665728115313183  5.8255617228422665  78.22268520435972  9.127566420503458  -56.052508927432505  22.843947947151534  120.000000
4.2513000000000005  0.000000  0.000000  0.000000  -33.760357206038364  1.738099008863122  -10.431199945967151  41.22657940051736  13.435430546973713  5.714658949132051  72.49518149485183  10.056604431643464  -49.95517988559764  23.081290925001813  120.000000
4.30875  0.000000  0.000000  0.000000  -33.36731855839906  1.6605422852589253  -10.979017018217101  40.75109074948377  13.204447605446898  5.673964921834561  67.32517939713523  11.341501893554586  -44.546168854546444  23.237452997081203  120.000000
4.3662  0.000000  0.000000  0.000000  -33.05037170565526  1.7160138758448586  -11.55200330898014  40.25857864342005  12.971505033140092  5.741254333636405  63.1340171305831  13.021492101494832  -40.29096090716739  23.312569936634947  120.000000
4.42365  0.000000  0.000000  0.000000  -32.902170937873926  1.969806033186765  -12.099699258654308  39.773465264417304  12.730775604031631  5.9678751802540875  60.07349928247824  15.104798975986073  -37.36490544508783  23.335735942549544  120.000000
4.4811  0.000000  0.000000  0.000000  -33.02179499182722  2.4894955169517923  -12.565244150031816  39.33445424666166  12.484792421119257  6.389849486248668  58.04582110868061  17.577652000147854  -35.68258758026607  23.361868054477338  120.000000
4.53855  0.000000  0.000000  0.000000  -33.48110584134849  3.3262814066816904  -12.889573319392019  38.990243049126434  12.25174599981412  7.010301351868529  56.79344923509472  20.399814685415294  -34.99740895670464  23.449504567991266  120.000000
4.596  0.000000  0.000000  0.000000  -34.30188059120525  4.490940738760059  -13.005905458503529  38.777508428883756  12.052663797649151  7.812261242387925  56.01812405490608  23.496307916142047  -35.020333566582856  23.634446255349335  120.000000
4.65345  0.000000  0.000000  0.000000  -35.44324856629503  5.951423781932217  -12.841156124162392  38.72026604696275  11.90564704134791  8.762924369631202  55.464452060077065  26.76208275800421  -35.49938679767908  23.910176456403857  120.000000
4.7109000000000005  0.000000  0.000000  0.000000  -36.810360318886985  7.645155577001785  -12.323522014417843  38.82523181940887  11.825585723904236  9.815933136747228  54.942503948472044  30.065831249057275  -36.2381939936644  24.22491168640572  120.000000
4.76835  0.000000  0.000000  0.000000  -38.28770981574863  9.498202071350345  -11.390830801448057  39.07667795751727  11.823896968823723  10.915527652717094  54.32415836821087  33.26196452599113  -37.09277482519324  24.500211940010868  120.000000
4.8258  0.000000  0.000000  0.000000  -39.78068853885063  11.432499019050658  -9.99824001546193  39.44200708207667  11.90346540957068  12.003492647278797  53.533327430087034  36.220478008167376  -37.96744223431767  24.659616009001155  120.000000
4.88325  0.000000  0.000000  0.000000  -41.245518858224955  13.36357100062929  -8.124101157358888  39.882900429862765  12.048424935836865  13.029581880925313  52.533976279982895  38.85443142509596  -38.8081313067207  24.652150139620552  120.000000
4.9407  0.000000  0.000000  0.000000  -42.69002337127273  15.205219010523315  -5.7785221208859525  40.37356359968303  12.227915423731684  13.949002266499987  51.31077726471704  41.13705250395621  -39.58694684967964  24.45786722247261  120.000000
4.99815  0.000000  0.000000  0.000000  -44.15231727492126  16.87578841368955  -3.0038937085289983  40.90447115711536  12.40063000232953  14.733627987264175  49.866306171498465  43.09913606617436  -40.291419026219515  24.08197433155745  120.000000
5.0556  0.000000  0.000000  0.000000  -45.662875963961085  18.31038794650564  0.12220832361585295  41.48513017296683  12.529881275269725  15.37919999464511  48.226605415391674  44.80899505962019  -40.91631635948528  23.547757100791248  120.000000
5.11305  0.000000  0.000000  0.000000  -47.22123377782397  19.468262108638168  3.4829594701429385  42.13306371444398  12.599194981231639  15.898164809406332  46.427926049682235  46.3467534212474  -41.45018898374602  22.892566824073143  120.000000
5.1705000000000005  0.000000  0.000000  0.000000  -48.79843558224944  20.331141377372642  6.930792625800829  42.85286548898545  12.60713460378628  16.31564336545745  44.508953206993105  47.7809987082625  -41.873767775320175  22.166195099481875  120.000000
5.22795  0.000000  0.000000  0.000000  -50.342930791595705  20.902843651210468  10.299568449007381  43.634008849132364  12.561150344772065  16.655585070148472  42.51840390642037  49.159014074119185  -42.177088954764606  21.424936503431148  120.000000
5.2854  0.000000  0.000000  0.000000  -51.78799916148093  21.20921749779056  13.421657418400615  44.45120045854636  12.474714718218078  16.92702582270954  40.530502476694345  50.5019916913977  -42.378279382866275  20.72313375795277  120.000000
5.34285  0.000000  0.000000  0.000000  -53.060457064038175  21.292813867426332  16.145972981444828  45.26086609874992  12.364083516416116  17.119249597083876  38.65170832697105  51.801720432401616  -42.52765914682874  20.101255280419156  120.000000
5.4003  0.000000  0.000000  0.000000  -54.09014460110894  21.203809599149388  18.349660559346532  46.00164563287251  12.245336055741333  17.20238243725084  37.00905365222398  53.0204594575624  -42.69385067252421  19.577934964741292  120.000000
5.45775  0.000000  0.000000  0.000000  -54.82099961864551  20.991237473093992  19.94299702666814  46.60530028982431  12.129425478697154  17.1354400995474  35.72735235717332  54.09735346234524  -42.942660962615314  19.153058011852245  120.000000
5.5152  0.000000  0.000000  0.000000  -55.21560448471876  20.695602213715798  20.867384055380775  47.01278425427505  12.019314578316008  16.878155057945428  34.90680452725491  54.96191863824977  -43.32131859952229  18.819962809855017  120.000000
5.57265  0.000000  0.000000  0.000000  -55.254903741371194  20.34344464211796  21.090336945619256  47.18809152273337  11.909189304787636  16.403841073094316  34.60751581773331  55.54879572187882  -43.851091305160104  18.578559849558413  120.000000
5.6301000000000005  0.000000  0.000000  0.000000  -54.935983058306356  19.94427383503718  20.599392123974212  47.126860775740134  11.784547480101338  15.70874598849592  34.83905861429703  55.808952376789094  -44.52362616585727  18.442679571372295  120.000000
5.68755  0.000000  0.000000  0.000000  -54.27230294762694  19.489485979435184  19.398931520238193  46.85540375608768  11.62181530639872  14.817433058396  35.55458229053811  55.71225079607813  -45.29611333791296  18.43688770557586  120.000000
5.745  0.000000  0.000000  0.000000  -53.291869881320345  18.952525396088614  17.51268636959676  46.41634992209401  11.393706588189039  13.783578041689202  36.65553109488534  55.2401552640783  -46.0898477083329  18.582372478425267  120.000000
5.80245  0.000000  0.000000  0.000000  -52.03203418807369  18.292398278910678  14.991660900221563  45.846706339114334  11.084472052557876  12.684443106682874  38.00889433045982  54.37360023785787  -46.7993779692211  18.87543333475031  120.000000
5.8599  0.000000  0.000000  0.000000  -50.53495182932444  17.461665819217284  11.92244865404461  45.16253998307177  10.707773089245958  11.608895050774818  39.46836494928955  53.08604876344747  -47.31327138687896  19.268935197187023  120.000000
5.91735  0.000000  0.000000  0.000000  -48.844627945516436  16.42095844476633  8.428688630141421  44.3638615225779  10.315876967427668  10.642345871483318  40.89455120748594  51.347472302829075  -47.54258687571747  19.67321819462783  120.000000
5.9748  0.000000  0.000000  0.000000  -47.003412560370215  15.154070272718114  4.6630300136995215  43.45449406079534  9.994626408853474  9.854274125007048  42.175553458093425  49.13638983539944  -47.44860668897349  19.979415970525757  120.000000
6.03225  0.000000  0.000000  0.000000  -45.05249208084366  13.67221435337665  0.7931338564201214  42.45886717792026  9.846598865222282  9.291516127083106  43.243395547432605  46.45519628028974  -47.056776196735974  20.093212448178907  120.000000
6.089700000000001  0.000000  0.000000  0.000000  -43.03923500733859  12.011451381273808  -3.0140127113265387  41.427934378223185  9.967362564717014  8.977913533705573  44.08436579158558  43.345112736898045  -46.452204560096945  19.962612184857512  120.000000
6.14715  0.000000  0.000000  0.000000  -41.02708320865629  10.229055155822628  -6.6092552645422  40.433875822806485  10.420568395371763  8.918922547467655  44.74691350388174  39.89848602718272  -45.76488402100213  19.586586777443998  120.000000
6.2046  0.000000  0.000000  0.000000  -39.10139212470008  8.402602120707913  -9.880835173343112  39.55809376401875  11.220547183901845  9.101686633655772  45.3461049165313  36.25853506425101  -45.15237893264038  19.003338404887643  120.000000
6.26205  0.000000  0.000000  0.000000  -37.36396139184122  6.622692291797299  -12.765350269982136  38.86710820970473  12.326461987388468  9.496726009011372  46.06004960875025  32.596120932104824  -44.78420808420666  18.27405177948002  120.000000
6.3195  0.000000  0.000000  0.000000  -35.911264446388714  4.979129850690305  -15.242271735364922  38.39368362813306  13.653108180012602  10.06435240780109  47.113119762631406  29.075829455331377  -44.82800295396641  17.472926780365373  120.000000
6.37695  0.000000  0.000000  0.000000  -34.806606943616565  3.5512423475939285  -17.31902399028469  38.13847972231478  15.094036373023032  10.758235564597788  48.745900652424844  25.827064652288698  -45.434860449905734  16.682868274530932  120.000000
6.4344  0.000000  0.000000  0.000000  -34.0670575364192  2.394928266861516  -19.014990554018027  38.0754523285165  16.544359099364055  11.531238141837012  51.16977477665653  22.92955110947104  -46.72074039865439  15.988468814201157  120.000000
6.49185  0.000000  0.000000  0.000000  -33.665604920151466  1.5389574244042288  -20.352456200218473  38.16240584936992  17.916920617628893  12.33998638956342  54.52498446723026  20.419612571345752  -48.75381612226581  15.463912415704376  120.000000
6.549300000000001  0.000000  0.000000  0.000000  -33.54408699357388  0.9842821512168736  -21.355274353216203  38.352195208811175  19.14957060528212  13.144572972688378  58.84819077875471  18.306048881036766  -51.54565031018163  15.15855507482987  120.000000
6.60675  0.000000  0.000000  0.000000  -33.631837593826305  0.702301603905361  -22.05132622576803  38.59821487618501  20.206051354670162  13.907096105843037  64.0487618693253  16.58145447773306  -55.03746382742632  15.087627178228963  120.000000
6.6642  0.000000  0.000000  0.000000  -33.85868482105874  0.6438604871588975  -22.47423406197613  38.85750113208906  21.07208432762713  14.592314575568684  69.905959076433  15.22343738133135  -59.08658204890739  15.235386776445653  120.000000
6.72165  0.000000  0.000000  0.000000  -34.160926847629035  0.7498565613181167  -22.663180228915778  39.09304038597623  21.751121242805876  15.167863426650284  76.09447307878352  14.189340938517143  -63.467325592162844  15.562978125602418  120.000000
6.7791  0.000000  0.000000  0.000000  -34.48730427904934  0.9615988257899856  -22.66115089463742  39.28084174729618  22.25682651401705  15.60739083154576  82.26040095968536  13.419040503540502  -67.91819422065697  16.012438022346167  120.000000
6.83655  0.000000  0.000000  0.000000  -34.79662039069608  1.2229485193803473  -22.510312433041808  39.414329121073116  22.604283015961386  15.896203573258463  88.11340934916775  12.845980129151314  -72.21053973677117  16.50701468596167  120.000000
6.894  0.000000  0.000000  0.000000  -35.06013664933251  1.4862736713417206  -22.247429564427275  39.50318698214871  22.806144250192652  16.03265334989522  93.47753566179604  12.411692535643958  -76.19542850413407  16.95939870845826  120.000000
6.95145  0.000000  0.000000  0.000000  -35.26083052434828  1.7218195731434935  -21.902139367295327  39.5694270518216  22.87665604026999  16.023634938799994  98.28045475791943  12.072286701808826  -79.80438857741231  17.290819596369808  120.000000
7.008900000000001  0.000000  0.000000  0.000000  -35.391916481433555  1.9144255082786004  -21.495495061216644  39.63508181667672  22.833854520481072  15.883306425045625  102.5165316568851  11.795357438187418  -83.02755611448355  17.455866536667727  120.000000
7.06635  0.000000  0.000000  0.000000  -35.46289632611759  2.0581903849110605  -21.039416204630616  39.70996995242327  22.696600835837774  15.63419649547399  106.21671481075406  11.5567462558795  -85.89568185315287  17.46359294775409  120.000000
7.1238  0.000000  0.000000  0.000000  -35.495592172786466  2.1540388635506442  -20.53959231660398  39.792606382264985  22.484971283783775  15.300757386249181  109.42509090304134  11.338384453877435  -88.46060239064097  17.37419264166165  120.000000
7.18125  0.000000  0.000000  0.000000  -35.51387864845291  2.2100027280605556  -19.999365110170874  39.882186130884065  22.22176551088366  14.900904195034881  112.1769403063004  11.130608956366881  -90.76889597988735  17.272516971336163  120.000000
7.2387  0.000000  0.000000  0.000000  -35.53641217267414  2.239908284708763  -19.421368360401623  39.98404232331915  21.92812153463615  14.447512050706802  114.49170364605646  10.931145710243001  -92.8447223557497  17.23364435112495  120.000000
7.29615  0.000000  0.000000  0.000000  -35.57357386917475  2.255096324041066  -18.80745181051811  40.10266867418545  21.616236536281058  13.956416790202342  116.39336873439508  10.736101567291461  -94.69942953558298  17.294560997378042  120.000000
7.3536  0.000000  0.000000  0.000000  -35.626378995692995  2.261789501460395  -18.159651502645975  40.239177548930556  21.28877190322096  13.447594331704396  117.92693382365651  10.536504017443441  -96.34613319559006  17.448398685579278  120.000000
7.41105  0.000000  0.000000  0.000000  -35.68716539299208  2.266002975109388  -17.482741256381633  40.39753737062354  20.945183874991013  12.93758935461077  119.1451325620409  10.323070764230858  -97.79484129486455  17.661652654292936  120.000000
7.468500000000001  0.000000  0.000000  0.000000  -35.74297911927599  2.274417229809107  -16.78540299550455  40.584521299844006  20.58566132294884  12.43516929780009  120.1006528370226  10.088381041950255  -99.05553871720069  17.896553887673562  120.000000
7.52595  0.000000  0.000000  0.000000  -35.78399269508478  2.291425464499032  -16.078225586570827  40.80230843130365  20.210151459973694  11.94482288869727  120.84945682097018  9.827391309652109  -100.1503390306155  18.12680421691358  120.000000
7.5834  0.000000  0.000000  0.000000  -35.808243435305116  2.317951261500012  -15.371202812963405  41.04536993974197  19.818003299308682  11.47020281571031  121.44991002921287  9.538790471287218  -101.1164324201514  18.343262019657036  120.000000
7.64085  0.000000  0.000000  0.000000  -35.81997062296362  2.352568568292929  -14.672419721101255  41.30375960573317  19.409341355085882  11.014440489677597  121.95886015205849  9.22577614065845  -102.00017312222302  18.549408515325002  120.000000
7.6983  0.000000  0.000000  0.000000  -35.826230289560094  2.393108662695433  -13.98770894343365  41.56758605587255  18.986342431091238  10.579317591085097  122.42798118498585  8.895592964119263  -102.84924312153504  18.75292612772583  120.000000
7.75575  0.000000  0.000000  0.000000  -35.8332696883667  2.43719097343116  -13.3208969556974  41.830351910951016  18.553665647979102  10.164370272836608  122.90193983734353  8.558307607885599  -103.70668512963961  18.958914097463246  120.000000
7.8132  0.000000  0.000000  0.000000  -35.84567095314868  2.4814728861497857  -12.673806858117707  42.08905510315309  18.117570859108287  9.767422688722215  123.41614246951802  8.225289131390017  -104.60603891339473  19.16704930402104  120.000000
7.87065  0.000000  0.000000  0.000000  -35.8656857688591  2.5219768486759047  -12.046416227019488  42.34290910633093  17.68443385904421  9.385486023811332  123.99842818036846  7.907520668153335  -105.5707073698384  19.373180552445763  120.000000
7.928100000000001  0.000000  0.000000  0.000000  -35.89378655055597  2.554538495843075  -11.43747787245743  42.59259820539865  17.25994861886258  9.01449208652484  124.66458980169531  7.614624490644721  -106.60837965928792  19.574009019240716  120.000000
7.98555  0.000000  0.000000  0.000000  -35.932159902812096  2.5739101667355286  -10.844500358137974  42.83525052647787  16.847622583807635  8.650702937532314  125.4165647927449  7.351658490055142  -107.70911253657196  19.7713061231123  120.000000
8.043  0.000000  0.000000  0.000000  -35.98332775405333  2.5775315982361056  -10.264648006759467  43.06062348852222  16.448045064832833  8.290853298546331  126.25576217003545  7.11555658922691  -108.85909905148027  19.974036097999686  120.000000
8.10045  0.000000  0.000000  0.000000  -36.04708585353342  2.569960260827215  -9.697616552902403  43.25618119768543  16.062401884698602  7.927172910552794  127.16477845193941  6.896527596265656  -110.0277861316948  20.19630440328864  120.000000
8.1579  0.000000  0.000000  0.000000  -36.11680820363365  2.5589800583326467  -9.146923404415542  43.40663336616009  15.691440011669197  7.551369785168529  128.1122778625462  6.680295209584638  -111.17960831175408  20.44818121999167  120.000000
8.21535  0.000000  0.000000  0.000000  -36.18008282188242  2.550686484668578  -8.62061359708103  43.489634682000826  15.331566960776282  7.1632431598912705  129.06294529082984  6.451020884278724  -112.28949862789787  20.722573926723374  120.000000
8.2728  0.000000  0.000000  0.000000  -36.219669979558816  2.5533417168514156  -8.135893057412126  43.48515596525386  14.979301540778932  6.764195263632088  129.9260189881413  6.195980523912813  -113.293265195794  20.986931572280934  120.000000
8.33025  0.000000  0.000000  0.000000  -36.218321899197385  2.57722534515502  -7.7199874889671385  43.377691741052686  14.634323845974182  6.355800603315422  130.50822674484738  5.9109636827109995  -114.0350819315194  21.188470505296113  120.000000
8.3877  0.000000  0.000000  0.000000  -36.161368532839404  2.6235650114212805  -7.404061108035695  43.15413866744357  14.300388035396685  5.945670659701297  130.48007927207576  5.603147428761957  -114.21906409927203  21.272941624241415  120.000000
8.44515  0.000000  0.000000  0.000000  -36.033584024775344  2.681538050702367  -7.218263422184398  42.81409514433844  13.987052190782844  5.543477858401145  129.3174946375825  5.2963393045822  -113.33187196297476  21.21176735081961  120.000000
8.502600000000001  0.000000  0.000000  0.000000  -35.82246692929858  2.727367471644886  -7.184171414345579  42.37064114337733  13.708569479829004  5.158653886351063  126.31755681481017  5.034319913229603  -110.64468002160355  21.024343845867982  120.000000
8.56005  0.000000  0.000000  0.000000  -35.526822562616765  2.731115558777546  -7.3084418441608845  41.846700533731955  13.481023536760885  4.798656122818324  120.78988753597942  4.889143850587611  -105.40541195268582  20.78149808267191  120.000000
8.6175  0.000000  0.000000  0.000000  -35.15767652823039  2.6734339351238754  -7.586174433892533  41.28619186034865  13.320614867473871  4.461180569371635  112.53747489651326  4.983683201671257  -97.34186355353955  20.58179451753842  120.000000
8.67495  0.000000  0.000000  0.000000  -34.73593402050346  2.5412634836552788  -7.999561434135423  40.745044537283846  13.236377781286086  4.145509308303085  102.67367621382795  5.489160557057923  -87.51176614562226  20.51146819090059  120.000000
8.7324  0.000000  0.000000  0.000000  -34.30057548063094  2.326276368101771  -8.514467544753506  40.26498372915065  13.224019029275187  3.873671419511025  93.47441164845254  6.561776825356718  -78.18516417545865  20.612584479410422  120.000000
8.78985  0.000000  0.000000  0.000000  -33.89939275697753  2.0440293308100292  -9.08953646036064  39.87712888281567  13.278417885035884  3.678867528098295  86.61506508147998  8.280447202162023  -71.09118707402962  20.869030927173263  120.000000
8.8473  0.000000  0.000000  0.000000  -33.577987753617926  1.7436771484378413  -9.681465637071211  39.602330238526775  13.40065303661165  3.596191939929979  82.31564240395012  10.646591799218259  -66.54976474832239  21.22272629026346  120.000000
8.90475  0.000000  0.000000  0.000000  -33.365532924074074  1.4984912045209784  -10.24424462107917  39.44667275501694  13.595989331012419  3.66571645714405  80.01260552871055  13.59409917665077  -64.11452204899685  21.600464760590153  120.000000
8.9622  0.000000  0.000000  0.000000  -33.26554800500516  1.3895828289821073  -10.729728954060231  39.41323276728567  13.876868349699334  3.921970533047459  79.04082586675992  16.995845192959546  -63.228607168741355  21.936585887597694  120.000000
9.01965  0.000000  0.000000  0.000000  -33.27143215039559  1.4929076508207206  -11.080333631248447  39.50351982617554  14.25483711602237  4.394535182561111  78.89047043837326  20.690182983370526  -63.46266993699546  22.189818709679734  120.000000
9.0771  0.000000  0.000000  0.000000  -33.37743438342218  1.8681848614071086  -11.223066054870142  39.713703673928734  14.723208936654817  5.114729321383932  79.233226546767  24.52257748047769  -64.5270200417709  22.3477147079702  120.000000
9.13455  0.000000  0.000000  0.000000  -33.58620218344204  2.55096332428897  -11.077649319487174  40.04730975088425  15.255687046380041  6.1001950344843845  79.8511269182122  28.378986849425004  -66.20517340623698  22.416274558737026  120.000000
9.192  0.000000  0.000000  0.000000  -33.90689020470447  3.5572796348882463  -10.569062221575514  40.52457581158859  15.819255988223423  7.330584290115164  80.56559940932678  32.18917160645734  -68.29680021673309  22.40272068680706  120.000000
9.24945  0.000000  0.000000  0.000000  -34.354843026188796  4.886669959464871  -9.629241340242954  41.16562127367527  16.377220179872054  8.750237938022998  81.22308893833399  35.906788856933034  -70.60586835304517  22.304351698134326  120.000000
9.3069  0.000000  0.000000  0.000000  -34.95873778490343  6.509894057782457  -8.194026622261495  41.971299280254065  16.88180784574417  10.291034601738016  81.70809596372301  39.492829930677864  -72.95540815130956  22.10902303817247  120.000000
9.36435  0.000000  0.000000  0.000000  -35.75574632955279  8.36327005949759  -6.206557272071124  42.92399673738082  17.277853039983814  11.887579649188105  81.95305220783985  42.90894744015922  -75.20172878898934  21.80550882699369  120.000000
9.421800000000001  0.000000  0.000000  0.000000  -36.78123495631924  10.355203708465472  -3.6313880213393657  43.99658818253765  17.51564054379538  13.480764175300777  81.93632238043712  46.11777693185337  -77.24305050390693  21.395686399623468  120.000000
9.47925  0.000000  0.000000  0.000000  -38.06581241441071  12.36889412563961  -0.47338537405633013  45.15093094176492  17.559865150064486  15.019873620504464  81.66840127452424  49.0829149866647  -79.01839825540208  20.90152524629948  120.000000
9.5367  0.000000  0.000000  0.000000  -39.62200876440611  14.27328027658153  3.2050166266597366  46.338518945481965  17.398638378184817  16.459422548534025  81.17877854047195  51.76927130907655  -80.49904567255602  20.362403725892552  120.000000
9.59415  0.000000  0.000000  0.000000  -41.42266601818984  15.943397032621261  7.270266509355866  47.50780750132783  17.047455410006506  17.755956919584197  80.50790135719022  54.15007984941236  -81.67646981805113  19.824409977184853  120.000000
9.6516  0.000000  0.000000  0.000000  -43.384839087052924  17.28158014849316  11.519917841042215  48.604694675765984  16.543580460455868  18.870746418738722  79.70418319487476  56.20601818512833  -82.5500712986963  19.329265494315663  120.000000
9.70905  0.000000  0.000000  0.000000  -45.373500475096016  18.24273644523807  15.705588509181213  49.579634819588584  15.936492757387578  19.76852771916351  78.8260569057857  57.92461751806876  -83.12343867659932  18.90715458892523  120.000000
9.7665  0.000000  0.000000  0.000000  -47.22074364192182  18.841512126512246  19.56741923130107  50.39632844084306  15.275192084273584  20.418895658849475  77.94267601962243  59.30004996935469  -83.4087073052141  18.576786384667713  120.000000
9.82395  0.000000  0.000000  0.000000  -48.76103599556498  19.143359390274224  22.870227366834758  51.0350398193561  14.600898011554836  20.796047403239786  77.12689520798055  60.330923674745705  -83.43186432113605  18.34779796105029  120.000000
9.8814  0.000000  0.000000  0.000000  -49.861215071057885  19.241086991943604  25.427073170573085  51.49100389279228  13.948260943187138  20.87949426834194  76.44149406087975  61.01986066931123  -83.23256223643577  18.222028974934528  120.000000
9.93885  0.000000  0.000000  0.000000  -50.43068193348048  19.222074678807328  27.1055625747912  51.77128567999486  13.347290481987036  20.663689731173015  75.93207334109866  61.374397434000464  -82.86028981736055  18.191298323446926  120.000000
9.9963  0.000000  0.000000  0.000000  -50.42186555983592  19.14273881065079  27.820943129847947  51.88974909262028  12.826613175809314  20.164218367432067  75.6216780722608  61.405394236590205  -82.36414740893746  18.237137954674132  120.000000
10.05375  0.000000  0.000000  0.000000  -49.8320496222084  19.017235148935246  27.53055090311007  51.85798566118278  12.412846125340852  19.41513343644367  75.50790843769873  61.12184538786915  -81.77836645082661  18.331859806000537  120.000000
10.1112  0.000000  0.000000  0.000000  -48.7057177721679  18.811609133830792  26.237451739099665  51.679295097641734  12.127850456216553  18.463960040971063  75.5655022787089  60.529868591607624  -81.10701484073023  18.44495449420204  120.000000
10.16865  0.000000  0.000000  0.000000  -47.139115052467865  18.452784084392764  24.00304469611588  51.34712818431952  11.991179744335767  17.367215528653592  75.74822461652457  59.633141366810875  -80.31014992624787  18.54736980337975  120.000000
10.2261  0.000000  0.000000  0.000000  -45.27680878616252  17.85038211942825  20.95612661247436  50.850425501021846  12.021225682945643  16.189512058253175  75.99221501868432  58.43670751024727  -79.30510837713636  18.615164223723948  120.000000
10.28355  0.000000  0.000000  0.000000  -43.2909792699848  16.93022919002798  17.283783172017067  50.18746905857592  12.234828507022192  15.004976460938183  76.22352358193285  56.953229012732535  -77.98698329975646  18.63522818271688  120.000000
10.341000000000001  0.000000  0.000000  0.000000  -41.351866317556635  15.666863855309666  13.200360122210421  49.37219427687417  12.639804502022475  13.892512102939145  76.3644358756825  55.20178105665106  -76.26015362263334  18.610958675822296  120.000000
10.39845  0.000000  0.000000  0.000000  -39.596447679384895  14.097528524537656  8.908802141596352  48.43178562595418  13.225939020276448  12.922965993541474  76.34077381466582  53.20367638083361  -74.06541807943813  18.57200297502023  120.000000
10.4559  0.000000  0.000000  0.000000  -38.10682247434524  12.309610106807744  4.574738489722072  47.3962697902574  13.958147257618764  12.152623752774463  76.09284012855217  50.97766470557636  -71.3965351413359  18.579156916414703  120.000000
10.51335  0.000000  0.000000  0.000000  -36.91109710686843  10.41541731928775  0.3215465762526291  46.28970349940173  14.784841591914404  11.61714833646469  75.57751153013048  48.538399806097416  -68.29458228329023  18.713072188823407  120.000000
10.5708  0.000000  0.000000  0.000000  -35.997652973826966  8.533861630040578  -3.7594859592995182  45.13057654698852  15.65579539043222  11.326065653256197  74.76620862673542  45.89922301924032  -64.83292035722647  19.04655732085017  120.000000
10.62825  0.000000  0.000000  0.000000  -35.33097691933139  6.767678999218851  -7.595584994135278  43.93639082246875  16.53403066670997  11.26723732069707  73.64594185244918  43.07544413908472  -61.10210671437127  19.61112442904764  120.000000
10.6857  0.000000  0.000000  0.000000  -34.86252646852044  5.195900577001754  -11.124871497988703  42.73420857161339  17.399457369805283  11.411530084577215  72.2252100068477  40.08818903662539  -57.2027446709847  20.375535236176162  120.000000
10.74315  0.000000  0.000000  0.000000  -34.535481051266025  3.86506822676496  -14.294975444691893  41.56817367935778  18.24613384160377  11.717371922251646  70.53945978175409  36.96442927059098  -53.24151142439005  21.25356289554709  120.000000
10.8006  0.000000  0.000000  0.000000  -34.29411965762473  2.7837358457881547  -17.064503441299113  40.48890410964504  19.06895289314467  12.143135210104349  68.65553018426716  33.73196414126746  -49.331144800758175  22.13467641495163  120.000000
10.85805  0.000000  0.000000  0.000000  -34.103973849072084  1.9220422580070697  -19.403734733287024  39.53246141783052  19.853966055133977  12.659548732945867  66.66383126523834  30.417011861364013  -45.58328997629254  22.91550676464804  120.000000
10.9155  0.000000  0.000000  0.000000  -33.95853446325973  1.2347408649270213  -21.297309386502576  38.71322148839661  20.582025257797046  13.248692648270886  64.66698067360234  27.05117561474444  -42.1025916424545  23.521161842015978  120.000000
10.97295  0.000000  0.000000  0.000000  -33.85914999494916  0.6990510307834319  -22.750592749697418  38.04993163707053  21.258712724760354  13.87486111871074  62.76094908363093  23.686221926594705  -38.97543895803172  23.905934049943504  120.000000
11.0304  0.000000  0.000000  0.000000  -33.83039630011819  0.3138889140983751  -23.78630968637032  37.557925205005056  21.924278116053948  14.481548991602008  61.01621541743103  20.398526199554862  -36.262637604396666  24.0396924362895  120.000000
11.08785  0.000000  0.000000  0.000000  -33.91971032179486  0.08094376133257478  -24.43718832816542  37.21789876157098  22.62300061910071  15.028387185857794  59.51536644729087  17.262063609857336  -34.01742877855771  23.89604793062593  120.000000
11.1453  0.000000  0.000000  0.000000  -34.17541347569414  -0.011422406813411294  -24.74628389064083  36.975142258506054  23.382669446320207  15.513993501015234  58.4333747160688  14.331989144036083  -32.359286195620115  23.451887857212245  120.000000
11.20275  0.000000  0.000000  0.000000  -34.636114525503885  0.0074734184163026745  -24.771748951016704  36.787034733757615  24.226752796277644  15.948759421987816  58.12188389097668  11.664281702487818  -31.58976341837893  22.684742150454294  120.000000
11.260200000000001  0.000000  0.000000  0.000000  -35.305028501270634  0.11288649249602714  -24.573809728195233  36.661078653859576  25.166626037471023  16.322801392446344  59.28676541343811  9.309009927440488  -32.37443945100758  21.578908705738506  120.000000
11.31765  0.000000  0.000000  0.000000  -36.166385819232396  0.25194525122856615  -24.20495873806143  36.623488428046954  26.178125189646703  16.620979447557403  63.189439023494316  7.299796152484561  -35.94794993688589  20.123819028090914  120.000000
11.3751  0.000000  0.000000  0.000000  -37.18255290063084  0.3550996501377116  -23.733061004911985  36.69354990100584  27.198129893431  16.847005192487394  71.99180580611788  5.677883030268561  -44.45444251782557  18.337169626764396  120.000000
11.43255  0.000000  0.000000  0.000000  -38.300899979597915  0.3557538134839051  -23.244843090734324  36.87478348207331  28.142938681507815  17.025528831255627  88.66797660035589  4.564573667307823  -60.85386275138986  16.290566074514697  120.000000
11.49  0.000000  0.000000  0.000000  -39.45596711189992  0.20965669077943044  -22.830465205682472  37.17935646904154  28.928227676058697  17.181569694352678  113.79127017982559  4.2479751218433766  -85.69511031578983  14.144734158689836  120.000000
