Simulation
nRows=201
nColumns=15
endheader
time  TH_x TH_y TH_z SC_y  SC_z  SC_x  AC_y  AC_z  AC_x  GH_y  GH_z  GH_yy  EL_x  PS_y
0.0  0.000000  0.000000  0.000000  -40.97484877243665  6.293857566463187  5.290427962726946  44.18270530700106  7.497394127547029  0.011658398195710504  174.87058714239078  6.768553662807506  -149.6131022933707  22.651206015083066  120.000000
0.05745  0.000000  0.000000  0.000000  -38.95585165483948  5.668635446014968  3.046995770510865  43.51456418027607  7.692727516646909  0.3018690707095355  173.07375679991932  3.4555328938829293  -149.1802850290113  22.06298766481861  120.000000
0.1149  0.000000  0.000000  0.000000  -37.09409515967896  4.885814236073384  0.7944143132328241  42.934278323928474  7.705565577977044  0.6341929281308214  135.91698720326002  0.3934010879130554  -113.37970321017504  21.65813577148065  120.000000
0.17235  0.000000  0.000000  0.000000  -35.489158665147635  4.010158990284572  -1.376898026352309  42.47741087041132  7.595651240373886  1.03060653622643  4.560413247500759  2.7594184425398587  16.612448065496668  21.51566380964331  120.000000
0.2298  0.000000  0.000000  0.000000  -34.18398143579477  3.124169342726117  -3.4014229897748236  42.16008710527936  7.450732256980826  1.5108616760400817  2.299278392375313  5.740692919129645  17.490170200100636  21.64318720682173  120.000000
0.28725  0.000000  0.000000  0.000000  -33.1827231942055  2.3169720169293635  -5.2456846066254785  41.967511458545  7.3694135895291435  2.0907409682674274  1.572481354353753  8.747634699015077  16.795648855261945  21.976559070231982  120.000000
0.3447  0.000000  0.000000  0.000000  -32.47983197245455  1.6715940056360368  -6.899760109379184  41.86420780961358  7.433185399849167  2.7781893066860714  0.9000300631995407  11.840677483179931  15.985426062550795  22.41499876556616  120.000000
0.40215  0.000000  0.000000  0.000000  -32.07958395325082  1.2490433166585286  -8.348703160471713  41.811570575780436  7.675864668347111  3.555885054608573  0.12748418892231458  15.07546089967704  15.193250695898646  22.847537122316567  120.000000
0.4596  0.000000  0.000000  0.000000  -31.989945969827563  1.0940049678107269  -9.556444689334073  41.78066982624374  8.0708098257213  4.380475894327665  -0.694631172275998  18.483666299251027  14.362731107419256  23.18160100934952  120.000000
0.51705  0.000000  0.000000  0.000000  -32.209358430199494  1.2312621671055872  -10.481974253428671  41.756059422641165  8.559020353177052  5.213397173343899  -1.49040375418888  22.059085651504656  13.432819090542067  23.355317733897696  120.000000
0.5745  0.000000  0.000000  0.000000  -32.722832271347656  1.6647502030498718  -11.113392821646299  41.743037765296364  9.086821281032446  6.050852946363219  -2.1797937932692473  25.75901354942109  12.358480366224113  23.346572961915136  120.000000
0.63195  0.000000  0.000000  0.000000  -33.51539825263849  2.3712399660122427  -11.477015721363772  41.768850089615256  9.622386918388594  6.923748014288378  -2.6736376368096115  29.52471177475431  11.095007796520946  23.167032574851905  120.000000
0.6894  0.000000  0.000000  0.000000  -34.57497325254806  3.3020656747192114  -11.607750538345549  41.87731170765335  10.142586682547336  7.865815807134882  -2.8845568579679717  33.29707140835626  9.594098779177907  22.84806175000146  120.000000
0.74685  0.000000  0.000000  0.000000  -35.886100810593696  4.3912826482004625  -11.526007424756976  42.11584930415907  10.63006196581178  8.887315860048083  -2.7567408999894414  37.01995533057992  7.819663799774009  22.42799374101511  120.000000
0.8043  0.000000  0.000000  0.000000  -37.41853213461699  5.570615892172247  -11.238928296348224  42.51758532360556  11.082176024857676  9.972216684625336  -2.286210211920766  40.63652542024462  5.760557159604478  21.94479685882224  120.000000
0.86175  0.000000  0.000000  0.000000  -39.12142851283466  6.772365713529141  -10.743478737569847  43.083606758391376  11.514937088116238  11.078823761492671  -1.5306132833528874  44.08766406602074  3.443057577941801  21.431892656151252  120.000000
0.9192  0.000000  0.000000  0.000000  -40.91789672707775  7.93529068545483  -10.032054553395938  43.77961404245867  11.95624239916322  12.149525973786053  -0.58940552087219  47.31119219622624  0.928237124253544  20.916848523476883  120.000000
0.97665  0.000000  0.000000  0.000000  -42.70764242271323  9.018587462876926  -9.09118946476204  44.54573476020935  12.42914529648295  13.12727958180618  0.4323191707695479  50.250137785833836  -1.6980978031017468  20.41958257383991  120.000000
1.0341  0.000000  0.000000  0.000000  -44.388128565726205  10.00829170473324  -7.906801713901989  45.307278192067464  12.939815584380288  13.963701496207106  1.4437507442153967  52.86531636146335  -4.323526670280202  19.95228532170643  120.000000
1.09155  0.000000  0.000000  0.000000  -45.882666198550204  10.908962654558826  -6.476851754197224  45.99112676200225  13.472204604904492  14.628788735302047  2.3768897939996196  55.141255055407036  -6.8152651167897496  19.51683769658641  120.000000
1.149  0.000000  0.000000  0.000000  -47.155589819271874  11.727080258537871  -4.822107250510655  46.545021411466806  13.995169106909506  15.1123621271121  3.1905901045983054  57.08235594687815  -9.040650241545407  19.10946552890492  120.000000
1.20645  0.000000  0.000000  0.000000  -48.20915139196287  12.459554588831484  -2.992548449539841  46.950052952947225  14.473026285896507  15.42330342579499  3.871117397286189  58.7082219038084  -10.898041195892679  18.725841813063447  120.000000
1.2639  0.000000  0.000000  0.000000  -49.06789640556892  13.09328744328117  -1.068494586206095  47.21808590482577  14.874531528716926  15.582668662523158  4.428212237576084  60.04881347069  -12.343554078079878  18.365936280398174  120.000000
1.32135  0.000000  0.000000  0.000000  -49.759838133346896  13.61036954124124  0.8446043043973676  47.3809680159682  15.17838790430432  15.614052809891803  4.882648006268183  61.13862099554338  -13.39844879455351  18.034436116141695  120.000000
1.3788  0.000000  0.000000  0.000000  -50.30239203924889  13.994003169636292  2.627096440917792  47.477643195472986  15.37330530606572  15.538209224628192  5.256142803405369  62.009449195699844  -14.136695578943057  17.738996220791194  120.000000
1.43625  0.000000  0.000000  0.000000  -50.69675422703471  14.2341990860962  4.154339440513427  47.54530231693302  15.455101027389892  15.370010224602787  5.5649653745278735  62.68672286116318  -14.658508505641423  17.487994895127105  120.000000
1.4937  0.000000  0.000000  0.000000  -50.93064180776863  14.328464460190046  5.306645310879377  47.612633619713755  15.422161952457664  15.121258625153917  5.817561172220611  63.18773802168972  -15.061426870567994  17.288871490098277  120.000000
1.55115  0.000000  0.000000  0.000000  -50.98580372973499  14.279574843433108  5.976438569090773  47.69736220183228  15.27223968686155  14.803875990141423  6.0143770721189656  63.52458927104713  -15.416721605200973  17.14740839589826  120.000000
1.6086  0.000000  0.000000  0.000000  -50.844289853395  14.088156695802542  6.076337976845873  47.805298304699114  15.002067545877134  14.434396370983778  6.147687070186578  63.70854130458272  -15.756976142916649  17.06703592042095  120.000000
1.66605  0.000000  0.000000  0.000000  -50.49769474332828  13.750891040309535  5.559167043011424  47.92355578853421  14.620234749554779  14.043107493289208  6.210160023304469  63.72289199452687  -16.084582839152358  17.048269247079215  120.000000
1.7235  0.000000  0.000000  0.000000  -49.951901297289425  13.26443560692308  4.436723010849888  48.015785329963414  14.164439562785283  13.677309788103438  6.202717849624307  63.49581441843808  -16.390612848517854  17.08572468239289  120.000000
1.78095  0.000000  0.000000  0.000000  -49.21822604124964  12.622505941206464  2.770232857838912  48.03479727905064  13.700244092993298  13.385525311620155  6.1265740666200905  62.93831240660344  -16.659381393391936  17.164332634812883  120.000000
1.8384  0.000000  0.000000  0.000000  -48.30535290212997  11.820172517467427  0.6535169649224399  47.936253562493874  13.310396208403088  13.199524511268416  5.9753797761839875  61.97975719573558  -16.874118497343574  17.259211247039612  120.000000
1.89585  0.000000  0.000000  0.000000  -47.22122272375287  10.86148290154282  -1.795406452548356  47.68259092360211  13.083221702281078  13.12921458238756  5.73990470378096  60.56706709730572  -17.02779567192067  17.342229212243208  120.000000
1.9533  0.000000  0.000000  0.000000  -45.978837547155706  9.765383329827271  -4.448524033384602  47.24809172472997  13.094936724259613  13.161806279068934  5.41504177954917  58.66725370908955  -17.129563977248406  17.3894640932099  120.000000
2.01075  0.000000  0.000000  0.000000  -44.607659024376375  8.564310262715798  -7.179737831196757  46.6224442497665  13.391822755224315  13.269749272491662  5.009439347290836  56.27290470112085  -17.205229112822884  17.38844149892678  120.000000
2.0682  0.000000  0.000000  0.000000  -43.16281877256402  7.3007583920409145  -9.876664538659407  45.814895111216735  13.978841619775602  13.421921291265836  4.555348808418514  53.40786973244778  -17.294241442437354  17.338634135716998  120.000000
2.1256500000000003  0.000000  0.000000  0.000000  -41.726489314559224  6.0231752259667575  -12.44932993326535  44.853568331203114  14.817746599500436  13.59405521586762  4.111836623831525  50.127244366919356  -17.439861183756964  17.245499255214945  120.000000
2.1831  0.000000  0.000000  0.000000  -40.393068815071416  4.784302338516383  -14.832163732469539  43.78073686532463  15.837431221673457  13.778691201889496  3.7659049513506795  46.5125629409441  -17.677179151523756  17.113044134631807  120.000000
2.24055  0.000000  0.000000  0.000000  -39.23791199031143  3.642893820611033  -16.984901534649566  42.65355796296375  16.947490966767887  13.980681919240295  3.628065927681582  42.65903780876629  -18.02254314499734  16.93512450018931  120.000000
2.298  0.000000  0.000000  0.000000  -38.297321612916704  2.643289956574481  -18.885519666401716  41.53116550397451  18.053288581270646  14.208060472743435  3.806570352666042  38.655251608902944  -18.458114573297845  16.695535039786137  120.000000
2.3554500000000003  0.000000  0.000000  0.000000  -37.56701313662497  1.8112186452236072  -20.523609225088006  40.46800791682564  19.07460926649921  14.460830146464351  4.378486296352014  34.57525731220829  -18.928201798236625  16.373632048415665  120.000000
2.4129  0.000000  0.000000  0.000000  -37.012252651139356  1.1565255943780766  -21.892164997922013  39.51050516282993  19.963096388503914  14.72970362351161  5.376896555257821  30.487360881718985  -19.352425987172108  15.958256036846088  120.000000
2.47035  0.000000  0.000000  0.000000  -36.585050970024554  0.6721924778801301  -22.987288016967785  38.694724312366986  20.705416056204427  14.999838497043342  6.794770807425609  26.462086222552394  -19.64765463352625  15.463068917104307  120.000000
2.5278  0.000000  0.000000  0.000000  -36.24221017428837  0.33350483291338645  -23.8159287543609  38.0470267151761  21.31671601753509  15.253223835234945  8.606707483647526  22.57642238758089  -19.75678742042398  14.932605768654458  120.000000
2.5852500000000003  0.000000  0.000000  0.000000  -35.95714291644546  0.0987187281388628  -24.40117446480685  37.58207962850552  21.83088908333231  15.478305227384283  10.817970486561855  18.92185821737292  -19.697372520590072  14.433275607805326  120.000000
2.6427  0.000000  0.000000  0.000000  -35.72197637594146  -0.07557257767110079  -24.763567868491293  37.31218292312566  22.27543112471611  15.656125493681827  13.534141624836053  15.599944993610666  -19.633791408081713  14.034601808260717  120.000000
2.70015  0.000000  0.000000  0.000000  -35.538152682946375  -0.2189017515653433  -24.90698487794583  37.24005964184446  22.65406507050919  15.756205117564694  17.00714377138451  12.693841062564292  -19.932093406217618  13.78785320657969  120.000000
2.7576  0.000000  0.000000  0.000000  -35.409914668052856  -0.33896880129883555  -24.82505675878273  37.35035576365195  22.95696897877241  15.75253553008352  21.67541238382293  10.24357247876869  -21.20201277745386  13.71339823396519  120.000000
2.8150500000000003  0.000000  0.000000  0.000000  -35.34570780125557  -0.42648842215653904  -24.502058494404334  37.615574101993516  23.16996830118879  15.623748801745366  28.208820666954093  8.255987147774936  -24.321845931541954  13.806329317729563  120.000000
2.8725  0.000000  0.000000  0.000000  -35.35309656795958  -0.46297261196458545  -23.935784952001484  37.99429932228778  23.277019778875335  15.362501662609718  37.42829008828998  6.739697591486344  -30.321400780341623  14.048735655460817  120.000000
2.92995  0.000000  0.000000  0.000000  -35.4302862007649  -0.429273273667402  -23.150238345961935  38.435087361183655  23.262306350863753  14.978904908308765  49.78133128008511  5.7231782747851545  -39.81812412552897  14.413257314441214  120.000000
2.9874  0.000000  0.000000  0.000000  -35.562862561347096  -0.31473176367332606  -22.183724498295472  38.88881442154103  23.113979916205725  14.49200183376006  64.29148061260453  5.220554378319414  -51.939840378318685  14.86169778026677  120.000000
3.0448500000000003  0.000000  0.000000  0.000000  -35.727041898689706  -0.1187936108826036  -21.082376859815362  39.319819139726945  22.83139686671502  13.925035308214701  78.42774644082685  5.16417810542252  -64.19047278960711  15.348784953095407  120.000000
3.1023  0.000000  0.000000  0.000000  -35.896835693532154  0.15011595952703874  -19.897484347026776  39.7115384427392  22.42983224911364  13.304006915032263  89.98658128331844  5.398260201903118  -74.34539624627546  15.832227402850847  120.000000
3.15975  0.000000  0.000000  0.000000  -36.05297262284064  0.4721013716758292  -18.678808593879143  40.06033132902712  21.93516262226515  12.658480316224427  98.38150505937985  5.754110887223942  -81.75846474972033  16.282727546305615  120.000000
3.2172  0.000000  0.000000  0.000000  -36.18282534394884  0.8187468740038365  -17.46858081650642  40.37141464676214  21.376038648499254  12.015393599294894  104.05575065696947  6.109109531979224  -86.78978365928495  16.690251232862114  120.000000
3.2746500000000003  0.000000  0.000000  0.000000  -36.27613193667748  1.1633484131612357  -16.302767769403566  40.6595750053225  20.779917918200038  11.392651512700498  107.66495651361681  6.397971076854  -90.00158317212205  17.062307230433866  120.000000
3.3321  0.000000  0.000000  0.000000  -36.32498465009221  1.4829107198524178  -15.209217073617342  40.94029733222721  20.16879041046559  10.80171376559727  109.76295871555155  6.598200520563538  -91.85653082856375  17.41473177567222  120.000000
3.38955  0.000000  0.000000  0.000000  -36.32742741129659  1.7584542188757106  -14.204753821335359  41.221357081719  19.558032060573503  10.251873160111549  110.76521028740888  6.714393808504352  -92.69247742894525  17.7633451592343  120.000000
3.447  0.000000  0.000000  0.000000  -36.288977863534654  1.9812887226017308  -13.29769950070889  41.504347086737475  18.958638014530763  9.74794634560846  110.97300702180867  6.767639528083035  -92.75574163459397  18.11762026334764  120.000000
3.5044500000000003  0.000000  0.000000  0.000000  -36.22139626856862  2.1514925919347987  -12.490747192514892  41.785703087466146  18.380316163231278  9.28903128084166  110.60174390411281  6.7853891214103905  -92.2307525243531  18.479713760820857  120.000000
3.5619  0.000000  0.000000  0.000000  -36.13910886302386  2.272660877677433  -11.781344318602272  42.05510028674483  17.830620949059377  8.874296516643339  109.81438770328504  6.793014705783019  -91.2683506535138  18.847401942899737  120.000000
3.61935  0.000000  0.000000  0.000000  -36.0534019913003  2.351665485824496  -11.165195341015298  42.301131011721104  17.315828641792567  8.5025294174078  108.72937854967208  6.810935535565711  -89.98554510563424  19.217769233542455  120.000000
3.6768  0.000000  0.000000  0.000000  -35.969411114627576  2.3990535465196716  -10.63965645924807  42.514583444252736  16.8415812649294  8.16956215595392  107.42097904144858  6.853553803199608  -88.45888159567913  19.589577095610416  120.000000
3.7342500000000003  0.000000  0.000000  0.000000  -35.88668389871393  2.4246509385748136  -10.204526869441109  42.68559088446868  16.410679246015622  7.87002858304649  105.92635216421245  6.9275529468591515  -86.72720377455468  19.962809444277017  120.000000
3.7917  0.000000  0.000000  0.000000  -35.79961997719249  2.4328975496806424  -9.86171642892316  42.80326942657244  16.022214914629213  7.598513863859892  104.24417083677419  7.0330604899582925  -84.7883174439276  20.337929142715428  120.000000
3.84915  0.000000  0.000000  0.000000  -35.699244771682174  2.423011927304553  -9.614183620518315  42.85717603034505  15.671604648202885  7.350639224702356  102.32254302632414  7.166604998313277  -82.58603043045053  20.715142473831722  120.000000
3.9066  0.000000  0.000000  0.000000  -35.57480530013006  2.391608467703917  -9.465266726346693  42.839384462216245  15.352315420956819  7.122622663778122  100.04782576724807  7.324216651241488  -79.99894754351268  21.093738559130152  120.000000
3.9640500000000003  0.000000  0.000000  0.000000  -35.41498909974605  2.334258246805182  -9.41883294157095  42.74670395154007  15.058382007072744  6.909530616302772  97.24440293609878  7.506037047639066  -76.84256878238808  21.4712598368227  120.000000
4.0215  0.000000  0.000000  0.000000  -35.208316233976255  2.2485105136840318  -9.47940753386811  42.581472985974095  14.784849682463484  6.705865612140047  93.71467554533805  7.72390939881811  -72.91365890579462  21.843772728542508  120.000000
4.07895  0.000000  0.000000  0.000000  -34.94602839880916  2.1337411212502726  -9.650637940944804  42.34882253224013  14.526676883592856  6.509262457904582  89.31526020801999  8.010537519138605  -68.07356561381233  22.20508175440867  120.000000
4.1364  0.000000  0.000000  0.000000  -34.625192705474866  1.9931212100089903  -9.932519634725244  42.053953965681956  14.27796985106604  6.324665161935792  84.06906226748325  8.425448365686911  -62.366716112336086  22.54458285823287  120.000000
4.19385  0.000000  0.000000  0.000000  -34.25507635699885  1.8383596938961646  -10.317906694792983  41.697875703050585  14.031950688525098  6.168072718747032  78.26062777824227  9.048286563995473  -56.11864415772281  22.844448389317126  120.000000
4.2513000000000005  0.000000  0.000000  0.000000  -33.8573271165024  1.6983693093868402  -10.791939719818924  41.283547089211304  13.784647645068567  6.06240986096175  72.41249029713313  9.959787973127796  -49.905944561384594  23.081389609474368  120.000000
4.30875  0.000000  0.000000  0.000000  -33.47084252847607  1.6274808740261615  -11.332318550733703  40.82975497289556  13.536765773484154  6.03330600333174  67.11559621473732  11.22772540797531  -44.37536518596108  23.237214670702933  120.000000
4.3662  0.000000  0.000000  0.000000  -33.16363812866509  1.6895411358329695  -11.903440280294356  40.36093078979843  13.287348820846148  6.11995303895112  62.80801230229936  12.892959181871767  -40.00921811028286  23.31221659652401  120.000000
4.42365  0.000000  0.000000  0.000000  -33.02755369066417  1.9489447033106033  -12.454954089412308  39.901274606471716  13.032279018410671  6.373765145327511  59.65002070346671  14.963742157470216  -36.99232054453106  23.335540988032907  120.000000
4.4811  0.000000  0.000000  0.000000  -33.159114792167195  2.4722683231584246  -12.930140549388907  39.49035705400239  12.7772672395858  6.829003170266241  57.54258302987954  17.42553914962944  -35.240527269092894  23.36200575403345  120.000000
4.53855  0.000000  0.000000  0.000000  -33.62581962711985  3.3089547917315856  -13.269238634057574  39.17812987442018  12.543261286118927  7.48635950100641  56.22413751598302  20.23673508454035  -34.50566994005378  23.450127386734298  120.000000
4.596  0.000000  0.000000  0.000000  -34.44655308768215  4.466774941718007  -13.403118152886437  39.000618378726934  12.352779571257678  8.32678365454198  55.39032113538329  23.320713362628975  -34.49450931495566  23.635607663840975  120.000000
4.65345  0.000000  0.000000  0.000000  -35.579575872241506  5.91144867996819  -13.255681272636878  38.978983266320604  12.224453219556247  9.31547142082616  54.78020374973662  26.570184023880397  -34.950120910448625  23.91165704278216  120.000000
4.7109000000000005  0.000000  0.000000  0.000000  -36.929940654405705  7.5830218162688015  -12.753928173443484  39.11944238271231  12.174391567657267  10.401719767897017  54.20212982413218  29.85262729444015  -35.672943538656625  24.226566887311122  120.000000
4.76835  0.000000  0.000000  0.000000  -38.38394733014411  9.40945534478073  -11.83494370859776  39.40353095703506  12.214168070062414  11.527966198835541  53.52799135728854  33.02162786039716  -36.51608336854699  24.502070161754656  120.000000
4.8258  0.000000  0.000000  0.000000  -39.847853095605075  11.312851525414578  -10.453575441227123  39.794972864665795  12.344043443551604  12.637674995104003  52.68387469498398  35.9470100092233  -37.381091892490936  24.66171154212612  120.000000
4.88325  0.000000  0.000000  0.000000  -41.2755617166297  13.209447388705078  -8.590250609340485  40.25513909290397  12.54524816347123  13.680106349555523  51.6350718098999  38.544695314134415  -38.2106985448331  24.654118534787283  120.000000
4.9407  0.000000  0.000000  0.000000  -42.67477624980121  15.012965744667978  -6.256948123409211  40.75687287564785  12.781041736312677  14.6125485116397  50.368959182856294  40.7918594588262  -38.97521094118255  24.46000627030285  120.000000
4.99815  0.000000  0.000000  0.000000  -44.085987547295716  16.645079387898278  -3.4980073506389715  41.290298332006735  13.00621372306045  15.40625530474443  48.89006084491035  42.72252846096044  -39.66036833042278  24.085325159032514  120.000000
5.0556  0.000000  0.000000  0.000000  -45.542828360018255  18.044016858839427  -0.39157500697630904  41.8645738725127  13.184146138892034  16.05151379869821  47.222652252926856  44.40684670431526  -40.25926192602034  23.552280860948606  120.000000
5.11305  0.000000  0.000000  0.000000  -47.04885402307749  19.16671606965872  2.949486980976122  42.49586444069566  13.296868826420729  16.559625724516906  45.402931588362065  45.925351345599445  -40.761679216365884  22.897281301638056  120.000000
5.1705000000000005  0.000000  0.000000  0.000000  -48.575477938763704  19.994166421141916  6.3817158949272645  43.190726637655594  13.342387052008036  16.955885549780245  43.47335210403707  47.346393403842974  -41.15267400332091  22.17007787693552  120.000000
5.22795  0.000000  0.000000  0.000000  -50.07017608474642  20.53163491574295  9.741918197924191  43.942232090406975  13.328228159327395  17.265178779402916  41.4884128317619  48.716795660796194  -41.42839016726852  21.428033760317476  120.000000
5.2854  0.000000  0.000000  0.000000  -51.46634086163387  20.805885135926626  12.864047521293477  44.728930612491304  13.266900653997304  17.499286675802598  39.52301855604621  50.05686853403925  -41.61062457831302  20.72602772592058  120.000000
5.34285  0.000000  0.000000  0.000000  -52.69394794027557  20.859959503526124  15.596479452306106  45.512445317468504  13.172898066120359  17.6504293725875  37.67521526278226  51.35755945966718  -41.74829620451514  20.104029639453284  120.000000
5.4003  0.000000  0.000000  0.000000  -53.68777283386351  20.744855836962028  17.81491868958034  46.23669616701547  13.060561498270053  17.69206863922131  36.06042096360244  52.58030365455681  -41.90594723508782  19.580179060715476  120.000000
5.45775  0.000000  0.000000  0.000000  -54.39360315059889  20.51136078642542  19.427757009982713  46.835501964842535  12.941433908375407  17.586648708708527  34.796682842978896  53.663406525422985  -42.14780021116546  19.154509316247427  120.000000
5.5152  0.000000  0.000000  0.000000  -54.77249159382874  20.20172487469376  20.37405185429865  47.248279534798634  12.821014862568815  17.297862536758185  33.98293759103114  54.53558002261569  -42.52214384116161  18.820983073381488  120.000000
5.57265  0.000000  0.000000  0.000000  -54.80419687985892  19.84433798777521  20.617753345860823  47.437752084631626  12.695670340819301  16.802331355152432  33.67806121684306  55.13143363711884  -43.05089367910986  18.57978775666682  120.000000
5.6301000000000005  0.000000  0.000000  0.000000  -54.48761845410168  19.449845811523673  20.14198396295199  47.40106148012436  12.55054222742529  16.099064371210968  33.88818791510631  55.40321695558001  -43.7244600875746  18.44446818895198  120.000000
5.68755  0.000000  0.000000  0.000000  -53.83854664740146  19.009840713423333  18.94697395523837  47.16585974832523  12.361156148508382  15.215148245151594  34.565205690131904  55.32176966458547  -44.49858530529633  18.4390300522844  120.000000
5.745  0.000000  0.000000  0.000000  -52.88499640270118  18.4965723677384  17.053539156939305  46.77066345773698  12.102168893348473  14.205862617279884  35.61586488120219  54.86749360096096  -45.29460718413713  18.58444811006912  120.000000
5.80245  0.000000  0.000000  0.000000  -51.662331042890735  17.866343268429993  14.511475423829353  46.242349528365516  11.762568578153806  13.148573067575064  36.91751422768363  54.019143744541765  -46.00836619461713  18.8771580822338  120.000000
5.8599  0.000000  0.000000  0.000000  -50.20962814989267  17.06990225948186  11.407126203914114  45.587682080691856  11.3614013030596  12.130409862633716  38.33544472443145  52.74979685771441  -46.53013600753862  19.270405046447696  120.000000
5.91735  0.000000  0.000000  0.000000  -48.567831594710974  16.067588422012935  7.863964066022224  44.802523493381045  10.954595913256984  11.234176083750965  39.73936693402044  51.031345629549925  -46.772074185931864  19.67461474467413  120.000000
5.9748  0.000000  0.000000  0.000000  -46.77841852876158  14.84215730790876  4.034333713309382  43.88898490830329  10.628924499025425  10.525802414059847  41.01949743649412  48.84452409159001  -46.693671639176294  19.98087793450571  120.000000
6.03225  0.000000  0.000000  0.000000  -44.88209378499118  13.40365639561459  0.08619373559824059  42.871817955375604  10.485808391186033  10.047769086287769  42.106180294106245  46.19275313952898  -46.31743162182341  20.09494371024898  120.000000
6.089700000000001  0.000000  0.000000  0.000000  -42.92282835108051  11.786679620491347  -3.812268176963516  41.80401577611249  10.61966771831502  9.819589037299428  42.985186011425064  43.11680015238753  -45.72855929155035  19.964901536841833  120.000000
6.14715  0.000000  0.000000  0.000000  -40.96063108540346  10.045467171250234  -7.508999640874268  40.75796922337999  11.09467681485585  9.842122376347536  43.70326933922932  39.70628288645057  -45.05835163675014  19.58970962631952  120.000000
6.2046  0.000000  0.000000  0.000000  -39.0806526104711  8.25390355658546  -10.886729546332191  39.812947169275326  11.926446784189338  10.098922786125314  44.37038641269101  36.100257770096285  -44.46464119410311  19.0071207891371  120.000000
6.26205  0.000000  0.000000  0.000000  -37.384894539612716  6.500198934110455  -13.875575349456035  39.03663157366492  13.074826774643421  10.557904170449008  45.157858250098414  32.46625830502331  -44.11642551604754  18.27758663583617  120.000000
6.3195  0.000000  0.000000  0.000000  -35.969137216806466  4.874286308896648  -16.449767753616726  38.46848720752191  14.452929976936828  11.178231256559886  46.28539900856641  28.966723925521823  -44.18216232068966  17.47522701653147  120.000000
6.37695  0.000000  0.000000  0.000000  -34.895012491229345  3.455446780968401  -18.613431889930425  38.117960278435135  15.95025026682196  11.914789609705895  47.99252813002068  25.73060504441034  -44.81606031120002  16.683477982443335  120.000000
6.4344  0.000000  0.000000  0.000000  -34.1768043987595  2.2997252966767485  -20.383793901230952  37.967219345580155  17.456864435705047  12.722587286884519  50.49330279933104  22.839792423548168  -46.139163990909516  15.987449497797206  120.000000
6.49185  0.000000  0.000000  0.000000  -33.78684267448432  1.4376792372029752  -21.781919706366857  37.97884585831751  18.881007091143477  13.559436677477196  53.92975872558752  20.334358544138286  -48.222415790525496  15.462093982713682  120.000000
6.549300000000001  0.000000  0.000000  0.000000  -33.66875223462684  0.873658935584748  -22.83167096576297  38.10582963676793  20.15743342917371  14.385551264966962  58.33630374076257  18.22586231558239  -51.07491019203485  15.156917446449949  120.000000
6.60675  0.000000  0.000000  0.000000  -33.754152034436494  0.5825353315117087  -23.561746343986698  38.29943400277315  21.24797639488686  15.162907964501573  63.61793404509537  16.507945752608297  -54.631978456966536  15.086718979685818  120.000000
6.6642  0.000000  0.000000  0.000000  -33.97483371110448  0.5168739554468701  -24.007074037895833  38.515231766585615  22.13788541267767  15.85532564742829  69.54884754507464  15.158629293960315  -58.743921859951804  15.235207588120868  120.000000
6.72165  0.000000  0.000000  0.000000  -34.26965471186314  0.6189597116041794  -24.207785196815806  38.71530705000264  22.830552567104792  16.43014425989882  75.79918835475254  14.135488409633423  -63.17841325761891  15.563400499052998  120.000000
6.7791  0.000000  0.000000  0.000000  -34.58916205419791  0.830463518404952  -24.207046098778118  38.874432261762145  23.339821319904946  16.861714265519392  82.01179319846601  13.377701162621209  -67.66885227461256  16.013299281287484  120.000000
6.83655  0.000000  0.000000  0.000000  -34.89277140376404  1.093965304811488  -24.04714177650465  38.9855423339533  23.68170415550198  17.135776188682925  87.89737933543715  12.81718600702819  -71.98706741430644  16.507995155240092  120.000000
6.894  0.000000  0.000000  0.000000  -35.15082770453874  1.3609139062390831  -23.765477242306844  39.059009980606874  23.87052767849004  17.250748092174167  93.28606507422703  12.393718882229143  -75.99042876406203  16.96017384967824  120.000000
6.95145  0.000000  0.000000  0.000000  -35.3450848815361  1.6011136560442563  -23.392674349151765  39.117774466087795  23.922352984949203  17.213810050045083  98.11234667627777  12.062800754810754  -79.61766954479391  17.29111637789049  120.000000
7.008900000000001  0.000000  0.000000  0.000000  -35.46884350287996  1.7990410358175268  -22.951057625882058  39.18447940256417  23.85651584257686  17.03971988834347  102.37484743250506  11.793109862848382  -82.8634619451713  17.455899705606587  120.000000
7.06635  0.000000  0.000000  0.000000  -35.532112453248104  1.948552285493811  -22.453915802552793  39.26858111701772  23.69273563681036  16.75205558989066  106.10445179618996  11.561447313114323  -85.75842461971723  17.463670982581146  120.000000
7.1238  0.000000  0.000000  0.000000  -35.55829100535565  2.050428824279028  -21.908044673603715  39.36622341698491  23.451459462285186  16.377062382408244  109.34175156145999  11.349707873702686  -88.35063348830033  17.374447137623527  120.000000
7.18125  0.000000  0.000000  0.000000  -35.572158978272604  2.1131507390116324  -21.31786101536364  39.47368470009048  23.155901412585017  15.934480372612903  112.12013396754914  11.14736275065424  -90.6841032541014  17.27292415886905  120.000000
7.2387  0.000000  0.000000  0.000000  -35.592279565176426  2.150161909387684  -20.687264041648984  39.595154758791516  22.828638524741653  15.43749718237772  114.45595206039549  10.95204028923327  -92.77977944136742  17.23412028757273  120.000000
7.29615  0.000000  0.000000  0.000000  -35.62834070016962  2.1720404747778925  -20.01937332679379  39.735136043672576  22.48312055040462  14.901773785351741  116.37178285933187  10.760270777971156  -94.64764099194768  17.29509312084612  120.000000
7.3536  0.000000  0.000000  0.000000  -35.68060315380658  2.18464321750482  -19.317120556801417  39.89389267688512  22.122239195880848  14.348063111172845  117.9167567037164  10.562978405812297  -96.30460167409838  17.448989801437726  120.000000
7.41105  0.000000  0.000000  0.000000  -35.741801583782234  2.1936248492491113  -18.5858021438456  40.07418950716536  21.745738764280404  13.793889190990948  119.14724812879074  10.350918173267623  -97.76442136045968  17.66226993685012  120.000000
7.468500000000001  0.000000  0.000000  0.000000  -35.798431422335184  2.2058031613580495  -17.83479281669938  40.28288340414949  21.354777444976303  13.248076119791092  120.11900770694024  10.117142765078453  -99.04031036430385  17.897210685170865  120.000000
7.52595  0.000000  0.000000  0.000000  -35.8402957864233  2.225758003608774  -17.075372164123902  40.52229475476409  20.95018693660761  12.715159703353045  120.89119687414102  9.857101349810105  -100.15772511678676  18.127537156506264  120.000000
7.5834  0.000000  0.000000  0.000000  -35.86542893882568  2.254573638113925  -16.318075024718194  40.78655008852989  20.531953565270243  12.199215758646915  121.525906047763  9.569684810995142  -101.15764627529215  18.34407191391238  120.000000
7.64085  0.000000  0.000000  0.000000  -35.87812884020074  2.290896205894072  -15.571438279188477  41.06516546363321  20.100763490859443  11.704006384054452  122.08362119149022  9.25809185675142  -102.08992661868751  18.55023987773356  120.000000
7.6983  0.000000  0.000000  0.000000  -35.88565955779104  2.332434133137061  -14.841762820351105  41.347717724902374  19.65941004162541  11.231922572213959  122.61844138086722  8.929466155683132  -103.00449734367139  18.753676858192424  120.000000
7.75575  0.000000  0.000000  0.000000  -35.89450994036149  2.3767726847216197  -14.133448912245832  41.62719211378356  19.213192525501675  10.783062894006802  123.17652052910682  8.593597336983942  -103.94563779740085  18.959428592893456  120.000000
7.8132  0.000000  0.000000  0.000000  -35.90965766784145  2.420368042065457  -13.44908874630209  41.90023840412042  18.7690305372795  10.355659619998017  123.79286993308465  8.261557911633686  -104.94639324263211  19.167154153424544  120.000000
7.87065  0.000000  0.000000  0.000000  -35.9336342237128  2.458826811697019  -12.789734369057987  42.16639107263727  18.333967027402764  9.946821511802895  124.49207808734309  7.944338474057588  -106.02697867379169  19.372772145368465  120.000000
7.928100000000001  0.000000  0.000000  0.000000  -35.96681929460216  2.4868561620101577  -12.155341081889295  42.427135613038985  17.914361947863856  9.55235315201827  125.28439101118553  7.651650490829669  -107.18979998431988  19.572923879498724  120.000000
7.98555  0.000000  0.000000  0.000000  -36.011476408050115  2.4981418999549545  -11.544461409863306  42.680478990805085  17.51386465541296  9.168970216157645  126.16589564807272  7.3889166129946675  -108.41929777646827  19.769584358550546  120.000000
8.043  0.000000  0.000000  0.000000  -36.06991406096908  2.4886656007821237  -10.955130259407735  42.91771100933877  17.132746298673606  8.794188832612535  127.13014427794893  7.154113205222941  -109.69385462864409  19.972108974195592  120.000000
8.10045  0.000000  0.000000  0.000000  -36.141717924268384  2.4614001260732574  -10.387431590840615  43.126813228719016  16.771050606614324  8.42159773770056  128.1553725532314  6.938446940675103  -110.97814469769179  20.194747768706282  120.000000
8.1579  0.000000  0.000000  0.000000  -36.22061087039487  2.425282637406302  -9.845086540943674  43.29171888322483  16.429006070709757  8.042751285423785  129.20991944854862  6.727299934190712  -112.23524350367497  20.447510409931457  120.000000
8.21535  0.000000  0.000000  0.000000  -36.294265861052445  2.390028352063656  -9.336199577948475  43.38842248057807  16.103534252264943  7.655732985177205  130.2607763525097  6.503685507182291  -113.44098071256533  20.722951516917767  120.000000
8.2728  0.000000  0.000000  0.000000  -36.3461499154659  2.367712250033455  -8.876854118463704  43.3929446617472  15.789745214454614  7.263614012841058  131.2264750179383  6.254989952910594  -114.53918152488825  20.98807031260111  120.000000
8.33025  0.000000  0.000000  0.000000  -36.358872283417135  2.371800551600807  -8.492531488641244  43.28695164463768  15.48554866766788  6.870491346462384  131.92145475589507  5.9771737374372576  -115.3806027819232  21.190181440666244  120.000000
8.3877  0.000000  0.000000  0.000000  -36.31654850955076  2.408033840053453  -8.213484892889085  43.057175863525394  15.192908943506515  6.484742902879486  132.01996672915888  5.677084434135262  -115.67340750244786  21.274936141880747  120.000000
8.44515  0.000000  0.000000  0.000000  -36.20325415688794  2.4690884249283123  -8.069200672565572  42.70235097569312  14.918724892407793  6.11743037833404  131.00929967287252  5.3760399775642975  -114.91771393115648  21.213425048808514  120.000000
8.502600000000001  0.000000  0.000000  0.000000  -36.00648925026009  2.532678211428682  -8.080993308984768  42.23392841399983  14.673789312372215  5.780513050470164  128.19856673941464  5.112295758494632  -112.4010149764794  21.0244002364155  120.000000
8.56005  0.000000  0.000000  0.000000  -35.72278779434941  2.5712930045811593  -8.258215318577902  41.680948052461986  14.471336263169675  5.480761002622779  122.84600710823362  4.952844452965339  -107.32596749338028  20.778515250634605  120.000000
8.6175  0.000000  0.000000  0.000000  -35.35788479066506  2.564320038851187  -8.599608124409224  41.09999696203689  14.324053014923514  5.215281335692706  114.60486857334854  5.019241745070278  -99.27630311871025  20.576068123222427  120.000000
8.67495  0.000000  0.000000  0.000000  -34.929743484190205  2.490357404462079  -9.088702277781541  40.5559682848451  14.234425715353206  4.990773477864988  104.42716280908759  5.486341686214707  -89.15234115374156  20.505746874998323  120.000000
8.7324  0.000000  0.000000  0.000000  -34.47642818280514  2.328999793781356  -9.69148480708671  40.096061728415926  14.194066641967943  4.837520959593611  94.57693721026811  6.514926443951266  -79.21258435843583  20.610365526254466  120.000000
8.78985  0.000000  0.000000  0.000000  -34.050336432808784  2.0832375186004155  -10.365566274035398  39.75052830573175  14.196091967281578  4.793983141297101  86.87837879962487  8.182853491722206  -71.33225122866827  20.872512816101565  120.000000
8.8473  0.000000  0.000000  0.000000  -33.70609524708433  1.7896002153480997  -11.068068145742503  39.536758725417016  14.241755597279388  4.893447100894181  81.6882146140465  10.485002443446739  -65.96433129263792  21.230642916458226  120.000000
8.90475  0.000000  0.000000  0.000000  -33.48306110009486  1.514983502316614  -11.758632645028518  39.465304953076625  14.339841482236471  5.160468436418111  78.51092420655671  13.356384044044734  -62.72772854791103  21.608896342129842  120.000000
8.9622  0.000000  0.000000  0.000000  -33.388479363497325  1.3462470504999935  -12.397473775250052  39.553753697381296  14.509387447307473  5.601910390033756  76.71709786730273  16.686214222742674  -61.098724210188365  21.942094868885455  120.000000
9.01965  0.000000  0.000000  0.000000  -33.412971588895594  1.366966383133794  -12.931166242866151  39.8154666385604  14.770561582850295  6.2182620495007725  75.81863533736475  20.334520559029425  -60.66606078895684  22.191660695765876  120.000000
9.0771  0.000000  0.000000  0.000000  -33.54269679085056  1.635902850937031  -13.282407613348365  40.24189980701567  15.122197572386654  7.029148155548354  75.51909379355442  24.155824150808808  -61.16177462373481  22.3474095461683  120.000000
9.13455  0.000000  0.000000  0.000000  -33.764944824027786  2.1818516470618885  -13.359225577050118  40.81553327049195  15.54557108046756  8.057420367407033  75.6345085313443  28.02866601674331  -62.38791341973852  22.41570009184853  120.000000
9.192  0.000000  0.000000  0.000000  -34.07810450367056  3.026901667476356  -13.072229576783686  41.53017788876113  16.02455754471659  9.288168922990184  76.00137466376678  31.871049717409562  -64.14829637689634  22.403093157583168  120.000000
9.24945  0.000000  0.000000  0.000000  -34.49061579046802  4.192276236603359  -12.340067670491074  42.382398916433736  16.540911152512418  10.666455128156356  76.4661557877416  35.62808920939024  -66.24290924009512  22.3058940705602  120.000000
9.3069  0.000000  0.000000  0.000000  -35.03186056644965  5.669518133677747  -11.08820953373262  43.354555456750965  17.055443087951968  12.12489730707807  76.90617396042796  39.26061393386942  -68.4901915389112  22.111736172575448  120.000000
9.36435  0.000000  0.000000  0.000000  -35.74052542015739  7.408682961328872  -9.253602006108315  44.42045672689667  17.510481805988682  13.597991781603088  77.24028436336964  42.73774861829764  -70.74086748962968  21.808515306196544  120.000000
9.421800000000001  0.000000  0.000000  0.000000  -36.65159492611406  9.325283309510572  -6.7973223116818415  45.55338227584168  17.843323576428535  15.026260520502356  77.42392126820262  46.03209256064623  -72.881794914966  21.397788498458592  120.000000
9.47925  0.000000  0.000000  0.000000  -37.794534828961595  11.308762054033043  -3.7210985392001867  46.719284881809216  17.997471411629874  16.363750602779795  77.43834708966976  49.11388908645772  -74.8342495923242  20.902602663469782  120.000000
9.5367  0.000000  0.000000  0.000000  -39.18290973816178  13.232701490248557  -0.08445969424903789  47.872776911075384  17.937946040334886  17.576084643845604  77.28013284914817  51.946607956141136  -76.5467438851076  20.363160004561834  120.000000
9.59415  0.000000  0.000000  0.000000  -40.80122256703313  14.970321338096936  3.9823736293691745  48.961545937564395  17.661433762695847  18.633089794170576  76.95434549034447  54.49156253341354  -77.98470797364806  19.825716209505554  120.000000
9.6516  0.000000  0.000000  0.000000  -42.58347506843985  16.413564648347105  8.280524692914948  49.93412060314752  17.19338251843102  19.508290792076785  76.48129226961927  56.71151435293614  -79.12471541115966  19.331049932972952  120.000000
9.70905  0.000000  0.000000  0.000000  -44.40846754785302  17.501171445021296  12.560854889269061  50.75575073966662  16.58014391752552  20.176594157761212  75.90442059402825  58.580135101708315  -79.95442880569415  18.908659074254917  120.000000
9.7665  0.000000  0.000000  0.000000  -46.11800404109997  18.230536833559164  16.554923794273307  51.41022605075439  15.874414260446976  20.61757569400426  75.28574834248631  60.083167147530126  -80.47341764882125  18.577392648528864  120.000000
9.82395  0.000000  0.000000  0.000000  -47.55463157320963  18.651833999955706  20.013546563558425  51.896211057095606  15.125757047192668  20.81328033888197  74.69201395947196  61.214444122297685  -80.69678384972956  18.34704687782074  120.000000
9.8814  0.000000  0.000000  0.000000  -48.58931472472788  18.846394923690905  22.734164354984305  52.225591244035186  14.378506702358049  20.74901856349643  74.18023758131655  61.97573440774615  -80.65582774578631  18.219906894707727  120.000000
9.93885  0.000000  0.000000  0.000000  -49.13135206207885  18.891964308139944  24.570279645823554  52.41913296977501  13.672496346121392  20.42485158608331  73.79210313404313  62.37539048803103  -80.3948526745858  18.188629673259356  120.000000
9.9963  0.000000  0.000000  0.000000  -49.13164924264459  18.840603496328278  25.426911343525116  52.49834314590042  13.047304696993226  19.85957207588353  73.54690680018153  62.42379282578514  -79.96022428690472  18.234441033967805  120.000000
10.05375  0.000000  0.000000  0.000000  -48.586088800131066  18.704704724123264  25.255418483621163  52.47507314722996  12.536930157578459  19.090054485218417  73.44259103099527  62.12916029343553  -79.38657808226398  18.329265878168126  120.000000
10.1112  0.000000  0.000000  0.000000  -47.53773093051925  18.452777918490387  24.05742390856755  52.346575890054055  12.166780410881215  18.16638971819882  73.45996652491255  61.497950130238046  -78.6820600582535  18.442540429106494  120.000000
10.16865  0.000000  0.000000  0.000000  -46.08138475980593  18.01981215241013  21.897187959445954  52.09497687716889  11.95704245736442  17.145381777762  73.56343894375648  60.536172492880226  -77.81435949516587  18.545536700952166  120.000000
10.2261  0.000000  0.000000  0.000000  -44.36011461138199  17.32798917397746  18.908657930124036  51.69306339101585  11.924418235751853  16.08747376117999  73.70087896590161  59.2528210090607  -76.71156917811992  18.61438274605334  120.000000
10.28355  0.000000  0.000000  0.000000  -42.54137858070973  16.32141223457835  15.285877520029572  51.121442667210005  12.085292469169367  15.055027831879114  73.80797667872865  57.66619278759215  -75.2818288733126  18.635130085551012  120.000000
10.341000000000001  0.000000  0.000000  0.000000  -40.78337832973197  14.99122260649757  11.250441699117113  50.37953453007348  12.44730979229004  14.113213306116348  73.8179861634413  55.803448925365096  -73.44527085299343  18.61119680614786  120.000000
10.39845  0.000000  0.000000  0.000000  -39.20621720656366  13.387385380015198  7.01145359284331  49.48523485485977  12.999891753700089  13.319687408137854  73.66872849011234  53.69451292975899  -71.15988961715576  18.572459741836756  120.000000
10.4559  0.000000  0.000000  0.000000  -37.87617927444747  11.605467942258976  2.7407038484428408  48.46516708389992  13.708761181223739  12.716391589903395  73.31264364024928  51.36487201261559  -68.43598062262862  18.579774732819217  120.000000
10.51335  0.000000  0.000000  0.000000  -36.80806410835727  9.758551816576137  -1.4315374701607972  47.34496583934842  14.52351736768052  12.326768397414043  72.72030039310144  48.83224869944598  -65.32940651657363  18.713549406775467  120.000000
10.5708  0.000000  0.000000  0.000000  -35.98324377645318  7.9599356794639835  -5.406321433985261  46.148777281229144  15.395546467180395  12.15107314445299  71.87729543895334  46.10914307904965  -61.924128019724584  19.04694869568064  120.000000
10.62825  0.000000  0.000000  0.000000  -35.36598185677388  6.302565000728922  -9.104455468808895  44.90161998919298  16.290177270811938  12.17062495751934  70.78248084885931  43.20612573349965  -58.31449701157955  19.612042081066168  120.000000
10.6857  0.000000  0.000000  0.000000  -34.914420146841806  4.850937355300264  -12.46111317124321  43.636104857955566  17.187460396911174  12.354089687428452  69.45080295019703  40.13713428525777  -54.59615694716301  20.37757477915892  120.000000
10.74315  0.000000  0.000000  0.000000  -34.586289448549884  3.6353491348306757  -15.426345780180824  42.39620053771715  18.076508773028575  12.66282353255566  67.91570138717823  36.92215717685022  -50.861559589714716  21.256511983599065  120.000000
10.8006  0.000000  0.000000  0.000000  -34.34318713674515  2.6547647762761217  -17.968213381356062  41.23194160749051  18.944616842537574  13.05810430186296  66.23058771402856  33.58913216438035  -47.201392078404744  22.137053041819136  120.000000
10.85805  0.000000  0.000000  0.000000  -34.159554023649534  1.878361759275436  -20.07301785124704  40.187422577664336  19.7718471820542  13.510339185928885  64.46802237951823  30.17696858201954  -43.70678927891432  22.915807809051554  120.000000
10.9155  0.000000  0.000000  0.000000  -34.029195020601335  1.262335269581507  -21.744640204193466  39.288438252075665  20.535448248602115  14.002212391455654  62.71693843863289  26.736026533517705  -40.471730290756476  23.51868831464205  120.000000
10.97295  0.000000  0.000000  0.000000  -33.950323282363556  0.7853422172956384  -23.005774575384187  38.55822531089875  21.23906753767901  14.505207258221617  61.06837001747493  23.332589970129455  -37.583045240501015  23.901668701853293  120.000000
11.0304  0.000000  0.000000  0.000000  -33.93511032308496  0.4429971491959385  -23.89114099449538  38.01070348588866  21.921424802637535  14.979233058182201  59.60609284863603  20.046906325174874  -35.11872632972749  24.036643320220932  120.000000
11.08785  0.000000  0.000000  0.000000  -34.021715861230035  0.22885926957871694  -24.442163434684762  37.61598098218202  22.627963163589875  15.403350580822236  58.41743908884655  16.94198746337131  -33.143027906681446  23.896242836137066  120.000000
11.1453  0.000000  0.000000  0.000000  -34.258972602583924  0.1318227461994846  -24.707802331172353  37.30372305060943  23.39084399304763  15.79338573991044  57.64395615820057  14.057403247909804  -31.750769600878535  23.454806621592734  120.000000
11.20275  0.000000  0.000000  0.000000  -34.68908614528332  0.13096758816017304  -24.73682187903411  37.03152537675894  24.235084603736773  16.166731239234355  57.598502230335384  11.441375655494236  -31.209676964813525  22.68861964517784  120.000000
11.260200000000001  0.000000  0.000000  0.000000  -35.324544436761485  0.207567654157798  -24.566456942860327  36.81983637256211  25.174723844764298  16.503349509823792  58.94410098076578  9.140954690717765  -32.14631359039878  21.5824656185184  120.000000
11.31765  0.000000  0.000000  0.000000  -36.15405084282672  0.3178386717762252  -24.2348332774269  36.70726459884289  26.190547627564083  16.775781929521038  62.874893597459405  7.18841729506162  -35.73062558075108  20.12574044396899  120.000000
11.3751  0.000000  0.000000  0.000000  -37.14028690458354  0.39816219920118023  -23.803540695827266  36.71812153407752  27.22153115503256  16.984166147350066  71.42584562381113  5.620158699605188  -43.97970508066892  18.336557390099117  120.000000
11.43255  0.000000  0.000000  0.000000  -38.2307954051592  0.37951016369401913  -23.354224847180763  36.85397076928741  28.18277974977875  17.15226830704241  87.36807268202617  4.536485592107433  -59.64771158579927  16.287570517262225  120.000000
11.49  0.000000  0.000000  0.000000  -39.35932742244825  0.21346983196177857  -22.97536746383204  37.12113132538558  28.98700986899766  17.303904547324127  111.50907386384972  4.188231476577645  -83.51368290061731  14.139312072384568  120.000000
