Simulation
nRows=201
nColumns=15
endheader
time  TH_x TH_y TH_z SC_y  SC_z  SC_x  AC_y  AC_z  AC_x  GH_y  GH_z  GH_yy  EL_x  PS_y
0.0  0.000000  0.000000  0.000000  -40.97484877243665  6.293857566463187  5.290427962726946  44.261964981617695  7.46862561019823  0.07703652474839967  175.72336051556846  6.614924431596006  -150.57813216927192  22.6422988991421  120.000000
0.05745  0.000000  0.000000  0.000000  -39.02279085473318  5.792208685499207  3.195069457647657  43.5463695541268  7.582223692624807  0.3247896387492538  173.91623225760267  3.446767383222211  -150.00980852797701  22.05821243362209  120.000000
0.1149  0.000000  0.000000  0.000000  -37.225133369158286  5.137515142814124  1.087721421395726  42.91722621522835  7.515787136093808  0.6083339397310272  145.45319757283863  0.5113275570160201  -122.77542852335583  21.655636689160726  120.000000
0.17235  0.000000  0.000000  0.000000  -35.68397121487363  4.392401599024913  -0.9370644124509825  42.40801533980267  7.331838542933049  0.9471934323617247  7.218987640032875  2.487101813531984  14.227350703622704  21.51378612819377  120.000000
0.2298  0.000000  0.000000  0.000000  -34.44447443964471  3.6377744801491594  -2.8109117481294947  42.0354832717458  7.121757857933199  1.355912753337895  4.449621547972992  5.317805905610828  15.754486191019662  21.640376538355756  120.000000
0.28725  0.000000  0.000000  0.000000  -33.516140043606576  2.9587517996626094  -4.4969228201906395  41.78482642078574  6.98740378531889  1.8472500154814384  3.7001097764555575  8.169180318264377  15.234279247618916  21.971361850357802  120.000000
0.3447  0.000000  0.000000  0.000000  -32.90127258672168  2.4335316019667212  -5.971388096157935  41.62160259868681  7.0048124442733135  2.4201574805003396  3.079542756013559  11.098504595642384  14.53544076543875  22.406622790361148  120.000000
0.40215  0.000000  0.000000  0.000000  -32.61025323145678  2.118232108186499  -7.202179745107119  41.51213307532327  7.198272519562997  3.0440366977483766  2.378490532943376  14.159267381104693  13.846244158267586  22.835836449380817  120.000000
0.4596  0.000000  0.000000  0.000000  -32.65251513304696  2.04889981447562  -8.149851985879918  41.43012093052336  7.540818505453639  3.675659802440341  1.6384281170422659  17.384718116027443  13.116649623982902  23.16647346953569  120.000000
0.51705  0.000000  0.000000  0.000000  -33.02257852962228  2.241524383993476  -8.778445063449782  41.36377041311  7.9737568199293705  4.2807382662788305  0.9429313362490405  20.777244753285018  12.272253886848437  23.337358245992743  120.000000
0.5745  0.000000  0.000000  0.000000  -33.69599532335525  2.694121090289788  -9.085704171678808  41.31873545672636  8.439047484536886  4.859895225980541  0.37716709766767786  24.307277861045215  11.254136468714325  23.327425499183278  120.000000
0.63195  0.000000  0.000000  0.000000  -34.64243381219485  3.382100101002481  -9.116398623149163  41.316102208231094  8.900741254406888  5.455409174125807  0.026165457458462864  27.928354640047438  10.010692955240621  23.148093689031608  120.000000
0.6894  0.000000  0.000000  0.000000  -35.83314545545318  4.2611781738997365  -8.927475717961082  41.39220799639752  9.333905918646758  6.114632633929708  -0.031304884604722125  31.5902147780082  8.49066014247434  22.830385999775856  120.000000
0.74685  0.000000  0.000000  0.000000  -37.2388161262351  5.275964744116512  -8.559467197090745  41.58744766712495  9.721034935762919  6.863194642634894  0.24788433679365174  35.24077396174777  6.660717221326942  22.412061799886484  120.000000
0.8043  0.000000  0.000000  0.000000  -38.82143463295783  6.369124965558916  -8.036389686907576  41.92944439152377  10.062450859435186  7.701748267434128  0.8526021516199744  38.822389869710854  4.519036013263009  21.930443291593  120.000000
0.86175  0.000000  0.000000  0.000000  -40.52872819936218  7.482736639583818  -7.368493211405465  42.41922856284348  10.380914168577364  8.604575144191653  1.7133950820285246  42.2722359385909  2.1036021996451133  21.41851875009418  120.000000
0.9192  0.000000  0.000000  0.000000  -42.28960489969047  8.566465835803827  -6.55672721896077  43.02803080689923  10.711986246993398  9.53008740548627  2.7272293808994625  45.52576635590939  -0.5152493377504433  20.903788172269266  120.000000
0.97665  0.000000  0.000000  0.000000  -44.01667591359126  9.586995770906574  -5.592980609703226  43.70382860167789  11.086535451333255  10.433375315011002  3.7898000156989395  48.527774574241654  -3.243078064056017  20.40681053364005  120.000000
1.0341  0.000000  0.000000  0.000000  -45.62404902446984  10.534303147568709  -4.4674702017665044  44.38199293416173  11.516496297609159  11.270674130048365  4.813566851326454  51.2427992687139  -5.960955360278774  19.939613904355156  120.000000
1.09155  0.000000  0.000000  0.000000  -47.05076713640928  11.410386256865811  -3.1781239116428717  44.9970553510317  11.988893988408524  12.008099848852478  5.734364676159216  53.65871269702186  -8.531749316728574  19.504497500739543  120.000000
1.149  0.000000  0.000000  0.000000  -48.26957673108  12.21663121328939  -1.7400980265900514  45.50278165207812  12.472561532563795  12.622906533450724  6.515568697174266  55.78004580070483  -10.822162733258095  19.097619396007524  120.000000
1.20645  0.000000  0.000000  0.000000  -49.28431397560884  12.945438208227285  -0.19079448717386177  45.88288100889542  12.929161888489881  13.10484963519598  7.147338336046862  57.62311739440237  -12.73280220919942  18.714648399820067  120.000000
1.2639  0.000000  0.000000  0.000000  -50.11691398297821  13.580036693452607  1.4087520534142721  46.14743105835607  13.32270025300859  13.452944796662932  7.6418236053716635  59.21142083126565  -14.222587582413588  18.355342228145226  120.000000
1.32135  0.000000  0.000000  0.000000  -50.79007850431489  14.10028062547661  2.9757183257804427  46.324668893578526  13.626413259039808  13.670417340071003  8.023531020590404  60.570120139890285  -15.315402428871195  18.024097380846303  120.000000
1.3788  0.000000  0.000000  0.000000  -51.3153044465489  14.487405650782362  4.413118946305505  46.44745027308586  13.825364241404097  13.762612893591596  8.319681224582713  61.718757726500826  -16.08576326280624  17.72877748148371  120.000000
1.43625  0.000000  0.000000  0.000000  -51.6899357272414  14.729666274533134  5.617378659056036  46.54490607347401  13.91489588445512  13.735428691595876  8.553531322156898  62.66622705718605  -16.63188283427424  17.477775695035554  120.000000
1.4937  0.000000  0.000000  0.000000  -51.90117172941733  14.82274827917608  6.488441044673372  46.63569174894469  13.896787553282094  13.598250232936314  8.741721955387975  63.40681201019687  -17.04760328795486  17.27867687099476  120.000000
1.55115  0.000000  0.000000  0.000000  -51.93388095962374  14.768988550404513  6.938101568480378  46.727122434157664  13.776328503787651  13.366153404083217  8.894142572993765  63.91956661514152  -17.402267133900736  17.13715374799686  120.000000
1.6086  0.000000  0.000000  0.000000  -51.776617053198535  14.572331716664277  6.89961544492604  46.81471168664337  13.562608496216285  13.063612239552477  9.014401210541655  64.17000542116833  -17.732936029570492  17.057109070132192  120.000000
1.66605  0.000000  0.000000  0.000000  -51.42447160665208  14.233412802552044  6.3362371041467815  46.883397118484794  13.273733065496346  12.724852563980505  9.10017659220888  64.11445788013322  -18.047621449139985  17.03923837373171  120.000000
1.7235  0.000000  0.000000  0.000000  -50.87765586893761  13.74679424964014  5.24756025812562  46.9090055710567  12.943760875992632  12.390328365579645  9.142835236722322  63.706636064943325  -18.335488127843107  17.077642090164566  120.000000
1.78095  0.000000  0.000000  0.000000  -50.13934628991707  13.101835511777248  3.672241843810212  46.86091053132436  12.627521810355546  12.099696018173827  9.12827349313878  62.90359514153399  -18.578752117384298  17.156617817844587  120.000000
1.8384  0.000000  0.000000  0.000000  -49.214787792483676  12.290397080511953  1.683200707430412  46.70693541009188  12.397325489594428  11.882327042510136  9.038514929223439  61.67071774266989  -18.763532218175786  17.251297281082635  120.000000
1.89585  0.000000  0.000000  0.000000  -48.1140655423036  11.31354141331709  -0.6210872225787062  46.41793379883432  12.331140991770713  11.752402710156671  8.856475299668435  59.984283481224956  -18.88621087912343  17.333542713768136  120.000000
1.9533  0.000000  0.000000  0.000000  -46.85655850372306  10.187327411078993  -3.129915576403795  45.97363868651268  12.495814927943963  11.708480800962013  8.57252848000107  57.83622487866834  -18.95698432014277  17.37984405995771  120.000000
2.01075  0.000000  0.000000  0.000000  -45.4791896532199  8.943586120594677  -5.732816050546956  45.36855710190427  12.931015594539788  11.73938440581199  8.192889624791851  55.239453678657355  -19.000447304657754  17.37810844665165  120.000000
2.0682  0.000000  0.000000  0.000000  -44.04147766974301  7.626280381593072  -8.331365271447412  44.61382682784244  13.639636531745346  11.831950582867613  7.744227893487009  52.23113492901026  -19.052001544525734  17.32788338550906  120.000000
2.1256500000000003  0.000000  0.000000  0.000000  -42.62479461052655  6.2881260279639  -10.847228803634664  43.73664588168593  14.584711415547998  11.978782809622453  7.276843667099055  48.87177984764695  -19.149989058330995  17.234626810157536  120.000000
2.1831  0.000000  0.000000  0.000000  -41.312661762924634  4.987317083996622  -13.224143179072572  42.777799799652236  15.698098454888708  12.184952846964187  6.869487255667248  45.2403951796112  -19.32672529842888  17.1022178124944  120.000000
2.24055  0.000000  0.000000  0.000000  -40.16598299380221  3.7851629757828227  -15.42628692639336  41.78960494705243  16.892107859032418  12.462426553613328  6.625182318374839  41.42407912372864  -19.597176855405873  16.92465371144339  120.000000
2.298  0.000000  0.000000  0.000000  -39.21270980015588  2.7302841181573467  -17.431831379027553  40.821416754400495  18.073775625226713  12.818693323789697  6.643666746400844  37.50240602859551  -19.94039652531051  16.68576395413362  120.000000
2.3554500000000003  0.000000  0.000000  0.000000  -38.446786532449366  1.8527871935329352  -19.22674311951899  39.913923656321494  19.162778203082848  13.248296932839827  6.995699624679669  33.54119234191825  -20.29631299399262  16.36440171032411  120.000000
2.4129  0.000000  0.000000  0.000000  -37.83418673519692  1.1646530475299346  -20.79738266589376  39.10069898824558  20.108819980937447  13.731329724459648  7.714877403885295  29.59849122706897  -20.581224002945042  15.949058906884671  120.000000
2.47035  0.000000  0.000000  0.000000  -37.327536398861966  0.6579749693912793  -22.128514629074846  38.40785979389036  20.897281472987796  14.238030018210749  8.802918009864605  25.733646163233946  -20.71137749633256  15.453726447723232  120.000000
2.5278  0.000000  0.000000  0.000000  -36.884316783288696  0.30491848847196096  -23.209440725573973  37.855444994498015  21.543307069582838  14.73393429349296  10.249186767396475  22.013438662640226  -20.632489779346106  14.923525927174477  120.000000
2.5852500000000003  0.000000  0.000000  0.000000  -36.48208772505699  0.06094775204980092  -24.042322505772685  37.45791816318327  22.080907935865422  15.187613715945739  12.07243981972519  18.51922206251384  -20.36366927381865  14.425625881799434  120.000000
2.6427  0.000000  0.000000  0.000000  -36.12245247952451  -0.12135640567348234  -24.625446048160914  37.23209505647048  22.538408214712877  15.560747999085699  14.381777114326772  15.342317260706613  -20.06288218478978  14.02945029050003  120.000000
2.70015  0.000000  0.000000  0.000000  -35.82064030999206  -0.27612891966814995  -24.939276502749017  37.19179452036517  22.92079432510472  15.805223539515417  17.419297865003042  12.556526664797202  -20.07909115027076  13.784895418353376  120.000000
2.7576  0.000000  0.000000  0.000000  -35.59107442768957  -0.4107335915943301  -24.972512698217848  37.32883745606405  23.218381225285583  15.8925635985108  21.602146336977935  10.197201530393762  -20.99567995794007  13.711188178142816  120.000000
2.8150500000000003  0.000000  0.000000  0.000000  -35.44266562654525  -0.5095006133433564  -24.73244113343559  37.611511243488955  23.418694591908253  15.821789160618344  27.57140211160433  8.271432749348294  -23.658731183496872  13.803748113344708  120.000000
2.8725  0.000000  0.000000  0.000000  -35.382279342965745  -0.5500258933427274  -24.233287218483593  37.99632000100364  23.50910510699742  15.603785589713125  36.12222693713337  6.785337078865876  -29.070698541296593  14.045603722666474  120.000000
2.92995  0.000000  0.000000  0.000000  -35.40873333902838  -0.5134429771412465  -23.500825584922513  38.43571163870651  23.4772193192066  15.254860440350116  47.75647684168165  5.763526883193735  -37.9042820501659  14.409751114750566  120.000000
2.9874  0.000000  0.000000  0.000000  -35.50679019430473  -0.39011303695110383  -22.575465644961884  38.884285222127396  23.315133702667477  14.796575938321903  61.736011318825696  5.2258310340514305  -49.52889399442518  14.858161576416116  120.000000
3.0448500000000003  0.000000  0.000000  0.000000  -35.650867451679844  -0.18175168565168273  -21.505894294162843  39.30819120419168  23.025753939145044  14.253655918708287  75.76983219432431  5.124143632181657  -61.692173749440634  15.345658594332034  120.000000
3.1023  0.000000  0.000000  0.000000  -35.81333729123784  0.09949834375386496  -20.344349032336062  39.69039383911126  22.625224830667975  13.652663432162647  87.58533090254296  5.32277219058611  -72.10386503383334  15.829599262840134  120.000000
3.15975  0.000000  0.000000  0.000000  -35.973104830486776  0.43122778974640913  -19.139793319278674  40.02675634315843  22.13789351191312  13.021431070892033  96.37077366704116  5.6602216796892835  -79.8955950838653  16.280464917746254  120.000000
3.2172  0.000000  0.000000  0.000000  -36.11493846426377  0.7859101739713413  -17.93502441528864  40.32476185639548  21.590646185382855  12.38348415165544  102.43438861475282  6.012590023982141  -85.29539716812315  16.687992355062725  120.000000
3.2746500000000003  0.000000  0.000000  0.000000  -36.226036671290935  1.1369596192633389  -16.76651994046432  40.60040616629909  21.008886398408638  11.756073080937638  106.39221405593504  6.31043625231309  -88.8287200085777  17.059519008262235  120.000000
3.3321  0.000000  0.000000  0.000000  -36.29656672635027  1.4606673491786761  -15.661642703729385  40.86912578678141  20.412721274787334  11.153297727483366  108.79692975574261  6.52728820751662  -90.9595656328904  17.411935148088762  120.000000
3.38955  0.000000  0.000000  0.000000  -36.32147917941225  1.7388675886848837  -14.638307763568106  41.1408786161132  19.81619255894342  10.586008353979764  110.07130257088498  6.665174080070461  -92.03594882337015  17.76103736159881  120.000000
3.447  0.000000  0.000000  0.000000  -36.303651406452566  1.9624772834029827  -13.706633307624807  41.41848010335532  19.229031037868143  10.06017160835604  110.5245989432588  6.742575277733371  -92.31469544169941  18.115865362213995  120.000000
3.5044500000000003  0.000000  0.000000  0.000000  -36.2539444657307  2.131334849544774  -12.870713672862752  41.697124961117595  18.659186671228998  9.577389280136366  110.38030572384079  6.783700071347777  -91.9901876015639  18.478562491648837  120.000000
3.5619  0.000000  0.000000  0.000000  -36.18629409298664  2.2502533868240113  -12.130013699358113  41.96600714150786  18.113788287302572  9.137821271656668  109.80179477215769  6.8116814501755325  -91.21473954282735  18.846806078997624  120.000000
3.61935  0.000000  0.000000  0.000000  -36.111929478470934  2.327390619635649  -11.482043717151056  42.21357802973116  17.599531872463544  8.740360070344545  108.90187096777147  6.8458619223662485  -90.1000984601734  19.21764950722665  120.000000
3.6768  0.000000  0.000000  0.000000  -36.0361680773779  2.3739925753148308  -10.925289392296937  42.43050205486332  17.122555720738678  8.381023634154383  107.74878616139023  6.900494627303296  -88.71668005357282  19.589734556554948  120.000000
3.7342500000000003  0.000000  0.000000  0.000000  -35.95904512344267  2.3996503794787807  -10.459952920618447  42.6066862487498  16.68605346656573  8.055156234135174  106.37633563551387  6.982789100051831  -87.099450618284  19.963091094959044  120.000000
3.7917  0.000000  0.000000  0.000000  -35.87581647466545  2.4086471593595347  -10.08769554850738  42.73045234943652  16.28897254995766  7.759099938965152  104.78583672892044  7.093496681952862  -85.24801680194761  20.33828540578201  120.000000
3.84915  0.000000  0.000000  0.000000  -35.77825566938338  2.4001964329588006  -9.811152641350015  42.79090762819785  15.92703656645054  7.489653150758152  102.92968936355655  7.229539489861258  -83.109766351311  20.715625655807013  120.000000
3.9066  0.000000  0.000000  0.000000  -35.65601398914279  2.3710033844343785  -9.633541007242481  42.78048977079628  15.594613647594795  7.243091557016568  100.69816440786921  7.386942196961076  -80.56687777652647  21.09432043987109  120.000000
3.9640500000000003  0.000000  0.000000  0.000000  -35.49774775887339  2.3176500435245195  -9.55865889518928  42.696670535838884  15.286233241781124  7.014605606381093  97.92254963738662  7.565546290263756  -77.44145493775274  21.471991468075498  120.000000
4.0215  0.000000  0.000000  0.000000  -35.29232513352296  2.2377724376286263  -9.590979708227376  42.54201463239286  14.99725435647024  6.798681782185391  94.40739054890456  7.776247241540079  -73.53247246523625  21.844547859057528  120.000000
4.07895  0.000000  0.000000  0.000000  -35.03097752205203  2.1301422817709463  -9.734663823522444  42.32237626263251  14.723142809002741  6.5919509708363195  90.0001560286854  8.0506107733999  -68.69235639156159  22.205565705849676  120.000000
4.1364  0.000000  0.000000  0.000000  -34.71117925508527  1.9960119386232982  -9.990759872504315  42.04391131599355  14.457927020345494  6.398576673483937  84.70378425931129  8.448525766598474  -62.946284718904465  22.544594633864108  120.000000
4.19385  0.000000  0.000000  0.000000  -34.341179748365484  1.8423033919169258  -10.35369828850061  41.70916667133397  14.194920936115002  6.2333287146889145  78.77861323755297  9.052040223789998  -56.596862090002205  22.844129270220833  120.000000
4.2513000000000005  0.000000  0.000000  0.000000  -33.942070667614004  1.692274171899748  -10.80997583125454  41.320659268599464  13.930344893230803  6.118363105218171  72.73263991371915  9.945777970459332  -50.20879591359363  23.081057960153256  120.000000
4.30875  0.000000  0.000000  0.000000  -33.5492365120253  1.5940599619339266  -11.338953157547492  40.89472523810888  13.66612759354497  6.077911464956327  67.16004009368979  11.200123067167677  -44.43520771944252  23.236741473929754  120.000000
4.3662  0.000000  0.000000  0.000000  -33.22281911488871  1.6078519121442763  -11.908489016788977  40.45799090263231  13.404908957087242  6.146039714840596  62.51984520860876  12.859297595060617  -39.78293709024353  23.310961657512646  120.000000
4.42365  0.000000  0.000000  0.000000  -33.04897001820596  1.795431343895702  -12.471063879583552  40.0365606802829  13.145381440331816  6.37164113630485  59.00248129418762  14.934983445675408  -36.46904551390106  23.332852309609518  120.000000
4.4811  0.000000  0.000000  0.000000  -33.12205771092025  2.22038206963669  -12.97026947310426  39.66726540663516  12.892197659998061  6.794627562900274  56.540502439102504  17.41368737754193  -34.43770392524061  23.357611094095834  120.000000
4.53855  0.000000  0.000000  0.000000  -33.51398587990146  2.9351750227087585  -13.346459656837808  39.39946804970465  12.664431116259953  7.42315779815109  54.90025644671436  20.256044288283956  -33.462235364964506  23.44504524622543  120.000000
4.596  0.000000  0.000000  0.000000  -34.250762016906386  3.9586354893716353  -13.532638849011501  39.27038080686415  12.486151532468654  8.241442934578952  53.79015740007129  23.38457907755245  -33.253953075404795  23.6315300871853  120.000000
4.65345  0.000000  0.000000  0.000000  -35.30162489196514  5.268600383627125  -13.45492362988106  39.29773203644854  12.379814522940094  9.21635523025327  52.948650221961344  26.685803195892472  -33.547282931095594  23.909337569397522  120.000000
4.7109000000000005  0.000000  0.000000  0.000000  -36.57972943743769  6.813369965216166  -13.040486821714712  39.486058022613335  12.365941751932736  10.297238041321293  52.18303815539184  30.020923311023306  -34.135567032467435  24.22535714292562  120.000000
4.76835  0.000000  0.000000  0.000000  -37.97245070487132  8.522220623293766  -12.223716336897654  39.81932313604678  12.456957615234174  11.427938182122903  51.368196938741875  33.24074810154039  -34.870826626880714  24.50145640467276  120.000000
4.8258  0.000000  0.000000  0.000000  -39.382433495208  10.317565212220115  -10.955951967764564  40.262099136169326  12.652427678443736  12.551303480810963  50.428964952866444  36.213075702734436  -35.65270937630788  24.661738860160778  120.000000
4.88325  0.000000  0.000000  0.000000  -40.75870788958814  12.120733126144565  -9.215219656686228  40.77314182923055  12.9336321866602  13.60979149472283  49.32452175941207  38.853393661710285  -36.42069970845892  24.653917158370778  120.000000
4.9407  0.000000  0.000000  0.000000  -42.10517279950358  13.84720105282475  -7.008535239087459  41.31686912015302  13.259017584278226  14.558095249154588  48.04196378163096  41.13971948293497  -37.147601333237844  24.459119307039597  120.000000
4.99815  0.000000  0.000000  0.000000  -43.45572476668684  15.41991308542782  -4.375279950530508  41.87881935544946  13.577889087481404  15.364797777147373  46.59107647516465  43.106637288207125  -37.825390026467254  24.084430643307403  120.000000
5.0556  0.000000  0.000000  0.000000  -44.84013026254778  16.778157140636075  -1.3889232894300874  42.46577054723451  13.850727647519246  16.012671390706114  44.99578539196052  44.82440357159131  -38.44960145634503  23.552208907980077  120.000000
5.11305  0.000000  0.000000  0.000000  -46.2643979484143  17.874898556115667  1.845660300161185  43.088308237161435  14.055165440684373  16.50892866264269  43.28602193671307  46.3713012681883  -39.007290562595614  22.897869565105736  120.000000
5.1705000000000005  0.000000  0.000000  0.000000  -47.70505042594807  18.686363995370623  5.19302778872749  43.75231278650167  14.185068102371487  16.876810031295793  41.497037433704975  47.81322092825171  -39.478424684452385  22.170396311100887  120.000000
5.22795  0.000000  0.000000  0.000000  -49.115525238170534  19.21398932914263  8.49587367393884  44.45427827406179  14.24481971235652  17.14081253934455  39.67510796751528  49.19466362310935  -39.851939856933086  21.427445488897256  120.000000
5.2854  0.000000  0.000000  0.000000  -50.435040052421094  19.480885488146818  11.591127979777598  45.17835072895889  14.243387310322113  17.315687221900347  37.88261469429328  50.53457098236379  -40.13975227345996  20.724306864617965  120.000000
5.34285  0.000000  0.000000  0.000000  -51.59757149295054  19.528514565921622  14.326200714827676  45.89608676200742  14.1919082501211  17.39950584599296  36.200444380390564  51.82491040330998  -40.37916210747835  20.101184413184534  120.000000
5.4003  0.000000  0.000000  0.000000  -52.5395899386546  19.408636478481668  16.57202903893483  46.56406758354133  14.102084908041872  17.375064220089342  34.7243084711873  53.030545653874064  -40.62279607981185  19.576350882971166  120.000000
5.45775  0.000000  0.000000  0.000000  -53.2068044836222  19.174401610042942  18.229460877577264  47.12710840062238  13.985363299640568  17.214672723399673  33.554066967947  54.094090187029565  -40.924757179003805  19.150131018207457  120.000000
5.5152  0.000000  0.000000  0.000000  -53.55932943198805  18.870350020138225  19.22928241596754  47.530279763956244  13.849505289979536  16.889852480860387  32.77617495230628  54.94766608737084  -41.327196133980834  18.816847979623095  120.000000
5.57265  0.000000  0.000000  0.000000  -53.576182722096995  18.52613358922679  19.527757108929414  47.73764894031827  13.693770772508678  16.381941783571175  32.44402601519821  55.52794097480215  -41.85067802524882  18.57663799068758  120.000000
5.6301000000000005  0.000000  0.000000  0.000000  -53.2572101163912  18.152570026642625  19.101692990987754  47.74501034610309  13.505158692028814  15.692438278118694  32.56414608508111  55.78764123707187  -42.48782061896765  18.442503252239952  120.000000
5.68755  0.000000  0.000000  0.000000  -52.61956757165  17.74003455334508  17.9471494210335  47.574398072567966  13.261137677538782  14.849315151461205  33.096162210968295  55.69580941241299  -43.19988967927114  18.437881432708778  120.000000
5.745  0.000000  0.000000  0.000000  -51.69140560374939  17.25814898712163  16.083864498060002  47.25267636963434  12.940564189328837  13.906772340006462  33.96374552756741  55.228746072297014  -43.91733813409564  18.583579966426154  120.000000
5.80245  0.000000  0.000000  0.000000  -50.5068684415191  16.66001341837806  13.563151862424501  46.79202201043127  12.538640170266516  12.938441349369981  35.067052672063966  54.36191497738233  -44.547296475511715  18.87639585856555  120.000000
5.8599  0.000000  0.000000  0.000000  -49.1045205048434  15.894873630796647  10.474066235696256  46.1878022922417  12.08053255854179  12.02436159837276  36.294012904166095  53.068367974096994  -44.99084643219272  19.26978491979505  120.000000
5.91735  0.000000  0.000000  0.000000  -47.52632790215206  14.92343976934637  6.942725596486539  45.42990339521749  11.625781917431347  11.237624857962546  37.531384278244246  51.32341569384743  -45.16746570199396  19.674308870719315  120.000000
5.9748  0.000000  0.000000  0.000000  -45.8148800156373  13.730921719323192  3.1236344016127813  44.52068156341243  11.26134173045539  10.634703760652636  38.68047779825166  49.11322596664634  -45.04010558120677  19.98101733545659  120.000000
6.03225  0.000000  0.000000  0.000000  -44.00945683695447  12.330910448693317  -0.8141464206646487  43.48884837832036  11.08697198441753  10.251329453115346  39.67756027476435  46.4453263092375  -44.631523502998824  20.09532867945597  120.000000
6.089700000000001  0.000000  0.000000  0.000000  -42.151157799649695  10.761596552435932  -4.702582292804408  42.39118050758921  11.19529883810562  10.102471944419072  40.51015735739682  43.360423408872656  -44.02457374644191  19.965227781654185  120.000000
6.14715  0.000000  0.000000  0.000000  -40.29728180596189  9.080989781052196  -8.389322213515465  41.30114426934427  11.649575526657868  10.185788488994449  41.22511213001339  39.943123321095726  -43.34843275341729  19.589948416030182  120.000000
6.2046  0.000000  0.000000  0.000000  -38.528820907228855  7.364276459664998  -11.754494953325208  40.297152960021975  12.465151954541806  10.48456017483677  41.9326849969495  36.32497558341017  -42.76242600871893  19.007137673176572  120.000000
6.26205  0.000000  0.000000  0.000000  -36.94234842012764  5.699735523033804  -14.724130838333455  39.45041800003788  13.601343111383567  10.969164647699467  42.807449372668465  32.66731176518631  -42.44248606842845  18.27690499521261  120.000000
6.3195  0.000000  0.000000  0.000000  -35.6298751614122  4.175343719588744  -17.268191440138455  38.80573185991702  14.969195450467  11.60291028739667  44.07275158093682  29.129208303379922  -42.565880833685846  17.473355749493876  120.000000
6.37695  0.000000  0.000000  0.000000  -34.652529560989585  2.86783395420387  -19.38834798229371  38.37676293866299  16.454476920128652  12.34517626486997  45.97121414035225  25.841057821126213  -43.296234358203336  16.680148402220315  120.000000
6.4344  0.000000  0.000000  0.000000  -34.02402090754585  1.8313744779957997  -21.10285443502827  38.1513243143535  17.94442010470244  13.152856913409792  48.72189466828883  22.893100306695185  -44.76630517017543  15.983343730265553  120.000000
6.49185  0.000000  0.000000  0.000000  -33.71373834644891  1.0891662591749127  -22.4352293265895  38.09541997028523  19.345925478546647  13.984571891874976  52.468104432057174  20.3366550876976  -47.05580074243498  15.45825507945493  120.000000
6.549300000000001  0.000000  0.000000  0.000000  -33.66200865183293  0.6342987851309121  -23.412222640244963  38.162356549431806  20.59362902644958  14.801076340782405  57.233598635674625  18.192005554605508  -50.1708349679869  15.154065687499694  120.000000
6.60675  0.000000  0.000000  0.000000  -33.797113512761  0.4329842062263057  -24.06714187264932  38.30489807496749  21.65238180379798  15.561557820451851  62.89784533931987  16.45723633401414  -54.02782834264602  15.085044312125063  120.000000
6.6642  0.000000  0.000000  0.000000  -34.049109785760365  0.43510048298235215  -24.44001597546518  38.48005068984775  22.511816365212134  16.226953259415655  69.19828405832902  15.10934374679048  -58.44416754456577  15.234396797252233  120.000000
6.72165  0.000000  0.000000  0.000000  -34.35929597926428  0.5839363823783047  -24.574972842953667  38.64903945669079  23.17756159528864  16.766350847808944  75.76864560716542  14.101224181318615  -63.1516929128587  15.56313172660841  120.000000
6.7791  0.000000  0.000000  0.000000  -34.68237041150769  0.8218013711038274  -24.517542707516352  38.78543847620386  23.663405911214287  17.158428293061935  82.22881419660047  13.366435737130642  -67.85838940019168  16.013188635399732  120.000000
6.83655  0.000000  0.000000  0.000000  -34.9832089468723  1.0943171958655549  -24.310237784106857  38.881511149240986  23.984418510943453  17.392383309389484  88.28470573770187  12.831956122662234  -72.32744430899061  16.50801203196988  120.000000
6.894  0.000000  0.000000  0.000000  -35.23668263934076  1.359091653163483  -23.989631693737277  38.947179691310275  24.155006011266757  17.468322980721542  93.77350042067866  12.433448138957582  -76.4198887418632  16.96058779807121  120.000000
6.95145  0.000000  0.000000  0.000000  -35.42579179334478  1.5910671824816636  -23.585350262977634  39.00409014444608  24.192010973016632  17.394666226706466  98.6433509686956  12.122689140323292  -80.08545886667645  17.291955410382112  120.000000
7.008900000000001  0.000000  0.000000  0.000000  -35.544281155256556  1.778239094315169  -23.11857515298101  39.07285770993774  24.114867639606413  17.18775029433565  102.90998053800531  11.866170843202013  -83.33401968961944  17.456914225685345  120.000000
7.06635  0.000000  0.000000  0.000000  -35.602263434114334  1.9165107460849953  -22.601674177387853  39.161191005378576  23.942767759973645  16.87235029648173  106.62062359951229  11.640312299108091  -86.21119101173981  17.46445839352003  120.000000
7.1238  0.000000  0.000000  0.000000  -35.62350460546347  2.007752886362061  -22.040728590480843  39.26423700480852  23.694849937072796  16.475538772081077  109.82899006015808  11.428491716867445  -88.77706537425183  17.37469460356287  120.000000
7.18125  0.000000  0.000000  0.000000  -35.63325326523749  2.0617598978900706  -21.439553236527242  39.37849065575344  23.392882757757963  16.017222508473914  112.57572454008924  11.223098487123472  -91.0820134095021  17.27278610664181  120.000000
7.2387  0.000000  0.000000  0.000000  -35.65064810541194  2.0924302671799513  -20.801338434892894  39.5084647499565  23.05875292985455  15.509684498327529  114.87716509548007  11.02406696769111  -93.14658956578063  17.233889493554564  120.000000
7.29615  0.000000  0.000000  0.000000  -35.6854929195222  2.1109405321998254  -20.128275527577895  39.65820996993859  22.70543609855595  14.967594315237427  116.75567478550435  10.82874475069745  -94.98035411806414  17.295010480483025  120.000000
7.3536  0.000000  0.000000  0.000000  -35.737644810635956  2.124048433965061  -19.422316473524685  39.82681999684638  22.335364420846272  14.411153830729358  118.26246378046376  10.627930344632274  -96.60217902006481  17.449235830459212  120.000000
7.41105  0.000000  0.000000  0.000000  -35.79886432915689  2.136609671802378  -18.688032721581784  40.015887419074794  21.94833165320836  13.85698110143256  119.45571192782445  10.411573227354985  -98.02789812247411  17.662760218065166  120.000000
7.468500000000001  0.000000  0.000000  0.000000  -35.854452906975034  2.1542853810261744  -17.934375284263798  40.23223843611253  21.545560292727714  13.312730792473866  120.39162962581057  10.172426772763936  -99.27146772759431  17.897758784898055  120.000000
7.52595  0.000000  0.000000  0.000000  -35.893703272220584  2.18078362519913  -17.172377539144687  40.47880948754186  21.1276616848469  12.781889591990776  121.12706851292306  9.906178994190046  -100.35638148974058  18.128087157153214  120.000000
7.5834  0.000000  0.000000  0.000000  -35.914540360705  2.2164893492489  -16.412436190751155  40.75037526264994  20.69429230492732  12.267633464128531  121.72029278101436  9.611742766756095  -101.31996964489  18.34462484026176  120.000000
7.64085  0.000000  0.000000  0.000000  -35.92156205018266  2.2597029983081733  -15.66286198863964  41.03666931104518  20.245575924138947  11.773338859164834  122.22784138584565  9.292082297237256  -102.20827810701691  18.550816201595083  120.000000
7.6983  0.000000  0.000000  0.000000  -35.922166860893746  2.307944939848171  -14.929660741359244  41.327321953818554  19.783789276853323  11.30124053613099  122.70006743032802  8.953843875310666  -103.06748754868813  18.75424008633386  120.000000
7.75575  0.000000  0.000000  0.000000  -35.92310489728537  2.359108172259738  -14.216848280498409  41.615130773956665  19.313720823203738  10.851532070962937  123.17998635030375  8.606276987355123  -103.93892055554191  18.959877111695928  120.000000
7.8132  0.000000  0.000000  0.000000  -35.929130871303734  2.4105629420160377  -13.52668964148901  41.89699013621701  18.841997195557678  10.422431954134373  123.7006798408366  8.260155569520187  -104.853892149044  19.16742285411355  120.000000
7.87065  0.000000  0.000000  0.000000  -35.94276170774768  2.4582641862595276  -12.859728606261871  42.17242484570656  18.375404387471523  10.011407056811063  124.28679315343095  7.926440619533403  -105.83335448490087  19.37278456297016  120.000000
7.928100000000001  0.000000  0.000000  0.000000  -35.96466150528686  2.496984777134361  -12.215189090658335  42.44222114364479  17.919838047199722  9.6152966588049  124.95491884809175  7.614791016280017  -106.88683376419127  19.57260267094271  120.000000
7.98555  0.000000  0.000000  0.000000  -35.99594941253896  2.520766618854052  -11.591251911048357  42.70557203928379  17.47967697668116  9.230156156185462  125.70966320820408  7.3311031170897  -108.00824007792629  19.76878493651339  120.000000
8.043  0.000000  0.000000  0.000000  -36.038450171107534  2.5256647631793445  -10.985465984114422  42.95602308301461  17.056837974867715  8.851732484517791  126.54894784267582  7.074468991057566  -109.18154169089236  19.970789940646107  120.000000
8.10045  0.000000  0.000000  0.000000  -36.09117737111818  2.5141451706987814  -10.396612799644023  43.18231954776005  16.652250421448766  8.4734577818192  127.460516432507  6.837152023935733  -110.38073269459305  20.19309634648944  120.000000
8.1579  0.000000  0.000000  0.000000  -36.14874531633069  2.4926818751488935  -9.826327042108039  43.36704769327814  16.266634492742373  8.08787045424745  128.42080808819497  6.605654496189115  -111.57577026813098  20.445848561643324  120.000000
8.21535  0.000000  0.000000  0.000000  -36.2005554009364  2.4684941082910417  -9.281397792930552  43.48547872169984  15.898341988799222  7.69181753232964  129.40208199074928  6.363936348993744  -112.7454426310886  20.72178405927386  120.000000
8.2728  0.000000  0.000000  0.000000  -36.23281972881504  2.4525887626771614  -8.777660897642077  43.513355382819555  15.544415806160744  7.284854632008878  130.32791497705443  6.10018361557223  -113.83540066477674  20.988240806647934  120.000000
8.33025  0.000000  0.000000  0.000000  -36.23141397825069  2.4569117072182114  -8.340757032738308  43.43144044633053  15.204167302061142  6.866687892383524  131.0171140578253  5.810749111403162  -114.69735389000974  21.191467517917356  120.000000
8.3877  0.000000  0.000000  0.000000  -36.18400970801487  2.4855593565873875  -8.001121417612165  43.22580393809892  14.880210757715943  6.4410546532773605  131.14371973977998  5.502897116829554  -115.03544379682836  21.27661310398583  120.000000
8.44515  0.000000  0.000000  0.000000  -36.077319418226104  2.5288913353970366  -7.787438944328742  42.89458361508707  14.579609389084569  6.015765044184097  130.18333811039597  5.198750386541884  -114.33460381010933  21.21469195991673  120.000000
8.502600000000001  0.000000  0.000000  0.000000  -35.899598845856836  2.563118924996388  -7.718975350595274  42.449690666934146  14.312990891476327  5.601502937843719  127.4178027854333  4.938785562797138  -111.85238049092158  21.025153989170857  120.000000
8.56005  0.000000  0.000000  0.000000  -35.6460348086194  2.5607313085983634  -7.80226313179271  41.92145095320132  14.093925155907213  5.204688786818542  122.09122939282399  4.793525108175282  -106.77578395324316  20.78039656088907  120.000000
8.6175  0.000000  0.000000  0.000000  -35.32035992787012  2.5008703524627975  -8.031922377465952  41.36195506344746  13.935076799874508  4.823835120848525  113.93478783769505  4.885494786655969  -98.76755974715324  20.579420103512092  120.000000
8.67495  0.000000  0.000000  0.000000  -34.93938807326544  2.3668047135234866  -8.388097349728637  40.82742453242602  13.840068507612918  4.465031757308563  104.05315523827142  5.38486586487278  -88.88395541375048  20.50887934581954  120.000000
8.7324  0.000000  0.000000  0.000000  -34.53772357540596  2.1522842422317288  -8.836967901982353  40.361221125686484  13.80471612635785  4.151848872003676  94.75291375391639  6.4472179758155  -79.4309366267036  20.61074090053025  120.000000
8.78985  0.000000  0.000000  0.000000  -34.15880219535742  1.878076101890987  -9.33859052626298  39.996039604992035  13.82818398325984  3.913603599099247  87.75681761714912  8.153268785468187  -72.18820644766463  20.868553007320564  120.000000
8.8473  0.000000  0.000000  0.000000  -33.84643760319701  1.5955007781390997  -9.849764081854582  39.74861549185314  13.914797875755973  3.7839919058538913  83.32343262382012  10.505231676723831  -67.51442183219483  21.223851523395663  120.000000
8.90475  0.000000  0.000000  0.000000  -33.6293969825922  1.374886084343448  -10.324698753636126  39.616956518055446  14.072013545784648  3.8025260338942073  80.90361396480408  13.43697428317016  -64.9745053953861  21.602531508897513  120.000000
8.9622  0.000000  0.000000  0.000000  -33.5132977334098  1.2912943524948275  -10.717629237158743  39.59459298023413  14.312064995673172  4.003156349027578  79.83579218312241  16.82378984136889  -64.00957412604114  21.938596368465475  120.000000
9.01965  0.000000  0.000000  0.000000  -33.49352049238048  1.414615538574814  -10.976038480724066  39.677191279324596  14.643901517397602  4.414043891169435  79.60687464615492  20.511839166000986  -64.18022891755395  22.191607754108272  120.000000
9.0771  0.000000  0.000000  0.000000  -33.563264945197766  1.799554076673134  -11.034257564936928  39.86239450452579  15.058743309503859  5.063236424008417  79.87709202945105  24.35783146062433  -65.17929663499497  22.350250495479806  120.000000
9.13455  0.000000  0.000000  0.000000  -33.72722104470301  2.478229814588066  -10.8201874049314  40.156744720762894  15.528474857865431  5.966793201556523  80.41422079366804  28.25500854443228  -66.77204630575312  22.42059354778208  120.000000
9.192  0.000000  0.000000  0.000000  -33.9979738953842  3.4631653767818475  -10.266067746232814  40.58117908721867  16.018772363464507  7.105847663115873  81.03143625039706  32.13037523262418  -68.74646606088803  22.408551667450894  120.000000
9.24945  0.000000  0.000000  0.000000  -34.39370120639356  4.752452552359185  -9.309662731098918  41.159793480217004  16.493917485586838  8.427723266196443  81.5756632366173  35.93093171386962  -70.90514329886813  22.310644226382173  120.000000
9.3069  0.000000  0.000000  0.000000  -34.9435038260204  6.320404219530463  -7.891089946598017  41.901282153419835  16.911610367891083  9.867950542328192  81.93748983554832  39.6125347281617  -73.07791433763838  22.115611456561048  120.000000
9.36435  0.000000  0.000000  0.000000  -35.680844027468495  8.109509508811225  -5.956049849281333  42.79470206126698  17.223992877608282  11.366068796519132  82.05841333474338  43.13237094150908  -75.13199856161694  21.812164818736747  120.000000
9.421800000000001  0.000000  0.000000  0.000000  -36.63596490282264  10.033729517849272  -3.469848125748959  43.81812180652605  17.38723748663029  12.866913686766104  81.92426330458227  46.44980562663176  -76.97680901734633  21.401872063227618  120.000000
9.47925  0.000000  0.000000  0.000000  -37.83449547339404  11.982646928242108  -0.4354991799585447  44.93794195457001  17.37041119403995  14.32096496582786  81.55007897070448  49.52641982095436  -78.56122347957796  20.906685687268784  120.000000
9.5367  0.000000  0.000000  0.000000  -39.287397130790026  13.833903611198963  3.090352574759412  46.10786727220455  17.163568542882352  15.682338449272947  80.96703519741162  52.32527960772487  -79.86484206002513  20.366099357164643  120.000000
9.59415  0.000000  0.000000  0.000000  -40.972845700240725  15.470448296223685  6.985208794194129  47.27443351652654  16.782673087508172  16.906780088583055  80.21448097221662  54.81645843536621  -80.88509074801242  19.826797890416273  120.000000
9.6516  0.000000  0.000000  0.000000  -42.81778604357819  16.79879313485956  11.061574928247131  48.379528643488946  16.26483727430066  17.956194092214837  79.33967282488648  56.97665479509524  -81.6260844242002  19.33095688848558  120.000000
9.70905  0.000000  0.000000  0.000000  -44.69650108206637  17.77169924771986  15.085278045990439  49.370298770614596  15.657773237928442  18.79847173580201  78.40088528945061  58.78955230019298  -82.094380866988  18.90849761181506  120.000000
9.7665  0.000000  0.000000  0.000000  -46.44888456025241  18.396658355855852  18.806907159673703  50.208452552269755  15.007842622955344  19.407392062818786  77.46692952679302  60.245747637678626  -82.30131866903035  18.578034874049504  120.000000
9.82395  0.000000  0.000000  0.000000  -47.91426578921792  18.72956720977712  21.996252250898035  50.87338648205244  14.353921545720503  19.761276027136972  76.61016572211837  61.341630843652716  -82.26873206755923  18.349640899535405  120.000000
9.8814  0.000000  0.000000  0.000000  -48.96074907760611  18.852255444377366  24.465173649135032  51.358923301931  13.727475915303348  19.8431899639454  75.89320002957764  62.078686462599606  -82.03083555456755  18.22580971205645  120.000000
9.93885  0.000000  0.000000  0.000000  -49.50013892529439  18.844601026703756  26.077297495857696  51.667421019048604  13.155635142149178  19.64444602013486  75.35887764884967  62.46233008422534  -81.63119962936088  18.19731773212795  120.000000
9.9963  0.000000  0.000000  0.000000  -49.48796805594942  18.759898981780918  26.746251529213847  51.80700592253775  12.663265247722489  19.171281697155234  75.02714141647502  62.502648250390955  -81.11479397991108  18.243700830293385  120.000000
10.05375  0.000000  0.000000  0.000000  -48.9209622259021  18.60932923578574  26.43063706553536  51.78707783392997  12.271580364973028  18.451694938101625  74.89698424183216  62.211492739297725  -80.51482113365877  18.337712133783953  120.000000
10.1112  0.000000  0.000000  0.000000  -47.84405952435246  18.361080435325206  25.136887129384423  51.610694912136665  11.999211856654062  17.53027627943892  74.94378892529664  61.59665131277615  -79.83540059401992  18.44896421123786  120.000000
10.16865  0.000000  0.000000  0.000000  -46.352706192189025  17.949301366672422  22.931625566921117  51.273228942267146  11.864876926853524  16.46378126824416  75.12150657774849  60.662960914936235  -79.0380338110984  18.54850575233779  120.000000
10.2261  0.000000  0.000000  0.000000  -44.5845192036733  17.291452857597164  19.946638092547623  50.769341753013755  11.887722881855959  15.324678022468833  75.36900316092904  59.41852890578985  -78.0436155729979  18.61473943885773  120.000000
10.28355  0.000000  0.000000  0.000000  -42.70490153707003  16.3257726474988  16.366931093030296  50.101720847798376  12.089214812866224  14.192782928757163  75.61073785500312  57.87650664158948  -76.75028901243172  18.635112167967627  120.000000
10.341000000000001  0.000000  0.000000  0.000000  -40.87808406708806  15.039374131483426  12.400129029209243  49.284911135197625  12.48245766861627  13.145449453947139  75.76437688539706  56.05470879958424  -75.06508988051704  18.612035502902767  120.000000
10.39845  0.000000  0.000000  0.000000  -39.23259314765947  13.475721898205107  8.239744927295806  48.34630128227615  13.059805004107925  12.25014241851739  75.75396694025709  53.97499333252776  -72.93170754661617  18.57457199943012  120.000000
10.4559  0.000000  0.000000  0.000000  -37.8418227045399  11.722892022298055  4.042153114876004  47.31771239147603  13.787682367314416  11.558444965799751  75.52083910470124  51.658358878885856  -70.34519899396491  18.583047835793163  120.000000
10.51335  0.000000  0.000000  0.000000  -36.72696119461048  9.88806488260735  -0.07645514063819137  46.22565846373145  14.615655616584858  11.101555417376128  75.02555703862487  49.12186900417591  -67.34568913152047  18.717670053586023  120.000000
10.5708  0.000000  0.000000  0.000000  -35.873767245328196  8.081619869722838  -4.029407376766091  45.090616456952446  15.49465970163531  10.885703933684411  74.24441418406028  46.38113566526524  -64.00379129464241  19.05136882721873  120.000000
10.62825  0.000000  0.000000  0.000000  -35.250000282029674  6.397980452849644  -7.746856946404735  43.92944344550701  16.3888899741569  10.896628187301813  73.16726437741987  43.45349811769593  -60.405093140692685  19.616032148760052  120.000000
10.6857  0.000000  0.000000  0.000000  -34.81410656735459  4.90947334004035  -11.169799137342991  42.76509379616128  17.27847341569363  11.104714321364211  71.80256579133122  40.36208154737188  -56.64255822913383  20.380388532572585  120.000000
10.74315  0.000000  0.000000  0.000000  -34.516212641376804  3.6575153315444897  -14.250066322200807  41.63725109259656  18.156597402326117  11.468285015279116  70.18357380443096  37.13786322730568  -52.81399831995824  21.258246485538088  120.000000
10.8006  0.000000  0.000000  0.000000  -34.304547396256424  2.64504523914267  -16.950977729611676  40.591921451565035  19.015425234291627  11.946658186735096  68.37399346066012  33.81437290036356  -49.02444615987221  22.138708921979365  120.000000
10.85805  0.000000  0.000000  0.000000  -34.14601521789021  1.8398434748415584  -19.2464454226631  39.66044416707766  19.83703359249661  12.511679760539517  66.45836137761262  30.423421864663396  -45.37808360847481  22.917865203620735  120.000000
10.9155  0.000000  0.000000  0.000000  -34.033106776347154  1.197979282886246  -21.123187552028902  38.85484195274721  20.5999657059788  13.143891036307751  64.52852943305197  27.001396215672873  -41.97123773596357  23.521055093310608  120.000000
10.97295  0.000000  0.000000  0.000000  -33.964660097272855  0.696016328404263  -22.585901574830274  38.19361539345937  21.306724770299898  13.807505175085623  62.67142777168709  23.603267485320906  -38.88644182670807  23.903028133456626  120.000000
11.0304  0.000000  0.000000  0.000000  -33.96073246092856  0.3303146343768688  -23.652653943823314  37.691489852208385  21.99211551770764  14.449458610599564  60.9527955779358  20.3043605266667  -36.184891417714454  24.034426676945078  120.000000
11.08785  0.000000  0.000000  0.000000  -34.06266903331777  0.1001647423870988  -24.34833960357299  37.33219597432303  22.695932134852928  15.03155644574858  59.451564309489044  17.17617125115422  -33.92307788376466  23.890135120803397  120.000000
11.1453  0.000000  0.000000  0.000000  -34.31352313309118  -0.005180742522689179  -24.706495099557536  37.070142440879316  23.445612456481413  15.548662551127624  58.337312713436845  14.271917879215557  -32.22444385459759  23.44783670911464  120.000000
11.20275  0.000000  0.000000  0.000000  -34.74591876306049  -0.00639280662576294  -24.78361345549529  36.86630144251635  24.27022685696563  16.00731273012288  57.93051221103019  11.64398506893895  -31.36782254431533  22.683378693276108  120.000000
11.260200000000001  0.000000  0.000000  0.000000  -35.36169563951788  0.08253172339064074  -24.646867953780056  36.72071497189192  25.190831526005265  16.402136913983465  58.852100890523666  9.338861576615468  -31.938901051618906  21.580262120325624  120.000000
11.31765  0.000000  0.000000  0.000000  -36.149254331546025  0.2139058646322264  -24.346310009990443  36.65329684891331  26.189780181378524  16.7251028658125  62.199694365632595  7.381918446142126  -35.0085617167282  20.12648466083465  120.000000
11.3751  0.000000  0.000000  0.000000  -37.07781925784764  0.31677694723064737  -23.939633763878803  36.68564595023606  27.207084885851682  16.98146674730919  69.83189994850957  5.794254451882319  -42.412922419948636  18.339622402373994  120.000000
11.43255  0.000000  0.000000  0.000000  -38.10142398421888  0.32151831002371306  -23.508984918090384  36.82681415219857  28.159077964151646  17.193295753436413  84.41059775743265  4.6507010624671254  -56.79276622213815  16.291922482683376  120.000000
11.49  0.000000  0.000000  0.000000  -39.16278037212399  0.18192965685643092  -23.145770610548517  37.08988069341561  28.958632603295758  17.381926765912294  107.50120026100079  4.173855910009604  -79.68330000856812  14.143861131689555  120.000000
