Simulation
nRows=201
nColumns=15
endheader
time  TH_x TH_y TH_z SC_y  SC_z  SC_x  AC_y  AC_z  AC_x  GH_y  GH_z  GH_yy  EL_x  PS_y
0.0  0.000000  0.000000  0.000000  -40.97484877243665  6.293857566463187  5.290427962726946  44.245125695865276  6.922168466026367  -0.06317168455906608  174.32445055111944  6.901872157934512  -149.00934991588014  22.678543498803485  120.000000
0.05745  0.000000  0.000000  0.000000  -38.819178083423424  5.674495014679742  2.931981790386345  43.328644644764374  7.258054110970566  0.13441077584556457  167.93726017721022  3.561194115248159  -143.89701134261782  22.086889000928224  120.000000
0.1149  0.000000  0.000000  0.000000  -36.8294023128064  4.903267452106796  0.571622041008943  42.50059948362465  7.399562419810869  0.3793380732290414  106.93452101126044  0.8892097665565699  -84.16027995212664  21.678613157859047  120.000000
0.17235  0.000000  0.000000  0.000000  -35.11432413843732  4.040005286754588  -1.694415473662772  41.80683513900006  7.399437725823445  0.6921619326839856  20.165109272622544  3.0310185958337934  1.3361946402237619  21.533339173604464  120.000000
0.2298  0.000000  0.000000  0.000000  -33.72567273862777  3.1606031158752224  -3.8022336742760388  41.27716322691062  7.341187957651108  1.0929460610886659  12.437342092877206  6.0314700931489815  7.770458452431708  21.660034213907657  120.000000
0.28725  0.000000  0.000000  0.000000  -32.66957200228873  2.3464413858883617  -5.725415643306766  40.905172544894505  7.3243563511815335  1.603765923560546  9.752828530080444  9.074534539375996  9.113619985909772  21.99500664300189  120.000000
0.3447  0.000000  0.000000  0.000000  -31.92954565432088  1.6758080163248763  -7.466879211316504  40.65880298059131  7.436396952271067  2.2433860558051153  7.946252464479579  12.188729873634873  9.495050841220609  22.437295684311582  120.000000
0.40215  0.000000  0.000000  0.000000  -31.491274360269106  1.2062068952595566  -9.026029672774673  40.49795313298681  7.718446292786549  3.0042708191030596  6.311607045714719  15.432883578781057  9.585982661513823  22.87526679263299  120.000000
0.4596  0.000000  0.000000  0.000000  -31.343877805776714  0.9785438719857755  -10.37599230388989  40.389543621083085  8.148545311009343  3.8463253584727015  4.734822008403394  18.85727908392684  9.482483871391953  23.21525426451504  120.000000
0.51705  0.000000  0.000000  0.000000  -31.47440435702733  1.017970574691349  -11.471290237903741  40.31559805135142  8.663062815258797  4.7215656404494135  3.2443353136070012  22.480405734921938  9.163859380091896  23.395521585761273  120.000000
0.5745  0.000000  0.000000  0.000000  -31.86245684082746  1.3379911416171821  -12.265026566099106  40.28145694322643  9.1873948652631  5.597591665053878  1.8997848188645325  26.273752462235418  8.605595270627326  23.394060784869495  120.000000
0.63195  0.000000  0.000000  0.000000  -32.491249625970305  1.933918235707628  -12.745342739077053  40.312307945002345  9.673524914768059  6.481358796391072  0.764905062196687  30.17160599626708  7.795392639863041  23.22044343382649  120.000000
0.6894  0.000000  0.000000  0.000000  -33.356745571732745  2.777503570882717  -12.945544738811117  40.44701162067158  10.107160541598716  7.41269445570204  -0.08958866588816763  34.09704160182774  6.715894696555564  22.903870550131376  120.000000
0.74685  0.000000  0.000000  0.000000  -34.46388644673778  3.811854989651377  -12.902502296522377  40.73065412353353  10.488462498231856  8.419372021127806  -0.6032919332482096  37.981337594074084  5.34692843050249  22.481383951790203  120.000000
0.8043  0.000000  0.000000  0.000000  -35.80981468854012  4.967334680452431  -12.635839473977391  41.199970819527834  10.824389198611724  9.499783409848092  -0.7454483682727016  41.764121909099266  3.676053310775359  21.991670705005102  120.000000
0.86175  0.000000  0.000000  0.000000  -37.37219440770439  6.172532038107627  -12.150154203916225  41.86672045799772  11.135157394762699  10.623720900201436  -0.5310305960188083  45.39093696930981  1.714613563110756  21.47133457931805  120.000000
0.9192  0.000000  0.000000  0.000000  -39.10202993796105  7.362134138292031  -11.440926895513176  42.7051940984964  11.45258476418531  11.736257545659676  -0.022650341652922925  48.80777203735285  -0.49040532475206383  20.95107399064729  120.000000
0.97665  0.000000  0.000000  0.000000  -40.9234457138131  8.48388343334199  -10.500946168650705  43.650868632659275  11.810530030167042  12.770140070735682  0.6835250968330226  51.957090499081474  -2.853793111144788  20.45180337795213  120.000000
1.0341  0.000000  0.000000  0.000000  -42.73441305920142  9.501985486484577  -9.325413654455593  44.61244998391469  12.23266816581359  13.661189232133266  1.4858313248842945  54.77751760399002  -5.2594595632312595  19.983729648975764  120.000000
1.09155  0.000000  0.000000  0.000000  -44.42581289096462  10.40716747635199  -7.913439972831135  45.493173200160435  12.721287242866838  14.364347611022374  2.3032336283892536  57.21469654797491  -7.5776147672445235  19.546835931334876  120.000000
1.149  0.000000  0.000000  0.000000  -45.916947806546624  11.212656186379858  -6.273824575466318  46.211393047794296  13.256082968618808  14.857243412329854  3.082250395334958  59.235078353422544  -9.681431261671632  19.136941841675185  120.000000
1.20645  0.000000  0.000000  0.000000  -47.17542550335761  11.93159738330123  -4.435515634175466  46.72195563497279  13.801625541130738  15.144274509430383  3.794833253947515  60.831065258177865  -11.469988650113736  18.749538944215665  120.000000
1.2639  0.000000  0.000000  0.000000  -48.21156934114862  12.564080024443165  -2.4563833789731024  47.025851812616665  14.318917046899381  15.253082458550002  4.435823324561477  62.01869434764931  -12.893266480026407  18.384706749067625  120.000000
1.32135  0.000000  0.000000  0.000000  -49.055928378812304  13.096702966837071  -0.42695693312170196  47.161526543109225  14.773273998398121  15.223316614087805  5.012392111192188  62.83606672065106  -13.96154032293042  18.048009527032058  120.000000
1.3788  0.000000  0.000000  0.000000  -49.73406467473774  13.510675479632887  1.530941874110727  47.18653714866939  15.135746387838799  15.092942059682613  5.531763551176103  63.33971441514384  -14.735599123551061  17.74816340159018  120.000000
1.43625  0.000000  0.000000  0.000000  -50.25189672846101  13.788311682542052  3.2716719400571526  47.162172934529835  15.380251602723755  14.887442366190571  5.991870788690322  63.60601224268986  -15.30177363601341  17.494512393366875  120.000000
1.4937  0.000000  0.000000  0.000000  -50.59001178886171  13.91584330165454  4.63481435395949  47.14484998247604  15.479678010984754  14.615639134183079  6.375498985326452  63.734141341790085  -15.740970277449314  17.29404386667597  120.000000
1.55115  0.000000  0.000000  0.000000  -50.71780795099649  13.887396680780201  5.468905223784244  47.176095248083435  15.41007209255552  14.279442044282817  6.658967775944858  63.814884699182514  -16.111652191512544  17.15173227608679  120.000000
1.6086  0.000000  0.000000  0.000000  -50.61125329495233  13.706639875806593  5.665452617781647  47.26648157168409  15.164865934163574  13.894267485768102  6.826571355014413  63.87900574813737  -16.44939541115579  17.071327376741444  120.000000
1.66605  0.000000  0.000000  0.000000  -50.25620377967508  13.37012927491338  5.163737083566882  47.401003718595604  14.752481470020749  13.491977602583797  6.8673220631238925  63.92410343987832  -16.75704383279186  17.053401399926674  120.000000
1.7235  0.000000  0.000000  0.000000  -49.65124384479996  12.866054091883258  3.9662325804404093  47.53783221510138  14.209377469965087  13.123096698604982  6.779436759478336  63.8991511828868  -17.01872249744662  17.09234006370779  120.000000
1.78095  0.000000  0.000000  0.000000  -48.81372811876322  12.193215136503056  2.159836204206467  47.60566408016666  13.624326165318548  12.852352593974674  6.584110747364244  63.65186952370724  -17.232071757965823  17.17353600122529  120.000000
1.8384  0.000000  0.000000  0.000000  -47.76313374392722  11.36130236221588  -0.12208790032668748  47.53276364423996  13.114967426248441  12.72455507165364  6.305184965649234  63.01039823439334  -17.40291011850627  17.27300791205609  120.000000
1.89585  0.000000  0.000000  0.000000  -46.511669542975824  10.386287948291919  -2.7352672271950373  47.268227203905234  12.79219391691078  12.743782602475337  5.9545652370816295  61.85635320999494  -17.53793375038919  17.36102213473331  120.000000
1.9533  0.000000  0.000000  0.000000  -45.078124315593186  9.292264905784391  -5.533769080320039  46.78313818290571  12.738240781142473  12.88224010360294  5.5452781396308035  60.12610018155801  -17.655691737378984  17.413104818908696  120.000000
2.01075  0.000000  0.000000  0.000000  -43.50793001493218  8.114035310902395  -8.381482047608003  46.074906241188856  12.988592321247356  13.0930244000614  5.103029294602885  57.81075625951102  -17.789130876341822  17.415093762729168  120.000000
2.0682  0.000000  0.000000  0.000000  -41.88840332580444  6.891388581028391  -11.159000006152652  45.16168226778197  13.526743226799802  13.329846185155075  4.670960379235654  54.955119124658175  -17.979348159153858  17.36574016056977  120.000000
2.1256500000000003  0.000000  0.000000  0.000000  -40.33309037150946  5.67641483127741  -13.769439847486574  44.0866134988428  14.292616898082064  13.56536927645504  4.3221905668082  51.65014531472564  -18.27197552738773  17.272104886304668  120.000000
2.1831  0.000000  0.000000  0.000000  -38.93907399791574  4.532657887970891  -16.141813036518396  42.9211050045716  15.198321392850943  13.792363232236237  4.16490453421724  48.005519149918754  -18.711073221625583  17.139247664895006  120.000000
2.24055  0.000000  0.000000  0.000000  -37.76583565793221  3.512465612565047  -18.22748845180553  41.740943550755446  16.146157909639438  14.013638833252696  4.313119200777254  44.11910963361505  -19.313470402137753  16.964055298246066  120.000000
2.298  0.000000  0.000000  0.000000  -36.83364005600644  2.655311034963059  -19.997401955386827  40.610631508634214  17.049985641051475  14.230831814539957  4.853444283036014  40.06675882236697  -20.0504560228167  16.729263670616568  120.000000
2.3554500000000003  0.000000  0.000000  0.000000  -36.12882706793631  1.9888798248966222  -21.438660011081648  39.57968102487842  17.849714936819236  14.441232184914996  5.830584905256214  35.912618507939975  -20.850165266525913  16.41124023942  120.000000
2.4129  0.000000  0.000000  0.000000  -35.614157398571614  1.5215797371492144  -22.55461251099977  38.68293516918166  18.518322004265137  14.640071331837644  7.249118675570545  31.72049472509598  -21.617041854603723  15.99555996569785  120.000000
2.47035  0.000000  0.000000  0.000000  -35.24078091663084  1.2338913575307926  -23.370159535077796  37.944865481040246  19.0626750842425  14.823862423547077  9.090391824233539  27.56615407430702  -22.261782234669454  15.493769606545788  120.000000
2.5278  0.000000  0.000000  0.000000  -34.96772986630008  1.0746726039727275  -23.936162491449636  37.379440472725186  19.518225493480777  14.999493145287103  11.350755445104591  23.5534372874524  -22.745840220248077  14.954946293402903  120.000000
2.5852500000000003  0.000000  0.000000  0.000000  -34.76934732030667  0.9822803909951455  -24.30115405531099  37.000147636752104  19.916809258574823  15.159757046834411  14.085268696783318  19.809609095934285  -23.13160840271743  14.451545608644292  120.000000
2.6427  0.000000  0.000000  0.000000  -34.62813338146901  0.9055695190155699  -24.49194012930694  36.80903784899119  20.269387881747416  15.279785208170258  17.4171325197536  16.44904534380503  -23.60087960006178  14.054726710131074  120.000000
2.70015  0.000000  0.000000  0.000000  -34.53332126420951  0.8180395615072469  -24.513358596049496  36.794668161491316  20.579319680964495  15.333345172521632  21.553112196511538  13.538447027464002  -24.479088115948223  13.811068889253255  120.000000
2.7576  0.000000  0.000000  0.000000  -34.4909489866878  0.7149827557538718  -24.331872208554888  36.94772075026486  20.84412415575314  15.281745030245586  26.825588247284703  11.097445840017189  -26.27491261682995  13.736534209170186  120.000000
2.8150500000000003  0.000000  0.000000  0.000000  -34.51664810276708  0.6096956590749842  -23.909380325945502  37.25033610374062  21.052112094158012  15.09300751538869  33.71934897881143  9.12739370459489  -29.68418303064516  13.827328199134278  120.000000
2.8725  0.000000  0.000000  0.000000  -34.619240632396256  0.528855358210873  -23.238543985656353  37.666662868954695  21.182907392998807  14.758417925386023  42.75010673229299  7.634704612072807  -35.433238241204265  14.067289582281951  120.000000
2.92995  0.000000  0.000000  0.000000  -34.79489474973392  0.49787470449074367  -22.340811063570868  38.14808041000445  21.214229818915786  14.2882821098075  54.02629016476631  6.6311551396541795  -43.80231599434634  14.429356682216646  120.000000
2.9874  0.000000  0.000000  0.000000  -35.02393047328809  0.5343238792427878  -21.256316453146592  38.64728771359751  21.127996392542382  13.704071800158744  66.6712901669053  6.105645965530897  -54.020235814802824  14.875545403369442  120.000000
3.0448500000000003  0.000000  0.000000  0.000000  -35.276922978815264  0.6438438879920292  -20.03216303072921  39.12824473018236  20.915054195920828  13.03148475674469  78.9225249721226  5.983809832776777  -64.35937810666344  15.361115818380235  120.000000
3.1023  0.000000  0.000000  0.000000  -35.52432356859439  0.8217416342418394  -18.718413862049072  39.570184066886796  20.579723666425284  12.29998593685586  89.24699136877011  6.130269810701353  -73.26478428212293  15.843605451980757  120.000000
3.15975  0.000000  0.000000  0.000000  -35.7435540228869  1.0545792462247916  -17.367603131921317  39.96687515546771  20.1409317446824  11.542266896936422  97.09601800260477  6.401482460439413  -80.1262410127997  16.293578748978177  120.000000
3.2172  0.000000  0.000000  0.000000  -35.921157494465206  1.3213623057238912  -16.031189276978882  40.3214908628945  19.626281603562937  10.79071748538776  102.64898736599999  6.688036603253951  -85.03747056626972  16.700706824400676  120.000000
3.2746500000000003  0.000000  0.000000  0.000000  -36.04918310011875  1.597571677090449  -14.752119111705682  40.64294079087517  19.063349401329738  10.070702475408549  106.33262143238181  6.924945993480916  -88.32894993044434  17.071692058166644  120.000000
3.3321  0.000000  0.000000  0.000000  -36.1232122846466  1.8602753653662365  -13.561182402580277  40.942427326449774  18.475699899982903  9.398275387081842  108.57244458164013  7.085458813624175  -90.33213234270364  17.423308512983233  120.000000
3.38955  0.000000  0.000000  0.000000  -36.14301258926582  2.092519617735744  -12.477867541401421  41.22940026259474  17.88152919832954  8.782353534416298  109.72373351188835  7.170809948392547  -91.32339846041744  17.771076095065716  120.000000
3.447  0.000000  0.000000  0.000000  -36.11484847431321  2.2844701058889103  -11.51175653593921  41.50855979037644  17.294654441743557  8.227070906191006  110.06087750162052  7.200126327713128  -91.52224319525133  18.123941453642324  120.000000
3.5044500000000003  0.000000  0.000000  0.000000  -36.051443794873464  2.4325501584304345  -10.664549785194982  41.77906156476514  16.72616387077383  7.733566260036287  109.7887620939526  7.199642352252878  -91.10346575289985  18.484450778013265  120.000000
3.5619  0.000000  0.000000  0.000000  -35.96827032617805  2.5381722371621898  -9.933128710892682  42.03535565705593  16.18553080234088  7.3008913290423925  109.0640017632116  7.193792520258227  -90.21262194395356  18.85091555112149  120.000000
3.61935  0.000000  0.000000  0.000000  -35.878260552028195  2.6069293608230635  -9.312688109942345  42.26925663616434  15.680757698031828  6.92665620681098  108.01086674600315  7.200529523574043  -88.972978106008  19.220718017590908  120.000000
3.6768  0.000000  0.000000  0.000000  -35.78802972846994  2.6466217276314676  -8.799431868220369  42.47169809648276  15.218135532243723  6.606757071529098  106.72401351738726  7.230777559449337  -87.48151187460559  19.592179495235836  120.000000
3.7342500000000003  0.000000  0.000000  0.000000  -35.6971648185881  2.6645308640642344  -8.391793030192192  42.63293415106443  14.801642546085738  6.335198642969118  105.26169822330733  7.289281561620962  -85.79787500131094  19.965053340207206  120.000000
3.7917  0.000000  0.000000  0.000000  -35.60014461855779  2.665534330408944  -8.090088083860104  42.74183674808186  14.432191132784487  6.104753863881594  103.63450497908178  7.376067687454587  -83.93130116965955  20.339811186319874  120.000000
3.84915  0.000000  0.000000  0.000000  -35.48829747317365  2.6511321474069787  -7.895820186896064  42.78726974984076  14.107743778616658  5.9072386653650275  101.79072472678493  7.48865059141736  -81.82513340629636  20.716676896705472  120.000000
3.9066  0.000000  0.000000  0.000000  -35.35105991661483  2.618932138879708  -7.8109912480856005  42.76045401725546  13.824163042533176  5.733794611984616  99.6098393899024  7.624797515076229  -79.35043827151674  21.094620181014854  120.000000
3.9640500000000003  0.000000  0.000000  0.000000  -35.17689877867747  2.5637716086964955  -7.837531944612728  42.656533109031486  13.57558116756121  5.576453149435796  96.91593890210045  7.786977220896021  -76.32115156031159  21.47117492890012  120.000000
4.0215  0.000000  0.000000  0.000000  -34.954800804650944  2.479499108729459  -7.97717022163747  42.47505457658335  13.355052481824499  5.429188008208083  93.51409857599502  7.989487895177137  -72.53561831794968  21.842438608402002  120.000000
4.07895  0.000000  0.000000  0.000000  -34.67652499301225  2.3619709899342434  -8.231230738800859  42.22045294118215  13.155821925414296  5.287614970266198  89.25842231520222  8.267774565250393  -67.85219003814835  22.202457420182952  120.000000
4.1364  0.000000  0.000000  0.000000  -34.340622555814946  2.212817243455842  -8.598401914369903  41.900664854102025  12.971240520177629  5.151561953451534  84.16375840372982  8.685883697619014  -62.308413687050006  22.541320992460093  120.000000
4.19385  0.000000  0.000000  0.000000  -33.95571594765727  2.0404437952965844  -9.069754664418086  41.52046462601134  12.794198875562806  5.031234385835908  78.51032469866713  9.32820238084245  -56.228032483478806  22.841949259190798  120.000000
4.2513000000000005  0.000000  0.000000  0.000000  -33.542676101317696  1.8685585953430257  -9.625570630661485  41.078896265371704  12.618330258253636  4.949367770241772  72.81763951609919  10.274517702448618  -50.188838098519334  23.081189133584456  120.000000
4.30875  0.000000  0.000000  0.000000  -33.1320984331131  1.7481879833267195  -10.238956576374338  40.588339930175586  12.443615275478628  4.929976079136641  67.64965874964767  11.5824007213711  -44.81480575145697  23.23935015977677  120.000000
4.3662  0.000000  0.000000  0.000000  -32.77706575035591  1.7486581545401727  -10.87456252625058  40.079628427082106  12.272274486511073  5.000409139761307  63.41126618689331  13.285398777580642  -40.55840102355503  23.31504148580556  120.000000
4.42365  0.000000  0.000000  0.000000  -32.566460216700946  1.9390573660746449  -11.48113742147054  39.579957018892806  12.096301256832374  5.2076569893508875  60.26220488859488  15.390848254145322  -37.60110204292344  23.337092478331527  120.000000
4.4811  0.000000  0.000000  0.000000  -32.60754874660836  2.386384007736714  -11.99762826428887  39.12102348998506  11.906452051795034  5.596973996096782  58.13761664908338  17.885918387286214  -35.87858239541727  23.361240819535414  120.000000
4.53855  0.000000  0.000000  0.000000  -32.99008897597576  3.1505074647594316  -12.363260066484608  38.75019395659975  11.709584957305408  6.178314818758289  56.81858562071884  20.737143604013816  -35.16843353742504  23.447959568188494  120.000000
4.596  0.000000  0.000000  0.000000  -33.75061915141  4.257466488728663  -12.51342428965593  38.50510396937925  11.523716877980709  6.933046562039513  56.022542647870054  23.872769332188955  -35.18477870560278  23.63275933489165  120.000000
4.65345  0.000000  0.000000  0.000000  -34.86047620782986  5.685643973428381  -12.375983045572687  38.40539470269197  11.365590294811753  7.830087190050051  55.4979707502457  27.186003505081313  -35.67124364670816  23.90749628871476  120.000000
4.7109000000000005  0.000000  0.000000  0.000000  -36.23065355094351  7.379578442387968  -11.878213547537845  38.46019952042381  11.24978876065047  8.825977596801476  55.060031722728375  30.545759902673364  -36.434633351722944  24.220653028352718  120.000000
4.76835  0.000000  0.000000  0.000000  -37.74573979936321  9.263611526461695  -10.954398724095263  38.66000706987837  11.188904139317714  9.86912140182784  54.577720325332976  33.80651934775544  -37.33405790640981  24.49514898999809  120.000000
4.8258  0.000000  0.000000  0.000000  -39.30748683274015  11.254314247924766  -9.553778656480244  38.97824992162934  11.189250412717657  10.90500313569296  53.96021585330294  36.83325540402238  -38.27238244606536  24.654613229639235  120.000000
4.88325  0.000000  0.000000  0.000000  -40.86838152077169  13.265128096865766  -7.64830326173796  39.38451021055238  11.24235743619388  11.880970745272222  53.14913818414716  39.53242295216015  -39.19130846690176  24.646865224408497  120.000000
4.9407  0.000000  0.000000  0.000000  -42.433845716227914  15.204453107172606  -5.240578822957987  39.859925958581634  11.322328295177194  12.755441283880204  52.113859876632446  41.86994139108659  -40.06389384086404  24.45193475293175  120.000000
4.99815  0.000000  0.000000  0.000000  -44.03368388137153  16.981206454727747  -2.37190178792134  40.404320224389465  11.394544161159915  13.50851460270388  50.847271314865  43.86836712660166  -40.87872595706153  24.075081267223432  120.000000
5.0556  0.000000  0.000000  0.000000  -45.692532794074225  18.52083421358276  0.8736699419680991  41.027500626016796  11.429450254083426  14.14430407153006  49.3615568302628  45.588438374934945  -41.62229990405385  23.53994227809573  120.000000
5.11305  0.000000  0.000000  0.000000  -47.407123071481315  19.778121082393195  4.368804691620849  41.7364398542977  11.414164178588013  14.681845962162617  47.68399897439707  47.10493384602968  -42.27269168818766  22.884052163872788  120.000000
5.1705000000000005  0.000000  0.000000  0.000000  -49.14229846317453  20.73373360589806  7.952052980465492  42.524742827826316  11.351915562497188  15.14633257228807  45.85149934351829  48.48679714906639  -42.80356519535241  22.157262256592222  120.000000
5.22795  0.000000  0.000000  0.000000  -50.837944976559406  21.392399118083798  11.44460444379641  43.37006386218346  11.253527285870542  15.559654212519817  43.915251786361424  49.78517811475765  -43.19992741441697  21.4163758363092  120.000000
5.2854  0.000000  0.000000  0.000000  -52.41847244774837  21.78072459416005  14.669705304108101  44.236568064482185  11.133896831088165  15.927478669925215  41.95287184143115  51.02792559443388  -43.4760095156203  20.7155350428836  120.000000
5.34285  0.000000  0.000000  0.000000  -53.80394241113383  21.941757502601597  17.471134968021403  45.07445730252106  11.009814011434724  16.232863232576022  40.07531214294123  52.21483771667048  -43.679172668656236  20.09493767132921  120.000000
5.4003  0.000000  0.000000  0.000000  -54.920512775344065  21.92539053327341  19.725261593650448  45.82263849985342  10.895471135937848  16.43879647431817  38.41672367404796  53.316854875616706  -43.877273856352346  19.573081984108132  120.000000
5.45775  0.000000  0.000000  0.000000  -55.71171363500785  21.779554414077165  21.344489302863177  46.420150083315185  10.79751505406276  16.495575440564934  37.1093962515627  54.28244746970189  -44.1378668746297  19.14979226935908  120.000000
5.5152  0.000000  0.000000  0.000000  -56.14339069318576  21.54226880257831  22.27454354586453  46.81670198721444  10.712777344599663  16.35268043699492  36.260312365702646  55.049200303430275  -44.51221532685391  18.817992321933335  120.000000
5.57265  0.000000  0.000000  0.000000  -56.19906378571411  21.23657535507896  22.488570332212056  46.97950083115062  10.630764887782497  15.971691743110448  35.93805400177546  55.55674159492684  -45.02806717623078  18.577049093096793  120.000000
5.6301000000000005  0.000000  0.000000  0.000000  -55.87419275057962  20.868387710410847  21.98141602174609  46.897336977283906  10.536464811208955  15.336880623163458  36.16443420292475  55.75655273221289  -45.68592422758957  18.44073068716366  120.000000
5.68755  0.000000  0.000000  0.000000  -55.177270420370746  20.427303727664583  20.765449182947066  46.58551423878328  10.408606848310686  14.46227968401555  36.90489907419066  55.617578181775485  -46.45198973439386  18.434208718798597  120.000000
5.745  0.000000  0.000000  0.000000  -54.13355967172368  19.888055934079542  18.871105197832016  46.085329187174  10.218335403646915  13.394922418160915  38.06285554339547  55.123582851058835  -47.251588996838116  18.579305041147272  120.000000
5.80245  0.000000  0.000000  0.000000  -52.7831571018777  19.211024274829953  16.353857707984545  45.44572365153009  9.9402875475086  12.211546959159485  39.491559968678125  54.260404802609045  -47.975560680801905  18.87237593908111  120.000000
5.8599  0.000000  0.000000  0.000000  -51.174328175902524  18.3490540103923  13.30387798037798  44.700715340646575  9.5756126234521  11.005127315696212  41.02435099964989  53.003472240983356  -48.504506353611205  19.266012728850356  120.000000
5.91735  0.000000  0.000000  0.000000  -49.35726790439175  17.260827358892012  9.849972011547887  43.862830495336304  9.168720534541157  9.867849676235599  42.50809812551315  51.3178276531345  -48.74410685939531  19.670532892951044  120.000000
5.9748  0.000000  0.000000  0.000000  -47.38295992109913  15.926056478882336  6.15241352538242  42.93975009391217  8.804178711499189  8.877262282948605  43.82480354692647  49.17206690512016  -48.65428461825064  19.977432097355642  120.000000
6.03225  0.000000  0.000000  0.000000  -45.303280200587274  14.355535656785724  2.3872999003192374  41.957288851344536  8.5883038346741  8.08850724794006  44.90388185444797  46.557278425391154  -48.26125373548642  20.092272260255797  120.000000
6.089700000000001  0.000000  0.000000  0.000000  -43.17496086830973  12.589878893167743  -1.2719217842410222  40.96782124835497  8.621381959161457  7.536275861520181  45.731399513232525  43.50472013777542  -47.65145229954923  19.962312331241044  120.000000
6.14715  0.000000  0.000000  0.000000  -41.067747255424116  10.697024121001647  -4.676132671645283  40.04467821234741  8.97095530929128  7.235695608515955  46.356563338864824  40.099471957934114  -46.9545399657021  19.586111260077022  120.000000
6.2046  0.000000  0.000000  0.000000  -39.06897292928623  8.771541614497803  -7.722635005452724  39.26821542578544  9.653860580745368  7.179861582720362  46.89927276860023  36.48143473240434  -46.3284980618254  19.0019820967533  120.000000
6.26205  0.000000  0.000000  0.000000  -37.275481405754  6.914882290686107  -10.362227744259307  38.69800483928994  10.630564209549398  7.346508158555537  47.54841965022697  32.823853770126156  -45.946869745388646  18.271063153338783  120.000000
6.3195  0.000000  0.000000  0.000000  -35.77619647971383  5.220876581703974  -12.58914288258475  38.35685045181083  11.816828754910825  7.705609613410849  48.545408634758296  29.299397365258944  -45.98582710042455  17.46842137548741  120.000000
6.37695  0.000000  0.000000  0.000000  -34.63081032672079  3.7701963649841104  -14.425307268842591  38.23671883346323  13.110021167869583  8.217097129439027  50.14586051062314  26.047740488866705  -46.604525155271915  16.678834162213708  120.000000
6.4344  0.000000  0.000000  0.000000  -33.85617166467784  2.613792479014731  -15.902389521461068  38.3029089347042  14.412877411043704  8.836390817435221  52.561080558091284  23.15381800343704  -47.91596741729468  15.986931037562977  120.000000
6.49185  0.000000  0.000000  0.000000  -33.42652538261246  1.77007017229745  -17.05139848639761  38.507428565697516  15.647140727518275  9.52141895486731  55.91391360888766  20.652903758381218  -49.972192765844966  15.465089853499725  120.000000
6.549300000000001  0.000000  0.000000  0.000000  -33.28451634789303  1.230470634190298  -17.90222634631997  38.803525743302494  16.7595075364425  10.231434019323663  60.215919536570645  18.549854519923617  -52.7627796276021  15.16144105858465  120.000000
6.60675  0.000000  0.000000  0.000000  -33.36104282563195  0.9617606227970973  -18.485333244989114  39.145815355449855  17.719704724567666  10.92907741928385  65.35551939947575  16.832877812220016  -56.21088901208365  15.091297117392658  120.000000
6.6642  0.000000  0.000000  0.000000  -33.58636593504111  0.9126081954421356  -18.83452411837586  39.49070406280972  18.517079382651136  11.579467955875357  71.1003303046641  15.475639670548846  -60.1644176368979  15.239359530369446  120.000000
6.72165  0.000000  0.000000  0.000000  -33.893946757091264  1.0225098834086612  -18.98831635754155  39.79940010613701  19.156633859165268  12.14888155321524  77.13094613684456  14.430745112738837  -64.40484913279943  15.566621271000217  120.000000
6.7791  0.000000  0.000000  0.000000  -34.22926129014978  1.2320884026285932  -18.988697602559995  40.046705036383756  19.65181487895512  12.608788961454492  83.11468000476408  13.636261107827494  -68.69286520341213  16.014948593507416  120.000000
6.83655  0.000000  0.000000  0.000000  -34.54809562611543  1.487324250014786  -18.87562704607356  40.22630924757786  20.015678182588896  12.941677316364775  88.78317079077473  13.029158891795449  -72.82107220210766  16.50804296761371  120.000000
6.894  0.000000  0.000000  0.000000  -34.8222092396877  1.7423038997469333  -18.680909128948002  40.34585499676711  20.255888581803482  13.144512513293996  93.97039332541969  12.556856240818615  -76.64902673825108  16.959154953330643  120.000000
6.95145  0.000000  0.000000  0.000000  -35.03570111201309  1.9673567512592176  -18.42841902393508  40.425878483135826  20.38092857531703  13.222342901059038  98.60387272486878  12.18015276836328  -80.10701422591795  17.28978938967003  120.000000
7.008900000000001  0.000000  0.000000  0.000000  -35.181032201021964  2.1480501263733274  -18.13436929382634  40.489190697089136  20.404175646054775  13.186221093329445  102.67792445821222  11.86877279102168  -83.18455475427956  17.454463094820895  120.000000
7.06635  0.000000  0.000000  0.000000  -35.26618298477528  2.279543162338732  -17.80688217714534  40.547841437535546  20.341871140058615  13.054606384640808  106.2272616440923  11.59920617507195  -85.9162630750476  17.46209421371418  120.000000
7.1238  0.000000  0.000000  0.000000  -35.31037093624041  2.363787843643262  -17.448561105748496  40.60459885400221  20.213282125626232  12.847157113340597  109.3022906050386  11.35397149427727  -88.36085013452202  17.37291502325492  120.000000
7.18125  0.000000  0.000000  0.000000  -35.33687520771378  2.409028840865208  -17.059747394853666  40.66186657708826  20.0403357319866  12.578468162579043  111.94314922893685  11.123498386747023  -90.57059937791081  17.2716138619135  120.000000
7.2387  0.000000  0.000000  0.000000  -35.364459538636986  2.429358977806542  -16.6401909317278  40.7254742855867  19.84232984941996  12.260355151519324  114.17711962899945  10.90384870057595  -92.57720882423538  17.23288123257126  120.000000
7.29615  0.000000  0.000000  0.000000  -35.405052267375055  2.4365658159673522  -16.189270709317412  40.80022846239865  19.630026016916613  11.908010632232145  116.02871793815505  10.690616003236629  -94.39239003446276  17.293570373082403  120.000000
7.3536  0.000000  0.000000  0.000000  -35.46032084850858  2.437183768112623  -15.707623307080098  40.889526268605934  19.405732389945683  11.539504376013586  117.53370010187301  10.475924726256148  -96.01979918975985  17.44709427483401  120.000000
7.41105  0.000000  0.000000  0.000000  -35.522838845798034  2.4364730262577727  -15.199144081868138  40.99883622855061  19.167960013623578  11.169866329982357  118.7339005966035  10.25116598556567  -97.45785142431058  17.660045612068675  120.000000
7.468500000000001  0.000000  0.000000  0.000000  -35.58079246787954  2.440322566918781  -14.671436982325835  41.1348093135062  18.915171259349954  10.807371453936899  119.67102472663933  10.009014119878431  -98.70492947387636  17.894700648612133  120.000000
7.52595  0.000000  0.000000  0.000000  -35.62474411183377  2.452836925598343  -14.133958708101611  41.299314027662  18.64574604097217  10.455806175160781  120.39047532232604  9.744137322484429  -99.77212086206748  18.124792890729225  120.000000
7.5834  0.000000  0.000000  0.000000  -35.6523392952194  2.4742741961517845  -13.59566612974936  41.48696702037153  18.35783784819859  10.11732373124231  120.94059464797728  9.45501726623242  -100.68660057418205  18.341186619996538  120.000000
7.64085  0.000000  0.000000  0.000000  -35.66692995005876  2.5030480187332222  -13.063738744227798  41.68865264137625  18.050424268389452  9.792964671225466  121.36962090452681  9.145086798015942  -101.48651841106712  18.547440907025887  120.000000
7.6983  0.000000  0.000000  0.000000  -35.673903948290324  2.5369901780954836  -12.543042087350118  41.89593527538993  17.72450503671615  9.482115087356373  121.72325490056402  8.822158533107334  -102.21403138869816  18.751397282251613  120.000000
7.75575  0.000000  0.000000  0.000000  -35.678271338956314  2.5730309707474133  -12.03584793258404  42.10312173705419  17.383219700271173  9.18262004630054  122.04275698846324  8.496644713236792  -102.90919863892891  18.95814554451268  120.000000
7.8132  0.000000  0.000000  0.000000  -35.68348936576458  2.608167735857873  -11.541878279959692  42.30704033215312  17.030896892333875  8.89162823336043  122.36718610767126  8.17955523729406  -103.60880066522643  19.167475323600172  120.000000
7.87065  0.000000  0.000000  0.000000  -35.6919598448208  2.639525125802988  -11.058889821426785  42.50665709611335  16.672646552431214  8.60520190331299  122.72608704054375  7.881073634633856  -104.33745616253397  19.375259849855787  120.000000
7.928100000000001  0.000000  0.000000  0.000000  -35.706783206411465  2.6642313798034474  -10.582993694326753  42.700076255139905  16.313120611240613  8.318972537419464  123.13571663502404  7.608518430865684  -105.10315890867155  19.577578914079574  120.000000
7.98555  0.000000  0.000000  0.000000  -35.731861806398534  2.680323316926542  -10.109422177197176  42.88194306362055  15.955759133663276  8.028094765865715  123.60199285891836  7.363541189080887  -105.90009331182848  19.775516467077832  120.000000
8.043  0.000000  0.000000  0.000000  -35.76929835331508  2.6877018113105144  -9.634394630562241  43.045498931621495  15.603706391099315  7.725117761353537  124.11617573043061  7.141489471091516  -106.70680751248184  19.978026148712754  120.000000
8.10045  0.000000  0.000000  0.000000  -35.81645222383903  2.6880554196926236  -9.156292574405986  43.182294759230636  15.257969025543089  7.402821490056883  124.66328065575212  6.932037374528926  -107.49896294926027  20.199431280400105  120.000000
8.1579  0.000000  0.000000  0.000000  -35.86492903700406  2.68316689753206  -8.677271754168535  43.278485224100635  14.916003932750863  7.058997857132648  125.23240840471408  6.7189110221761865  -108.26549469978261  20.45003267031806  120.000000
8.21535  0.000000  0.000000  0.000000  -35.900746572235505  2.6767927999175027  -8.207651835584116  43.31841513582857  14.575125001238918  6.693362655289134  125.7858690966061  6.483330001246798  -108.98364923158117  20.723404971409717  120.000000
8.2728  0.000000  0.000000  0.000000  -35.90604372548431  2.6749957137170854  -7.76824189492265  43.28704856301561  14.23454188467108  6.305287581505343  126.22516761768053  6.209738250794597  -109.58621492430821  20.987032262412363  120.000000
8.33025  0.000000  0.000000  0.000000  -35.86382581225475  2.6826979920175056  -7.387937889225429  43.16870975918584  13.894362571225383  5.898537772887371  126.35902628891782  5.892761048420412  -109.92267549190704  21.18685453761322  120.000000
8.3877  0.000000  0.000000  0.000000  -35.760003513074096  2.699537974265639  -7.099655076807236  42.95265744287468  13.557788846874848  5.482230106027101  125.84606423909949  5.54445055791634  -109.68495918567945  21.269532339535818  120.000000
8.44515  0.000000  0.000000  0.000000  -35.58224025503738  2.715246549731477  -6.93405533008278  42.63905260863256  13.233407364600994  5.068141829411728  124.14381905472462  5.198464339430951  -108.33676141784063  21.206959682763056  120.000000
8.502600000000001  0.000000  0.000000  0.000000  -35.32268334625378  2.7105314157238793  -6.910826898902972  42.240601986485416  12.934303397030465  4.667843972862264  120.54869169968295  4.9140398214104835  -105.13771123161513  21.019256331838335  120.000000
8.56005  0.000000  0.000000  0.000000  -34.9892632512122  2.6668549476327974  -7.029553302635201  41.77693560490187  12.672631386013467  4.2921536501688164  114.49375329649887  4.784092233170091  -99.44065893052557  20.779762331567404  120.000000
8.6175  0.000000  0.000000  0.000000  -34.6063464947047  2.580736525455282  -7.266949186846347  41.27865142369904  12.457452815928978  3.941347660112947  106.1897566299288  4.943223457907435  -91.35637766494425  20.586524409876333  120.000000
8.67495  0.000000  0.000000  0.000000  -34.211314898563245  2.4688345055787857  -7.583296977686886  40.78269620174372  12.291830446089218  3.6126493659637653  97.23746674750846  5.548735302450815  -82.40147862911319  20.52362341711188  120.000000
8.7324  0.000000  0.000000  0.000000  -33.86235280152703  2.36401614574303  -7.929912769820623  40.30561450180319  12.167312601301727  3.3285074958025445  89.87419739802449  6.720884513803906  -74.78067418364604  20.62902652211514  120.000000
8.78985  0.000000  0.000000  0.000000  -33.62450547681012  2.32546280298751  -8.2592246545967  39.857650631147614  12.073277978817387  3.1223816135097335  85.2578311644169  8.517148001326428  -69.6860702198876  20.883731488301347  120.000000
8.8473  0.000000  0.000000  0.000000  -33.549921391214596  2.440552646053646  -8.530733715414067  39.45973852352217  12.004735174433945  3.018492891943014  83.22398193169789  10.95616712991692  -67.04503339604932  21.22972563966543  120.000000
8.90475  0.000000  0.000000  0.000000  -33.66881086952816  2.801194979941484  -8.703233618259889  39.125684002764515  11.957170705932423  3.045311321343581  83.07967643346875  14.015700216155583  -66.28844381234855  21.596925174995988  120.000000
8.9622  0.000000  0.000000  0.000000  -33.98321253212832  3.4788106530231175  -8.726550694849086  38.85171563478027  11.924591264756446  3.242569142198335  84.13821460521748  17.612907324123587  -66.85854930294458  21.924849609950172  120.000000
9.01965  0.000000  0.000000  0.000000  -34.4667242020742  4.505603468822097  -8.540685643037138  38.63108771955664  11.905478421773566  3.6498129939025605  85.87021792285924  21.60691536728311  -68.34359132360517  22.174605359944813  120.000000
9.0771  0.000000  0.000000  0.000000  -35.07817758531578  5.8831773664196385  -8.077505525172677  38.474701112748036  11.900723545899414  4.296766634284045  87.89658676978486  25.837268992755394  -70.46252348545231  22.332541886954388  120.000000
9.13455  0.000000  0.000000  0.000000  -35.785393553926475  7.589190256972175  -7.263335620052612  38.40996805661664  11.910673606647102  5.19564049278805  89.93120715674173  30.156573804476988  -73.00245423195364  22.40237177523444  120.000000
9.192  0.000000  0.000000  0.000000  -36.58293589749539  9.570048942753292  -6.026346406024972  38.467909708553336  11.93289684086649  6.336300094734219  91.74334297575142  34.4369294544351  -75.77819046212727  22.388380545286836  120.000000
9.24945  0.000000  0.000000  0.000000  -37.49511468470416  11.749126037356566  -4.3033738386933145  38.67895049838022  11.958525449669441  7.6912961084024785  93.1601106553619  38.569171446645164  -78.6269489089296  22.28755802287482  120.000000
9.3069  0.000000  0.000000  0.000000  -38.56785778174543  14.036443133820866  -2.0456970608431098  39.07270756290281  11.973086496914963  9.223273698640178  94.06847373982032  42.46139897759701  -81.40665265214211  22.09040125148138  120.000000
9.36435  0.000000  0.000000  0.000000  -39.85403333801718  16.332753797906992  0.7728492767571686  39.67847936040588  11.96234331236339  10.890778336094034  94.41302018988375  46.03777261637046  -83.99530011691131  21.787951791700262  120.000000
9.421800000000001  0.000000  0.000000  0.000000  -41.39827489113332  18.530136107356174  4.1421387817322035  40.519233329728415  11.91513654477383  12.651265019157142  94.19179909589354  49.23904640309344  -86.29525125301096  21.382246571030276  120.000000
9.47925  0.000000  0.000000  0.000000  -43.229006057297994  20.5068785150067  8.002287303760319  41.59201640686202  11.821248973656786  14.45913574256967  93.44418097921249  52.02163854865402  -88.23397763838555  20.893532665659578  120.000000
9.5367  0.000000  0.000000  0.000000  -45.34005280836431  22.138126792614457  12.23467430226491  42.859198769708826  11.674328813893565  16.259971312651714  92.24254178895059  54.36078092920802  -89.76393354927337  20.35922133958979  120.000000
9.59415  0.000000  0.000000  0.000000  -47.66407774091427  23.326553929588396  16.65945611822868  44.26290612729772  11.480110312105268  17.984391219440244  90.68505099528956  56.260788340340746  -90.86256150842792  19.8241700690756  120.000000
9.6516  0.000000  0.000000  0.000000  -50.06540218100198  24.029659272444928  21.04912645841999  45.734766070775294  11.257214136636874  19.55215865719318  88.88850744982041  57.7526840789966  -91.52886216251265  19.330619018996597  120.000000
9.70905  0.000000  0.000000  0.000000  -52.36316656540035  24.271975410684288  25.15888243575788  47.19377161102051  11.026506705959115  20.885125670033762  86.9854139657473  58.88085504808413  -91.78295798792458  18.909391166364394  120.000000
9.7665  0.000000  0.000000  0.000000  -54.365218898379744  24.13743349182182  28.75980228114296  48.54936928488261  10.80408734214964  21.91720845986205  85.11811074202298  59.68920595711502  -91.66789291518367  18.579647588693113  120.000000
9.82395  0.000000  0.000000  0.000000  -55.90534200621036  23.750240781189223  31.666044119331083  49.71264582771215  10.601958172463675  22.598522817355704  83.42865554304976  60.213494503120444  -91.25133763678767  18.35078353052358  120.000000
9.8814  0.000000  0.000000  0.000000  -56.863403405438234  23.243910232672878  33.74515843505848  50.60924259329875  10.42970921701251  22.898708901363662  82.0412166848501  60.47911349812802  -90.61865046752217  18.224292312898232  120.000000
9.93885  0.000000  0.000000  0.000000  -57.16848322953156  22.726807262997607  34.912697089173065  51.191278945957656  10.294305149590105  22.812310248650146  81.04593784688377  60.50445531293594  -89.86034600497636  18.193111562719505  120.000000
9.9963  0.000000  0.000000  0.000000  -56.79261664973374  22.264065758360346  35.121332151096105  51.439730622397995  10.206074350632067  22.354309841664147  80.48370692950562  60.30095665166912  -89.05588067948618  18.239229499673513  120.000000
10.05375  0.000000  0.000000  0.000000  -55.74716755308215  21.870642978723456  34.35488268122535  51.358069080067416  10.181522650349427  21.55136954082093  80.34086165976335  59.87358568170694  -88.25782915003792  18.33444046377286  120.000000
10.1112  0.000000  0.000000  0.000000  -54.08382904677812  21.507591881066656  32.63174442787924  50.96534039069235  10.243597857188952  20.438682135213586  80.55564214379925  59.22354178089669  -87.47603048187662  18.447431315652956  120.000000
10.16865  0.000000  0.000000  0.000000  -51.90056838754973  21.089224053699464  30.01880034726991  50.29208616620646  10.419852524347457  19.06411192682364  81.0316943673156  58.35011681793523  -86.66594443941106  18.547922942004544  120.000000
10.2261  0.000000  0.000000  0.000000  -49.343242215095124  20.497781010324882  26.642001255661718  49.380738194936015  10.733532657939405  17.49868128794025  81.65586922226568  57.25458754810729  -85.73176134542686  18.613195365104207  120.000000
10.28355  0.000000  0.000000  0.000000  -46.599115980725614  19.62095079842357  22.68218951054689  48.28690052316269  11.201743584586463  15.836788716210503  82.3085370162473  55.93996992302883  -84.54673117025085  18.631709970502204  120.000000
10.341000000000001  0.000000  0.000000  0.000000  -43.87403621743562  18.394204238759222  18.34795406808085  47.073570042919535  11.83161005633887  14.183585670088869  82.87053584669712  54.40628398225245  -82.98666973305902  18.606728211378364  120.000000
10.39845  0.000000  0.000000  0.000000  -41.35431350430884  16.820213260792784  13.835610154609691  45.80438749422996  12.610856413180558  12.642165374655276  83.23329845289886  52.64998928413829  -80.9608158470086  18.567153189761402  120.000000
10.4559  0.000000  0.000000  0.000000  -39.173480367598735  14.962416766867474  9.299474075562705  44.53029291079817  13.500545351093374  11.305810408856146  83.30533787049565  50.663569423657  -78.42846491559335  18.572558856256666  120.000000
10.51335  0.000000  0.000000  0.000000  -37.39986888450961  12.923873775586122  4.844570470894733  43.285484701964776  14.444490554843192  10.249021490659203  83.01328930144489  48.442360220859776  -75.39551150216555  18.703224610363495  120.000000
10.5708  0.000000  0.000000  0.000000  -36.039512528411656  10.825859436968027  0.536947077487163  42.095494012385075  15.388120701869122  9.517772230799668  82.3048884749488  45.99395839016695  -71.90589984463608  19.033183238258534  120.000000
10.62825  0.000000  0.000000  0.000000  -35.052455819344765  8.782904831389294  -3.5783098838073615  40.980768725684776  16.294517601241253  9.125211160380294  81.14816273830678  43.337512796155394  -68.02838045420894  19.595708768065027  120.000000
10.6857  0.000000  0.000000  0.000000  -34.37564264690189  6.889591163362363  -7.461254601724791  39.96401717242133  17.14980805985163  9.053986493043867  79.53395885180257  40.50369320368045  -63.85137759357884  20.361093102658888  120.000000
10.74315  0.000000  0.000000  0.000000  -33.93388232980838  5.215110596181697  -11.068775268592413  39.07669017731753  17.961351437052137  9.263649377130065  77.48720950026537  37.528376483636194  -59.48090358056945  21.24476370561584  120.000000
10.8006  0.000000  0.000000  0.000000  -33.65302114193528  3.789291462307729  -14.350510304982043  38.34174970758314  18.741077608955646  9.709164538767304  75.0759669320775  34.437730834693944  -55.039695788529485  22.134795109917537  120.000000
10.85805  0.000000  0.000000  0.000000  -33.47540889206414  2.594999063676367  -17.24771409905567  37.75668268928181  19.493430826539072  10.354388296896651  72.40952081446888  31.243612621746514  -50.65776877281591  22.924337703308993  120.000000
10.9155  0.000000  0.000000  0.000000  -33.37446213959763  1.6006260437056399  -19.70143403649303  37.292183671156586  20.215519570311443  11.169351570310768  69.62495494018155  27.953910262543616  -46.46235758266034  23.535579755709062  120.000000
10.97295  0.000000  0.000000  0.000000  -33.34568509293911  0.7978380605576261  -21.671561080047834  36.92400853279192  20.92055063730864  12.098986650829675  66.84123757210125  24.593786878346826  -42.54820741237251  23.919169895034315  120.000000
11.0304  0.000000  0.000000  0.000000  -33.40911493723415  0.20175513795129094  -23.144849320275195  36.65236326619955  21.6423496397005  13.05941000485113  64.1470969258824  21.23217757874387  -38.97949880911532  24.043481358105748  120.000000
11.08785  0.000000  0.000000  0.000000  -33.60311874372054  -0.16628336336754482  -24.13457788765147  36.481866517084335  22.414007520157927  13.972205673056395  61.67904452122634  17.974003264269633  -35.85172147002233  23.888002055710114  120.000000
11.1453  0.000000  0.000000  0.000000  -33.9634583817322  -0.3078790318728203  -24.680336520206595  36.39538346199316  23.258888018800253  14.786139596429297  59.71304215122478  14.91841302458656  -33.37884350288063  23.4383814053759  120.000000
11.20275  0.000000  0.000000  0.000000  -34.521753981933934  -0.2722468470115414  -24.85091903252643  36.36016178542199  24.190586588709063  15.481963328135443  58.721454304338735  12.137823748549941  -31.979231870467654  22.67289801268089  120.000000
11.260200000000001  0.000000  0.000000  0.000000  -35.2767323311728  -0.11884391900079275  -24.73257935725033  36.36450555690508  25.206042374490448  16.056561849260778  59.51998379887059  9.67229857051206  -32.4239573554422  21.572563754629442  120.000000
11.31765  0.000000  0.000000  0.000000  -36.21228753513581  0.07404388068592004  -24.40699938135968  36.419901076592076  26.27297319418771  16.51158954095205  63.489871663143276  7.549710155152616  -36.065591633911936  20.12410389771213  120.000000
11.3751  0.000000  0.000000  0.000000  -37.295252415223665  0.22759361518043034  -23.96313484512109  36.54162018517654  27.32588603296112  16.86514951245804  73.02337009440689  5.826687198271035  -45.28081484817532  18.344020252878426  120.000000
11.43255  0.000000  0.000000  0.000000  -38.47770245347471  0.2797855751077151  -23.50134052635712  36.738854425564746  28.283792455177032  17.153920995739384  91.37450737838141  4.67563583047391  -63.316205761057795  16.303124925196876  120.000000
11.49  0.000000  0.000000  0.000000  -39.69447471551399  0.19520546131637884  -23.11915394304201  37.04251951882086  29.072565417559645  17.40585713085594  118.23042210397486  4.46111651997467  -89.84324268907996  14.16135077622888  120.000000
