Simulation
nRows=201
nColumns=15
endheader
time  TH_x TH_y TH_z SC_y  SC_z  SC_x  AC_y  AC_z  AC_x  GH_y  GH_z  GH_yy  EL_x  PS_y
0.0  0.000000  0.000000  0.000000  -40.97484877243665  6.293857566463187  5.290427962726946  48.783555343464705  1.0999519381269216  2.887097936978257  -65.4863928299539  2.906716762972162  86.05629006078603  22.58340004296118  120.000000
0.05745  0.000000  0.000000  0.000000  -40.187389774770296  4.996560690529964  3.2065795218822486  48.64535221195355  2.2081476679210867  3.058821898215927  -46.8604444031629  4.961787696155942  66.80584810387631  22.00073540640777  120.000000
0.1149  0.000000  0.000000  0.000000  -39.446767530652124  3.587559465302451  1.1941277085560749  48.60926774392754  3.169023136546844  3.3134867617934933  -38.6989615040683  7.0142989968776375  58.00717399268273  21.609768102885663  120.000000
0.17235  0.000000  0.000000  0.000000  -38.82705402477812  2.223896478021982  -0.7109759683296423  48.65965460191139  4.0122512976234015  3.6350711702445677  -33.349614530790134  8.983613064859995  51.993237599713524  21.48144000847643  120.000000
0.2298  0.000000  0.000000  0.000000  -38.38860731556321  1.0284859179008914  -2.463071045238232  48.73734916600634  4.777049048576088  4.0242843779901785  -29.115482026563022  10.946929832838581  47.065587078126114  21.611858458817824  120.000000
0.28725  0.000000  0.000000  0.000000  -38.15581106893482  0.08588879322250309  -4.0248414805031425  48.79562114095106  5.502900261500156  4.473668429057696  -25.487950581176854  13.000167276490378  42.71769971085546  21.93789659195946  120.000000
0.3447  0.000000  0.000000  0.000000  -38.15173589888862  -0.5367301350603936  -5.3703304998041235  48.8078817578667  6.219924905368627  4.967222463190942  -22.24813054209642  15.224932530656835  38.72329779583521  22.36195711370231  120.000000
0.40215  0.000000  0.000000  0.000000  -38.402801838033874  -0.8036179424512543  -6.475498827463781  48.75738237081384  6.939939967822284  5.500877002710297  -19.29039187110565  17.677551463598807  34.962132313298156  22.776753731212285  120.000000
0.4596  0.000000  0.000000  0.000000  -38.92981395542908  -0.7067055391561274  -7.323866388176671  48.64870942034061  7.656996842613049  6.074334423614883  -16.56217565721127  20.381421327173683  31.36115442738102  23.092346230368744  120.000000
0.51705  0.000000  0.000000  0.000000  -39.726996605109  -0.2549200472611363  -7.900749085159826  48.50444929228745  8.355807083836078  6.6912379885606565  -14.069491463771827  23.318503920801874  27.906751946406846  23.25174314380702  120.000000
0.5745  0.000000  0.000000  0.000000  -40.75826758736851  0.5267310677644537  -8.186565691008017  48.3574962805242  9.025773053325107  7.358864543459567  -11.843411888745868  26.421022474605785  24.612128498242395  23.236865427323245  120.000000
0.63195  0.000000  0.000000  0.000000  -41.95485773199408  1.5939152259781417  -8.15813771749293  48.25324109204025  9.664675269251104  8.08269221235572  -9.90865378516104  29.566667708392902  21.48776843564919  23.061207637650256  120.000000
0.6894  0.000000  0.000000  0.000000  -43.23950567782273  2.8772311145089287  -7.785052566844013  48.227390384940435  10.282336038266005  8.869238116826994  -8.27715458681213  32.598663894050596  18.52931878782221  22.753342674035768  120.000000
0.74685  0.000000  0.000000  0.000000  -44.53797483216506  4.314583040732686  -7.033566818594359  48.30895288689894  10.902946014670173  9.708627700776491  -6.943761468229916  35.36745339801294  15.71287706222132  22.34524906852967  120.000000
0.8043  0.000000  0.000000  0.000000  -45.79843831423919  5.85146851980878  -5.8714273699556845  48.510216285292515  11.55298445843809  10.58306833076098  -5.887277389105409  37.76450414318339  13.003141642416017  21.869911808142184  120.000000
0.86175  0.000000  0.000000  0.000000  -46.99306346550097  7.43096941770208  -4.280414738768706  48.8197092081807  12.242027358774832  11.481313707994762  -5.076022947038334  39.734259972506784  10.372729521110667  21.359205274884165  120.000000
0.9192  0.000000  0.000000  0.000000  -48.11870360705624  9.00069008059701  -2.2721777575832918  49.20851529178668  12.961034118754116  12.391517936010509  -4.471680710788669  41.279548233177564  7.819942696743798  20.84519932495284  120.000000
0.97665  0.000000  0.000000  0.000000  -49.18639102939931  10.511133888201169  0.11083260621213137  49.63099156889601  13.684963109528782  13.305220780110876  -4.041430012852603  42.45475107620257  5.38631404273368  20.351227257221876  120.000000
1.0341  0.000000  0.000000  0.000000  -50.21158883064163  11.9165663620526  2.79641658875669  50.039947469597664  14.378553865858946  14.213174477589192  -3.755707176132963  43.347346732184825  3.1535186139164413  19.890710623727077  120.000000
1.09155  0.000000  0.000000  0.000000  -51.20206704529208  13.174178045581407  5.686838907016194  50.39731819165793  15.002441638028767  15.104035894194476  -3.589687125339151  44.05900871600235  1.2270421920396262  19.464717927027753  120.000000
1.149  0.000000  0.000000  0.000000  -52.15482062609718  14.248254393808663  8.666832443518569  50.68333717857567  15.519698840108948  15.960319371054497  -3.5173876094506964  44.68596589029342  -0.2984857801460627  19.068153481041165  120.000000
1.20645  0.000000  0.000000  0.000000  -53.05617835268765  15.116375475329558  11.611626359144704  50.900252533689525  15.90292614271693  16.75635787721345  -3.50766762802752  45.30553065839154  -1.3757269140956785  18.695236548257927  120.000000
1.2639  0.000000  0.000000  0.000000  -53.88488005565463  15.7717409917645  14.39837324846092  51.06633304272337  16.140037445916786  17.459796626476276  -3.523573289218662  45.963559902977586  -2.028896090455044  18.344444935165725  120.000000
1.32135  0.000000  0.000000  0.000000  -54.61543171196406  16.22410343778078  16.91365994088806  51.20767507956465  16.23705412283085  18.03418802774155  -3.527076469152612  46.669620241314426  -2.3536134751102176  18.019600751007154  120.000000
1.3788  0.000000  0.000000  0.000000  -55.21938704913562  16.495873609487987  19.058920586953846  51.34614140047369  16.215069548953956  18.44532087350691  -3.487224150534629  47.39837642717399  -2.492370044946239  17.728283133176575  120.000000
1.43625  0.000000  0.000000  0.000000  -55.66787723562512  16.617971059035725  20.750470404528542  51.493734509250906  16.10259205281  18.665944795131473  -3.385773831282369  48.0988962333782  -2.5980103587797325  17.479548137749575  120.000000
1.4937  0.000000  0.000000  0.000000  -55.93372352542908  16.625481346550334  21.91774996047728  51.65122154244587  15.92580356085421  18.680066939675957  -3.2183954542368896  48.707671213971835  -2.8015671516917124  17.28153370711049  120.000000
1.55115  0.000000  0.000000  0.000000  -55.9963874883626  16.551682936712748  22.501616674900248  51.8131530167059  15.700472684526593  18.48472032213953  -2.9909997969112525  49.16280637962028  -3.1910451569906075  17.140679500182845  120.000000
1.6086  0.000000  0.000000  0.000000  -55.845276319964164  16.42121667302418  22.456472204716135  51.972268649042334  15.428190147183896  18.09155727876106  -2.714693294389754  49.41626381957661  -3.804990918381663  17.06087211998492  120.000000
1.66605  0.000000  0.000000  0.000000  -55.48151079124788  16.240793447789276  21.75719603642239  52.12118029039418  15.09918143425175  17.52822923379859  -2.400045521928214  49.44241737681984  -4.635650210667417  17.042405057159183  120.000000
1.7235  0.000000  0.000000  0.000000  -54.916541478256576  15.992448840739131  20.409516392744933  52.24990346121995  14.699969448483365  16.837853320427794  -2.0535268812112597  49.24074370357434  -5.639017267283968  17.07895140886015  120.000000
1.78095  0.000000  0.000000  0.000000  -54.17210470139077  15.634367858599516  18.45884871635961  52.3440697216961  14.223436609315415  16.073607869954735  -1.678786352819515  48.83221406821943  -6.745264212151653  17.154531501816265  120.000000
1.8384  0.000000  0.000000  0.000000  -53.28166888976926  15.112712949688332  15.99228448267145  52.38536060951595  13.675772117949595  15.287893763087013  -1.2834807171529636  48.2483152442016  -7.870183487749758  17.244425044386432  120.000000
1.89585  0.000000  0.000000  0.000000  -52.29073278738913  14.379597609551247  13.1330340983364  52.353612991956325  13.078020318428926  14.52361730282126  -0.8861364859683806  47.516429484943814  -8.926739419595242  17.320749845322688  120.000000
1.9533  0.000000  0.000000  0.000000  -51.25093915059099  13.411253899489305  10.027305544584612  52.23031711039555  12.46460212852982  13.808565918188684  -0.5191997944858555  46.64752269392216  -9.839878208181412  17.360836999656108  120.000000
2.01075  0.000000  0.000000  0.000000  -50.210689940982064  12.217379397110026  6.828533346404161  52.001489417172266  11.879113264437516  13.15498330188173  -0.22697919621861923  45.6285223443785  -10.5593019387078  17.353470399723868  120.000000
2.0682  0.000000  0.000000  0.000000  -49.204456764454896  10.840183305441405  3.6813549471404166  51.661919445820565  11.369904412136181  12.562318544442583  -0.05825032478012323  44.42254719395552  -11.067739497539693  17.29936057198989  120.000000
2.1256500000000003  0.000000  0.000000  0.000000  -48.24538797933843  9.345299882390044  0.7100802435667625  51.21986918426668  10.984289517687333  12.021407656496423  -0.055842515020060914  42.97494578213063  -11.375980550325105  17.205165349483654  120.000000
2.1831  0.000000  0.000000  0.000000  -47.325384352734375  7.807182853327448  -1.988576586733065  50.69693645659925  10.759989695418607  11.521431791915587  -0.2501126590641315  41.22568119111914  -11.502426104602728  17.073692290690683  120.000000
2.24055  0.000000  0.000000  0.000000  -46.42082511181907  6.299934204619114  -4.350631874920185  50.126170278200085  10.714314560149193  11.053514781076847  -0.6570026777857183  39.12621870027897  -11.443112002333423  16.896077559506395  120.000000
2.298  0.000000  0.000000  0.000000  -45.50340591733895  4.885817382157521  -6.344267356464069  49.54564107720793  10.835861146750116  10.617154464952236  -1.2802000166373113  36.66101566573189  -11.150257640965512  16.652384914916407  120.000000
2.3554500000000003  0.000000  0.000000  0.000000  -44.55121465566701  3.6101065793060085  -7.970661089833803  48.998683024717984  11.0814528009397  10.2168609834043  -2.1155020519736834  33.86368970453609  -10.530007766369152  16.32153097354587  120.000000
2.4129  0.000000  0.000000  0.000000  -43.56031739125883  2.4906445602051135  -9.256324327319149  48.52632929050067  11.382196679070942  9.86416952142215  -3.16161873680483  30.81979893570914  -9.455586517921477  15.895409517557791  120.000000
2.47035  0.000000  0.000000  0.000000  -42.551684268625166  1.5286939884252582  -10.238111836609677  48.161684807429026  11.668272913951894  9.571939774658592  -4.43093394998942  27.66483681937506  -7.7886365111151425  15.39367417689288  120.000000
2.5278  0.000000  0.000000  0.000000  -41.557224929985175  0.726538011015109  -10.952931479852742  47.93421127161568  11.892094727457112  9.339594192057838  -5.953897353471855  24.56074305103289  -5.40341125571087  14.865459035887321  120.000000
2.5852500000000003  0.000000  0.000000  0.000000  -40.61005429049881  0.06927193377707239  -11.429787646211812  47.8627106716032  12.027255200238573  9.160887152613837  -7.768290879419354  21.652709984538017  -2.2130134663145498  14.37624311417442  120.000000
2.6427  0.000000  0.000000  0.000000  -39.733608276247466  -0.46761784602401946  -11.68904046267906  47.95436111707097  12.066418005816113  9.029472058262524  -9.880216269689965  19.038759072509226  1.7806214292320008  13.988648214418445  120.000000
2.70015  0.000000  0.000000  0.000000  -38.94485395518454  -0.8991704197149207  -11.746479954151681  48.205125818801555  12.019791672664278  8.935653292572164  -12.202985156542917  16.764034674680378  6.418362645924271  13.747695915862792  120.000000
2.7576  0.000000  0.000000  0.000000  -38.266497401587394  -1.2308753814954903  -11.618561312779596  48.58894522201659  11.903643164421027  8.870967326049835  -14.522038479926126  14.82121166076741  11.350614270695194  13.673886748000944  120.000000
2.8150500000000003  0.000000  0.000000  0.000000  -37.7262745042103  -1.46079156354294  -11.33098527334372  49.06077930152936  11.733572180752942  8.822759232671386  -16.517740839023116  13.160522836789369  16.08040939768911  13.766614534303143  120.000000
2.8725  0.000000  0.000000  0.000000  -37.34967437962936  -1.587731330204021  -10.918571624699945  49.56040834087732  11.523091826128464  8.775428945139435  -17.85597128833527  11.712389182605422  20.088137903901526  14.010947694916817  120.000000
2.92995  0.000000  0.000000  0.000000  -37.14445265897642  -1.6166775487588811  -10.41989763080471  50.02531719566202  11.286147685715386  8.712327365403302  -18.279120635727942  10.41438154999643  22.959637897368363  14.379950909343803  120.000000
2.9874  0.000000  0.000000  0.000000  -37.09356418092111  -1.5596446507816615  -9.872088043214989  50.40549742233005  11.038848454854712  8.61668901408415  -17.656240197737947  9.229948542576455  24.46196315651264  14.83475197979547  120.000000
3.0448500000000003  0.000000  0.000000  0.000000  -37.161271229094226  -1.4353714620327005  -9.305912909868141  50.669451284826906  10.79961880012596  8.475587494668671  -15.980483764719944  8.152500217798872  24.545497733165288  15.328406018108916  120.000000
3.1023  0.000000  0.000000  0.000000  -37.306069010103975  -1.2642939834406353  -8.743918522821339  50.80852905891971  10.58813093597783  8.282567807718513  -13.31592945810709  7.196261516347346  23.280568819566632  15.817303707728122  120.000000
3.15975  0.000000  0.000000  0.000000  -37.49113202026019  -1.066506857748297  -8.202034900840713  50.83391825152429  10.420954796042432  8.039549053829488  -9.774547111306841  6.382060708302873  20.819561997774013  16.271523612164895  120.000000
3.2172  0.000000  0.000000  0.000000  -37.687531495990676  -0.8614962809669165  -7.693745258343017  50.77164192487534  10.30672252036476  7.756132327963727  -5.533293966488414  5.72386000351215  17.401117696222883  16.68126612686195  120.000000
3.2746500000000003  0.000000  0.000000  0.000000  -37.87180663179397  -0.6686341707882719  -7.231196510119894  50.65369413680276  10.244453458976375  7.449847469022892  -0.8609799776174786  5.221204756816024  13.365237961774215  17.05406201857718  120.000000
3.3321  0.000000  0.000000  0.000000  -38.025154258223345  -0.506040292215061  -6.824558274658572  50.51040768815344  10.226038053171818  7.144284107378799  3.9145403779875525  4.859285914621282  9.10910626168881  17.40664451020173  120.000000
3.38955  0.000000  0.000000  0.000000  -38.133867820441814  -0.38540359415091663  -6.482882581082594  50.3693824425513  10.239358414967477  6.862596708465849  8.520318634422662  4.614631790313633  4.962133553050814  17.75543188838504  120.000000
3.447  0.000000  0.000000  0.000000  -38.19381369268424  -0.31169331766314906  -6.213413753127125  50.24964012714927  10.272077389964137  6.623802630284826  12.794195528585046  4.463264698134272  1.1225817466608594  18.110512128900066  120.000000
3.5044500000000003  0.000000  0.000000  0.000000  -38.21234088098521  -0.28346785548409226  -6.021316665614118  50.157669923069186  10.315351741842397  6.441395259296251  16.65322028331396  4.386241247191171  -2.311138527697748  18.474367213831485  120.000000
3.5619  0.000000  0.000000  0.000000  -38.202071082673065  -0.2908281980611611  -5.911122700285309  50.09292289575394  10.365840737456661  6.321109100794538  20.065889378369672  4.372330880574397  -5.306452393332266  18.844963435397673  120.000000
3.61935  0.000000  0.000000  0.000000  -38.17516059860559  -0.31798186240403536  -5.886691176705365  50.05051237896582  10.424553050179442  6.263105771327062  23.01168259648984  4.417222207412813  -7.847956794727275  19.219073202130875  120.000000
3.6768  0.000000  0.000000  0.000000  -38.14038759272648  -0.35017153579480265  -5.951184053042877  50.02046709469745  10.493320428122129  6.266237750339279  25.451464088651857  4.519411770823679  -9.901778424080092  19.594178359299594  120.000000
3.7342500000000003  0.000000  0.000000  0.000000  -38.10036921323065  -0.37772521781131807  -6.107697599887039  49.989299746450335  10.571648036474285  6.330690730471543  27.34630952749076  4.67704373736684  -11.43089859852789  19.969258319903226  120.000000
3.7917  0.000000  0.000000  0.000000  -38.05163354662626  -0.3961402896984786  -6.35955774820301  49.94360868048091  10.656503098777206  6.457453967330577  28.680483313772367  4.88908811300504  -12.417562068773238  20.34487163739199  120.000000
3.84915  0.000000  0.000000  0.000000  -37.985902398090616  -0.4040444343163541  -6.709725563498784  49.872538833406665  10.74405399006283  6.647064691423833  29.447876445849797  5.157990649376671  -12.84994388979987  20.721906443540448  120.000000
3.9066  0.000000  0.000000  0.000000  -37.892227657116095  -0.40198833785710825  -7.1594089554348805  49.768601003713115  10.831984165550661  6.898928776493626  29.626879207592342  5.4921948410879615  -12.697650832650409  21.100167967597226  120.000000
3.9640500000000003  0.000000  0.000000  0.000000  -37.75806434725354  -0.39143657592036507  -7.707459338942059  49.62886798640988  10.920935212953543  7.210365025650882  29.184612115404327  5.907848259181789  -11.91720047026071  21.47754891999048  120.000000
4.0215  0.000000  0.000000  0.000000  -37.5721141430591  -0.37558448822835316  -8.35103678857406  49.45487549669171  11.013838889040544  7.5760465931308305  28.117502005826726  6.429584245869044  -10.496697795480626  21.849897155738024  120.000000
4.07895  0.000000  0.000000  0.000000  -37.3278074252363  -0.36111892149476954  -9.086951228276453  49.25222048878816  11.113320501969378  7.988484315093238  26.51454847336561  7.090142509178264  -8.525464107013008  22.210302621074128  120.000000
4.1364  0.000000  0.000000  0.000000  -37.02831607904872  -0.3608785389178694  -9.91234431264556  49.03074993791392  11.218943329835312  8.439333934571962  24.598954141782166  7.92914148693997  -6.2436356819024725  22.547378734866598  120.000000
4.19385  0.000000  0.000000  0.000000  -36.6888986668525  -0.39306873353145416  -10.822378842092103  48.80481237352305  11.327174570723338  8.921546971545096  22.69335048508105  8.98942138273335  -4.011890118188675  22.843947782716842  120.000000
4.2513000000000005  0.000000  0.000000  0.000000  -36.33639670822961  -0.47860194126494526  -11.804725382966385  48.59082850446289  11.434231535720711  9.431732847092285  21.106981929714564  10.310499244298422  -2.1969299865747645  23.078916055529913  120.000000
4.30875  0.000000  0.000000  0.000000  -36.00255589407224  -0.633860996306375  -12.836061530021732  48.41129400086244  11.540801092544283  9.966609274447045  20.037424846202953  11.922808855263709  -1.0641297798967082  23.235085694725985  120.000000
4.3662  0.000000  0.000000  0.000000  -35.720633830989684  -0.8582697076454756  -13.878657067989453  48.29783818231391  11.659362234145826  10.518194925325213  19.536212702692662  13.848658598874572  -0.7328437315745684  23.31186643812372  120.000000
4.42365  0.000000  0.000000  0.000000  -35.525272812783065  -1.1143389294526673  -14.875470088532584  48.28467294190784  11.822480270137444  11.072409062270482  19.523353392657  16.10584541270388  -1.179182977299098  23.33644533201552  120.000000
4.4811  0.000000  0.000000  0.000000  -35.45394440432001  -1.33694413770753  -15.748479113754858  48.39475396478713  12.077999294977037  11.618614992519014  19.85045878644924  18.700587178494427  -2.2898054199298454  23.36103066463371  120.000000
4.53855  0.000000  0.000000  0.000000  -35.542701435851974  -1.470153623296867  -16.405861865519082  48.62476543673584  12.464796065658009  12.165447192915824  20.362838509068844  21.5992375318317  -3.9150150345954677  23.444212773885848  120.000000
4.596  0.000000  0.000000  0.000000  -35.806520690930896  -1.4627835963023288  -16.7620797701403  48.96368133282577  13.003755257055928  12.720907835031758  20.936760713549162  24.717184055443887  -5.903306068881533  23.62579738968676  120.000000
4.65345  0.000000  0.000000  0.000000  -36.225075881201874  -1.2500831741357115  -16.752456413192903  49.41326045180555  13.70588299687366  13.261132169619799  21.480228590543597  27.939502606267588  -8.111364097918699  23.901257142985784  120.000000
4.7109000000000005  0.000000  0.000000  0.000000  -36.75485602107456  -0.7736424782995599  -16.328230136329942  49.962099230625  14.560642864364402  13.753192225938784  21.921815525947128  31.13148622404845  -10.395546834170066  24.217552893047362  120.000000
4.76835  0.000000  0.000000  0.000000  -37.35661831739733  -0.015421971172071579  -15.45095831416687  50.565432738794044  15.520281196684518  14.190350189594843  22.224262773715274  34.153942237160706  -12.633186418096741  24.49469014137712  120.000000
4.8258  0.000000  0.000000  0.000000  -38.00570547563313  1.0057385974431954  -14.100460597399815  51.175661404101945  16.51006320037136  14.579266329004211  22.39501186831817  36.89590405822789  -14.749949766203924  24.655189431933476  120.000000
4.88325  0.000000  0.000000  0.000000  -38.70761214405747  2.250700849955284  -12.27555951866473  51.75973260797517  17.444664848684475  14.929373617340591  22.471663754897527  39.29981963713194  -16.723991369890904  24.648077004143392  120.000000
4.9407  0.000000  0.000000  0.000000  -39.49844684206249  3.6654271556297724  -9.987657164690939  52.29680053844129  18.243915385397376  15.251990885390871  22.499334829906893  41.36613646765621  -18.574826331632373  24.45431291356372  120.000000
4.99815  0.000000  0.000000  0.000000  -40.42631853080847  5.185694566674883  -7.260624686573534  52.77749185753035  18.846087658927402  15.556172371354188  22.516913564038855  43.139586853856954  -20.34244426147462  24.07949089706064  120.000000
5.0556  0.000000  0.000000  0.000000  -41.53043107637221  6.738650024359262  -4.136524316425227  53.19808619756219  19.21629608512593  15.847533913378463  22.54868840080147  44.68520867779966  -22.062036194865772  23.54554327419628  120.000000
5.11305  0.000000  0.000000  0.000000  -42.82137196279273  8.246306038185224  -0.6872969199857148  53.55668285590261  19.349634902387994  16.126053674244613  22.601707064689272  46.0663405626581  -23.74555465935161  22.88845779210349  120.000000
5.1705000000000005  0.000000  0.000000  0.000000  -44.27214193411578  9.628803583227  2.9765941796422273  53.85105420506058  19.26702538342045  16.38658614491175  22.66779871832926  47.330837162520496  -25.378292074803934  22.158330381413432  120.000000
5.22795  0.000000  0.000000  0.000000  -45.8176034057765  10.816790814677889  6.706548887798429  54.0820064100512  19.00835516264972  16.615923924299516  22.72820764881086  48.5074362925479  -26.929155139735197  21.413594731894285  120.000000
5.2854  0.000000  0.000000  0.000000  -47.36381761238117  11.762554662178188  10.32752579158679  54.25626157833037  18.622119277596546  16.793655808496915  22.760179382899434  49.608050934617076  -28.365243898599413  20.7100430535734  120.000000
5.34285  0.000000  0.000000  0.000000  -48.80112238903971  12.448560380736794  13.656104934194854  54.3875651702091  18.15691347503522  16.894663253295555  22.743598724277188  50.62862883857423  -29.66012209364529  20.088065721124938  120.000000
5.4003  0.000000  0.000000  0.000000  -50.02001479973671  12.888548195372792  16.517500218071582  54.495460112364775  17.65507382910766  16.892787685390743  22.666354419175914  51.55028700360501  -30.796011505779806  19.565574996236666  120.000000
5.45775  0.000000  0.000000  0.000000  -50.924494627404854  13.117166574084374  18.759063744022292  54.60034126530931  17.15003913607498  16.766159605289197  22.525546369895523  52.339922453061234  -31.76259858561436  19.142235910472913  120.000000
5.5152  0.000000  0.000000  0.000000  -51.44130517781541  13.17624280936678  20.2588366105769  54.71888726695633  16.667451139208396  16.500056289721016  22.324770754872237  52.95394479239639  -32.555967826891866  18.811402580561126  120.000000
5.57265  0.000000  0.000000  0.000000  -51.52394122687605  13.096687312197773  20.93083041555631  54.858529692959685  16.225757539242238  16.09189728866845  22.070189009294374  53.343436609871006  -33.17745008319665  18.572809875906277  120.000000
5.6301000000000005  0.000000  0.000000  0.000000  -51.15390774586121  12.88661729769668  20.727669268421398  55.01466090644549  15.836522562527204  15.55309349387075  21.76737308333581  53.45927366413951  -33.631040991155814  18.43963016397896  120.000000
5.68755  0.000000  0.000000  0.000000  -50.34292651556096  12.527142095970213  19.642214466970245  55.168802143700724  15.50280928952853  14.909904901839521  21.42015210919742  53.25616316432783  -33.91625813112397  18.436004679977675  120.000000
5.745  0.000000  0.000000  0.000000  -49.1368002831045  11.977706339572652  17.710094234889233  55.2878510198583  15.218755657793999  14.202160945760031  21.03035284775105  52.69661378528973  -34.018867166045645  18.583271766771908  120.000000
5.80245  0.000000  0.000000  0.000000  -47.61796464936911  11.190555603990632  15.01318897021088  55.325494798000804  14.97322786211414  13.480018857870954  20.597012289776817  51.7566272608545  -33.90468540123264  18.877980218918648  120.000000
5.8599  0.000000  0.000000  0.000000  -45.90167888350062  10.128701448177116  11.680639711685053  55.22690098361284  14.755506921197888  12.801269708293791  20.116720182116758  50.43196373474856  -33.52237221011189  19.272918988723077  120.000000
5.91735  0.000000  0.000000  0.000000  -44.12198307351525  8.78840936424322  7.880890945271736  54.940476066348324  14.560482975422463  12.224638291385576  19.586243006859036  48.741045935887655  -32.817160525334366  19.677736511790567  120.000000
5.9748  0.000000  0.000000  0.000000  -42.408110084022276  7.2111269322274625  3.805143780068724  54.43265568178602  14.390302260535494  11.803193633475747  19.009822865137522  46.721770202769  -31.752932295268895  19.983265398222294  120.000000
6.03225  0.000000  0.000000  0.000000  -40.85971527278566  5.482705288976395  -0.3536407609411452  53.70226404334962  14.253974245700523  11.575204469795873  18.408396754050727  44.42490124506248  -30.33438873795304  20.095595229758665  120.000000
6.089700000000001  0.000000  0.000000  0.000000  -39.5339067847119  3.7170724875832453  -4.416801913692339  52.7872272149443  14.167654696889423  11.555369639214657  17.826157792439336  41.905089690014925  -28.62064904239963  19.964351815920214  120.000000
6.14715  0.000000  0.000000  0.000000  -38.44779894183262  2.033910254111245  -8.228949375921104  51.75859183748211  14.153846024582585  11.731366428107252  17.331282789461138  39.21384383394606  -26.725939943764697  19.589702882937207  120.000000
6.2046  0.000000  0.000000  0.000000  -37.59264124114627  0.5408204300336685  -11.661661244854905  50.70655150721738  14.238121130466421  12.066484632145826  17.01330210394079  36.39625446753131  -24.80748336968908  19.009261876643546  120.000000
6.26205  0.000000  0.000000  0.000000  -36.945758390078566  -0.6792948389325711  -14.615933713042965  49.72012202473435  14.440594110246018  12.509826332111585  16.976504477398112  33.491456637275114  -23.042429586725063  18.28112644050747  120.000000
6.3195  0.000000  0.000000  0.000000  -36.477990179584545  -1.5741896840040266  -17.027026146459068  48.873852800601405  14.76419515736573  13.00608495745516  17.333830783995857  30.538179301376857  -21.601058730619645  17.477984607487386  120.000000
6.37695  0.000000  0.000000  0.000000  -36.15254173800198  -2.1308447394663506  -18.86790569215092  48.22031672740391  15.186401148875314  13.504383450979367  18.198600804052745  27.58186571386934  -20.625250675014208  16.68369533428606  120.000000
6.4344  0.000000  0.000000  0.000000  -35.93879182903904  -2.38366644509806  -20.144311254148693  47.77476095352536  15.6574508852846  13.974513093813519  19.66565042240605  24.679766189405253  -20.212223282841865  15.985538877929516  120.000000
6.49185  0.000000  0.000000  0.000000  -35.82483018940172  -2.393462030017866  -20.890448701291522  47.51942152527497  16.11805583234175  14.398567924322013  21.784891395898953  21.907706257503705  -20.405740052677963  15.460836956809617  120.000000
6.549300000000001  0.000000  0.000000  0.000000  -35.80132283753238  -2.2156873065150426  -21.170858394782933  47.43624942033934  16.520720626750386  14.737888788604533  24.543630371904534  19.35035997768324  -21.20070230337567  15.159120370371394  120.000000
6.60675  0.000000  0.000000  0.000000  -35.863469207646  -1.913759371249525  -21.070171146754163  47.50492266045791  16.826997469429326  14.9465172571333  27.856756707145944  17.06402934700728  -22.54319409323904  15.093218723775292  120.000000
6.6642  0.000000  0.000000  0.000000  -36.003298629636085  -1.5641907993306297  -20.670474653712457  47.68422986084243  17.007888003646265  15.00404896920679  31.573890800061843  15.059724300218079  -24.336014076546608  15.242970821944954  120.000000
6.72165  0.000000  0.000000  0.000000  -36.20356539249929  -1.224000231631474  -20.041495380162928  47.929437820975004  17.054807533523395  14.909706987347963  35.51881901519238  13.324140619409464  -26.464515180885503  15.568748640319168  120.000000
6.7791  0.000000  0.000000  0.000000  -36.4434116788581  -0.9226625813592425  -19.24381452502202  48.20435603442064  16.975050039650675  14.673220981688518  39.517397749611085  11.832589698552633  -28.80659189522651  16.015263758371745  120.000000
6.83655  0.000000  0.000000  0.000000  -36.69873215990015  -0.6734142540258583  -18.331087736922907  48.48289336783452  16.780475222432  14.314130376933688  43.41817971771094  10.550745040657622  -31.24000310463169  16.508500051634506  120.000000
6.894  0.000000  0.000000  0.000000  -36.94425434149968  -0.47965191402124113  -17.349733694955948  48.74932032973816  16.483431266156575  13.85857636105945  47.10885208387761  9.43946474443372  -33.657763350619476  16.962013986502164  120.000000
6.95145  0.000000  0.000000  0.000000  -37.155563949529316  -0.33792410744694545  -16.337999261589143  48.997653782106006  16.098588951229864  13.333639286245932  50.52441111668179  8.4628470974757  -35.98625910771332  17.295200010826782  120.000000
7.008900000000001  0.000000  0.000000  0.000000  -37.31576482678615  -0.24028735648800273  -15.32544334409521  49.22758726144204  15.643409737118207  12.76451816924597  53.6475061473982  7.595010428695742  -38.19741307514141  17.461340358472548  120.000000
7.06635  0.000000  0.000000  0.000000  -37.423467973943644  -0.17759424118795225  -14.333000682383778  49.436380752808724  15.137527327016226  12.173270008865735  56.47837976539415  6.821420978653658  -40.28790266809847  17.46881120396937  120.000000
7.1238  0.000000  0.000000  0.000000  -37.49365669485465  -0.14140365391722892  -13.373776252675736  49.61698612041166  14.60161178788937  11.577767129507158  59.00791149515535  6.137691221447168  -42.254069975398494  17.378434815975492  120.000000
7.18125  0.000000  0.000000  0.000000  -37.54688565851493  -0.12315682321458093  -12.45537259956743  49.76487206105559  14.056304060879505  10.989769787477346  61.21182405642776  5.546581706926909  -44.07979204465105  17.276095229761165  120.000000
7.2387  0.000000  0.000000  0.000000  -37.6005595426776  -0.11451082846849084  -11.582127542844109  49.881988649552596  13.521006628097226  10.414807593020425  63.03649818806791  5.052581805886571  -45.713037916206055  17.237189276922827  120.000000
7.29615  0.000000  0.000000  0.000000  -37.663446852729535  -0.1095541205683876  -10.755978072315234  49.97230710721032  13.009702046631089  9.858592547663864  64.39948983430241  4.652499455466921  -47.05719725054352  17.298648479124683  120.000000
7.3536  0.000000  0.000000  0.000000  -37.73332431353976  -0.10594040498649254  -9.97744800320539  50.039434851299404  12.529426531282802  9.330148235943403  65.21763384529487  4.332016749391749  -47.997091648880115  17.4535260767847  120.000000
7.41105  0.000000  0.000000  0.000000  -37.800924486168356  -0.10252070342209604  -9.247585998660595  50.09027726119869  12.083294632075388  8.837247022362877  65.42803608324068  4.071861097466678  -48.427832693706954  17.66783221876306  120.000000
7.468500000000001  0.000000  0.000000  0.000000  -37.85411530270161  -0.09649693713881552  -8.569033377734288  50.13480723122827  11.672390329805427  8.383796547608423  65.00247177330324  3.8527968215381256  -48.279495203517804  17.903470586940074  120.000000
7.52595  0.000000  0.000000  0.000000  -37.88554046349781  -0.08575122105741646  -7.94499846133274  50.179671872593524  11.295826216248296  7.972133004300052  63.946889796098056  3.6582581326861714  -47.525406730921695  18.13418066686847  120.000000
7.5834  0.000000  0.000000  0.000000  -37.89635747678881  -0.07058502449172394  -7.378129028315929  50.22594269142938  10.951656689848773  7.604178905141254  62.2926078658852  3.476481256244287  -46.177330094036925  18.3511054657092  120.000000
7.64085  0.000000  0.000000  0.000000  -37.89344926676808  -0.052716236100552545  -6.869952848583539  50.27114855261059  10.638275947707626  7.281066213145934  60.08382236750577  3.300334774814505  -44.271035593540084  18.557928493717593  120.000000
7.6983  0.000000  0.000000  0.000000  -37.886468989930876  -0.03433003242824416  -6.420794088591408  50.31202399478598  10.355507797328572  7.002365690137258  57.35241538859174  3.1262988604651483  -41.83710352389035  18.762078860365595  120.000000
7.75575  0.000000  0.000000  0.000000  -37.88414817291458  -0.01641512174751685  -6.029819509337216  50.34704051457869  10.105263166464912  6.765598758744813  54.09612954848316  2.953924064042903  -38.87520336116434  18.967929273779795  120.000000
7.8132  0.000000  0.000000  0.000000  -37.892904063415024  0.0002957450165000571  -5.695433826405865  50.37790719126814  9.890883709033536  6.56677710534355  50.28681384183856  2.786406843830538  -35.35987221853504  19.174542014974193  120.000000
7.87065  0.000000  0.000000  0.000000  -37.91561488936963  0.013262506745694425  -5.41630781738234  50.409783215583595  9.71532535181639  6.401657069782937  45.92168882876983  2.6298780322302973  -31.289847761668582  19.377683571050973  120.000000
7.928100000000001  0.000000  0.000000  0.000000  -37.95249125376415  0.015975424343135473  -5.191461703915917  50.44821961680971  9.580330846741406  6.267048074417381  41.05712098138065  2.491045034898516  -26.72082163242588  19.574203888094605  120.000000
7.98555  0.000000  0.000000  0.000000  -38.00149415380024  -0.001517270712807464  -5.0198316468234525  50.49566635435535  9.486329299902845  6.161555777363345  35.800023171568725  2.3742807404409487  -21.75578332861431  19.766522357682568  120.000000
8.043  0.000000  0.000000  0.000000  -38.057158348677405  -0.0494859131133675  -4.901102875808344  50.552473578208605  9.433187880425926  6.083043599677347  30.28517986323247  2.281377308334062  -16.522317564870924  19.96549976246839  120.000000
8.10045  0.000000  0.000000  0.000000  -38.109577362749775  -0.1338434920910259  -4.836500595243908  50.61747852622841  9.421538859954724  6.025851852810711  24.624709099577142  2.213378787238291  -11.12366172125069  20.187273621503383  120.000000
8.1579  0.000000  0.000000  0.000000  -38.1490611257237  -0.2520882937286129  -4.827264003801386  50.67697786050559  9.453194044167702  5.983911854602253  18.76066980371409  2.172102801965135  -5.495072303789013  20.44267736981538  120.000000
8.21535  0.000000  0.000000  0.000000  -38.17191459954653  -0.3932199375810574  -4.875536832893354  50.698626912391425  9.530257371085586  5.9532561688020005  12.483160327317059  2.165161094998144  0.5734874592037155  20.72386483291595  120.000000
8.2728  0.000000  0.000000  0.000000  -38.176862274407846  -0.5357397028026746  -4.990317952901649  50.64467495372197  9.653250072734057  5.927951874719937  5.838949350511271  2.208830110576934  7.025102812028597  20.99664611900451  120.000000
8.33025  0.000000  0.000000  0.000000  -38.16482785518236  -0.6500959498330473  -5.1884247114287225  50.48185288178734  9.8209576864179  5.898553066622609  -0.6191816675121846  2.3224035518288715  13.28806383188642  21.20531086080536  120.000000
8.3877  0.000000  0.000000  0.000000  -38.13752273391361  -0.7118594100747534  -5.488124739781069  50.18314684992682  10.030282202555254  5.859411639824427  -5.992446147278353  2.5176777956469794  18.44512679980394  21.29167572507454  120.000000
8.44515  0.000000  0.000000  0.000000  -38.088007375415614  -0.7148594019822944  -5.904002035405399  49.74195045374326  10.275162505973125  5.815147145926955  -9.270114381530021  2.7908839704531783  21.482797053439295  21.225660678614666  120.000000
8.502600000000001  0.000000  0.000000  0.000000  -37.99796696989103  -0.6776520414615055  -6.442911016139508  49.17917666401133  10.54732007708107  5.782797933676136  -9.678548792623177  3.1271263238712304  21.6519005159172  21.029646409541886  120.000000
8.56005  0.000000  0.000000  0.000000  -37.847370476031806  -0.635071734015995  -7.102894849840142  48.53795603059213  10.837817616140647  5.786478865023477  -6.852029240876474  3.52234363168211  18.637313801318225  20.77867650436327  120.000000
8.6175  0.000000  0.000000  0.000000  -37.62274308695273  -0.6195190602243134  -7.8744668034464285  47.881048289575766  11.137660963791435  5.844842966268516  -0.7510732794573319  4.009771703925693  12.458754168450065  20.5749751914002  120.000000
8.67495  0.000000  0.000000  0.000000  -37.32310134831829  -0.6538916677927368  -8.735966158569196  47.274323197900074  11.441672865608597  5.9686225856616035  8.156145276720215  4.680721765756237  3.625111444299413  20.50814258615658  120.000000
8.7324  0.000000  0.000000  0.000000  -36.9701777213145  -0.7489212146763978  -9.650236999756906  46.760127747190666  11.75306933933052  6.1660908809043695  18.59414536652197  5.680535168553052  -6.590092298073182  20.61889030485558  120.000000
8.78985  0.000000  0.000000  0.000000  -36.6048679659668  -0.8950239806304958  -10.576401509165564  46.35326853266999  12.081467928373645  6.437103141277606  28.858221041350973  7.159715256427136  -16.531850936536397  20.88593812619102  120.000000
8.8473  0.000000  0.000000  0.000000  -36.274668639844  -1.0668141647363547  -11.484015443793258  46.053865212907496  12.436113426890993  6.767104909564651  37.747579452457764  9.21920259885654  -25.07978463413914  21.245077258197412  120.000000
8.90475  0.000000  0.000000  0.000000  -36.02012600950338  -1.235053352164917  -12.354456316181905  45.855481881083215  12.82063547924435  7.132788281279884  44.90692905541385  11.895335530656745  -31.961230363765953  21.620635619885665  120.000000
8.9622  0.000000  0.000000  0.000000  -35.86815817447428  -1.3748929884093042  -13.174453965622842  45.74358698637213  13.230513479162045  7.511359537233969  50.49340348591526  15.16981646421285  -37.39274897766653  21.950644818151208  120.000000
9.01965  0.000000  0.000000  0.000000  -35.83184398371039  -1.4679789714197333  -13.929590409358756  45.69569308522518  13.652519111165994  7.886230042746006  54.824582780692204  18.982654830923757  -41.713056885979135  22.19992251721285  120.000000
9.0771  0.000000  0.000000  0.000000  -35.91054966319442  -1.506271006585172  -14.598991894715803  45.69139386869198  14.069424325744299  8.246986365535745  58.213938279162456  23.253013804961224  -45.21962862707115  22.358827011623482  120.000000
9.13455  0.000000  0.000000  0.000000  -36.09400210032916  -1.4923353929343761  -15.152108360656255  45.721413999711444  14.470159829946162  8.582345899998678  60.908483242855745  27.89912656110788  -48.118313985846946  22.43129602592732  120.000000
9.192  0.000000  0.000000  0.000000  -36.366454886274546  -1.4268177410102914  -15.551176750965936  45.78817798988539  14.853964270992952  8.872630206166166  63.08428208359617  32.843510723374756  -50.53171209839807  22.421465895308504  120.000000
9.24945  0.000000  0.000000  0.000000  -36.70726140493322  -1.308691556605499  -15.752403335699066  45.899328504979266  15.227434570760964  9.092318095486473  64.86849904511645  38.01226333053217  -52.531316959434825  22.324922725920672  120.000000
9.3069  0.000000  0.000000  0.000000  -37.09009650716196  -1.1379587416670571  -15.70965587918256  46.0631662956431  15.597963182753519  9.214711567318442  66.35766913298364  43.333640575081105  -54.16304474580389  22.129870980512568  120.000000
9.36435  0.000000  0.000000  0.000000  -37.485152054070085  -0.916235960063867  -15.382281362864163  46.285597594674385  15.966439212650172  9.213956137163917  67.62666595524357  48.73392889030379  -55.461319639975244  21.82514700599171  120.000000
9.421800000000001  0.000000  0.000000  0.000000  -37.865431795418985  -0.6501881688200384  -14.743734389451252  46.5676038138568  16.3215520324875  9.068030306314446  68.72996872348544  54.13448338613313  -56.45728478064863  21.41169027582111  120.000000
9.47925  0.000000  0.000000  0.000000  -38.21811572089869  -0.35323710967812816  -13.786713104496418  46.90067439327758  16.63857950732332  8.763121170556698  69.69971846515571  59.45068292283613  -57.182865380365115  20.911407268369107  120.000000
9.5367  0.000000  0.000000  0.000000  -38.54946538995429  -0.046281828790015314  -12.524808476135691  47.2633870230764  16.884247385077863  8.299534931900343  70.5456122546312  64.59280211587327  -57.672302321544  20.36477358102408  120.000000
9.59415  0.000000  0.000000  0.000000  -38.878519007018845  0.2438477350737302  -10.99215247177846  47.62535117470074  17.025033763070226  7.695040469335097  71.26394441584328  69.467504728417  -57.96223285370245  19.820419240860744  120.000000
9.6516  0.000000  0.000000  0.000000  -39.223294772111764  0.49285885407461366  -9.245475414837914  47.95513103986352  17.037931494967676  6.9800991840493625  71.84744423327541  73.97676017934383  -58.0891508890635  19.322931028509885  120.000000
9.70905  0.000000  0.000000  0.000000  -39.58733277646935  0.688109016219445  -7.367703042008326  48.228757076134414  16.917480971323474  6.1891075502376625  72.2936767313922  78.01492436666  -58.08782480271155  18.901810479254937  120.000000
9.7665  0.000000  0.000000  0.000000  -39.95222484643127  0.8286950504284543  -5.464019758415419  48.43751062001594  16.674747743887217  5.352090293216172  72.61036824963698  81.4717934675809  -57.990700267754235  18.573807302693684  120.000000
9.82395  0.000000  0.000000  0.000000  -40.28666532069866  0.923359358685832  -3.6506926711528473  48.58564015998901  16.330432032011895  4.494427398345662  72.81517484287959  84.24184798684239  -57.82715102128797  18.34767419723967  120.000000
9.8814  0.000000  0.000000  0.000000  -40.556943865699985  0.9806539839538462  -2.0437692277502175  48.680872048844705  15.906861684356079  3.6432086247392266  72.93038644491315  86.23447527296985  -57.62337046004163  18.225266368087198  120.000000
9.93885  0.000000  0.000000  0.000000  -40.73491143883038  1.0013756672440464  -0.7486197542126766  48.72861987659704  15.422414029294208  2.8322117426633504  72.97863915282552  87.38440901207707  -57.4026486522999  18.19748877225766  120.000000
9.9963  0.000000  0.000000  0.000000  -40.802001673061525  0.9784991691084336  0.14774867877572329  48.72981178507346  14.891420060686382  2.1011367891287858  72.97720354007367  87.65894423165587  -57.18551353743879  18.243849773612883  120.000000
10.05375  0.000000  0.000000  0.000000  -40.752678248210955  0.9036349028870914  0.5816634057569101  48.68166697825388  14.329495435688248  1.4909332383575595  72.93365748290994  87.06077040799165  -56.98704878165322  18.33599908855246  120.000000
10.1112  0.000000  0.000000  0.000000  -40.59535472792476  0.7733590613816176  0.5199837013211023  48.57812338178623  13.76255742838337  1.0392730437881228  72.8444310698225  85.62712616208799  -56.80882396471095  18.44405824853685  120.000000
10.16865  0.000000  0.000000  0.000000  -40.35086694084417  0.5898190250131159  -0.031084341591083045  48.40959164399252  13.235731256297331  0.7787837053728097  72.69602665089246  83.4265030490763  -56.626942793658735  18.54099369425756  120.000000
10.2261  0.000000  0.000000  0.000000  -40.04825620006251  0.3598406586160034  -1.0214799431066919  48.164864643927466  12.81218353718297  0.734771636530241  72.46703618510826  80.553154834219  -56.38776384379813  18.605304439607977  120.000000
10.28355  0.000000  0.000000  0.000000  -39.71644495476638  0.09240103822753183  -2.3655190377407846  47.83704570487046  12.55923508846356  0.920965096809953  72.13186979619981  77.1173626985156  -56.016594029834756  18.624237449687698  120.000000
10.341000000000001  0.000000  0.000000  0.000000  -39.377184135800256  -0.20115024968669096  -3.960799150161444  47.43048024892472  12.526748235916115  1.334828294256381  71.66693728597531  73.23360013754889  -55.43704233974299  18.600378476800667  120.000000
10.39845  0.000000  0.000000  0.000000  -39.039428860679266  -0.5084182779462564  -5.708244736329803  46.96269971261761  12.731591490446906  1.9548032993033093  71.05400381770104  69.00865607634216  -54.58886000464512  18.563054287161748  120.000000
10.4559  0.000000  0.000000  0.000000  -38.70163636208097  -0.8161216591223113  -7.525213797524248  46.460163026846054  13.153294256727287  2.7429810624983757  70.28139622821215  64.5344049337764  -53.438147574970365  18.57275045821578  120.000000
10.51335  0.000000  0.000000  0.000000  -38.359956710284585  -1.111047943805412  -9.346999882686195  45.95086551641729  13.745439906169805  3.6500091611025485  69.3378428392535  59.88717396380033  -51.971722551437594  18.710983793867296  120.000000
10.5708  0.000000  0.000000  0.000000  -38.01756667138767  -1.3809335373501908  -11.12202323433627  45.45510828633834  14.450630944417131  4.623688223823878  68.20238529347714  55.131273632055084  -50.185037286465715  19.05000027560317  120.000000
10.62825  0.000000  0.000000  0.000000  -37.68641179857457  -1.6164430379218302  -12.806037317077875  44.985310526247176  15.213919840525616  5.615250008473612  66.83560190308975  50.32585153067192  -48.06741199166649  19.620041084701608  120.000000
10.6857  0.000000  0.000000  0.000000  -37.383659065977845  -1.8124833765873667  -14.359429297632174  44.55123807730822  15.987085909520909  6.58526736431274  65.18094990813971  45.53224128807495  -45.59644026677684  20.388655861818187  120.000000
10.74315  0.000000  0.000000  0.000000  -37.12272559764569  -1.9695205374021896  -15.748920725055974  44.16720456679465  16.72815484439121  7.503344134423046  63.168879215570286  40.81604567035606  -42.7367623315287  21.268591238454707  120.000000
10.8006  0.000000  0.000000  0.000000  -36.90913494056449  -2.0955233915226614  -16.950937947111004  43.85198513701985  17.396732917251256  8.349876612323442  60.725858507471365  36.24524508348548  -39.44843806263975  22.14805423086866  120.000000
10.85805  0.000000  0.000000  0.000000  -36.74050391653216  -2.202372440647943  -17.953401340835164  43.62639870074856  17.95491099734262  9.113986412731595  57.776921398224864  31.88648941521208  -35.689380430609184  22.9238284392782  120.000000
10.9155  0.000000  0.000000  0.000000  -36.61387982833906  -2.3014015059496313  -18.75390771350463  43.50562295938313  18.371288141186277  9.792669406883848  54.24458218168752  27.802397932988043  -31.417227178506035  23.521142722574698  120.000000
10.97295  0.000000  0.000000  0.000000  -36.52751045173556  -2.3994602886577203  -19.354311132929553  43.49854962643231  18.63040183406428  10.386439209762512  50.039455871536035  24.05235025149806  -26.57931426542191  23.894576916388292  120.000000
11.0304  0.000000  0.000000  0.000000  -36.487528770302774  -2.489400062834081  -19.754054597974044  43.60720417394949  18.739777483691825  10.897327560439635  45.06362306538234  20.696165155893535  -21.114648336041036  24.018290797181752  120.000000
11.08785  0.000000  0.000000  0.000000  -36.501571947890916  -2.5544414238708284  -19.94876340292347  43.83112589049701  18.72933831234024  11.325156374854489  39.233008755119776  17.78912068737443  -14.97036722949117  23.87264452068558  120.000000
11.1453  0.000000  0.000000  0.000000  -36.58114689058887  -2.572337861493221  -19.93483449306879  44.16945729773895  18.642781890166123  11.66784541892551  32.542033825599425  15.37235777693621  -8.163386867281046  23.43806537415483  120.000000
11.20275  0.000000  0.000000  0.000000  -36.73844920268369  -2.521078159170699  -19.713659691456368  44.619428835140646  18.53008829992272  11.920219494707949  25.111775746769048  13.462475800861418  -0.8266335202780709  22.689746724837082  120.000000
11.260200000000001  0.000000  0.000000  0.000000  -36.989534299759846  -2.380338135507981  -19.292868941713504  45.17536418495315  18.434023015153972  12.082261363150048  17.254047536703077  12.045443988410119  6.726426779109558  21.60044259347881  120.000000
11.31765  0.000000  0.000000  0.000000  -37.339049759033486  -2.1567070192293025  -18.69005752051956  45.8402530739593  18.37891641314899  12.162571174514463  9.4765123105267  11.067219533048036  14.000662775183715  20.150672469282497  120.000000
11.3751  0.000000  0.000000  0.000000  -37.77157914478083  -1.8898921133421867  -17.9367579609929  46.630464455720464  18.35816915160598  12.188629350574745  2.373468451979323  10.422520196332725  20.432064835392367  18.356168734041653  120.000000
11.43255  0.000000  0.000000  0.000000  -38.24752823375304  -1.6502557177508776  -17.080640274665654  47.55877775657206  18.339415670371224  12.20132246422695  -3.7230341438261862  9.969184069319253  25.736605628306574  16.293284132199425  120.000000
11.49  0.000000  0.000000  0.000000  -38.71538277868939  -1.5373947622467559  -16.180242550122863  48.61125560585954  18.256291754681378  12.269982363892144  -8.901897585236672  9.545869212260161  30.067900503464095  14.121637396401706  120.000000
