Simulation
nRows=201
nColumns=15
endheader
time  TH_x TH_y TH_z SC_y  SC_z  SC_x  AC_y  AC_z  AC_x  GH_y  GH_z  GH_yy  EL_x  PS_y
0.0  0.000000  0.000000  0.000000  -40.97484877243665  6.293857566463187  5.290427962726946  44.28803086296461  6.9146772867507575  -0.024603235945382745  175.19030584785548  6.723033117993765  -149.97037165487544  22.66363683885979  120.000000
0.05745  0.000000  0.000000  0.000000  -38.8984261196234  5.8618601304877265  3.178170640414474  43.34468877383738  7.087966063459073  0.12524287869112152  168.80108086011344  3.550251884107327  -144.72978853747017  22.079102829766562  120.000000
0.1149  0.000000  0.000000  0.000000  -36.98610682457283  5.286723782412681  1.0581036624991902  42.48676220740954  7.069317026848112  0.31034197955600856  116.38731937484656  0.9635151549133898  -93.44996378637363  21.67406047296425  120.000000
0.17235  0.000000  0.000000  0.000000  -35.350877732658304  4.6237047052681595  -0.9680935037577333  41.75836953852021  6.913031060663548  0.5495523750237287  24.36424583050668  2.743919207538282  -2.5560817396680022  21.529465271982485  120.000000
0.2298  0.000000  0.000000  0.000000  -34.04814869777046  3.9462374838571552  -2.831231170454986  41.189435153980824  6.707001223567537  0.8573326964567864  15.383135399819205  5.554359647470933  5.290849052419135  21.654419701837977  120.000000
0.28725  0.000000  0.000000  0.000000  -33.08989772898143  3.331885995065459  -4.493177346179425  40.77486980792123  6.550947812530326  1.2474043819928087  12.495338168653788  8.404320959277722  7.015518757422576  21.98551832980038  120.000000
0.3447  0.000000  0.000000  0.000000  -32.46788080536361  2.8578588801991662  -5.925626554927372  40.4851788971788  6.5184737182160974  1.7191969262408604  10.693747035608013  11.30944198544472  7.591713670678384  22.422978583873014  120.000000
0.40215  0.000000  0.000000  0.000000  -32.1740847427962  2.580205654641969  -7.093943159948587  40.285151584310846  6.635689375993589  2.2436716996943735  9.135507102712591  14.321027801408443  7.829048489528116  22.855975358563633  120.000000
0.4596  0.000000  0.000000  0.000000  -32.199684791733084  2.532332406689507  -7.95846924591699  40.146463618925274  6.880955054066369  2.773414427673307  7.672720160696582  17.484774149404828  7.857104295743061  23.191182338054947  120.000000
0.51705  0.000000  0.000000  0.000000  -32.531741971717565  2.7241725524918774  -8.476083308329457  40.05319680790454  7.198158418049791  3.2598003814929037  6.331330485636176  20.82247338967324  7.65493782766157  23.36702537544503  120.000000
0.5745  0.000000  0.000000  0.000000  -33.14871845045169  3.152700769017967  -8.61454430569229  40.00633933653123  7.5175456538606165  3.6721003118845403  5.186004559840112  24.31946577735249  7.177734933378593  23.362309615559504  120.000000
0.63195  0.000000  0.000000  0.000000  -34.026165746610666  3.8000802080128464  -8.39110471992765  40.01940097391749  7.793096890424932  4.026298527573397  4.3187673795390245  27.930086928562265  6.386840213479574  23.187549248770466  120.000000
0.6894  0.000000  0.000000  0.000000  -35.142334123007224  4.6314658889589735  -7.879634664639522  40.113740766156866  8.01370743968544  4.381423418853066  3.8054511591943245  31.595028596697723  5.2472207205815415  22.871779106829944  120.000000
0.74685  0.000000  0.000000  0.000000  -36.48058453967608  5.595230934726544  -7.160714491953788  40.31536767993522  8.182508655520099  4.793509188577155  3.693971910125468  35.256749580780536  3.7343209603377683  22.451272869759016  120.000000
0.8043  0.000000  0.000000  0.000000  -38.018390696934  6.63677112415905  -6.295512062934887  40.64602509469352  8.30949679114107  5.292091256701753  3.987348453565575  38.86193785877071  1.8442980432901506  21.963305183566614  120.000000
0.86175  0.000000  0.000000  0.000000  -39.71761871701086  7.705791946632501  -5.324867643029247  41.112341649663236  8.418673688999997  5.883889252735692  4.63628377104661  42.36181325995503  -0.39349556201005237  21.443377114449046  120.000000
0.9192  0.000000  0.000000  0.000000  -41.51804116535096  8.756285550974768  -4.272078681672901  41.70002868048484  8.548980029867659  6.5536993272585535  5.544902792817039  45.70719587854995  -2.908110168619096  20.923383517723497  120.000000
0.97665  0.000000  0.000000  0.000000  -43.33956065894616  9.747578761382073  -3.1499985036158953  42.369436250252626  8.744238153402472  7.26966156913128  6.5860236439701705  48.847070457510284  -5.584070254074498  20.424444797976847  120.000000
1.0341  0.000000  0.000000  0.000000  -45.09186137837293  10.654697302449717  -1.967274988018603  43.06084967141677  9.035948214073333  7.995801020428752  7.6354508433603225  51.734822978962235  -8.277186293558817  19.956331258088333  120.000000
1.09155  0.000000  0.000000  0.000000  -46.690450472112765  11.476480758991782  -0.730683806754635  43.71248392223305  9.429249382946127  8.699445338844155  8.601445217436174  54.339793086864866  -10.836674381480298  19.51953747153016  120.000000
1.149  0.000000  0.000000  0.000000  -48.08045759585372  12.222598498928953  0.552354554906832  44.2710967022452  9.90163046071625  9.352462792765865  9.428150399892981  56.648602644125866  -13.12266315815517  19.11074310385444  120.000000
1.20645  0.000000  0.000000  0.000000  -49.24541353229903  12.897275618029948  1.866791226919533  44.70597159728118  10.41266981359894  9.931892056327365  10.088886976326291  58.65960104450192  -15.030060135349432  18.72553471040917  120.000000
1.2639  0.000000  0.000000  0.000000  -50.19825441488519  13.493717624521148  3.1843042347245127  45.01792718520819  10.916204273220414  10.420811490004462  10.58553885177631  60.3786899632594  -16.513701488897738  18.363192586280007  120.000000
1.32135  0.000000  0.000000  0.000000  -50.96279952597416  13.994113592877225  4.4582300258339425  45.23208770125058  11.370783356699977  10.808901686518318  10.942116502126645  61.81760811847983  -17.595633420976707  18.02858672493521  120.000000
1.3788  0.000000  0.000000  0.000000  -51.55632153063945  14.377797784942686  5.620385513743156  45.38104878115067  11.746279652053047  11.088756828158992  11.192983326676922  62.98893138513395  -18.349791705358538  17.7298750598417  120.000000
1.43625  0.000000  0.000000  0.000000  -51.982550669237284  14.62713196768425  6.58538005428272  45.49238762145874  12.024696420093383  11.25477552697051  11.37242007588992  63.90297739648591  -18.874091337240237  17.476195191544463  120.000000
1.4937  0.000000  0.000000  0.000000  -52.23011730269911  14.730694307004741  7.25890420402539  45.5823293274428  12.19762014233496  11.30497950226011  11.507429512722789  64.56544217535145  -19.262403321813533  17.27530264132414  120.000000
1.55115  0.000000  0.000000  0.000000  -52.279972505027324  14.682402739629563  7.547759349525579  45.657183800713035  12.261841281339393  11.243244324376919  11.613334950779178  64.9802870218861  -19.58236232557851  17.1333555195967  120.000000
1.6086  0.000000  0.000000  0.000000  -52.11142914363208  14.476007313534408  7.370123705393873  45.71636857143377  12.217235866988267  11.082280308779762  11.689512033915575  65.15387690935691  -19.86425854284407  17.053975412522128  120.000000
1.66605  0.000000  0.000000  0.000000  -51.71344272776152  14.105169892141797  6.677732685961185  45.74896510330359  12.077481626890329  10.849369170511245  11.728413374398537  65.06874555655338  -20.113512124107498  17.037563643571087  120.000000
1.7235  0.000000  0.000000  0.000000  -51.08991063764243  13.567240552491757  5.475226989099253  45.727846080509224  11.885147168074838  10.588481072531431  11.726755147682958  64.6575034268071  -20.332498108302527  17.07839253191909  120.000000
1.78095  0.000000  0.000000  0.000000  -50.249944556889496  12.858650820772526  3.811357071990421  45.61900690475761  11.707572100645343  10.34573006216159  11.678570022309296  63.84064356585524  -20.52042711904578  17.160679704577166  120.000000
1.8384  0.000000  0.000000  0.000000  -49.20191637169758  11.976240684079487  1.7625684834895954  45.39253060489291  11.623542313042957  10.155412987091216  11.570004798262993  62.56426460032786  -20.673378215800422  17.259354974114093  120.000000
1.89585  0.000000  0.000000  0.000000  -47.960622447498906  10.92492126159765  -0.5744742655021312  45.02596804028828  11.710063718823893  10.036266027118838  11.385710322473592  60.8006469332808  -20.79220643796964  17.345681366698958  120.000000
1.9533  0.000000  0.000000  0.000000  -46.559575517924294  9.723503143243436  -3.094480493390517  44.50907065657669  12.024291477967473  9.99302825870891  11.115218056537781  58.55160160636372  -20.886516318154875  17.395245164926912  120.000000
2.01075  0.000000  0.000000  0.000000  -45.05997333296561  8.409200175716544  -5.6957341798733  43.84713033473013  12.588093055761206  10.022491293036664  10.759081651232313  55.84883402338642  -20.97458379484965  17.393982211036718  120.000000
2.0682  0.000000  0.000000  0.000000  -43.54244617956378  7.034669762176575  -8.287924144059696  43.06336388833387  13.382239304944724  10.127963027788924  10.34332603699786  52.754325317907195  -21.086302101328673  17.342404247269588  120.000000
2.1256500000000003  0.000000  0.000000  0.000000  -42.08857737994008  5.671962979248407  -10.79753338055139  42.2048894313213  14.350080621738051  10.324506802645127  9.934427289298606  49.353867271673856  -21.266916659409357  17.24822302369013  120.000000
2.1831  0.000000  0.000000  0.000000  -40.768382833810605  4.398331468604234  -13.168924645140672  41.324908438078445  15.410538818573682  10.627935432603072  9.623343872878742  45.736419107268276  -21.556640709588258  17.117896485907757  120.000000
2.24055  0.000000  0.000000  0.000000  -39.63067276644267  3.2799277792013055  -15.36311596538871  40.467409957254404  16.472523333034648  11.045793243305527  9.501336543411867  41.97448852567712  -21.965271534883616  16.946219494634878  120.000000
2.298  0.000000  0.000000  0.000000  -38.6875861308876  2.3665160567708607  -17.351118798782856  39.66593517697074  17.455836107683204  11.570856380262535  9.646388678517255  38.11967868267392  -22.46189874921607  16.713729413602675  120.000000
2.3554500000000003  0.000000  0.000000  0.000000  -37.91683543109842  1.6867834355190758  -19.107955124189235  38.94181414587146  18.306624328408272  12.181760112615667  10.113064051037291  34.21393984333487  -22.978102134979043  16.396102763566613  120.000000
2.4129  0.000000  0.000000  0.000000  -37.276231866677826  1.2438323866521832  -20.61650153654539  38.30680454933451  19.003133311092867  12.84476065919969  10.931860070613451  30.300470938810236  -23.42674211571323  15.980282133812793  120.000000
2.47035  0.000000  0.000000  0.000000  -36.71893851398186  1.0063398491004236  -21.87483742909028  37.76611055789801  19.55624594612392  13.520083861384217  12.118825134571283  26.43579143159107  -23.730368211049264  15.479507386551292  120.000000
2.5278  0.000000  0.000000  0.000000  -36.21370719819871  0.9086392351491279  -22.903192968658  37.324553005757394  20.00461885923326  14.173213658670871  13.706447653240318  22.708194180100488  -23.865111425408795  14.942279106780537  120.000000
2.5852500000000003  0.000000  0.000000  0.000000  -35.754207789111156  0.8721901434509928  -23.70963501784905  37.00278388317828  20.38173127987317  14.752713827569572  15.7766012145086  19.23373195722174  -23.901249304132783  14.441181846830503  120.000000
2.6427  0.000000  0.000000  0.000000  -35.349747258304234  0.8296408893657572  -24.26932613305805  36.82903650109329  20.698463137560413  15.192060128919582  18.45150832816275  16.11507398969011  -24.005332336117192  14.046148640116822  120.000000
2.70015  0.000000  0.000000  0.000000  -35.011558331101334  0.7501686928737534  -24.563825292979857  36.81716302989374  20.959405057549237  15.455294269925114  21.909646834973234  13.412401442840855  -24.464639221814437  13.803476982930265  120.000000
2.7576  0.000000  0.000000  0.000000  -34.752404706014424  0.6409575435155918  -24.58183613683298  36.96605520353656  21.164235499515723  15.534004515719541  26.43616322771416  11.145495920718734  -25.734540657143715  13.731039289001712  120.000000
2.8150500000000003  0.000000  0.000000  0.000000  -34.59043388597802  0.5269980081521289  -24.3059326087771  37.2614447685891  21.305360704917714  15.425862506925125  32.4305942819999  9.307030883769523  -28.423686447879774  13.82431505940036  120.000000
2.8725  0.000000  0.000000  0.000000  -34.540173433361026  0.4407969503638767  -23.73504659003097  37.67150664992559  21.369594530538503  15.138946918777911  40.32928740262053  7.885831686499241  -33.178855421177275  14.065747343238565  120.000000
2.92995  0.000000  0.000000  0.000000  -34.60177209048514  0.4116649455283061  -22.89805050393667  38.14927481019789  21.341563151966913  14.694501813756427  50.31825305102575  6.882312082654557  -40.357992004630674  14.428437389062799  120.000000
2.9874  0.000000  0.000000  0.000000  -34.75754900132487  0.45746395060733314  -21.84215999749299  38.64586392329497  21.207639704382185  14.120394583129837  61.87848537778637  6.291658088301378  -49.54915111014401  14.874705013968128  120.000000
3.0448500000000003  0.000000  0.000000  0.000000  -34.977018781410706  0.5818686461582985  -20.62175251597534  39.12179243148485  20.961720451397017  13.447274510045439  73.68063679704576  6.069545310076029  -59.461262215396005  15.35960975379439  120.000000
3.1023  0.000000  0.000000  0.000000  -35.226441213742376  0.7783668425293225  -19.294139064650025  39.55539067760871  20.61013967986366  12.706709573460737  84.2662052777921  6.1201786915386895  -68.61857350682448  15.840861837851108  120.000000
3.15975  0.000000  0.000000  0.000000  -35.475984123030464  1.030899673629844  -17.91784950988636  39.94173662773855  20.1720360813537  11.932103241214072  92.80875377558141  6.325383945769002  -76.13896530561598  16.289286003362783  120.000000
3.2172  0.000000  0.000000  0.000000  -35.70403119348821  1.3137383706896457  -16.54582090653336  40.284532469792566  19.67178591987908  11.157294726104146  99.19002365510497  6.581048174829176  -81.82522218391694  16.695086360376305  120.000000
3.2746500000000003  0.000000  0.000000  0.000000  -35.89340839201973  1.6001339631838094  -15.22027343360007  40.595167157736235  19.132116089414573  10.408307534034156  103.67402432769988  6.817519841147699  -85.85233767709964  17.06620715447564  120.000000
3.3321  0.000000  0.000000  0.000000  -36.03063048348409  1.8678882227293767  -13.973508885543085  40.888044167261796  18.572058975312437  9.70127608246334  106.62749386606399  7.000428578806259  -88.50064055498179  17.4189253004802  120.000000
3.38955  0.000000  0.000000  0.000000  -36.10987695332514  2.1002566579676567  -12.827383988197534  41.17257949399168  18.005400597728002  9.045362279221084  108.39908536027441  7.121439829850231  -90.04638494191713  17.76803764812021  120.000000
3.447  0.000000  0.000000  0.000000  -36.13431926632345  2.289080581580935  -11.794094232669464  41.452577382791205  17.44214853579092  8.44509647215233  109.2774463274217  7.191384261547596  -90.72762178727139  18.122268203982856  120.000000
3.5044500000000003  0.000000  0.000000  0.000000  -36.11532271012133  2.432637489563913  -10.87764719360531  41.72628225278499  16.890904948061852  7.902383565412592  109.48139670683187  7.230589829075652  -90.73526644037025  18.48400071104577  120.000000
3.5619  0.000000  0.000000  0.000000  -36.06792032676929  2.5335350545212996  -10.076528485355357  41.98717449598831  16.359707990375476  7.417787895725952  109.17630397299435  7.259229958426215  -90.22404322521648  18.85143139269057  120.000000
3.61935  0.000000  0.000000  0.000000  -36.00543320629443  2.5983410240274654  -9.387054397870871  42.227020089765325  15.85615254593759  6.990468603073769  108.48795272913186  7.292964059078528  -89.31841968807264  19.221865216507055  120.000000
3.6768  0.000000  0.000000  0.000000  -35.93573701177615  2.635617967920405  -8.805986222126437  42.43708693683772  15.386784988758683  6.618083781561964  107.50837479811972  7.341603120382318  -88.11218264772323  19.593625390505828  120.000000
3.7342500000000003  0.000000  0.000000  0.000000  -35.86030731178941  2.65328106204047  -8.331882716367701  42.608080990796715  14.95608683042281  6.296766533326367  106.29322404838098  7.409497341536431  -86.66189189065949  19.966460531793317  120.000000
3.7917  0.000000  0.000000  0.000000  -35.775483138959444  2.6566662243151367  -7.965063489397722  42.72992397076337  14.565774486312398  6.0215512770819215  104.85272272388886  7.496910748791337  -84.97617611448344  20.34097196724161  120.000000
3.84915  0.000000  0.000000  0.000000  -35.6737704284982  2.647727479004394  -7.707191880744369  42.79313383125419  14.214914423885261  5.786540198131522  103.13896887951174  7.601935216682913  -83.00209794919904  20.71761288363056  120.000000
3.9066  0.000000  0.000000  0.000000  -35.54531560339707  2.62427352019014  -7.560702071280071  42.79013494229107  13.900655920263427  5.585205686499789  101.03941273703192  7.722270904731953  -80.61861116367484  21.095546039111795  120.000000
3.9640500000000003  0.000000  0.000000  0.000000  -35.37861935582942  2.580874720275622  -7.528578951496494  42.71704995997449  13.619103067925748  5.4106293565235655  98.38195572686442  7.859241135046842  -77.64319696546731  21.4722200850772  120.000000
4.0215  0.000000  0.000000  0.000000  -35.162651591721755  2.511010558959935  -7.614175868048659  42.573922643315015  13.36556759707371  5.256319598909006  94.96244916606712  8.025523608576975  -73.86444890665405  21.84355944206411  120.000000
4.07895  0.000000  0.000000  0.000000  -34.889435548710416  2.408382968880664  -7.8208408352433825  42.36428883190559  13.134819535530251  5.116767368649176  90.60740303766254  8.255550813997681  -69.11238229637058  22.203302101604834  120.000000
4.1364  0.000000  0.000000  0.000000  -34.557808372478526  2.2694904283993727  -8.15010344129079  42.094699512698135  12.920937169533726  4.989625331231392  85.28812673469795  8.615358678056602  -63.38067734390577  22.541338160219293  120.000000
4.19385  0.000000  0.000000  0.000000  -34.17522239153712  2.0957327252532263  -8.597349792066305  41.77145853050164  12.718047482973134  4.880040792837076  79.24999886796014  9.198279933138766  -56.95889902614706  22.841394136417193  120.000000
4.2513000000000005  0.000000  0.000000  0.000000  -33.75908360834661  1.8985233669632915  -9.146630287243443  41.393241299595964  12.521376480633684  4.805559181961597  73.02541084576403  10.097137325614273  -50.440056514434225  23.080813712667556  120.000000
4.30875  0.000000  0.000000  0.000000  -33.33402497454256  1.7145041165079227  -9.772872397536874  40.96393024677453  12.332390185441916  4.787907429919447  67.23509963798044  11.377478084822124  -44.5088360217084  23.239322921903913  120.000000
4.3662  0.000000  0.000000  0.000000  -32.94046206543183  1.6084086092570682  -10.444818592214657  40.50995628282542  12.159437717490485  4.846994880929918  62.33926667504926  13.076315785649046  -39.678608510836696  23.314590830551168  120.000000
4.42365  0.000000  0.000000  0.000000  -32.65362731760233  1.650302903697127  -11.116921791494958  40.059528180316505  12.003391312359646  5.020701720960342  58.53800005125533  15.204781959723798  -36.17641338994686  23.333843562704477  120.000000
4.4811  0.000000  0.000000  0.000000  -32.5771698560933  1.908040595414114  -11.729709651417904  39.63668027646401  11.854862582867947  5.362362250185686  55.80912443373685  17.75134235701913  -33.977766228252975  23.35296152621394  120.000000
4.53855  0.000000  0.000000  0.000000  -32.80740101467168  2.4502528533841916  -12.223894241233543  39.28549502227496  11.714892631971228  5.899470773688561  53.97848901779385  20.685435125953525  -32.894308868601954  23.435078373315545  120.000000
4.596  0.000000  0.000000  0.000000  -33.390665522337464  3.320889746004926  -12.540113856252232  39.052511786452854  11.599571063344214  6.6256490880544066  52.78788293757078  23.93782765155212  -32.65066721729935  23.61864788335794  120.000000
4.65345  0.000000  0.000000  0.000000  -34.310057782695715  4.51472612502367  -12.609269040561191  38.961681455490755  11.525053952713108  7.5210614990415205  51.98268973221655  27.393443494697866  -32.97217261919754  23.896302356905537  120.000000
4.7109000000000005  0.000000  0.000000  0.000000  -35.490993715271316  5.985813874248514  -12.358006423910755  39.02122341341868  11.508950368174771  8.546058445315577  51.35647586451239  30.905905848681943  -33.632382192810454  24.21486681928261  120.000000
4.76835  0.000000  0.000000  0.000000  -36.83066567722689  7.668355762887387  -11.7175168268123  39.22219928751395  11.572323288581902  9.638934622683315  50.753087387312235  34.314408471909914  -34.45925869364084  24.493955456334906  120.000000
4.8258  0.000000  0.000000  0.000000  -38.23826608509191  9.483081410172804  -10.62754963964661  39.53841337270056  11.726345389528554  10.733904555232916  50.0694768542894  37.47347885995562  -35.341485027898344  24.655215617962355  120.000000
4.88325  0.000000  0.000000  0.000000  -39.661706904997914  11.339102768117703  -9.045560160684067  39.9414614777304  11.960501307444954  11.77248240261359  49.250165146394494  40.28530954594326  -36.22360598935042  24.647559951159447  120.000000
4.9407  0.000000  0.000000  0.000000  -41.094691838453066  13.142998508312667  -6.96012700750997  40.41427322308097  12.244937797046017  12.703468355693044  48.26597848684116  42.71588535003327  -37.08377646035708  24.452040656487906  120.000000
4.99815  0.000000  0.000000  0.000000  -42.564759937078364  14.805866107977774  -4.396660374000559  40.947902012596984  12.535598254096193  13.495537977949143  47.10552105688025  44.789371286702874  -37.91328671986121  24.074746992788853  120.000000
5.0556  0.000000  0.000000  0.000000  -44.0979765293735  16.2563725954969  -1.4226448545760328  41.54308964392507  12.789619011892553  14.141532967374532  45.77952672402225  46.56796603837313  -38.70399964115628  23.53930313428883  120.000000
5.11305  0.000000  0.000000  0.000000  -45.68986531983277  17.448708237524695  1.8481357851204103  42.208042353358906  12.98219663302326  14.650980296862326  44.31310638288287  48.1280352234213  -39.43812425474636  22.882808064106964  120.000000
5.1705000000000005  0.000000  0.000000  0.000000  -47.30595470560666  18.356495648380648  5.265354525876654  42.940197926602764  13.104729469470021  15.050307061481778  42.73460997406701  49.538478651064956  -40.08629266467942  22.155522693284905  120.000000
5.22795  0.000000  0.000000  0.000000  -48.888129659410815  18.977660630389135  8.654340204463702  43.72592961020831  13.159006434034877  15.369072782635909  41.0767336462096  50.85034767278558  -40.62237754007594  21.414287645967413  120.000000
5.2854  0.000000  0.000000  0.000000  -50.36598374287398  19.33499309434722  11.83472099401213  44.543244217138444  13.153135066781509  15.624291552883696  39.38929139486949  52.09296604046167  -41.043065090165705  20.71309290771121  120.000000
5.34285  0.000000  0.000000  0.000000  -51.66606160848285  19.468940573453224  14.641497883404206  45.3556627237255  13.099011436706782  15.813466519583171  37.75026607542947  53.26953089071146  -41.375815045271324  20.09161041514606  120.000000
5.4003  0.000000  0.000000  0.000000  -52.71860836594926  19.430159199325182  16.939276563824162  46.108428399193194  13.012483666482836  15.911904448266318  36.26716331100696  54.355019812449946  -41.673301153630256  19.568085644393395  120.000000
5.45775  0.000000  0.000000  0.000000  -53.4648989488809  19.268034998431084  18.62888662936549  46.732338241708554  12.909514736870822  15.879794280128452  35.06155459561867  55.29953591912394  -41.996989320270444  19.143101854369945  120.000000
5.5152  0.000000  0.000000  0.000000  -53.86314626470555  19.022575126256697  19.645168937556722  47.16096696188448  12.80064178126306  15.67364107548385  34.24186149023086  56.040100281941804  -42.39907307321406  18.81064627885459  120.000000
5.57265  0.000000  0.000000  0.000000  -53.89222645377103  18.719393852528935  19.95093766774195  47.35240881212136  12.684639045348447  15.26151834015717  33.8784776628538  56.51715710028253  -42.90927334431669  18.570820627050768  120.000000
5.6301000000000005  0.000000  0.000000  0.000000  -53.552373072125704  18.36789325484698  19.530308919360184  47.30403455876036  12.54515962255453  14.634562527282407  33.98744581805788  56.68747318035038  -43.52727035806513  18.437000664585256  120.000000
5.68755  0.000000  0.000000  0.000000  -52.86390376347042  17.95934402358663  18.38566775045309  47.049577454218785  12.351588992924347  13.813829493993502  34.525389169453575  56.526138652721166  -44.21685241156205  18.43290799529151  120.000000
5.745  0.000000  0.000000  0.000000  -51.86078887908659  17.465053062195025  16.541275251455872  46.63598854391279  12.069417467596175  12.851447965826539  35.39981627570819  56.01652961052455  -44.90557958833309  18.57904301463511  120.000000
5.80245  0.000000  0.000000  0.000000  -50.58184830374807  16.83963456798626  14.052238512774442  46.09553203253757  11.681362007544223  11.822750898516768  36.492324122350766  55.13686331680234  -45.496354391479386  18.87170988457638  120.000000
5.8599  0.000000  0.000000  0.000000  -49.06700850873111  16.030914050204842  11.01237845160706  45.43391665211855  11.206211764968907  10.812493029909476  37.68042810429189  53.85593689662505  -45.88934841748293  19.26467083894368  120.000000
5.91735  0.000000  0.000000  0.000000  -47.359572068057695  14.996969622817243  7.553404437837645  44.64257097296379  10.705294039057497  9.89774873431614  38.85039365704195  52.13971652622672  -46.008342054457906  19.66904624560779  120.000000
5.9748  0.000000  0.000000  0.000000  -45.50837849949682  13.720631553503196  3.8369449521607657  43.720498537175985  10.2727359744645  9.138455819106918  39.91076424924823  49.962376816117676  -45.82460180661866  19.976326573573218  120.000000
6.03225  0.000000  0.000000  0.000000  -43.56611056166559  12.218402134739703  0.039230214560211536  42.695078656110475  10.017548206722804  8.57256927619086  40.807635997363946  47.32047537789577  -45.369473436069676  20.091827904928977  120.000000
6.089700000000001  0.000000  0.000000  0.000000  -41.59169469947329  10.53780734163249  -3.6644200250594867  41.62436408058222  10.038587352756021  8.221453004946461  41.53701319781449  44.245089036666144  -44.7305671095529  19.962444894542386  120.000000
6.14715  0.000000  0.000000  0.000000  -39.65635127808986  8.751407818378553  -7.118769922617579  40.58808758308373  10.39951174133774  8.09521933543145  42.1530907834663  40.81406137554699  -44.03665872581173  19.586467310350248  120.000000
6.2046  0.000000  0.000000  0.000000  -37.84361297758459  6.955644583932249  -10.211405309332953  39.67928153246292  11.11200109945836  8.188253091536538  42.777788462873346  37.155783314692535  -43.44619347528569  19.00191644444435  120.000000
6.26205  0.000000  0.000000  0.000000  -36.24721055832286  5.254366222141753  -12.880249959096709  38.970539320183285  12.127946188866034  8.48360714361499  43.59649340228399  33.430926393080405  -43.1334841836216  18.26979750898901  120.000000
6.3195  0.000000  0.000000  0.000000  -34.95733452902654  3.744950437089187  -15.110211120759386  38.49421121591564  13.353359868168898  8.953420975241462  44.83928027587334  29.80626144349158  -43.2747793966758  17.465016433464  120.000000
6.37695  0.000000  0.000000  0.000000  -34.02859834010578  2.5072901780321244  -16.918713825561674  38.25075813864554  14.6757094162962  9.558093879434391  46.7565789570627  26.42771000713083  -44.03811393977092  16.672289968758992  120.000000
6.4344  0.000000  0.000000  0.000000  -33.46575975498836  1.5824470988922357  -18.334542340418512  38.21170703724457  15.986575868118624  10.255689362302826  49.56759493461336  23.39962217300644  -45.55919506970519  15.977878922054991  120.000000
6.49185  0.000000  0.000000  0.000000  -33.22830205416169  0.9710556021380161  -19.389890763733572  38.33106159825354  17.20195965836663  11.001704353213766  53.3965179251827  20.779261650544314  -47.907849644993654  15.455744918038418  120.000000
6.549300000000001  0.000000  0.000000  0.000000  -33.24665552810768  0.6466746751819528  -20.120807069967025  38.56089998903614  18.27020026287448  11.74862268630693  58.233847393144686  18.586273629937775  -51.069107352643144  15.154088123685973  120.000000
6.60675  0.000000  0.000000  0.000000  -33.441577502015896  0.5618875113536841  -20.566954966316313  38.856348116669025  19.168990257367593  12.451287982746129  63.92377438540986  16.813559379750906  -54.93505923995421  15.086962142663427  120.000000
6.6642  0.000000  0.000000  0.000000  -33.73831226014849  0.65574100595963  -20.770727212165536  39.173477926902045  19.89690862716308  13.07253352192953  70.17661945718113  15.428431181020018  -59.30340962547635  15.237324772695716  120.000000
6.72165  0.000000  0.000000  0.000000  -34.07706091058047  0.8663268710041055  -20.77797831321231  39.47256876457756  20.46452934783487  13.58496848796351  76.62707690618647  14.373651220145161  -63.90945063646416  15.565910030939158  120.000000
6.7791  0.000000  0.000000  0.000000  -34.41588288831989  1.1360806458443893  -20.636698764240617  39.725420367175104  20.88725889838827  13.971212863457563  82.92239994237765  13.578063388014353  -68.48589631294625  16.014746005692075  120.000000
6.83655  0.000000  0.000000  0.000000  -34.726818505563664  1.4184534105496007  -20.391544422638447  39.92169479346716  21.178536306361917  14.2244742589844  88.80255511146666  12.973844855956724  -72.82349163502924  16.508190930989844  120.000000
6.894  0.000000  0.000000  0.000000  -34.99178075458381  1.6819017017089681  -20.078654806299436  40.06802141387857  21.349457044134578  14.346391164416938  94.12370359293521  12.506078747744077  -76.79471618377997  16.96027772564749  120.000000
6.95145  0.000000  0.000000  0.000000  -35.19780047244926  1.9078391822090819  -19.723907820461246  40.181231116772885  21.41230450134737  14.345226635133617  98.83999728402344  12.132209938265856  -80.34925959619596  17.291943770895035  120.000000
7.008900000000001  0.000000  0.000000  0.000000  -35.338274072215064  2.08704572559978  -19.34256402337923  40.278109857433  21.38139705512888  14.236679244699575  102.97291412985966  11.819957634222767  -83.4991838894427  17.45712214711539  120.000000
7.06635  0.000000  0.000000  0.000000  -35.41991006407393  2.2161317004890178  -18.940669372417418  40.366815475714155  21.272561384949785  14.042037929853063  106.57340505067906  11.546091509589173  -86.29298295146637  17.464304521371382  120.000000
7.1238  0.000000  0.000000  0.000000  -35.46128110379535  2.298118529728652  -18.518891685068194  40.4485596160173  21.103805092740096  13.781537572048425  109.69664110272052  11.29534617278079  -88.79330820802527  17.374209142478144  120.000000
7.18125  0.000000  0.000000  0.000000  -35.485380121597  2.3424671630470466  -18.07613247139745  40.52574378348524  20.89569772301212  13.468868520215567  112.3793865577625  11.060619659431396  -91.04917694330264  17.27213514665512  120.000000
7.2387  0.000000  0.000000  0.000000  -35.510728066585614  2.363719990059732  -17.611011783620437  40.605126993427945  20.666506853705695  13.113914302131711  114.64111072141883  10.839989530928303  -93.08518431043194  17.233046125834907  120.000000
7.29615  0.000000  0.000000  0.000000  -35.548574832812335  2.3732199099109543  -17.121735018630428  40.69220623983634  20.425968158004256  12.729744024885058  116.50225666770943  10.629316787128811  -94.90960171941602  17.29375758266209  120.000000
7.3536  0.000000  0.000000  0.000000  -35.60028517104172  2.376888589472577  -16.607372198878707  40.790348300580284  20.175356132072878  12.33286142477548  117.99946219362754  10.419767999163097  -96.52764949619214  17.447422375002155  120.000000
7.41105  0.000000  0.000000  0.000000  -35.65791026043896  2.380046671052315  -16.070110414799107  40.90519188516728  19.912287807918993  11.937225776539606  119.17834400155711  10.20172200788011  -97.9419550461849  17.66063833102655  120.000000
7.468500000000001  0.000000  0.000000  0.000000  -35.70918919552737  2.387689496781122  -15.516058509012778  41.04394173618244  19.634634842742372  11.549839102800112  120.0841197671127  9.966998257944203  -99.15478773424874  17.89557607947053  120.000000
7.52595  0.000000  0.000000  0.000000  -35.74470972383541  2.403140597300715  -14.953606532384514  41.20966569342768  19.340428028746256  11.172785444129577  120.76437437333551  9.709878336078793  -100.17972422000975  18.125954932817884  120.000000
7.5834  0.000000  0.000000  0.000000  -35.76241703595408  2.4269695545976693  -14.390964455725722  41.398165808260174  19.027574637949844  10.806704075819336  121.26888811019543  9.428641706350499  -101.04536456359432  18.342649358948368  120.000000
7.64085  0.000000  0.000000  0.000000  -35.76614611211  2.457500671111837  -13.834553037086653  41.600663992101516  18.694720253302215  10.451954316167658  121.64642449769106  9.12625451414851  -101.79011023347834  18.549129487254824  120.000000
7.6983  0.000000  0.000000  0.000000  -35.76200833135292  2.4920921131646123  -13.288446072122122  41.807984336792025  18.34210559594431  10.108491504236365  121.9434714784912  8.809839070275926  -102.45650395708829  18.75315004612021  120.000000
7.75575  0.000000  0.000000  0.000000  -35.755478504589504  2.5276551757127197  -12.754593656676938  42.013788481325534  17.972283308243004  9.77483474438342  122.20069442750324  8.48911411252384  -103.08369619855847  18.95984351143575  120.000000
7.8132  0.000000  0.000000  0.000000  -35.750084671234305  2.561693440800374  -12.233079347693563  42.215339393490964  17.58973476669507  9.447849378027412  122.45103557606916  8.174837248517642  -103.70275030385444  19.168951121079076  120.000000
7.87065  0.000000  0.000000  0.000000  -35.74846500805536  2.5915353566053665  -11.722072890639769  42.411548588019485  17.199844255852003  9.123453297079417  122.7170756346224  7.8767694942269815  -104.33248590995517  19.37617240750138  120.000000
7.928100000000001  0.000000  0.000000  0.000000  -35.75320090889623  2.6146886614452716  -11.218028110617778  42.60051742337456  16.80742003337094  8.797776876375101  123.01375024719987  7.601970562256279  -104.98124493752658  19.57761425846883  120.000000
7.98555  0.000000  0.000000  0.000000  -35.76636598079361  2.6288504058902515  -10.71672218216782  42.77952185410392  16.417255121839748  8.465866151724402  123.34341436732228  7.353115633368098  -105.64208880569464  19.77462745744798  120.000000
8.043  0.000000  0.000000  0.000000  -35.78827624366127  2.63189339177188  -10.21419975493844  42.94342142351463  16.033561105835354  8.122499606396753  123.70216900394365  7.126741236655943  -106.30043047080436  19.976421896546523  120.000000
8.10045  0.000000  0.000000  0.000000  -35.816202180968226  2.6233465907912596  -9.708153897796851  43.08378311914097  15.658056136265047  7.764324740850416  124.08816847646423  6.913526759644035  -106.94554453064173  20.197517176177612  120.000000
8.1579  0.000000  0.000000  0.000000  -35.84232129274605  2.605339386426455  -9.200639657076886  43.19002356021946  15.291336242681735  7.388466714990123  124.49263848189413  6.6987023208133625  -107.56707113494251  20.44879400980543  120.000000
8.21535  0.000000  0.000000  0.000000  -35.8550832886946  2.582614684586732  -8.70062937299012  43.247363719581905  14.933476858788653  6.993103361402107  124.89026853791317  6.46383127259283  -108.15102735700614  20.723934134171945  120.000000
8.2728  0.000000  0.000000  0.000000  -35.84321805670297  2.5616081073971904  -8.226073127428874  43.23631301361439  14.583486233434256  6.578506685836299  125.22094418956253  6.192077644963704  -108.66373432125572  20.9898965910212  120.000000
8.33025  0.000000  0.000000  0.000000  -35.797581994882755  2.551902388144921  -7.805209403475664  43.13850777265832  14.239947337556416  6.147081434239749  125.34496315051105  5.87766263117678  -109.0003279834419  21.192247040537293  120.000000
8.3877  0.000000  0.000000  0.000000  -35.70994107196086  2.558711355886769  -7.471931735518914  42.94138076430447  13.903954051754855  5.705079040754708  124.9819644804075  5.532496527951187  -108.90867599356795  21.275096842304087  120.000000
8.44515  0.000000  0.000000  0.000000  -35.57072610766283  2.577347640479972  -7.256334004079378  42.644542232189636  13.580903392615696  5.264498361906635  123.64803486691441  5.191413629658753  -107.90678706558245  21.210340263221816  120.000000
8.502600000000001  0.000000  0.000000  0.000000  -35.37147575722976  2.5928078402900674  -7.174624406822336  42.26063507708032  13.279979734475983  4.842576869451723  120.6807330926935  4.9146595965980575  -105.2929999570113  21.020573061466962  120.000000
8.56005  0.000000  0.000000  0.000000  -35.11611894388592  2.588665077942452  -7.223929202839616  41.80973475865115  13.01038783136647  4.457333053261213  115.50934167770656  4.7905316826028885  -100.41707331934427  20.778931444201927  120.000000
8.6175  0.000000  0.000000  0.000000  -34.82674347506305  2.568396640525804  -7.380492225588452  41.325058197313446  12.776696711091866  4.112379467141581  108.22423158988411  4.944951569596409  -93.27112060357915  20.584215031311853  120.000000
8.67495  0.000000  0.000000  0.000000  -34.54069584628516  2.556045941882824  -7.600733740180224  40.8459587754113  12.575189976723822  3.801989525071402  100.1572979861921  5.528565361993117  -85.10362948936306  20.521545763698292  120.000000
8.7324  0.000000  0.000000  0.000000  -34.31488554065318  2.5865663518592354  -7.831055443476014  40.390885628856985  12.391478970448466  3.5428164964174704  93.33749771680701  6.666354705832709  -77.90992087260251  20.628730181621574  120.000000
8.78985  0.000000  0.000000  0.000000  -34.215071781139756  2.7137575757530565  -8.021114067345856  39.96689709552756  12.210506452384067  3.365275854901898  88.94935937713377  8.427540087007268  -72.9079724665677  20.886269815176526  120.000000
8.8473  0.000000  0.000000  0.000000  -34.29665492960407  3.012706003723727  -8.128524540042225  39.58608915486792  12.025002174421873  3.2891337435669623  86.94197589460357  10.839792208826147  -70.14017544923028  21.234146451183786  120.000000
8.90475  0.000000  0.000000  0.000000  -34.59199742851992  3.564423377425869  -8.113552310528728  39.257397823218184  11.830855249184937  3.330144871046305  86.71228139937861  13.892940817943899  -69.13235207261367  21.601040475655807  120.000000
8.9622  0.000000  0.000000  0.000000  -35.100202346973845  4.432750666335761  -7.933700994731262  38.9825185028086  11.624814071956502  3.508316351696624  87.63130232210035  17.524906535988933  -69.39254516448294  21.92764471674643  120.000000
9.01965  0.000000  0.000000  0.000000  -35.78718517315035  5.63924262833781  -7.540841412071404  38.76108433215487  11.409988021318545  3.844568411785307  89.20157498139835  21.615734082559566  -70.5502352147304  22.17659372827766  120.000000
9.0771  0.000000  0.000000  0.000000  -36.6018629958796  7.172500566304972  -6.878188907216376  38.602244273926594  11.192478701360587  4.360581350752138  91.0595807670307  26.01423483022611  -72.34707859633751  22.33491043140797  120.000000
9.13455  0.000000  0.000000  0.000000  -37.499581357698354  8.999512527843816  -5.880667032224738  38.528758925437245  10.97906317847613  5.074480356587297  92.92577302122076  30.568494957315675  -74.58109887328493  22.406349902095478  120.000000
9.192  0.000000  0.000000  0.000000  -38.46091810949974  11.060480074780806  -4.483986626961583  38.57072858860966  10.777299832493233  5.991332293930921  94.57195137823527  35.13533423223431  -77.07140616383164  22.394908776807664  120.000000
9.24945  0.000000  0.000000  0.000000  -39.4984732788205  13.274809072682245  -2.631854010281435  38.75675059441951  10.58990371353643  7.10400530636095  95.82804620046943  39.58310144657629  -79.65777874217346  22.296994332707076  120.000000
9.3069  0.000000  0.000000  0.000000  -40.650394849547105  15.54884921937975  -0.2829929887717391  39.110039046523184  10.411785809908224  8.395710018649055  96.58488377550142  43.79665909623432  -82.20026984316485  22.102018005595674  120.000000
9.36435  0.000000  0.000000  0.000000  -41.96754210835753  17.786245497307384  2.580735505319727  39.64816420853462  10.234855903593393  9.83934279690789  96.78937817105209  47.67980400993699  -84.5789354543492  21.799128957213256  120.000000
9.421800000000001  0.000000  0.000000  0.000000  -43.50108510630762  19.89138061207141  5.94506205746776  40.380365369820105  10.052574089755296  11.397610165344576  96.43677409705964  51.15975859173118  -86.69904547159035  21.389925091969697  120.000000
9.47925  0.000000  0.000000  0.000000  -45.28516312368234  21.766713843274626  9.752445916042982  41.302907077271676  9.854937430789  13.027081788537123  95.5677409998405  54.1945611272862  -88.49623069250605  20.896384707759946  120.000000
9.5367  0.000000  0.000000  0.000000  -47.313732304270914  23.320995200687236  13.892141188372614  42.39899257264281  9.630783400100084  14.67512446637301  94.25963209324186  56.77382716593514  -89.93341959898999  20.35832608730733  120.000000
9.59415  0.000000  0.000000  0.000000  -49.53244684656768  24.485832608200827  18.199860187472368  43.63490880365438  9.374248996500867  16.274205904186513  92.61020155563435  58.91240942124993  -90.99304418114032  19.82188086236492  120.000000
9.6516  0.000000  0.000000  0.000000  -51.836464151807476  25.232509405272232  22.472705184505532  44.95254156817176  9.08817164869952  17.747617212609224  90.73537647489611  60.64082525519628  -91.67402373294878  19.328635986171104  120.000000
9.70905  0.000000  0.000000  0.000000  -54.081519344774684  25.58500549455699  26.49369728533236  46.273007294579344  8.782303614361975  19.02010235655925  88.77347644069584  62.00060194239409  -91.99529995272812  18.908541119056657  120.000000
9.7665  0.000000  0.000000  0.000000  -56.1050594234597  25.616901876688615  30.055860118355092  47.50729628433839  8.467783492431433  20.026703293181946  86.88061592435437  63.036604783190874  -91.99903745903553  18.580218210508246  120.000000
9.82395  0.000000  0.000000  0.000000  -57.75802356343659  25.43694895880477  32.98409318989768  48.567497995658066  8.155199673700821  20.71670340038427  85.2174944795373  63.78955734045408  -91.75048513915532  18.35354249193097  120.000000
9.8814  0.000000  0.000000  0.000000  -58.92586085772362  25.160518226710206  35.144556962923396  49.37426629983131  7.855295142312011  21.055118315898472  83.9286571110847  64.28992929357108  -91.33029268062526  18.230836227554992  120.000000
9.93885  0.000000  0.000000  0.000000  -59.534638668669125  24.883050966085225  36.444103167122194  49.86473184096951  7.579835741873682  21.023888458663613  83.12274835050604  64.55651565421321  -90.82130820525124  18.202799036235206  120.000000
9.9963  0.000000  0.000000  0.000000  -59.546284003738144  24.66240066514575  36.82433316560338  50.00217259905666  7.3432468299738405  20.621791884214286  82.85627384625295  64.59919669719916  -90.29110450213008  18.24868364850227  120.000000
10.05375  0.000000  0.000000  0.000000  -58.95343512019469  24.51124821434025  36.256972510987225  49.78202541882495  7.160873839586721  19.867201481729534  83.12602510736517  64.42152208954423  -89.77444292380949  18.340201372245847  120.000000
10.1112  0.000000  0.000000  0.000000  -57.78021183075231  24.394854057581114  34.746779299593015  49.231598745726366  7.049549794902936  18.799743796872924  83.86789097270116  64.02061952160837  -89.25716925969532  18.4481125199243  120.000000
10.16865  0.000000  0.000000  0.000000  -56.0899592934284  24.23535990605226  32.34346586921789  48.40250541306954  7.030746378424155  17.480688243824922  84.96326116841942  63.38426341530244  -88.66758933902543  18.54560079763849  120.000000
10.2261  0.000000  0.000000  0.000000  -53.99023252227384  23.9239590981475  29.152098815423187  47.36098555527427  7.130001679330841  15.99152839114634  86.25307126096985  62.48872305793727  -87.88598505790014  18.61101871667894  120.000000
10.28355  0.000000  0.000000  0.000000  -51.62726734747166  23.34910313541739  25.332793812783265  46.182449860333406  7.3740816395004005  14.427816546092874  87.55557023731798  61.301495120525374  -86.77274800486921  18.630820759028055  120.000000
10.341000000000001  0.000000  0.000000  0.000000  -49.16563948449504  22.42707303224252  21.079951169267538  44.94493965405447  7.780457385879787  12.890664405050197  88.68565213300397  59.78722464930856  -85.20565887566009  18.60672305794789  120.000000
10.39845  0.000000  0.000000  0.000000  -46.75889432972388  21.1259367219817  16.588827936317536  43.72200992353955  8.352971864507483  11.473416420391665  89.47166946161587  57.915210602970106  -83.10760393161412  18.5667787522369  120.000000
10.4559  0.000000  0.000000  0.000000  -44.518358735265636  19.473078060200802  12.025810428728352  42.574502641813666  9.08276952000472  10.252617653275026  89.77451956760594  55.66898675029516  -80.4596553630382  18.571884079704695  120.000000
10.51335  0.000000  0.000000  0.000000  -42.50247848307347  17.534952897918938  7.513852859436653  41.54039993793959  9.949667026503988  9.287402542273108  89.50257417196691  53.05249454130729  -77.29509168785607  18.70412629344576  120.000000
10.5708  0.000000  0.000000  0.000000  -40.72724275238869  15.39766625947467  3.13492317407473  40.62891184291584  10.93021102469341  8.61481977523864  88.60958460847974  50.088506748319354  -73.6810959393259  19.037310832867252  120.000000
10.62825  0.000000  0.000000  0.000000  -39.18229763858835  13.15071188187333  -1.0555660912050777  39.83222389912784  12.007115745452039  8.247978633669305  87.08341409319698  46.81802412957766  -69.69762713880398  19.603670796488615  120.000000
10.6857  0.000000  0.000000  0.000000  -37.846571689479696  10.881887532084622  -5.013759927382012  39.14062332675628  13.165564281497211  8.182421685808277  84.94161317607151  43.301600674693695  -65.4286787803305  20.372354585986987  120.000000
10.74315  0.000000  0.000000  0.000000  -36.696548787564204  8.671803121392424  -8.69948369587147  38.55191253933366  14.389240982663223  8.399794767432537  82.23117700227118  39.61426497853529  -60.95498519601126  21.25632273469853  120.000000
10.8006  0.000000  0.000000  0.000000  -35.71512745766743  6.594631141729543  -12.075145842010663  38.06964221079813  15.655111184704081  8.870014250634426  79.03557427883904  35.83550928557727  -56.35946811410835  22.14365170521568  120.000000
10.85805  0.000000  0.000000  0.000000  -34.89636108629309  4.7131488962444985  -15.106874764996698  37.69626806440323  16.933735591470576  9.551211135970416  75.47618437165063  32.03990164235761  -51.730503020484534  22.929005573923433  120.000000
10.9155  0.000000  0.000000  0.000000  -34.249961061811064  3.0734711941617587  -17.76197868889205  37.41651703103105  18.189989227407217  10.397774872847693  71.71091832598185  28.291857509295397  -47.169580444705744  23.53431923932598  120.000000
10.97295  0.000000  0.000000  0.000000  -33.80120515464357  1.7125287192728527  -20.00989360477091  37.197876431334116  19.393106275601617  11.362387054077121  67.92337872595972  24.650196187760375  -42.79065384893974  23.911585444111914  120.000000
11.0304  0.000000  0.000000  0.000000  -33.57881332783361  0.6685711241577147  -21.827691300226476  37.009335887026396  20.53531652505414  12.387634743371871  64.30756152963797  21.17901346393603  -38.721545975439746  24.03453085345066  120.000000
11.08785  0.000000  0.000000  0.000000  -33.59839225524265  -0.02685486644511086  -23.206742357486007  36.84082052670988  21.640862042711834  13.402330668920435  61.072395635583845  17.949600116896573  -35.120505427545154  23.88297843109615  120.000000
11.1453  0.000000  0.000000  0.000000  -33.856623422717114  -0.3808018327743864  -24.15649602092651  36.68910262513467  22.74732914514354  14.341118031981859  58.49471617987823  15.011289576382882  -32.225689328889914  23.438095032470347  120.000000
11.20275  0.000000  0.000000  0.000000  -34.34011944382127  -0.4650887499657322  -24.707066108866456  36.54368581225919  23.87815141922707  15.174361873559173  56.97065235673846  12.375288848478455  -30.40764133045883  22.675375182581856  120.000000
11.260200000000001  0.000000  0.000000  0.000000  -35.02411423771506  -0.37303598036090735  -24.918646014417032  36.41440921343939  25.03695951839966  15.899731967144895  57.11456985443558  10.041224971379899  -30.266435978473194  21.576310604202742  120.000000
11.31765  0.000000  0.000000  0.000000  -35.87875800231144  -0.2055544217232949  -24.88048368600023  36.33627633528137  26.20612885126039  16.520367629041708  59.92088659377099  8.018615134641319  -32.794063726293544  20.127704156413817  120.000000
11.3751  0.000000  0.000000  0.000000  -36.869459494930965  -0.052868049459810613  -24.696608322731883  36.33873726791  27.33399286887463  17.05344939109053  67.0888279366432  6.330024397554339  -39.68897714360715  18.348720875480478  120.000000
11.43255  0.000000  0.000000  0.000000  -37.95620615611643  0.011689159535952582  -24.475648493236033  36.42792659284674  28.34731025443361  17.53274907661253  81.18275992120726  5.056640305791081  -53.51371387488796  16.309760400285775  120.000000
11.49  0.000000  0.000000  0.000000  -39.08492373296757  -0.04893169129069704  -24.32486084942881  36.62095304972442  29.182829927211582  17.978512639206286  104.21471900671925  4.444069051539315  -76.26514024327383  14.16759474884952  120.000000
