simulation
nRows=100
nColumns=15
endheader
time  TH_x TH_y TH_z SC_y  SC_z  SC_x  AC_y  AC_z  AC_x  GH_y  GH_z  GH_yy  EL_x  PS_y
0.000000  0.000000  0.000000  0.000000  -21.815094  2.748756  -7.120958  49.128402  14.649952  12.024605  57.274589  -5.535069  -3.415847  21.857724  103.026148
0.028788  0.000000  0.000000  0.000000  -21.791388  2.703254  -7.503517  49.520605  14.709105  12.319516  55.540922  -5.266875  -2.039618  21.304139  102.822254
0.057576  0.000000  0.000000  0.000000  -21.787804  2.707993  -7.756315  49.753849  14.794125  12.494018  54.689561  -4.563744  -1.615268  20.731328  102.656523
0.086364  0.000000  0.000000  0.000000  -21.804551  2.754454  -7.895304  49.858274  14.909164  12.568792  54.556525  -3.471859  -1.997323  20.155150  102.524613
0.115152  0.000000  0.000000  0.000000  -21.841839  2.834116  -7.939721  49.863419  15.060861  12.566366  54.977828  -2.037402  -3.040313  19.591459  102.422183
0.143939  0.000000  0.000000  0.000000  -21.899877  2.938460  -7.905688  49.799318  15.253548  12.506908  55.789489  -0.306554  -4.598766  19.056113  102.344891
0.172727  0.000000  0.000000  0.000000  -21.978876  3.058966  -7.813888  49.695169  15.495186  12.413414  56.827524  1.674503  -6.527211  18.564969  102.288396
0.201515  0.000000  0.000000  0.000000  -22.079045  3.187113  -7.683953  49.580303  15.793132  12.307992  57.927949  3.859585  -8.680175  18.133881  102.248356
0.230303  0.000000  0.000000  0.000000  -22.200594  3.314381  -7.534325  49.484247  16.154081  12.211751  58.926782  6.202512  -10.912187  17.778708  102.220430
0.259091  0.000000  0.000000  0.000000  -22.343733  3.432251  -7.383933  49.436472  16.585390  12.145860  59.660038  8.657101  -13.077775  17.515306  102.200276
0.287879  0.000000  0.000000  0.000000  -22.508670  3.532202  -7.253714  49.466138  17.096249  12.132484  59.963735  11.177170  -15.031467  17.359530  102.183554
0.316667  0.000000  0.000000  0.000000  -22.695482  3.606282  -7.160976  49.600774  17.693524  12.190735  59.684979  13.717706  -16.635677  17.325739  102.166222
0.345455  0.000000  0.000000  0.000000  -22.902059  3.655781  -7.093605  49.833380  18.363588  12.318261  58.851466  16.252749  -17.881211  17.403888  102.149150
0.374242  0.000000  0.000000  0.000000  -23.124517  3.689506  -7.011013  50.130098  19.072101  12.492887  57.637819  18.771837  -18.863340  17.564080  102.137200
0.403030  0.000000  0.000000  0.000000  -23.358916  3.716485  -6.868727  50.457580  19.781029  12.690637  56.222923  21.264957  -19.680362  17.775839  102.135350
0.431818  0.000000  0.000000  0.000000  -23.601319  3.745744  -6.624221  50.782575  20.453138  12.889789  54.785667  23.722099  -20.430580  18.008690  102.148579
0.460606  0.000000  0.000000  0.000000  -23.847875  3.786160  -6.235752  51.072569  21.051350  13.069656  53.502804  26.133145  -21.211085  18.232563  102.181817
0.489394  0.000000  0.000000  0.000000  -24.098842  3.839448  -5.690069  51.316950  21.559011  13.220304  52.450345  28.482946  -22.061849  18.436417  102.237734
0.518182  0.000000  0.000000  0.000000  -24.360278  3.897219  -5.027723  51.532267  21.999231  13.355482  51.562052  30.749255  -22.942195  18.636084  102.315809
0.546970  0.000000  0.000000  0.000000  -24.638679  3.950319  -4.287462  51.738124  22.393785  13.486474  50.760945  32.909288  -23.805354  18.849427  102.415277
0.575758  0.000000  0.000000  0.000000  -24.940542  3.989597  -3.510208  51.953207  22.766155  13.626011  49.970043  34.940260  -24.604558  19.094305  102.535377
0.604545  0.000000  0.000000  0.000000  -25.272350  4.005913  -2.750688  52.192217  23.150616  13.796199  49.112451  36.819408  -25.293089  19.388556  102.675337
0.633333  0.000000  0.000000  0.000000  -25.636021  3.995727  -2.017116  52.467568  23.544530  13.994572  48.143971  38.532447  -25.843692  19.740135  102.831371
0.662121  0.000000  0.000000  0.000000  -26.021987  3.969577  -1.292703  52.762674  23.925204  14.217932  47.102592  40.086392  -26.278037  20.132165  102.992108
0.690909  0.000000  0.000000  0.000000  -26.418907  3.940176  -0.542443  53.060115  24.255630  14.453333  46.039010  41.491555  -26.625359  20.543928  103.145009
0.719697  0.000000  0.000000  0.000000  -26.815438  3.920237  0.268128  53.342148  24.499344  14.688164  45.003921  42.758244  -26.914892  20.954706  103.277532
0.748485  0.000000  0.000000  0.000000  -27.200239  3.922471  1.169333  53.589557  24.623432  14.912427  44.048022  43.896772  -27.175870  21.343783  103.377136
0.777273  0.000000  0.000000  0.000000  -27.565560  3.955003  2.191103  53.791252  24.598888  15.113085  43.208845  44.917269  -27.432205  21.695691  103.439393
0.806061  0.000000  0.000000  0.000000  -27.920482  4.004452  3.306811  53.961490  24.457438  15.299679  42.462249  45.829028  -27.682877  22.019563  103.497895
0.834848  0.000000  0.000000  0.000000  -28.279013  4.051146  4.476775  54.123533  24.245396  15.486336  41.766043  46.641093  -27.919567  22.331733  103.597356
0.863636  0.000000  0.000000  0.000000  -28.655161  4.075410  5.658019  54.300690  24.011159  15.689753  41.078037  47.362513  -28.133956  22.648533  103.782493
0.892424  0.000000  0.000000  0.000000  -29.062933  4.057572  6.805743  54.517002  23.803832  15.928398  40.356037  48.002334  -28.317725  22.986296  104.098024
0.921212  0.000000  0.000000  0.000000  -29.513991  3.980305  7.877127  54.794280  23.668300  16.219464  39.564044  48.569161  -28.464102  23.358833  104.580496
0.950000  0.000000  0.000000  0.000000  -29.998648  3.847643  8.856017  55.124305  23.611907  16.556614  38.722380  49.067598  -28.580368  23.757000  105.192167
0.978788  0.000000  0.000000  0.000000  -30.495824  3.675017  9.741562  55.481799  23.622138  16.919295  37.881430  49.500114  -28.681312  24.159398  105.855638
1.007576  0.000000  0.000000  0.000000  -30.984331  3.477969  10.537059  55.840921  23.684212  17.283174  37.091863  49.869155  -28.781791  24.544517  106.493136
1.036364  0.000000  0.000000  0.000000  -31.442980  3.272039  11.246432  56.174615  23.783990  17.622406  36.404347  50.177170  -28.896663  24.890845  107.026889
1.065152  0.000000  0.000000  0.000000  -31.851120  3.072458  11.874791  56.456028  23.907313  17.910229  35.867523  50.426720  -29.039914  25.177538  107.382386
1.093939  0.000000  0.000000  0.000000  -32.198999  2.888185  12.423486  56.677876  24.043710  18.136593  35.488731  50.622718  -29.207757  25.397390  107.551620
1.122727  0.000000  0.000000  0.000000  -32.487048  2.722319  12.883884  56.850325  24.190762  18.311792  35.236745  50.772269  -29.379815  25.555926  107.588673
1.151515  0.000000  0.000000  0.000000  -32.716084  2.577736  13.247691  56.984788  24.345274  18.446983  35.078865  50.882562  -29.535074  25.659158  107.550002
1.180303  0.000000  0.000000  0.000000  -32.886928  2.457310  13.506040  57.092908  24.504209  18.553996  34.982388  50.960785  -29.652521  25.713099  107.492066
1.209091  0.000000  0.000000  0.000000  -33.000350  2.363942  13.648716  57.186201  24.665450  18.645499  34.914903  51.013996  -29.711328  25.723745  107.470870
1.237879  0.000000  0.000000  0.000000  -33.053895  2.302156  13.668552  57.268747  24.822643  18.725965  34.863864  51.040262  -29.703450  25.696035  107.511258
1.266667  0.000000  0.000000  0.000000  -33.039864  2.279117  13.563048  57.332193  24.962757  18.786864  34.848993  51.023040  -29.641605  25.633184  107.587459
1.295455  0.000000  0.000000  0.000000  -32.950075  2.302233  13.330872  57.367227  25.071299  18.818381  34.892966  50.944454  -29.540410  25.538252  107.669063
1.324242  0.000000  0.000000  0.000000  -32.776349  2.378912  12.970497  57.364449  25.133786  18.811056  35.018464  50.786622  -29.414486  25.414299  107.725661
1.353030  0.000000  0.000000  0.000000  -32.510511  2.516556  12.480940  57.314635  25.135353  18.754983  35.248165  50.531667  -29.278456  25.264381  107.726853
1.381818  0.000000  0.000000  0.000000  -32.149740  2.716445  11.862430  57.209749  25.069060  18.642697  35.606161  50.162884  -29.153016  25.091510  107.652856
1.410606  0.000000  0.000000  0.000000  -31.706894  2.961942  11.125715  57.046468  24.944518  18.471072  36.120673  49.667000  -29.076619  24.898551  107.514950
1.439394  0.000000  0.000000  0.000000  -31.197678  3.233151  10.283996  56.822170  24.773740  18.237784  36.820672  49.031367  -29.090953  24.688343  107.330068
1.468182  0.000000  0.000000  0.000000  -30.637801  3.510178  9.350319  56.533756  24.568370  17.941512  37.735131  48.243336  -29.237703  24.463725  107.115140
1.496970  0.000000  0.000000  0.000000  -30.042969  3.773127  8.339626  56.178263  24.337602  17.581157  38.893022  47.290258  -29.558556  24.227537  106.887100
1.525758  0.000000  0.000000  0.000000  -29.427945  4.004061  7.266595  55.756570  24.088360  17.160444  40.307112  46.161020  -30.076924  23.982330  106.662576
1.554545  0.000000  0.000000  0.000000  -28.802302  4.195815  6.140313  55.290017  23.824001  16.704375  41.901087  44.852929  -30.715773  23.729067  106.456530
1.583333  0.000000  0.000000  0.000000  -28.173840  4.344907  4.967910  54.807339  23.547124  16.244502  43.568195  43.366178  -31.363745  23.468171  106.283353
1.612121  0.000000  0.000000  0.000000  -27.550356  4.447855  3.758556  54.338192  23.259300  15.810102  45.201652  41.700957  -31.909449  23.200065  106.157437
1.640909  0.000000  0.000000  0.000000  -26.939649  4.501179  2.522306  53.912617  22.962341  15.428613  46.694677  39.857460  -32.241495  22.925170  106.093172
1.669697  0.000000  0.000000  0.000000  -26.349927  4.501653  1.271534  53.557682  22.658097  15.122601  47.951487  37.838173  -32.260084  22.643847  106.103786
1.698485  0.000000  0.000000  0.000000  -25.793894  4.448825  0.032648  53.265939  22.346520  14.882487  48.996339  35.670618  -31.991932  22.355788  106.189795
1.727273  0.000000  0.000000  0.000000  -25.287021  4.343955  -1.156923  53.008498  22.023863  14.678359  49.927380  33.397730  -31.541632  22.060277  106.343890
1.756061  0.000000  0.000000  0.000000  -24.844817  4.188326  -2.260045  52.754804  21.686243  14.481208  50.843838  31.062668  -31.014915  21.756588  106.558649
1.784848  0.000000  0.000000  0.000000  -24.482793  3.983220  -3.243851  52.472191  21.332788  14.265535  51.844944  28.708592  -30.517514  21.443997  106.826649
1.813636  0.000000  0.000000  0.000000  -24.215874  3.730173  -4.063808  52.131533  20.952722  13.998608  53.025033  26.377781  -30.150166  21.122039  107.139670
1.842424  0.000000  0.000000  0.000000  -24.043717  3.437282  -4.727398  51.730660  20.560845  13.688320  54.350670  24.089500  -29.883205  20.796992  107.468651
1.871212  0.000000  0.000000  0.000000  -23.949622  3.119675  -5.260163  51.306270  20.169029  13.361980  55.651569  21.838362  -29.547289  20.482354  107.762210
1.900000  0.000000  0.000000  0.000000  -23.916088  2.792826  -5.695103  50.896374  19.793382  13.053134  56.750733  19.617775  -28.966224  20.191981  107.967869
1.928788  0.000000  0.000000  0.000000  -23.925613  2.472206  -6.057699  50.541638  19.443277  12.791356  57.471161  17.421144  -27.963818  19.939728  108.033152
1.957576  0.000000  0.000000  0.000000  -23.960697  2.173281  -6.378566  50.282578  19.131856  12.609660  57.637198  15.242000  -26.365330  19.739391  107.906055
1.986364  0.000000  0.000000  0.000000  -24.003753  1.910682  -6.667936  50.132688  18.858091  12.513559  57.216180  13.087112  -24.150568  19.598700  107.585007
2.015152  0.000000  0.000000  0.000000  -24.037039  1.697477  -6.911621  50.047940  18.604087  12.468150  56.443325  10.988054  -21.588876  19.514015  107.162915
2.043939  0.000000  0.000000  0.000000  -24.042796  1.546563  -7.091185  49.975412  18.347919  12.434794  55.583298  8.979127  -18.981427  19.480449  106.743074
2.072727  0.000000  0.000000  0.000000  -24.003265  1.470837  -7.174192  49.861906  18.055415  12.367835  54.900767  7.094631  -16.629394  19.493110  106.428777
2.101515  0.000000  0.000000  0.000000  -23.900688  1.483195  -7.136824  49.649854  17.698458  12.228465  54.660384  5.368864  -14.833934  19.547112  106.323314
2.130303  0.000000  0.000000  0.000000  -23.725963  1.588354  -6.972601  49.302196  17.264953  11.993592  55.014421  3.826044  -13.772203  19.636766  106.480345
2.159091  0.000000  0.000000  0.000000  -23.499577  1.763080  -6.718956  48.859575  16.781635  11.688712  55.731115  2.455940  -13.197600  19.753659  106.783949
2.187879  0.000000  0.000000  0.000000  -23.248326  1.978173  -6.432974  48.378576  16.289055  11.359542  56.496736  1.240966  -12.773078  19.888797  107.082005
2.216667  0.000000  0.000000  0.000000  -22.999011  2.204436  -6.161827  47.918478  15.815947  11.050408  56.997554  0.163539  -12.161595  20.033186  107.222397
2.245455  0.000000  0.000000  0.000000  -22.778430  2.412668  -5.944343  47.541171  15.380680  10.804797  56.919840  -0.793927  -11.026105  20.177829  107.053004
2.274242  0.000000  0.000000  0.000000  -22.609767  2.577304  -5.808513  47.302136  14.994836  10.657705  56.014085  -1.649945  -9.098178  20.314777  106.454303
2.303030  0.000000  0.000000  0.000000  -22.492824  2.696288  -5.743265  47.193423  14.660853  10.599127  54.446132  -2.429043  -6.553156  20.442826  105.517573
2.331818  0.000000  0.000000  0.000000  -22.418102  2.776916  -5.728358  47.177353  14.383799  10.604239  52.547084  -3.158137  -3.742939  20.563459  104.417969
2.360606  0.000000  0.000000  0.000000  -22.376075  2.826508  -5.732616  47.212831  14.160313  10.641638  50.648463  -3.864152  -1.019883  20.678168  103.330856
2.389394  0.000000  0.000000  0.000000  -22.357220  2.852382  -5.724109  47.253138  13.984156  10.682606  49.081795  -4.574013  1.263657  20.788441  102.431604
2.418182  0.000000  0.000000  0.000000  -22.352315  2.861685  -5.657103  47.252991  13.835204  10.691745  48.156525  -5.312295  2.779062  20.895684  101.883786
2.446970  0.000000  0.000000  0.000000  -22.356130  2.859231  -5.517771  47.203082  13.697851  10.656394  47.889796  -6.072481  3.511969  21.000166  101.694824
2.475758  0.000000  0.000000  0.000000  -22.366264  2.848189  -5.351516  47.116741  13.588074  10.603650  48.091724  -6.826033  3.670592  21.101357  101.761549
2.504545  0.000000  0.000000  0.000000  -22.380377  2.831692  -5.173433  47.014881  13.499763  10.538781  48.568045  -7.543947  3.467852  21.198708  101.978449
2.533333  0.000000  0.000000  0.000000  -22.396125  2.812874  -5.002319  46.918098  13.429108  10.470133  49.124493  -8.197219  3.116671  21.291670  102.240011
2.562121  0.000000  0.000000  0.000000  -22.411163  2.794853  -4.876839  46.842843  13.386288  10.421076  49.569723  -8.757376  2.826839  21.379685  102.442304
2.590909  0.000000  0.000000  0.000000  -22.422886  2.780301  -4.796108  46.798156  13.361204  10.391722  49.813014  -9.214310  2.700143  21.461878  102.535842
2.619697  0.000000  0.000000  0.000000  -22.428383  2.771335  -4.748078  46.778536  13.346991  10.378913  49.887319  -9.580480  2.705631  21.536980  102.538054
2.648485  0.000000  0.000000  0.000000  -22.424720  2.770040  -4.717367  46.778178  13.335290  10.377134  49.833187  -9.869731  2.804198  21.603700  102.470480
2.677273  0.000000  0.000000  0.000000  -22.408967  2.778498  -4.700549  46.789416  13.326569  10.389149  49.691166  -10.095907  2.956737  21.660747  102.354660
2.706061  0.000000  0.000000  0.000000  -22.378190  2.798795  -4.671535  46.808268  13.304799  10.401752  49.501806  -10.272856  3.124144  21.706830  102.212135
2.734848  0.000000  0.000000  0.000000  -22.329457  2.833013  -4.623180  46.827635  13.267722  10.415107  49.305654  -10.414420  3.267314  21.740656  102.064444
2.763636  0.000000  0.000000  0.000000  -22.259837  2.883236  -4.544805  46.840925  13.210476  10.426942  49.143261  -10.534447  3.347141  21.760934  101.933127
2.792424  0.000000  0.000000  0.000000  -22.166397  2.951550  -4.425982  46.841438  13.128385  10.435159  49.055173  -10.646780  3.324521  21.766373  101.839724
2.821212  0.000000  0.000000  0.000000  -22.046205  3.040036  -4.238816  46.825194  13.004130  10.425306  49.081940  -10.765266  3.160347  21.755682  101.805774
2.850000  0.000000  0.000000  0.000000  -21.896328  3.150780  -3.985314  46.783413  12.842431  10.403686  49.264112  -10.903749  2.815516  21.727568  101.852819
