Simulation
nRows=71
nColumns=15
endheader
time  TH_x TH_y TH_z SC_y  SC_z  SC_x  AC_y  AC_z  AC_x  GH_y  GH_z  GH_yy  EL_x  PS_y
0.0  0.000000  0.000000  0.000000  -25.05491388707012  1.2158544781314655  -1.7292346892565948  53.32788185903465  10.492508419757634  7.589675530370484  -137.21087979670747  9.376615056826383  -168.02465987592882  22.148988559834855  120.000000
0.04071428571428568  0.000000  0.000000  0.000000  -23.858151264328626  1.897913298676254  -1.9217914230830022  52.626720532524715  10.909498112343956  7.737914158548333  -137.0073210575744  6.845291739126467  -169.63137059354065  21.152401903447508  120.000000
0.08142857142857136  0.000000  0.000000  0.000000  -22.895852446745845  2.374275827173851  -2.1249129485466076  51.94107951498331  11.250756399820064  7.981790602595079  -138.7565510552922  4.209539451407231  -169.2658669030185  20.222559047194203  120.000000
0.12214285714285705  0.000000  0.000000  0.000000  -22.23557277832772  2.719386429674957  -2.3547575486589625  51.367865158866714  11.592945280203066  8.263882007336072  -155.66952837833142  1.485757830365396  -153.74623604089206  19.392311088340886  120.000000
0.16285714285714273  0.000000  0.000000  0.000000  -21.889098565671656  2.9967411040798564  -2.6248522822435  50.95556164595453  12.005402685276586  8.56195599601212  76.9599675551054  1.8685154042888525  -27.838990760047547  18.686108440544537  120.000000
0.2035714285714284  0.000000  0.000000  0.000000  -21.818539140718656  3.2530510394708894  -2.9240808373850125  50.693283668679044  12.535529795706756  8.896852382276888  63.997361646519735  4.938121856730049  -16.46062704556421  18.12500772809473  120.000000
0.2442857142857141  0.000000  0.000000  0.000000  -21.966347564061564  3.5039862623399762  -3.2347279361227255  50.54901814397083  13.203129936494353  9.287590124752084  61.37875962926477  8.15515682199741  -15.613895650378455  17.727668124799898  120.000000
0.28499999999999975  0.000000  0.000000  0.000000  -22.26818945817936  3.738750024354  -3.533733807133042  50.51680890063466  14.011442834831877  9.740191764780047  60.11273262852721  11.437808900564603  -16.351399046481784  17.508137487905138  120.000000
0.32571428571428546  0.000000  0.000000  0.000000  -22.670462403384963  3.9373632195741117  -3.7940100112249078  50.59487359294787  14.948567110234702  10.252111819370946  59.03689597133891  14.765707518467934  -17.520597619050974  17.47009458823285  120.000000
0.36642857142857116  0.000000  0.000000  0.000000  -23.139627101415808  4.090718142382816  -3.992087666353379  50.79487392569904  15.996100648533874  10.801409660133945  57.887422700385315  18.13418695031437  -18.826221026645133  17.590521558720457  120.000000
0.4071428571428568  0.000000  0.000000  0.000000  -23.653257648145615  4.207334708667975  -4.10712307425868  51.11849598795452  17.129370251044513  11.359611373423066  56.63033533521987  21.527439753268222  -20.17141737543183  17.824324321116766  120.000000
0.4478571428571425  0.000000  0.000000  0.000000  -24.198764627410586  4.301879981847169  -4.120976572010533  51.543501539420596  18.313272478169974  11.905600670003132  55.29284611877446  24.910361643201444  -21.509611750836974  18.118581477004334  120.000000
0.4885714285714282  0.000000  0.000000  0.000000  -24.768711120072847  4.389177082310928  -4.01860266209114  52.038984174933844  19.510004452784383  12.421062378125118  53.91450400895556  28.235280598453258  -22.815892679891697  18.435318440000742  120.000000
0.5292857142857139  0.000000  0.000000  0.000000  -25.355368700863757  4.483095621069417  -3.789245899347891  52.5687848921208  20.67774154396742  12.894449386858208  52.518841305420345  31.447588206743948  -24.06905003367491  18.768467982044857  120.000000
0.5699999999999995  0.000000  0.000000  0.000000  -25.94982422220353  4.595214525591969  -3.4253239459032927  53.10060753691299  21.776682609116197  13.318974863142241  51.11915523807222  34.49293840379196  -25.261408121288518  19.13590391922843  120.000000
0.6107142857142852  0.000000  0.000000  0.000000  -26.539931101378098  4.736315610339163  -2.92090899009572  53.60786374156204  22.772144176111002  13.693450458046255  49.723824628596226  37.323744110364785  -26.393707535670114  19.560114536078185  120.000000
0.6514285714285709  0.000000  0.000000  0.000000  -27.110626893119573  4.916719807431243  -2.268737577849288  54.06993006858716  23.638560483927478  14.021318503315063  48.346352923225815  39.903194921655704  -27.478383516270192  20.046334602003455  120.000000
0.6921428571428566  0.000000  0.000000  0.000000  -27.646843479009377  5.145710331816889  -1.4582402734156852  54.47123370195645  24.36094215560941  14.309072202978184  47.00500392902272  42.20656893543607  -28.53146960125452  20.575577036862295  120.000000
0.7328571428571423  0.000000  0.000000  0.000000  -28.136044719084577  5.427853545803146  -0.47582499167929626  54.80025535585605  24.93588664206737  14.563396024670643  45.716987565291156  44.21850465639434  -29.567179902422197  21.11567739612475  120.000000
0.7735714285714279  0.000000  0.000000  0.000000  -28.569430062865973  5.755951989496204  0.6914066703731343  55.04894857840363  25.371086143065327  14.789793639743824  44.49110292013512  45.928879800045046  -30.58990109807146  21.64031288131602  120.000000
0.8142857142857136  0.000000  0.000000  0.000000  -28.941682755253474  6.108254496606328  2.0484169235673395  55.21271493423602  25.682813066068913  14.99252812044769  43.32523966729621  47.330648093707  -31.591301533119008  22.143917512518644  120.000000
0.8549999999999993  0.000000  0.000000  0.000000  -29.249667372195546  6.450281862547653  3.5846107826523568  55.28827734510604  25.891884660062573  15.178362575411686  42.21050725234917  48.41948943477645  -32.54752882787064  22.64114384670224  120.000000
0.895714285714285  0.000000  0.000000  0.000000  -29.490823835548078  6.740596572293706  5.267167383243766  55.27193779839287  26.019259628046836  15.359397884324544  41.138980246337425  49.19868419180538  -33.42075764795598  23.15139933336166  120.000000
0.9364285714285707  0.000000  0.000000  0.000000  -29.663815798674058  6.9403991109953775  7.039405981705032  55.15832220747108  26.08095042122257  15.555135297931571  40.11244557474995  49.68546810189351  -34.163929682241324  23.680209938899612  120.000000
0.9771428571428564  0.000000  0.000000  0.000000  -29.770351149739373  7.022281293274673  8.824393492611216  54.94457957313479  26.085967865803866  15.787734867373228  39.14577158393425  49.916900570333794  -34.73033350439577  24.209312189454963  120.000000
1.0178571428571421  0.000000  0.000000  0.000000  -29.81722198803898  6.975194719736727  10.53707562477299  54.63864133066159  26.03636792229578  16.07068166395533  38.26446945440239  49.949572356625005  -35.08774643260711  24.70100035820716  120.000000
1.0585714285714278  0.000000  0.000000  0.000000  -29.818165472083038  6.808623438756093  12.099616035011742  54.26806681166984  25.930392198635605  16.395508890572646  37.49656306747637  49.852989989830576  -35.231106727131994  25.1152790166785  120.000000
1.0992857142857133  0.000000  0.000000  0.000000  -29.794740203789257  6.553214998010883  13.4536080733589  53.88460479614078  25.77255883204486  16.7273407576256  36.86870692400415  49.694732067573334  -35.18969504807285  25.425123086994986  120.000000
1.139999999999999  0.000000  0.000000  0.000000  -29.764963586106447  6.252509223424203  14.566124404871115  53.55681615242259  25.579806092080418  17.007852917998598  36.40291846046323  49.52566027771007  -35.02511897652096  25.62221892571158  120.000000
1.1807142857142847  0.000000  0.000000  0.000000  -29.73051860157269  5.951485091488148  15.428867408796854  53.352491624008636  25.372519053273262  17.165959953661964  36.11248560497281  49.37342249787417  -34.81639211328709  25.714347395501818  120.000000
1.2214285714285704  0.000000  0.000000  0.000000  -29.683085480538587  5.692419594263755  16.050579492028845  53.32858140796868  25.161254770446043  17.131505446189287  36.00427866415251  49.243958963622724  -34.64142630252767  25.71586378392938  120.000000
1.2621428571428561  0.000000  0.000000  0.000000  -29.615269658643836  5.51351865326147  16.443743258575854  53.524873409016884  24.939786992895677  16.84617858555732  36.083522073026145  49.12876895956753  -34.5610411896097  25.641181624902575  120.000000
1.3028571428571418  0.000000  0.000000  0.000000  -29.525913560172825  5.4406372798649105  16.6162778798771  53.95691388871952  24.680232078663582  16.27619429218574  36.35667976782748  49.0108781559908  -34.60529166626932  25.502380530236266  120.000000
1.3435714285714275  0.000000  0.000000  0.000000  -29.42368265846345  5.477921760100192  16.571020567438577  54.61022033951858  24.33045942310602  15.426392755149188  36.836098610097814  48.86707927862549  -34.770334866175915  25.309198406629157  120.000000
1.3842857142857132  0.000000  0.000000  0.000000  -29.32294986449853  5.600873509652875  16.307669310958868  55.431149837329585  23.82214728199245  14.35432100683879  37.54165338739333  48.6631509898031  -35.021904727256825  25.071224567892422  120.000000
1.424999999999999  0.000000  0.000000  0.000000  -29.230631631292557  5.756894069118488  15.824786984872361  56.32285767250579  23.095735851085493  13.16862977771048  38.49368220469763  48.34362950024519  -35.30405783776784  24.79802303167764  120.000000
1.4657142857142846  0.000000  0.000000  0.000000  -29.13690915226084  5.883142383670504  15.12042908458566  57.15930013778965  22.1341577062685  12.003340249310066  39.70044526543044  47.82414545578857  -35.55065845696538  24.49801526378356  120.000000
1.5064285714285703  0.000000  0.000000  0.000000  -29.014378745613406  5.931254801854345  14.190893493317837  57.81658673241161  20.984536557501823  10.97978460870348  41.14516800773623  46.99834558085441  -35.69522767602393  24.17637939119886  120.000000
1.5471428571428558  0.000000  0.000000  0.000000  -28.823170948103414  5.8807494214330625  13.03436485126088  58.20470969591946  19.749180246609228  10.175323097851063  42.77863491618133  45.76141640012741  -35.679111902770856  23.834855169534475  120.000000
1.5878571428571415  0.000000  0.000000  0.000000  -28.526544935981633  5.736291492263734  11.66270976198665  58.28732410298432  18.549756019082324  9.613004380975257  44.52460830123756  44.039505523901205  -35.458622047390634  23.47335750633902  120.000000
1.6285714285714272  0.000000  0.000000  0.000000  -28.109283060629586  5.517224235890915  10.106428095573078  58.08086904843954  17.49003498083138  9.274459547826446  46.298979614015394  41.81382558997839  -35.01342277173106  23.09103746822902  120.000000
1.669285714285713  0.000000  0.000000  0.000000  -27.586376773499136  5.243682043227853  8.407199635382346  57.63702872617558  16.64011161434519  9.12135535218896  48.032073067713995  39.126120714593  -34.35375127693972  22.68747404572864  120.000000
1.7099999999999986  0.000000  0.000000  0.000000  -27.00237096236228  4.926032254131047  6.60647248997559  57.020181531498025  16.036111762544902  9.11259231837517  49.684820999851844  36.06850938958703  -33.52010829496314  22.263318316823835  120.000000
1.7507142857142843  0.000000  0.000000  0.000000  -26.423313315253953  4.566807307959472  4.739154753859922  56.290137505681294  15.687191348810165  9.214926725216975  51.254397837359875  32.76221044886835  -32.5759382579903  21.821802292087423  120.000000
1.79142857142857  0.000000  0.000000  0.000000  -25.918218481577807  4.168036343673549  2.834523543459138  55.496124868536825  15.585217778644912  9.406601237590259  52.760502886572255  29.332424233643604  -31.58554502744079  21.371176327421868  120.000000
1.8321428571428557  0.000000  0.000000  0.000000  -25.534577050017713  3.7383564391735917  0.9203759986463674  54.678045082758004  15.712413678891014  9.676746813012382  54.22005290060712  25.88692219890176  -30.58585982131127  20.926602920785278  120.000000
1.8728571428571414  0.000000  0.000000  0.000000  -25.2805443493451  3.29647424476435  -0.9743962514413367  53.87073562034543  16.044950151418377  10.023043305422235  55.623424006511  22.50322986834878  -29.56611746076765  20.50989359251084  120.000000
1.9135714285714271  0.000000  0.000000  0.000000  -25.12500406091463  2.8681931081789567  -2.8208100571345445  53.10333778636512  16.552193064632565  10.447564171496593  56.932016398305215  19.228189134877454  -28.4757239722918  20.14551457432864  120.000000
1.9542857142857128  0.000000  0.000000  0.000000  -25.016066422790242  2.48143595743157  -4.593186671309977  52.3919126448757  17.194398496997355  10.95083615611474  58.106243982006475  16.08724611537022  -27.26782311290556  19.855287900421516  120.000000
1.9949999999999983  0.000000  0.000000  0.000000  -24.906417682038192  2.1629270049046694  -6.273866268310851  51.73228048315181  17.923891500070106  11.52511318428824  59.161589533439994  13.10066989479816  -25.969229067562015  19.65441608422128  120.000000
2.0357142857142843  0.000000  0.000000  0.000000  -24.770927872001963  1.9351699415531185  -7.853775927280546  51.09890766477038  18.69062050379818  12.153009680413556  60.257281157711304  10.295260636254781  -24.77263850498357  19.551443823467253  120.000000
2.0764285714285697  0.000000  0.000000  0.000000  -24.609092587829863  1.811545698261918  -9.327345247562091  50.456473608704044  19.44823664962399  12.813642484056588  61.8266048699091  7.702805471218227  -24.15811364739405  19.547912325093712  120.000000
2.1171428571428557  0.000000  0.000000  0.000000  -24.433387589278418  1.7924589535863804  -10.688561695549833  49.77941735951353  20.159135909676714  13.488184993026815  64.90857169485687  5.354997606078997  -25.20703812491639  19.6354000481778  120.000000
2.157857142857141  0.000000  0.000000  0.000000  -24.255452327974606  1.8626002832802642  -11.92942669883223  49.072484854908446  20.798539205780376  14.159878590616852  72.48173461858075  3.2917544456647665  -30.919998182947275  19.79543968439185  120.000000
2.1985714285714266  0.000000  0.000000  0.000000  -24.077604278994883  1.9927235980947582  -13.042098840360048  48.375040282209945  21.35352440028319  14.81246035470809  97.13427621279328  1.667664472393818  -53.8859808591618  19.999881244769124  120.000000
2.2392857142857125  0.000000  0.000000  0.000000  -23.89389586643037  2.14692138761994  -14.02082949828987  47.742936668800766  21.82006937417109  15.431381333952501  164.07511453780492  1.3717529402852258  -119.30455358035171  20.21577942669289  120.000000
2.279999999999998  0.000000  0.000000  0.000000  -23.70228147974288  2.291175232971305  -14.862588256569563  47.22167269034966  22.201691545316308  16.00535431537215  -162.82025777827283  2.450362453427119  -151.04327283150218  20.417279598499924  120.000000
2.320714285714284  0.000000  0.000000  0.000000  -23.51377990876785  2.4033112666967233  -15.57011009462387  46.82864403063887  22.508142729239957  16.524339886867583  -152.9619522328555  3.673812947196606  -159.69609452012006  20.593769058396695  120.000000
2.3614285714285694  0.000000  0.000000  0.000000  -23.352055880260586  2.4777169408619693  -16.152477610820316  46.55374116528381  22.75559677086597  16.976094262449326  -148.93787722648992  4.805465995963424  -162.691341735212  20.749486449522596  120.000000
2.4021428571428554  0.000000  0.000000  0.000000  -23.244192507705584  2.521398976186657  -16.62231828123137  46.36517887527814  22.961956295653785  17.352905797761096  -146.967100075939  5.818205159567943  -163.82497800394094  20.896351534777136  120.000000
2.442857142857141  0.000000  0.000000  0.000000  -23.204825609225487  2.5470672958245046  -16.994274392896376  46.22530096266892  23.142165366761308  17.65489378130114  -145.83008712707766  6.717004340093416  -164.31853819361314  21.043040381242747  120.000000
2.4835714285714268  0.000000  0.000000  0.000000  -23.226534506551758  2.565872801089883  -17.283331101747514  46.107167594941565  23.306962413299626  17.88923556588223  -144.97766302667227  7.513005057048148  -164.7036512668917  21.189848259885107  120.000000
2.5242857142857122  0.000000  0.000000  0.000000  -23.28395829249499  2.5835304463465243  -17.50341514239628  45.9995570224918  23.462748335047134  18.06799511471225  -144.14004097239342  8.216579182123466  -165.21792015784712  21.329742430928874  120.000000
2.564999999999998  0.000000  0.000000  0.000000  -23.346275732685484  2.6013181929401648  -17.666793145018584  45.903872359853516  23.612553589276786  18.20303624766948  -143.23305314031347  8.835062824378214  -165.9115024606735  21.453415698422546  120.000000
2.6057142857142837  0.000000  0.000000  0.000000  -23.390007277365054  2.6183337346505318  -17.78385441938528  45.82682759657504  23.757496620177264  18.303347580987285  -142.30539920944472  9.373969841452888  -166.70948208628326  21.554082894096748  120.000000
2.646428571428569  0.000000  0.000000  0.000000  -23.40519743039064  2.6314329312581117  -17.864396041576057  45.77583671960926  23.898272002464417  18.372778590548958  -141.50338403932423  9.836936544691396  -167.45400262739744  21.629555341306375  120.000000
2.687142857142855  0.000000  0.000000  0.000000  -23.3920831744512  2.6330924795179755  -17.919211942338293  45.76082832646086  24.03643123605049  18.409707453738733  -141.03966405169894  10.224750203031144  -167.9339209984059  21.684031709030222  120.000000
2.7278571428571405  0.000000  0.000000  0.000000  -23.35733073559987  2.6091140768296577  -17.962055291121246  45.801357678797416  24.173258759656488  18.406696692678683  -141.18617450524096  10.531244598027385  -167.8892199152956  21.729039509970406  120.000000
2.7685714285714265  0.000000  0.000000  0.000000  -23.310017066212463  2.5305969886717334  -18.009079595112336  45.92156444333061  24.307726596747997  18.35529420096273  -142.2302003674798  10.747268622283071  -167.05016933026818  21.784923796489743  120.000000
2.809285714285712  0.000000  0.000000  0.000000  -23.256540046612482  2.3468926004597535  -18.06974862566315  46.1276520414972  24.4268825780032  18.268703509641675  -144.31374957838  10.885410020757272  -165.28290882943543  21.867409824405588  120.000000
2.849999999999998  0.000000  0.000000  0.000000  -23.224868555685216  1.9987997627532796  -18.146765991568085  46.38211444275966  24.503008247335433  18.189221572303268  -147.35462495878167  10.987209593550489  -162.66804447938344  21.983507587308356  120.000000
