Simulation
nRows=101
nColumns=15
endheader
time  TH_x TH_y TH_z SC_y  SC_z  SC_x  AC_y  AC_z  AC_x  GH_y  GH_z  GH_yy  EL_x  PS_y
0.0  0.000000  0.000000  0.000000  -23.95639538732779  2.6400627000853523  8.882465046542347  54.617196681856676  1.4456936421264108  0.4907855585676441  -133.82119533274704  6.027425640855585  -174.2306396713542  21.940918307080047  120.000000
0.02849999999999998  0.000000  0.000000  0.000000  -23.744907155278618  2.677776309688215  7.892763198946904  54.48782213212464  2.4035294511921697  1.0148072899476726  -135.53034075638647  4.559558031780256  -172.5465548067407  21.313959073017013  120.000000
0.05699999999999996  0.000000  0.000000  0.000000  -23.559176647268387  2.707421312996443  6.913340844549279  54.34937369455404  3.301613596044789  1.5158685674290306  -139.68655847441087  3.095940937183343  -168.64077676883431  20.7076016486787  120.000000
0.08549999999999994  0.000000  0.000000  0.000000  -23.418544678584276  2.744664748811876  5.970561874769722  54.198507524959886  4.167816479403928  1.9909163880013407  -152.64727565720702  1.6617746067171633  -156.12308251081845  20.122486576696854  120.000000
0.11399999999999992  0.000000  0.000000  0.000000  -23.334257661630666  2.800950679433955  5.089349476282764  54.039073978211306  5.022798421635277  2.4364589575935  137.12885674552447  0.796900471437222  -86.5091296969  19.564542650854335  120.000000
0.1424999999999999  0.000000  0.000000  0.000000  -23.30773798038823  2.8770914862346464  4.291901278450298  53.8802653056555  5.876515405578957  2.8521175105929064  80.3344224319574  1.9645631367999392  -30.478315460128105  19.043040998910637  120.000000
0.17099999999999987  0.000000  0.000000  0.000000  -23.33489662803085  2.9690389060231426  3.5960163199217834  53.73319148263413  6.730035910396849  3.2397937146178872  69.58290501257582  3.670998301801292  -20.644526707762406  18.570201157397147  120.000000
0.19949999999999987  0.000000  0.000000  0.000000  -23.406595494243337  3.0690753213862103  3.013399282441834  53.61064273970675  7.577908621939605  3.601133044536007  65.71619867619061  5.554259307683779  -17.85510510150984  18.15898067750328  120.000000
0.22799999999999984  0.000000  0.000000  0.000000  -23.51310088269327  3.1700166646300616  2.5493922974080157  53.524800265736104  8.411089443972891  3.93690036837016  63.73098758758429  7.584119664329216  -17.114485671076928  17.823490167170558  120.000000
0.25649999999999984  0.000000  0.000000  0.000000  -23.64451456440511  3.2650679533977214  2.2047985903646063  53.48642916736905  9.220099339042427  4.24727572984922  62.412504582258684  9.745707020910887  -17.210904674695684  17.576344774936672  120.000000
0.2849999999999998  0.000000  0.000000  0.000000  -23.793738318170345  3.3498733077433127  1.9773538648890638  53.50351250811309  9.997258671090487  4.532455215223026  61.32628873257241  12.020289087759995  -17.706915474910872  17.427117023983794  120.000000
0.3134999999999998  0.000000  0.000000  0.000000  -23.95579079315566  3.4227759022712245  1.863161331114099  53.581248428668424  10.73814326272785  4.79204671594135  60.29122421439725  14.384486422346143  -18.40885174887274  17.378184969927354  120.000000
0.34199999999999975  0.000000  0.000000  0.000000  -24.129429729182707  3.4849496146741785  1.8578974894789229  53.72082948109927  11.441784626967943  5.026193189125593  59.23294995948064  16.811892125074593  -19.220192162982556  17.422830397802592  120.000000
0.3704999999999997  0.000000  0.000000  0.000000  -24.31532290732516  3.5396896906991353  1.956592837636729  53.92007096316546  12.109547522599089  5.234476277874788  58.13292087820633  19.2760422070095  -20.09248850563811  17.544423564193202  120.000000
0.39899999999999974  0.000000  0.000000  0.000000  -24.516046382677796  3.5908878402691284  2.154885109763984  54.17285354882629  12.744314888136925  5.4182136430417165  56.99935122501526  21.75050641235188  -20.996652869797515  17.720446754926513  120.000000
0.4274999999999997  0.000000  0.000000  0.000000  -24.73300296590125  3.6425556911270496  2.4479899667847964  54.471159054425435  13.348931430806495  5.578885184921591  55.85195951775057  24.210790273918168  -21.91532269752181  17.927424112075695  120.000000
0.4559999999999997  0.000000  0.000000  0.000000  -24.967671709718296  3.697423082744857  2.8313468542135  54.80488598971965  13.925539955564478  5.719941943019497  54.71214429897105  26.6331164754134  -22.834968081919474  18.14662582454568  120.000000
0.48449999999999965  0.000000  0.000000  0.000000  -25.22017959370716  3.756869323161313  3.2984900421698304  55.16406111124475  14.47384497573984  5.844083885942993  53.59577214744243  28.996367692861956  -23.746646228505444  18.367861242971014  120.000000
0.5129999999999997  0.000000  0.000000  0.000000  -25.49034443661293  3.82113762866078  3.842316830877749  55.53856108371397  14.992063661343295  5.9545991520124115  52.510986832576194  31.279921283561045  -24.640391688748473  18.591569799881334  120.000000
0.5414999999999996  0.000000  0.000000  0.000000  -25.776384885656885  3.8898079975409985  4.454115275694158  55.91881571520941  15.476392901320452  6.053658270568523  51.458215262135084  33.46544173133208  -25.508219293672273  18.826029596076577  120.000000
0.5699999999999996  0.000000  0.000000  0.000000  -26.075881324364058  3.962612718054561  5.1255302369321125  56.29536442168701  15.922762875503688  6.143904230482559  50.43339908792936  35.53542638386388  -26.342307609811762  19.083353586544547  120.000000
0.5984999999999996  0.000000  0.000000  0.000000  -26.38460607342427  4.04060591381259  5.8481096113722995  56.65951844804615  16.327148551614275  6.2266388504678565  49.43160563290593  37.475555846035185  -27.138504317590645  19.37352332339028  120.000000
0.6269999999999996  0.000000  0.000000  0.000000  -26.69721267439474  4.125661089707488  6.615502286464884  57.00291894053041  16.686782330548077  6.304131814363467  48.45023474112235  39.27386729803977  -27.895167397939286  19.700637843637185  120.000000
0.6554999999999995  0.000000  0.000000  0.000000  -27.006341706026273  4.2198407591674325  7.423374990944159  57.31727848663297  16.999979894587437  6.3792278030868195  47.490361065340196  40.9220942349333  -28.614380050844844  20.060255196075893  120.000000
0.6839999999999995  0.000000  0.000000  0.000000  -27.304683391736816  4.326266933562391  8.270572899188027  57.594975151936154  17.267104489860422  6.454907966388565  46.5560529904782  42.414946450730824  -29.299777051798394  20.44098821332676  120.000000
0.7124999999999995  0.000000  0.000000  0.000000  -27.584824323148588  4.447934975670834  9.157965713051262  57.82941486302743  17.49004434514438  6.533576324379687  45.65213574850508  43.749989789332574  -29.956120979616195  20.82760533484016  120.000000
0.7409999999999994  0.000000  0.000000  0.000000  -27.840620618966025  4.58583160389156  10.088999360038086  58.01531492595473  17.671556861099557  6.618124587063679  44.78372091602931  44.927213436079526  -30.5879276793083  21.206305928489016  120.000000
0.7694999999999995  0.000000  0.000000  0.000000  -28.06675064491541  4.738310832722324  11.06805582570288  58.149328806233314  17.814675368405073  6.711520290971202  43.95378060140056  45.94812847685853  -31.198641349731123  21.568550915361115  120.000000
0.7979999999999995  0.000000  0.000000  0.000000  -28.261070737692545  4.901270444023376  12.100522667318767  58.2298428835695  17.922494801256803  6.816390675563814  43.161887178864916  46.81635493529188  -31.788691753548864  21.913711028919927  120.000000
0.8264999999999995  0.000000  0.000000  0.000000  -28.42434079264395  5.068659612047634  13.190903497409545  58.25654944058246  17.99797627811609  6.935219231880201  42.4039100404407  47.5364501565761  -32.35526275538755  22.24800400924019  120.000000
0.8549999999999994  0.000000  0.000000  0.000000  -28.56001196734812  5.232117426132404  14.341400907316743  58.23049080508736  18.042204612311608  7.070752744165409  41.67402375035603  48.115422519211485  -32.8917140271141  22.581753227062006  120.000000
0.8834999999999994  0.000000  0.000000  0.000000  -28.67249254828614  5.382617545469032  15.549689454027167  58.15460703201247  18.053921883754843  7.2261479032561775  40.96813208424645  48.561484872358854  -33.38978150441413  22.925148234060636  120.000000
0.9119999999999994  0.000000  0.000000  0.000000  -28.76689849787485  5.511626196228524  16.80820677779598  58.03417764824658  18.028281250452736  7.4040310960726  40.285630122250545  48.88707305667245  -33.838927316782886  23.28420272295798  120.000000
0.9404999999999993  0.000000  0.000000  0.000000  -28.849309747570633  5.612912890866131  18.104734911652052  57.87622712189161  17.958570832210775  7.605904247715761  39.62919215400457  49.10713001455134  -34.22869497486998  23.657680691118482  120.000000
0.9689999999999993  0.000000  0.000000  0.000000  -28.927989131218283  5.683430180456822  19.423039797176386  57.689186150328304  17.83733852868248  7.8298623694861496  39.00357550281849  49.24225174217619  -34.54791795356213  24.036261812961417  120.000000
0.9974999999999993  0.000000  0.000000  0.000000  -29.0112322174503  5.722855368143168  20.74390962250253  57.48378498784854  17.658901694805593  8.070076206855196  38.41491651026529  49.31364696002461  -34.78891178995992  24.405030241146083  120.000000
1.0259999999999994  0.000000  0.000000  0.000000  -29.106112866721595  5.733802391122487  22.04607858552779  57.273308793215115  17.42031777535988  8.314974907604501  37.87032159263206  49.34463004966238  -34.94808503570026  24.74671048578613  120.000000
1.0544999999999993  0.000000  0.000000  0.000000  -29.21699875579059  5.720982119229255  23.30814160104219  57.07300172303002  17.12313208835591  8.5490986151779  37.37665580987768  49.354185181065965  -35.027965205788675  25.046071819594463  120.000000
1.0829999999999993  0.000000  0.000000  0.000000  -29.343109265942992  5.690709454561712  24.50848637648086  56.898683015811606  16.77436714852601  8.754505807249068  36.94100540059818  49.357997852189065  -35.03796507312451  25.292513696204757  120.000000
1.1114999999999993  0.000000  0.000000  0.000000  -29.478327357360893  5.649797506890006  25.626654015717214  56.76480843364304  16.387037915399965  8.914515990570198  36.56961065399881  49.364402137711025  -34.99239085880411  25.48158839601746  120.000000
1.1399999999999992  0.000000  0.000000  0.000000  -29.61257468723255  5.6034729768648734  26.64432961444866  56.68097157355258  15.978050374296858  9.016113233969294  36.26679625450258  49.37741148690393  -34.909617712266005  25.613761101547446  120.000000
1.1684999999999992  0.000000  0.000000  0.000000  -29.734734224203685  5.554698298202712  27.54594572391342  56.651371576027195  15.565300917886816  9.050685170331972  36.03476389549064  49.395634331223484  -34.80745293121768  25.692827177192445  120.000000
1.1969999999999992  0.000000  0.000000  0.000000  -29.83280165676089  5.504864356465688  28.317494533032573  56.67624127480015  15.165262802545929  9.013050617721449  35.87566508343505  49.41459631735531  -34.70476642858451  25.724000867959777  120.000000
1.2254999999999991  0.000000  0.000000  0.000000  -29.8965337952746  5.456000994917034  28.945189341583752  56.75438150732616  14.790909336710099  8.900095842396475  35.79312169842626  49.42682330412511  -34.61806623379047  25.71280884999802  120.000000
1.2539999999999991  0.000000  0.000000  0.000000  -29.91806420157317  5.4118777755654754  29.41415397623967  56.885026592503145  14.450698381846477  8.709968496423148  35.793523579034215  49.4239149252616  -34.56323253917429  25.66433982825895  120.000000
1.282499999999999  0.000000  0.000000  0.000000  -29.893833536968646  5.379089991258725  29.708292884557626  57.069155792111175  14.14798592431231  8.441576802829019  35.88559964780691  49.39650552456202  -34.552571583479576  25.582936074126234  120.000000
1.310999999999999  0.000000  0.000000  0.000000  -29.825190342660427  5.3654675860390695  29.811405289386066  57.3080078272014  13.881610322610012  8.095571828555705  36.07985696869072  49.33561102688667  -34.59502103950884  25.472177731823567  120.000000
1.339499999999999  0.000000  0.000000  0.000000  -29.717921317582235  5.37719295758881  29.708795371623687  57.60089046674033  13.64572815731931  7.676605071841246  36.387659387248505  49.23136229430133  -34.6946984327608  25.33510162940177  120.000000
1.367999999999999  0.000000  0.000000  0.000000  -29.580847271358596  5.415385205631639  29.38944979448373  57.94181275708462  13.431132880743174  7.19559808985252  36.8209210995583  49.07323381462862  -34.85059741778351  25.174634555124772  120.000000
1.396499999999999  0.000000  0.000000  0.000000  -29.423839761121453  5.473752799437796  28.84805906980018  58.31699393517331  13.226587049552412  6.671333722880943  37.390344955198294  48.84780903248415  -35.057093060379  24.993568008182898  120.000000
1.424999999999999  0.000000  0.000000  0.000000  -29.25569895193842  5.53957892554839  28.08705597951273  58.7049673138074  13.021853309230782  6.129391659324168  38.10363349529235  48.53904238562025  -35.30268519485908  24.79509857805463  120.000000
1.453499999999999  0.000000  0.000000  0.000000  -29.08191323010009  5.596897251538222  27.11761974667633  59.07840766426174  12.810257518077643  5.598564616082564  38.962768683706415  48.12650944875701  -35.57181105771407  24.58196074603029  120.000000
1.4819999999999989  0.000000  0.000000  0.000000  -28.905100784040965  5.629920557004148  25.95986308080012  59.40756802170397  12.59031025974005  5.106727369411553  39.95975417916277  47.586870458838824  -35.84208691369163  24.356843152410313  120.000000
1.5104999999999988  0.000000  0.000000  0.000000  -28.724294051501527  5.6269552987272355  24.640748933879024  59.664666907695576  12.365534586644696  4.676102882697602  41.07735952348467  46.894140458362195  -36.08805433379375  24.12123841663652  120.000000
1.538999999999999  0.000000  0.000000  0.000000  -28.53400747490862  5.581682351039194  23.192531711311617  59.82929561704646  12.142317057771294  4.321240646746853  42.28851950171641  46.02283968137008  -36.2802459391127  23.876433553550463  120.000000
1.567499999999999  0.000000  0.000000  0.000000  -28.32536167645277  5.494239452067277  21.649685157252947  59.89149208571648  11.927883885434907  4.047978384450914  43.56358495203997  44.9507740290703  -36.39189407729289  23.623133520342673  120.000000
1.595999999999999  0.000000  0.000000  0.000000  -28.08747691306652  5.368254556950059  20.04587419395895  59.85234895391467  11.72831836216973  3.854653140801845  44.87118411959732  43.66320324516993  -36.400195702829926  23.362104733708673  120.000000
1.624499999999999  0.000000  0.000000  0.000000  -27.81458983685228  5.208400883258783  18.41216488314169  59.719183867141325  11.549612593787213  3.7351293503139886  46.18233986894963  42.15499373490837  -36.28983981552441  23.09365022749314  120.000000
1.652999999999999  0.000000  0.000000  0.000000  -27.507582838127956  5.020682647522878  16.77585468722515  59.50410274529519  11.398141899455776  3.6793235567245883  47.471518882402876  40.43552518291966  -36.05517881228313  22.817447363838536  120.000000
1.6814999999999989  0.000000  0.000000  0.000000  -27.174558500818225  4.80902106581492  15.160144678630308  59.22200931667174  11.279079319556654  3.6749009426957047  48.72298730879447  38.52448971866077  -35.702041995066345  22.532769793389317  120.000000
1.7099999999999989  0.000000  0.000000  0.000000  -26.831524286276654  4.575398358734512  13.58285109413661  58.88840724930978  11.194505858885913  3.7077912628364644  49.93237450922296  36.453591285529086  -35.24955839835236  22.23884941894453  120.000000
1.7384999999999988  0.000000  0.000000  0.000000  -26.501134032728466  4.320363507809715  12.059263830396198  58.51716086472017  11.144896085660905  3.765333560040776  51.10403925019438  34.25931716383208  -34.722839806275935  21.935798668742724  120.000000
1.7669999999999988  0.000000  0.000000  0.000000  -26.20927086095513  4.045695062343619  10.601147400295343  58.120443900364506  11.129406742115235  3.834744862132726  52.247374688680495  31.9827769677788  -34.149977797056046  21.624530632067575  120.000000
1.7954999999999988  0.000000  0.000000  0.000000  -25.979223346852486  3.754497819112311  9.219104832056669  57.70874996468795  11.146941881976037  3.906101746865773  53.36925674762321  29.661009732341157  -33.550834658803325  21.307758842689122  120.000000
1.8239999999999987  0.000000  0.000000  0.000000  -25.825539294501382  3.4512984348787894  7.9217857870693065  57.292400776437475  11.195257581299128  3.973145001144771  54.47111839885933  27.327358502424357  -32.93408215203102  20.990682716216426  120.000000
1.8524999999999987  0.000000  0.000000  0.000000  -25.749611597283597  3.142655535738416  6.7170614290006  56.88316434787831  11.271117185284664  4.033935186652201  55.54541666593877  25.006918677715625  -32.29310827804588  20.68136602116897  120.000000
1.8809999999999987  0.000000  0.000000  0.000000  -25.73949673692205  2.836669092386245  5.611200890234838  56.49373877158753  11.369904275970805  4.0898329224238115  56.57595018113009  22.718703377797816  -31.608423016313367  20.389895980979592  120.000000
1.9094999999999986  0.000000  0.000000  0.000000  -25.773042097523675  2.5420102668130715  4.608997809565376  56.135664840381835  11.485116344857921  4.144759878853132  57.54233602520663  20.47566384197881  -30.85536597502457  20.12698547264096  120.000000
1.9379999999999986  0.000000  0.000000  0.000000  -25.82328777983185  2.267445503394284  3.7126691212440934  55.81694697523506  11.60838206659967  4.203136087419457  58.4289774869746  18.288569486672728  -30.016348222016237  19.902571376470803  120.000000
1.9664999999999986  0.000000  0.000000  0.000000  -25.86479597705144  2.0213769114770237  2.921612263374712  55.53886444530116  11.729507652055311  4.268527061459714  59.234428848734666  16.167709612147576  -29.09327871889115  19.72435551626794  120.000000
1.9949999999999986  0.000000  0.000000  0.000000  -25.87989666881742  1.8122897619695995  2.2322688154678216  55.293394923501694  11.83818228143767  4.341574965421225  59.9797340596977  14.124514048816007  -28.118055177408685  19.59663256049923  120.000000
2.0234999999999985  0.000000  0.000000  0.000000  -25.861175183318892  1.649002236830658  1.6386281701287493  55.064180459708794  11.92512010608024  4.419214929197026  60.71242249198634  12.171217065940299  -27.15536718148063  19.520169264383867  120.000000
2.0519999999999987  0.000000  0.000000  0.000000  -25.81076507135831  1.540267137698411  1.133239175321361  54.83063891137638  11.983642084269613  4.494957383657496  61.51429996329006  10.320306538360898  -26.3080887320902  19.49316210188938  120.000000
2.0804999999999985  0.000000  0.000000  0.000000  -25.736564540681666  1.4926966136705755  0.7087556815000026  54.573496253420075  12.00987032951539  4.5612394011189705  62.51141759100448  8.583682296467831  -25.72266768667364  19.512104746716062  120.000000
2.1089999999999987  0.000000  0.000000  0.000000  -25.648141274505626  1.508266663652044  0.35936005258267484  54.2801990356103  12.002547261322446  4.612483843616467  63.89859868467207  6.971846362285415  -25.609883987527617  19.572436928249402  120.000000
2.1374999999999984  0.000000  0.000000  0.000000  -25.552798313822795  1.583090129791286  0.08010729393534236  53.9496035645007  11.96163004171677  4.645601526304533  66.00053707801374  5.49346298551908  -26.303497646721166  19.667700712794197  120.000000
2.1659999999999986  0.000000  0.000000  0.000000  -25.453637530044087  1.7067576302691583  -0.13370095872835375  53.59351076492132  11.887226521930184  4.660620027998011  69.42963851365455  4.156245152168041  -28.416907731071067  19.789692831208242  120.000000
2.1944999999999983  0.000000  0.000000  0.000000  -25.349807629670675  1.863287921427879  -0.2872788973293667  53.234005267948966  11.778786568973832  4.660209526711395  75.54571298103414  2.9728535514533196  -33.30568141790787  19.928746312809103  120.000000
2.2229999999999985  0.000000  0.000000  0.000000  -25.23890859055406  2.0333390183610924  -0.38647196507498804  52.897864059296055  11.63559160754621  4.648934970743878  87.83676575901347  1.978601443595626  -44.450474702647234  20.075000870443663  120.000000
2.2514999999999983  0.000000  0.000000  0.000000  -25.11933671669824  2.197474081628781  -0.4378908361445946  52.61001649966782  11.457670352035455  4.631477671278757  114.93052412074975  1.3017369882539342  -70.4730701416522  20.219824484552127  120.000000
2.2799999999999985  0.000000  0.000000  0.000000  -24.993143464358216  2.339671737308003  -0.44768533833842045  52.387014235770934  11.24788367289724  4.61154030255838  157.1606672078309  1.2331287469399506  -111.70426785196996  20.357467964212052  120.000000
2.308499999999998  0.000000  0.000000  0.000000  -24.867669939091133  2.4515516779253645  -0.4212397573898296  52.232878217619756  11.013496516143663  4.589579935159896  -175.20124527542984  1.7020875058157543  -138.41820642788332  20.484933684035955  120.000000
2.3369999999999984  0.000000  0.000000  0.000000  -24.75510060005201  2.533388222824417  -0.36292979132604886  52.13937317193737  10.766440779384643  4.562569069399793  -162.56218739330708  2.3405074252907765  -150.2146043147403  20.601585637097937  120.000000
2.365499999999998  0.000000  0.000000  0.000000  -24.668500185757168  2.5904959200542206  -0.27697781688317974  52.090896635724086  10.520469828289114  4.526130652600536  -156.14554882978683  3.0067272325216736  -155.87928573627292  20.708829507269105  120.000000
2.3939999999999984  0.000000  0.000000  0.000000  -24.617631593923385  2.628871608942502  -0.16803840440157133  52.07064867459454  10.287612024273592  4.478659198073734  -152.41453118056685  3.665698604053146  -158.95676410133538  20.810791531221728  120.000000
2.422499999999998  0.000000  0.000000  0.000000  -24.606019705104107  2.6539452523910168  -0.04255083588018817  52.06470459917743  10.077446776884498  4.419826856203794  -150.02358975300737  4.306395619546529  -160.79694760804367  20.91175397641017  120.000000
2.4509999999999983  0.000000  0.000000  0.000000  -24.6310244641631  2.6708392603733695  0.09236651163968847  52.06347704749905  9.896523617131214  4.34966023087797  -148.3618010421219  4.92270395080569  -162.00921441737498  21.013959477959677  120.000000
2.4794999999999985  0.000000  0.000000  0.000000  -24.683742256512755  2.6829029702836094  0.23032933670547318  52.062229178212526  9.747386829504864  4.269645467739389  -147.1141151281745  5.5087702048547476  -162.90175531319508  21.116956147775323  120.000000
2.5079999999999982  0.000000  0.000000  0.000000  -24.75199091684906  2.6916260457217507  0.3662877988184179  52.05983001708308  9.628999884903195  4.183610801843965  -146.10800638479273  6.058465018787112  -163.6357339777111  21.218690153616436  120.000000
2.5364999999999984  0.000000  0.000000  0.000000  -24.82254001835825  2.697104501238388  0.49622764206990966  52.05781512609884  9.537646751403312  4.096872590313421  -145.25226830518525  6.565589557710944  -164.28957576609062  21.316084944324977  120.000000
2.564999999999998  0.000000  0.000000  0.000000  -24.884542287559437  2.6996118531689546  0.6184817767938392  52.058950826081286  9.467358599829163  4.0144728048653695  -144.50733561379144  7.024832227474805  -164.89034451821604  21.40647959488783  120.000000
2.5934999999999984  0.000000  0.000000  0.000000  -24.930308098863552  2.699994913131788  0.7321356221161794  52.0659021484127  9.412343589668378  3.9409179049711334  -143.86261523169108  7.43251788419143  -165.43851785128075  21.487610451309322  120.000000
2.621999999999998  0.000000  0.000000  0.000000  -24.9568541948236  2.7004427463026706  0.8375561058930171  52.080360248442894  9.367570140174289  3.8794724878273925  -143.32441665952857  7.787567298226853  -165.92033692489764  21.558332421325222  120.000000
2.6504999999999983  0.000000  0.000000  0.000000  -24.963970967285388  2.7034117104178548  0.9357801219279059  52.10309186549728  9.329512966853878  3.8320934269423184  -142.90323095816154  8.0917269842804  -166.3204067321676  21.61771503883406  120.000000
2.678999999999998  0.000000  0.000000  0.000000  -24.95447110745841  2.7120169403901326  1.028669200847196  52.1340709262063  9.295737281620982  3.7996706389154173  -142.6106252256989  8.349765984972041  -166.62383264972075  21.66570110079878  120.000000
2.7074999999999982  0.000000  0.000000  0.000000  -24.931828272446143  2.7283970525533188  1.1180055357322378  52.17322775264722  9.264470835209744  3.781736513559344  -142.45372020039895  8.569031908819486  -166.82097651410413  21.70229293317062  120.000000
2.735999999999998  0.000000  0.000000  0.000000  -24.900870614089634  2.7544095808182334  1.204825833432718  52.220606200275604  9.23383410806606  3.7774016244152877  -142.4401825429685  8.75868314719361  -166.90162729867512  21.72917886999268  120.000000
2.764499999999998  0.000000  0.000000  0.000000  -24.865515485702705  2.7892798094838334  1.28864424067785  52.27675748252761  9.202094645062465  3.7855246736468366  -142.57429701545738  8.928169637229466  -166.85851724328944  21.749059161198375  120.000000
2.792999999999998  0.000000  0.000000  0.000000  -24.829889732858362  2.8309638180796663  1.3662251376941592  52.342225290096096  9.167560960669903  3.80669481572937  -142.86231728307982  9.086322389113274  -166.681470598716  21.767791573764576  120.000000
2.821499999999998  0.000000  0.000000  0.000000  -24.796255058328498  2.8721426772362926  1.4333320490929469  52.41690869207695  9.12707561617574  3.842528094566692  -143.3056219425366  9.240873740569908  -166.36409406732062  21.792424607099754  120.000000
2.849999999999998  0.000000  0.000000  0.000000  -24.766158848795698  2.9025926739046306  1.4848413316969642  52.49953029442934  9.07316158072054  3.896993350154754  -143.9156726507817  9.39940399411467  -165.8884505875501  21.83245820336233  120.000000
