Simulation
nRows=101
nColumns=15
endheader
time  TH_x TH_y TH_z SC_y  SC_z  SC_x  AC_y  AC_z  AC_x  GH_y  GH_z  GH_yy  EL_x  PS_y
0.0  0.000000  0.000000  0.000000  -29.971488090967835  0.20191049988087856  4.302508075109349  53.98404688543247  3.4323276856662304  -9.247037902918239  83.57004577370682  1.7022138024707822  -56.89691323328756  22.790428361655554  0.000000
0.031  0.000000  0.000000  0.000000  -29.953297134082426  0.03900142121195737  4.726037717854693  53.840314198633145  2.9847899224653873  -9.771308852115142  81.63365305253105  1.763942834950225  -54.783424861211344  22.759442055274086  0.000000
0.062  0.000000  0.000000  0.000000  -29.91120129544998  -0.09855970111687594  5.1620765731524925  53.70605506452433  2.5767315922496357  -10.277038927857065  79.68263212935834  1.8417508893920376  -52.68206234073798  22.719381699433317  0.000000
0.093  0.000000  0.000000  0.000000  -29.86665566444583  -0.2150206389143124  5.602267357021948  53.580446581497284  2.204492798987881  -10.760451120132743  77.70028841408136  1.960273637697692  -50.60741587747405  22.65790657770449  0.000000
0.124  0.000000  0.000000  0.000000  -29.823947334114074  -0.31400274950936924  6.041638865787581  53.46776037852073  1.8619588174075419  -11.219809610488584  75.67748199243476  2.1463163643926597  -48.566604497280274  22.56781439660061  0.000000
0.155  0.000000  0.000000  0.000000  -29.794807566415283  -0.39901193415708397  6.479174656684446  53.37240497696786  1.5438050501211569  -11.653323114452155  73.60346666717919  2.4287656590946547  -46.568789493702546  22.445916300554494  0.000000
0.186  0.000000  0.000000  0.000000  -29.783550195509296  -0.4724803226672032  6.915191225878715  53.29771460781294  1.2466890867989258  -12.059790759412307  71.47129569666195  2.829069983684483  -44.620284014905046  22.29300362070947  0.000000
0.217  0.000000  0.000000  0.000000  -29.795510631046696  -0.5357772335799467  7.349092115754165  53.244829861145774  0.9682400598473713  -12.438421239310772  69.2766844804577  3.357522912623181  -42.72614114267912  22.11379307925688  0.000000
0.248  0.000000  0.000000  0.000000  -29.830562647439145  -0.5889292444022178  7.776968766458553  53.20900224343007  0.7061498467604305  -12.79009381270154  67.01772548035532  4.007268358750914  -40.890901835225684  21.91818043621334  0.000000
0.279  0.000000  0.000000  0.000000  -29.88275243041946  -0.6297504010355608  8.19210833564381  53.1817519657873  0.4598030596953083  -13.116381610180992  64.69766977795703  4.755317784893787  -39.11609983110372  21.721798192895616  0.000000
0.31  0.000000  0.000000  0.000000  -29.943507151007825  -0.6554713418192782  8.586369257929595  53.156124629286765  0.23135641413753322  -13.416610035245146  62.32326916902446  5.574188171949392  -37.402348000633694  21.54288675526461  0.000000
0.34099999999999997  0.000000  0.000000  0.000000  -30.007982951697162  -0.6665025173622439  8.951747621529558  53.134999608507144  0.02474243908589414  -13.683751024572341  59.90384502946434  6.447390021969504  -35.75089965323786  21.39580784270889  0.000000
0.372  0.000000  0.000000  0.000000  -30.077960594474366  -0.668550334117912  9.280828323094411  53.13284110024289  -0.1580528174073988  -13.90373104484365  57.44881119916002  7.377860496449322  -34.166707634901684  21.28772182113305  0.000000
0.403  0.000000  0.000000  0.000000  -30.15755914366674  -0.6704506746090946  9.567516462590625  53.169052285084305  -0.31714289190380246  -14.060353880649513  54.96953312049547  8.380879728080819  -32.65604153414426  21.220090075292987  0.000000
0.434  0.000000  0.000000  0.000000  -30.247102746844718  -0.6780317057794646  9.806699643995676  53.25666159946591  -0.4508093587198073  -14.142219572768933  52.482263704950505  9.469569630334249  -31.2220395710171  21.193142126770653  0.000000
0.46499999999999997  0.000000  0.000000  0.000000  -30.341638026534383  -0.6891836513235389  9.994117811234952  53.394755199040844  -0.5522771759168632  -14.146722111265852  50.00958074559532  10.64585712179587  -29.86181239168942  21.206300501280026  0.000000
0.496  0.000000  0.000000  0.000000  -30.43407405666773  -0.6942356614790144  10.127797934992882  53.56882579156042  -0.6106192055235646  -14.079864425188177  47.579556381450814  11.901979851417005  -28.567114196365196  21.255413160650598  0.000000
0.527  0.000000  0.000000  0.000000  -30.519150920938877  -0.6806158988082784  10.209642206097438  53.757737574023544  -0.6158706338884564  -13.952836408632136  45.22236426216542  13.228429563597665  -27.329269777088733  21.33054432930358  0.000000
0.558  0.000000  0.000000  0.000000  -30.595242036826615  -0.6383160277928426  10.245596190822763  53.942538025399664  -0.5637239877855067  -13.778393252491535  42.96644893213381  14.620550572386684  -26.144704590210285  21.41736026858572  0.000000
0.589  0.000000  0.000000  0.000000  -30.663512816132826  -0.5630968601176465  10.244904973850737  54.111536227627305  -0.45658764432975735  -13.56866895639215  40.83596280574988  16.079448282279305  -25.017614507642275  21.501160310706016  0.000000
0.62  0.000000  0.000000  0.000000  -30.7259477196826  -0.45676180216138  10.218805549804472  54.261316649653935  -0.3018177812993252  -13.33449371366848  38.84921345647746  17.609439993867387  -23.95953535305642  21.57001026837977  0.000000
0.651  0.000000  0.000000  0.000000  -30.783261257954614  -0.32556329551489654  10.17944709427223  54.394782791222845  -0.1084925589370589  -13.08540540777379  37.01799837363794  19.214106058464147  -22.98623035160958  21.616252670038534  0.000000
0.6819999999999999  0.000000  0.000000  0.000000  -30.833482886653833  -0.1777523241623055  10.139600997522527  54.51779329591942  0.1149724594372387  -12.830290882989058  35.34757987179316  20.892997495562103  -22.113470219671463  21.636379877102804  0.000000
0.713  0.000000  0.000000  0.000000  -30.872567504713576  -0.02120712837581415  10.113056855422254  54.63578043205983  0.3622325870729434  -12.578080453443768  33.83709775271903  22.639575955832672  -21.353347996113968  21.630177304406807  0.000000
0.744  0.000000  0.000000  0.000000  -30.896306102274792  0.1389201855936803  10.11579049263783  54.751998518231005  0.6288896055393327  -12.338216693845537  32.48104692938841  24.44112722961457  -20.71215089567036  21.599521500475813  0.000000
0.775  0.000000  0.000000  0.000000  -30.90152971448392  0.3012701812168901  10.165656984613769  54.868341292662045  0.9109999891620858  -12.120189455688944  31.271255709230513  26.279876986472384  -20.19068834747614  21.546665676261302  0.000000
0.806  0.000000  0.000000  0.000000  -30.886939425678747  0.46599841953929305  10.280625128383507  54.985941267775836  1.203051150541051  -11.932547595969552  30.198840085018134  28.133627928131112  -19.785725288558933  21.472829136342316  0.000000
0.837  0.000000  0.000000  0.000000  -30.85281140896811  0.6325830877820888  10.477328059222456  55.10560429494914  1.4960617431142282  -11.78236724964418  29.255240644661946  29.9765566547471  -19.491652989874478  21.377640021101275  0.000000
0.868  0.000000  0.000000  0.000000  -30.800267613650043  0.8000162850086134  10.76861404834484  55.22812968702473  1.7791001777611901  -11.674689419203697  28.432035569927937  31.781611609395014  -19.3013925742089  21.25955216132437  0.000000
0.899  0.000000  0.000000  0.000000  -30.731829516121685  0.9676548974658759  11.16190584360293  55.353877642015  2.041987228558603  -11.611913450467092  27.719597102718105  33.524020800830016  -19.206681045086096  21.11680167704266  0.000000
0.9299999999999999  0.000000  0.000000  0.000000  -30.6519632543598  1.1360745859720096  11.659451454371336  55.48244845388203  2.276402104254095  -11.59335578083163  27.106021694510087  35.184221026988  -19.198114081177156  20.947998064695664  0.000000
0.961  0.000000  0.000000  0.000000  -30.56731253160163  1.3073788483197395  12.25871740457114  55.613207569213714  2.47650397008733  -11.614776499377014  26.577066243354906  36.749527848221  -19.265091996358173  20.752812461598978  0.000000
0.992  0.000000  0.000000  0.000000  -30.486838624488506  1.4851183307849194  12.952980586386257  55.7459961073499  2.639085692839381  -11.667778914592919  26.116706731782422  38.21445567426646  -19.395648139200684  20.532565965240927  0.000000
1.023  0.000000  0.000000  0.000000  -30.421098876962656  1.6740091991415573  13.731912932363485  55.88217584426755  2.763794742369448  -11.739597406146045  25.70756907143776  39.58007295788737  -19.576026358054577  20.290459991021287  0.000000
1.054  0.000000  0.000000  0.000000  -30.38100350901649  1.8792776203915578  14.582257776448964  56.0252036647794  2.8534166913764967  -11.813307366046514  25.331143405498228  40.85285422691975  -19.7896614093171  20.031602599332384  0.000000
1.085  0.000000  0.000000  0.000000  -30.37639358892732  2.10580396247258  15.488197088229409  56.18064485310581  2.9141670172518466  -11.868703858726448  24.96797182354289  42.043282999369616  -20.016250578491785  19.762925575237727  0.000000
1.116  0.000000  0.000000  0.000000  -30.414948357248  2.3572899319244556  16.43163205940103  56.355065757924585  2.9557049516277805  -11.88393686470493  24.59869697429862  43.16410475228738  -20.231718792857045  19.492973804557277  0.000000
1.147  0.000000  0.000000  0.000000  -30.50188446915887  2.635674675195884  17.39296173185049  56.554179553313126  2.9902001381866197  -11.838331037038916  24.206029099244702  44.22858307347053  -20.410497079676457  19.23129904373369  0.000000
1.178  0.000000  0.000000  0.000000  -30.640555989022868  2.9409237285485608  18.351998657192116  56.78048994268687  3.03129205651273  -11.715236851357012  23.777210538920723  45.24867213982216  -20.52942115647598  18.987481307492224  0.000000
1.209  0.000000  0.000000  0.000000  -30.83329954988512  3.271405189690298  19.288826577932085  57.03214093886864  3.092773425581957  -11.503967167545632  23.305711893092493  46.233756836214624  -20.572049319604076  18.76965041591393  0.000000
1.24  0.000000  0.000000  0.000000  -31.081761916426675  3.624598282732159  20.18524278685727  57.30349254735104  3.1867240998326642  -11.200253830912853  22.791228452210625  47.18998284901296  -20.531345047924816  18.58313898993163  0.000000
1.271  0.000000  0.000000  0.000000  -31.386395673328423  3.9974501716014457  21.026352084101102  57.58703151596522  3.3219054336274723  -10.805562726593019  22.23810882791077  48.12037848026021  -20.410005661976864  18.429785427786015  0.000000
1.302  0.000000  0.000000  0.000000  -31.745306691502662  4.386351957044519  21.80176045603811  57.87540523634203  3.503191861745301  -10.325678835127807  21.653125930534276  49.02535453926525  -20.21872639206581  18.3080243995718  0.000000
1.333  0.000000  0.000000  0.000000  -32.153346068202694  4.787005037444107  22.505816018957432  58.16274242347368  3.732052749939529  -9.769280359653132  21.043656750473502  49.90333595559471  -19.97365393222395  18.21370110712808  0.000000
1.3639999999999999  0.000000  0.000000  0.000000  -32.60254549108055  5.19446336052771  23.13699845336549  58.444951072822796  4.007375864969018  -9.146803567608572  20.41722619555873  50.75121232482517  -19.693781107661813  18.141350832997936  0.000000
1.395  0.000000  0.000000  0.000000  -33.083623355265715  5.603516129458769  23.696693348890978  58.71928374738971  4.325977635358428  -8.469655319782136  19.782027269149516  51.56464324749851  -19.39858345727234  18.0855286503585  0.000000
1.426  0.000000  0.000000  0.000000  -33.58750411028905  6.009065166608896  24.18781200962441  58.98366717658797  4.682926047966681  -7.749863949327609  19.1477995661823  52.338385389334825  -19.105673827768655  18.041712748368052  0.000000
1.457  0.000000  0.000000  0.000000  -34.10558362885785  6.406239870001968  24.613504847779403  59.23611161495413  5.071831389601903  -7.000137949829072  18.525966087481095  53.06692669152774  -18.828421890687725  18.00661088942863  0.000000
1.488  0.000000  0.000000  0.000000  -34.6286063471294  6.7900192262903785  24.97622555717221  59.474340433049754  5.485236148088537  -6.234494314975141  17.92883161486597  53.74528005427554  -18.574133261543768  17.97798739770919  0.000000
1.519  0.000000  0.000000  0.000000  -35.14550407231455  7.154745202402712  25.27709809474487  59.69573135554156  5.914799812300406  -5.468734228252189  17.368126725264112  54.36946973783134  -18.343890148095454  17.954515409911142  0.000000
1.55  0.000000  0.000000  0.000000  -35.64385189175594  7.493776784507508  25.516119608825875  59.89799531515434  6.351105662758467  -4.720226094162678  16.85355322045009  54.936332048234405  -18.135077458070622  17.93586098223803  0.000000
1.581  0.000000  0.000000  0.000000  -36.11206660103381  7.799848627778546  25.69388618852239  60.07998719998154  6.783720310369581  -4.00705399953449  16.392214710129448  55.442327246998794  -17.945375918219273  17.922832030480283  0.000000
1.612  0.000000  0.000000  0.000000  -36.54188215393673  8.066598853142079  25.813264507939785  60.24164781877741  7.202335296198545  -3.3466421403673974  15.98971731535099  55.88191897314337  -17.775544772394525  17.916904287548988  0.000000
1.643  0.000000  0.000000  0.000000  -36.92944876492178  8.289956030629426  25.879570847002693  60.38317509523937  7.597651058522433  -2.7544173703847274  15.65217182488931  56.247095273015105  -17.629075235996986  17.919248793150693  0.000000
1.674  0.000000  0.000000  0.000000  -37.273909237244816  8.468829113510596  25.899466965780434  60.50388259643096  7.960882807474773  -2.2433015611815015  15.38763307061282  56.52823875189734  -17.510299020079707  17.92978230341353  0.000000
1.705  0.000000  0.000000  0.000000  -37.573969531388016  8.604759385712347  25.879079815621623  60.60129432194045  8.282851811098736  -1.8240768844242923  15.205861070201486  56.71572358284246  -17.423232093195796  17.946824730091194  0.000000
1.736  0.000000  0.000000  0.000000  -37.824614391866504  8.70026161621574  25.822174049393997  60.67134014152878  8.553527572769035  -1.5062617671769303  15.116440802670661  56.80168053221444  -17.372044915815717  17.96758288998402  0.000000
1.767  0.000000  0.000000  0.000000  -38.01580536802301  8.757090592517544  25.72940400702103  60.70930442433151  8.762403586009336  -1.2984839578926517  15.126382225325312  56.78097163361662  -17.362486819580003  17.989012625225307  0.000000
1.798  0.000000  0.000000  0.000000  -38.13392456089576  8.775070616871236  25.599304791516786  60.71127901580197  8.900038231944245  -1.2081329224144237  15.238265134865012  56.650932820658426  -17.403153577674765  18.00855291445995  0.000000
1.829  0.000000  0.000000  0.000000  -38.165330264260554  8.751707554896008  25.430645565135887  60.67564765158071  8.959995250274945  -1.240394907280061  15.449520377859862  56.4102528055847  -17.505883001654052  18.02462993099096  0.000000
1.8599999999999999  0.000000  0.000000  0.000000  -38.10024217014668  8.682522355488732  25.224685433072253  60.60404877524539  8.94011857347847  -1.397344680884897  15.752944439783938  56.057939735993  -17.68462435818011  18.03696345659955  0.000000
1.891  0.000000  0.000000  0.000000  -37.93533538475838  8.562328757474516  24.985882376562056  60.50097565412784  8.842226385107121  -1.6775287596367425  16.138539179833288  55.593266886437426  -17.9523398293993  18.04669401843305  0.000000
1.922  0.000000  0.000000  0.000000  -37.67457909844982  8.387012386698292  24.720691620544134  60.37216278720087  8.67045089903  -2.076157824979131  16.596158307828173  55.0169418472751  -18.3165277229178  18.056483378018303  0.000000
1.953  0.000000  0.000000  0.000000  -37.32845202715258  8.155199254835415  24.43552961969099  60.222424445589624  8.42941875401392  -2.5857483553858716  17.11804795347054  54.33266043871142  -18.77509242588936  18.0703735760905  0.000000
1.984  0.000000  0.000000  0.000000  -36.912191581382956  7.869092096182181  24.135168586544285  60.05431859171605  8.123231364766305  -3.1964728344233593  17.699865159210315  53.54807728739592  -19.315081688217074  18.093304550693368  0.000000
2.015  0.000000  0.000000  0.000000  -36.443655400249675  7.5334837876428065  23.822421396143575  59.86860895388249  7.755783401585762  -3.8964301388509455  18.33953527798439  52.67497370889167  -19.915251273473398  18.13016470805392  0.000000
2.046  0.000000  0.000000  0.000000  -35.94097491342458  7.154540417421772  23.498561005208753  59.66547177025925  7.332260314878939  -4.671582620006883  19.034611879467764  51.72801544746486  -20.55144767111721  18.184487934209557  0.000000
2.077  0.000000  0.000000  0.000000  -35.42106295587002  6.738351186677114  23.163599963771503  59.44577442015765  6.860321974072632  -5.506002781006756  19.779968353148746  50.723169733032655  -21.201804832130065  18.257489364639476  0.000000
2.108  0.000000  0.000000  0.000000  -34.89868430261134  6.290159793769086  22.816675147914914  59.2115857504208  6.349316662023576  -6.382761310687906  20.56663492703744  49.676221315992  -21.849564353256895  18.347885906261453  0.000000
2.139  0.000000  0.000000  0.000000  -34.38593310280469  5.814696057842816  22.455829168876477  58.9656110158017  5.808915696340304  -7.2847147769025975  21.382235442416277  48.60156920385276  -22.4829193545136  18.45231174473627  0.000000
2.17  0.000000  0.000000  0.000000  -33.89239306987985  5.31640195307167  22.07726894282266  58.71061401422797  5.248443766619888  -8.194813078935416  22.212242115519924  47.511743966939925  -23.092942368065806  18.566259748443628  0.000000
2.201  0.000000  0.000000  0.000000  -33.42536830786787  4.80007028518562  21.674818004230694  58.44906936602822  4.676866102366115  -9.095566230893649  23.041205962941536  46.4170335232771  -23.67136423638623  18.68482316798439  0.000000
2.232  0.000000  0.000000  0.000000  -32.990438072051575  4.271079265602138  21.239694097399695  58.183555499186916  4.103383030110756  -9.968189896634373  23.853942649903228  45.32520222633004  -24.209009587429456  18.803256400175286  0.000000
2.263  0.000000  0.000000  0.000000  -32.59195568231724  3.73556500908371  20.76112318987294  57.91735001654419  3.537846210098385  -10.792144121572644  24.63667682439896  44.24094983565176  -24.695381190862715  18.917403998284446  0.000000
2.294  0.000000  0.000000  0.000000  -32.23330403027932  3.2006588810733394  20.227844945056685  57.65479363278272  2.9906159354376465  -11.545661742478618  25.37777264058175  43.16530030383538  -25.11937380820785  19.023838304822565  0.000000
2.325  0.000000  0.000000  0.000000  -31.916993031639187  2.6742368321715615  19.630055085871536  57.401121562634636  2.4722219112421735  -12.207529210483845  26.068274812907145  42.09500564563526  -25.470752955861954  19.120012968058305  0.000000
2.356  0.000000  0.000000  0.000000  -31.64402815173956  2.164384695184806  18.96147309617343  57.161338642769174  1.9927854166962726  -12.760072581546195  26.702637822704546  41.0219624281888  -25.741998879421967  19.204492751477044  0.000000
2.387  0.000000  0.000000  0.000000  -31.413192253555582  1.6782950667228267  18.221195209584398  56.93875810004444  1.5613722663517335  -13.192281157049399  27.27948880978443  39.933156446575936  -25.930217965461104  19.27726793562115  0.000000
2.418  0.000000  0.000000  0.000000  -31.220608087615016  1.2215095534676916  17.414562532990594  56.73407015129414  1.185399389474536  -13.501727007930867  27.802082222608036  38.81169413221232  -26.03868619579721  19.339654150638573  0.000000
2.449  0.000000  0.000000  0.000000  -31.060426032320482  0.7975520433985811  16.553171576895576  56.54581298716324  0.8700870625836414  -13.694397200630435  28.27789881208399  37.639035316233034  -26.077571481503384  19.393622283675683  0.000000
2.48  0.000000  0.000000  0.000000  -30.925921781095745  0.40829270376243004  15.654302072292168  56.3718709414835  0.6179899985023247  -13.783000506657853  28.71784218590598  36.39808426583518  -26.063776841878067  19.440970983046654  0.000000
2.511  0.000000  0.000000  0.000000  -30.810421492860158  0.05484506383906383  14.739302300593195  56.21106231247627  0.42891655443600024  -13.784129121443877  29.135365936725446  35.075939511740785  -26.019833252162098  19.4828337214183  0.000000
2.542  0.000000  0.000000  0.000000  -30.708633682604  -0.2623530118167104  13.832012634512665  56.063482504938335  0.29968876625732344  -13.715961577934266  29.545930791027214  33.66625005169597  -25.97152200836064  19.519604013449435  0.000000
2.573  0.000000  0.000000  0.000000  -30.616304863052704  -0.5421490022098653  12.956632291411962  55.929734772176744  0.22400190195884082  -13.596620959816587  29.96696706165229  32.16975720125181  -25.944829928274356  19.551614619251566  0.000000
2.604  0.000000  0.000000  0.000000  -30.529075279322633  -0.7829145523364265  12.133887321168705  55.81004326410822  0.1927756830685911  -13.442811306988302  30.418277815101877  30.593536204420268  -25.962729639105255  19.579572670277603  0.000000
2.635  0.000000  0.000000  0.000000  -30.442018970513818  -0.9850246854547123  11.378662443246556  55.7027093314841  0.19427313974946178  -13.26956493290018  30.921418544081067  28.94855519811767  -26.043157583174676  19.60500909626624  0.000000
2.666  0.000000  0.000000  0.000000  -30.350943559500468  -1.1505109704936811  10.699196778249664  55.60386823740332  0.21508135886528887  -13.09010567910237  31.498386997799408  27.247737657160307  -26.198732179297473  19.630554224136915  0.000000
2.697  0.000000  0.000000  0.000000  -30.253965902242136  -1.2823761894281012  10.098058385147892  55.509017700390835  0.24317852197259848  -12.915769664288689  32.169473230638545  25.505879161869235  -26.437531429675648  19.659975728487524  0.000000
2.7279999999999998  0.000000  0.000000  0.000000  -30.15107661449048  -1.3848034961631612  9.57371022895077  55.41416069118335  0.2705290497307507  -12.755598844760254  32.95140149348615  23.73995582301513  -26.764029594253074  19.697867266902232  0.000000
2.759  0.000000  0.000000  0.000000  -30.04382321940336  -1.4625382520956587  9.121642116598297  55.316951948054964  0.29243273566323347  -12.61564583270655  33.856518090023755  21.96839414185966  -27.179738468109573  19.749682964425684  0.000000
2.79  0.000000  0.000000  0.000000  -29.934437989468854  -1.52029326934223  8.735722623161198  55.21644553710506  0.30616433013515193  -12.499111747743475  34.892715696905015  20.20887003775171  -27.682914079086782  19.82197053433282  0.000000
2.821  0.000000  0.000000  0.000000  -29.82432552900866  -1.5619317393869692  8.409382924456132  55.1121846392652  0.3103372765568117  -12.40702542609953  36.063604414958185  18.476542440363534  -28.26794089784965  19.922082779512426  0.000000
2.852  0.000000  0.000000  0.000000  -29.71412375070659  -1.5898717909357067  8.136536041895702  55.0034755911906  0.3047641866195119  -12.339018189883053  37.368638673532914  16.783382329822405  -28.925310371435785  20.058120019148227  0.000000
2.883  0.000000  0.000000  0.000000  -29.603617965189283  -1.605079649970456  7.911901030920549  54.88913192024891  0.2905130009983126  -12.294193312602998  38.80330839759191  15.13816108232384  -29.641991374467725  20.23758873558241  0.000000
2.914  0.000000  0.000000  0.000000  -29.49312075581612  -1.6081219420354778  7.73079291189264  54.76810238309184  0.2694645532757742  -12.271424439151724  40.35866883198667  13.547565772669389  -30.40357405238909  20.466284038719433  0.000000
2.945  0.000000  0.000000  0.000000  -29.38334123023986  -1.6000806799710934  7.588815497523996  54.64125917667496  0.24390136247139851  -12.269190930482337  42.02212923213019  12.017476837632712  -31.19541873644215  20.746586346889043  0.000000
2.976  0.000000  0.000000  0.000000  -29.274256270664853  -1.5837567620347597  7.48155608085235  54.511792882534756  0.2158961299190654  -12.284479488420248  43.77725356255069  10.5532522296852  -32.00516639378832  21.07716582522511  0.000000
3.007  0.000000  0.000000  0.000000  -29.166446712551778  -1.5646028647644556  7.403551453364949  54.38714179133115  0.18644780758325624  -12.312250777869014  45.605192450366935  9.160793005033966  -32.82343664434012  21.452162524061233  0.000000
3.038  0.000000  0.000000  0.000000  -29.05463334286823  -1.5481337577419825  7.348319273826693  54.27607228445404  0.15525388569834134  -12.345269683625931  47.485479078839866  7.8415863415242715  -33.64483704315474  21.861657705620516  0.000000
3.069  0.000000  0.000000  0.000000  -28.93725231436474  -1.5394153023207613  7.309826752682896  54.18563375927208  0.12324285194917504  -12.37646255522835  49.39713043030365  6.592987797067462  -34.46791758115794  22.292852230835116  0.000000
3.1  0.000000  0.000000  0.000000  -28.793831229113593  -1.5335439990262454  7.283109293155533  54.116598058054585  0.09563305574942194  -12.398936427034197  51.32594317082272  5.395623244454259  -35.289067103969  22.739968909487402  0.000000
