Simulation
nRows=101
nColumns=15
endheader
time  TH_x TH_y TH_z SC_y  SC_z  SC_x  AC_y  AC_z  AC_x  GH_y  GH_z  GH_yy  EL_x  PS_y
0.0  0.000000  0.000000  0.000000  -29.703714713594547  0.2520797717601275  -5.403005929721486  52.406589609533384  10.91525575588716  -4.024707787294015  95.98338309279693  2.4065412273064535  -68.19161413696763  22.797145654909876  0.000000
0.031  0.000000  0.000000  0.000000  -29.68622326901053  0.10405720760296903  -4.324274359401819  52.39916445501736  10.213100873839725  -4.915738280888523  95.00589072331172  2.5364678957885434  -67.22851608817147  22.767479144810586  0.000000
0.062  0.000000  0.000000  0.000000  -29.650240472713694  -0.04455071003861989  -3.2862101914746877  52.39573455007362  9.522541064697112  -5.775213902991586  94.13336031574032  2.6850025013978662  -66.37662370577281  22.73294409476231  0.000000
0.093  0.000000  0.000000  0.000000  -29.61298070666732  -0.1906969239051367  -2.298511798636909  52.39486386162351  8.85473684383912  -6.5920117886720995  92.95300915854101  2.8643810539582604  -65.24337850917195  22.67777507826426  0.000000
0.124  0.000000  0.000000  0.000000  -29.57878919952023  -0.3301976704621449  -1.3681754322673154  52.39663167981286  8.217872060649121  -7.359435312112217  91.2093061536017  3.0847904642191315  -63.59181491216514  22.591797384144183  0.000000
0.155  0.000000  0.000000  0.000000  -29.559012014121393  -0.4600869219336445  -0.4996716864790161  52.401216035468465  7.617800872009064  -8.072113085396431  88.7546726444829  3.35866036554019  -61.29513877479963  22.470661499512328  0.000000
0.186  0.000000  0.000000  0.000000  -29.557319134078817  -0.5775531271905272  0.30492197178424346  52.40819315563872  7.058939658797031  -8.726564462117542  85.62572844037257  3.697755467679568  -58.40846312351399  22.315899855203586  0.000000
0.217  0.000000  0.000000  0.000000  -29.576616491201097  -0.6803289524383298  1.045217313446239  52.418968386374125  6.544256049299174  -9.320227469923877  81.9629797579177  4.113742897852934  -55.0859837807779  22.13376895084711  0.000000
0.248  0.000000  0.000000  0.000000  -29.61596448771438  -0.7667812452087898  1.7222037616815102  52.43429377567629  6.075666683844745  -9.851431335840466  77.98309723096226  4.616641142302963  -51.554640627560566  21.933654950172414  0.000000
0.279  0.000000  0.000000  0.000000  -29.67210700859195  -0.8361540134222176  2.3377559380661275  52.456346660504366  5.65378660762327  -10.319070749748697  73.89702582517926  5.213414532508988  -48.029603483381145  21.72722655318677  0.000000
0.31  0.000000  0.000000  0.000000  -29.74040091673815  -0.8886197384840452  2.8941468402081383  52.487292590768014  5.278014985433195  -10.72235908393837  69.87381787106851  5.90754544692523  -44.68029155226432  21.528466020097532  0.000000
0.34099999999999997  0.000000  0.000000  0.000000  -29.81595207974745  -0.9252489525177398  3.3937793886800485  52.53021083472489  4.946185182317658  -11.060563103383078  66.01646914577451  6.6995216988665245  -41.60590934521858  21.35288474093624  0.000000
0.372  0.000000  0.000000  0.000000  -29.89454833399768  -0.9476167132001085  3.8391319255393386  52.588535324545305  4.654742351471496  -11.33281707258905  62.36845478224995  7.587904992828798  -38.84253685368029  21.21677270356052  0.000000
0.403  0.000000  0.000000  0.000000  -29.972545798510012  -0.9572346485599477  4.232853514606996  52.66572184822862  4.3989680220070175  -11.538217495528011  58.931463245227974  8.570377436217493  -36.38042788517496  21.133799337955573  0.000000
0.434  0.000000  0.000000  0.000000  -30.046778762482273  -0.9548702342989335  4.577977739590035  52.7644513431222  4.17352480216438  -11.676674957544048  55.687526324216265  9.64443048047586  -34.18498433427514  21.111242359014508  0.000000
0.46499999999999997  0.000000  0.000000  0.000000  -30.114007016736267  -0.939877383774988  4.87798006167657  52.88596582468068  3.9734055437323765  -11.749830419816988  52.61697381893758  10.80757005519744  -32.21434567907364  21.146407078109817  0.000000
0.496  0.000000  0.000000  0.000000  -30.17131131748896  -0.9101834695306601  5.137647018497091  53.02895930176049  3.7950916887592436  -11.761961539076434  49.707609074194906  12.057351356443586  -30.429249761621296  21.226293838277346  0.000000
0.527  0.000000  0.000000  0.000000  -30.217137325856235  -0.8627679779358048  5.363492623972745  53.188736001636514  3.637578865208393  -11.72045321560775  46.958719729378615  13.391491953391103  -28.800530220414224  21.3309574748962  0.000000
0.558  0.000000  0.000000  0.000000  -30.25234107203405  -0.7945334146126768  5.564327752769537  53.357871697239105  3.5025117971821675  -11.636230014458173  44.38048793518968  14.807645573115858  -27.312622348574298  21.43885563689053  0.000000
0.589  0.000000  0.000000  0.000000  -30.28050963279416  -0.7029837386129569  5.7499379161226125  53.527232370893365  3.394397145321717  -11.522095264752975  41.98989015282254  16.30271457273556  -25.962976245627075  21.532351058015546  0.000000
0.62  0.000000  0.000000  0.000000  -30.306636389642296  -0.5872685495684  5.926661140008373  53.68869196290611  3.320647143611574  -11.388595261222717  39.80160776395985  17.87261667679233  -24.754952870214705  21.59999535046833  0.000000
0.651  0.000000  0.000000  0.000000  -30.33478305251016  -0.4487965896011659  6.100754850943218  53.83788390395333  3.285772738187098  -11.244260314631982  37.820009474941216  19.512057063403038  -23.689835848208663  21.63652537985687  0.000000
0.6819999999999999  0.000000  0.000000  0.000000  -30.36654339194396  -0.29072622370450935  6.2842762454993935  53.97499256870006  3.2872047921228527  -11.098052369805483  36.03828385989225  21.214265594809156  -22.76394070809147  21.642304222494495  0.000000
0.713  0.000000  0.000000  0.000000  -30.39964193766352  -0.11735295372656468  6.4924192319476814  54.10394118995216  3.3192805459159014  -10.958699004852445  34.442658184265284  22.970139963939403  -21.9705110337607  21.621361099003096  0.000000
0.744  0.000000  0.000000  0.000000  -30.42890918471311  0.06584812022887414  6.739486455940645  54.23053899239578  3.3760478131679266  -10.833716560356375  33.01646363698273  24.76711451462754  -21.301337171399283  21.578897879841023  0.000000
0.775  0.000000  0.000000  0.000000  -30.44856418214095  0.2531908564170946  7.0384912376016056  54.36026248681003  3.4507863938302967  -10.729418493903605  31.743948470464943  26.58815446888235  -20.7487475055883  21.519079529105465  0.000000
0.806  0.000000  0.000000  0.000000  -30.45333993606962  0.4404872502903623  7.4008313380794855  54.497130135768415  3.536495527220028  -10.651017678987255  30.612558460475768  28.412463287589773  -20.30690574927117  21.443402535499228  0.000000
0.837  0.000000  0.000000  0.000000  -30.44022752662903  0.625280239528917  7.835486300449603  54.64315474891862  3.6265510742400617  -10.602269403388652  29.61209560111396  30.217510324734494  -19.970479720381277  21.35079620014237  0.000000
0.868  0.000000  0.000000  0.000000  -30.408990609849145  0.8068402343910632  8.348438235443993  54.79842481141285  3.714472459011778  -10.585253118327756  28.733073885789377  31.981389737245095  -19.733812289383486  21.238443285329307  0.000000
0.899  0.000000  0.000000  0.000000  -30.362120590300442  0.9859802404797842  8.942234176873505  54.96153646975198  3.794076192801597  -10.600015656399165  27.965007111677288  33.685253379060455  -19.589639025914902  21.10303434857266  0.000000
0.9299999999999999  0.000000  0.000000  0.000000  -30.304801916602162  1.1648238716668278  9.615880293775673  55.13015211418605  3.8598307230293667  -10.644334732647934  27.29586259936874  35.315191637778554  -19.529269789384774  20.941738178018547  0.000000
0.961  0.000000  0.000000  0.000000  -30.24477968825369  1.3467131046386214  10.365014242094993  55.301435148652125  3.907428219627608  -10.71349847649171  26.71265917519549  36.86290849480634  -19.54320874540924  20.75273905048261  0.000000
0.992  0.000000  0.000000  0.000000  -30.19175623600459  1.5359499271209653  11.182172515196546  55.47279431797544  3.934435518221901  -10.8000445395742  26.202192478782436  38.32560966121965  -19.621413303983946  20.535676884695448  0.000000
1.023  0.000000  0.000000  0.000000  -30.156095210841073  1.7374232959567402  12.05738385256415  55.64289468579874  3.9407836394967126  -10.893700803006137  25.750918151587932  39.70532913567527  -19.752598993107643  20.292107301548047  0.000000
1.054  0.000000  0.000000  0.000000  -30.14723483924786  1.9558081998678083  12.978792553045437  55.81253356548706  3.9291100635181575  -10.981387970483716  25.343156017735136  41.0079870384768  -19.92195999323411  20.026332873192544  0.000000
1.085  0.000000  0.000000  0.000000  -30.172253865932948  2.1947153360713765  13.932996216175418  55.985105979353484  3.9048362598693567  -11.047583207080482  24.9595176789507  42.24226919237104  -20.109331642770066  19.746012624239324  0.000000
1.116  0.000000  0.000000  0.000000  -30.235127721971786  2.456101979843799  14.905208885500688  56.166018678384056  3.8758916075187204  -11.075354794482006  24.577102817576762  43.41837434821621  -20.28936293096682  19.462268375192096  0.000000
1.147  0.000000  0.000000  0.000000  -30.337202321508578  2.7401861109621777  15.879469144005155  56.36098235985903  3.852074092778621  -11.048286771345662  24.172589210707525  44.54683254488576  -20.4349915399909  19.188382131866522  0.000000
1.178  0.000000  0.000000  0.000000  -30.478550238654343  3.0457436378358085  16.839047338911985  56.573750727199425  3.844064422137366  -10.952669626235728  23.727160716385963  45.63751253525844  -20.522944691404966  18.937270726501907  0.000000
1.209  0.000000  0.000000  0.000000  -30.659329547144562  3.370599267676918  17.76718704870182  56.80443702546418  3.8621782608071697  -10.77935407827206  23.23077942341375  46.698912955315365  -20.53886690652583  18.71865656833941  0.000000
1.24  0.000000  0.000000  0.000000  -30.880284566180173  3.712193793059275  18.64824821405544  57.049349620927615  3.915052064955124  -10.524608452585575  22.683292348402038  47.73771949801915  -20.479331472744605  18.537239676227824  0.000000
1.271  0.000000  0.000000  0.000000  -31.142258015092757  4.067887738065253  19.46894991428879  57.30235130510942  4.0087457234872925  -10.189899946155446  22.092171952050805  48.75854383882479  -20.35055940297269  18.39269635261503  0.000000
1.302  0.000000  0.000000  0.000000  -31.444715851030598  4.4347839769787925  20.219384687683807  57.55673109326126  4.146471147210357  -9.780768913746448  21.468573260951125  49.76380711892035  -20.16507240222601  18.280986027888797  0.000000
1.333  0.000000  0.000000  0.000000  -31.784326803599953  4.809526888271682  20.89356166995735  57.806639028711515  4.32875222301841  -9.305544557413512  20.824133613579548  50.753674939276095  -19.93857379474731  18.19608574998145  0.000000
1.3639999999999999  0.000000  0.000000  0.000000  -32.15485689610007  5.188330910789007  21.489256285802124  58.04760834692037  4.553730537515622  -8.774263036146333  20.169872683781517  51.72607913539328  -19.687896354272308  18.13156340479099  0.000000
1.395  0.000000  0.000000  0.000000  -32.54834283118088  5.5673041460221775  22.00722448289381  58.27625428295957  4.817521727513161  -8.19794404897761  19.516716028052546  52.676748804756514  -19.429854523643634  18.08159317099152  0.000000
1.426  0.000000  0.000000  0.000000  -32.9564610738666  5.942835830162222  22.450182370460297  58.48979065845129  5.11451246264332  -7.588175627388291  18.876199067093314  53.599404817314834  -19.17991372975581  18.04137844246961  0.000000
1.457  0.000000  0.000000  0.000000  -33.37128454238398  6.311542589320619  22.821933800438966  58.685822895928176  5.437700714314921  -6.957001241311233  18.260263224999946  54.48615689813743  -18.950273882516324  18.007334399291384  0.000000
1.488  0.000000  0.000000  0.000000  -33.78498145600672  6.669683163968479  23.126690375631775  58.862514224267954  5.779198626279296  -6.317079191101531  17.680002413130282  55.32816412783504  -18.74783696628133  17.977245312798424  0.000000
1.519  0.000000  0.000000  0.000000  -34.189260904160065  7.012424845090526  23.368810529517738  59.018964558928275  6.1307259375670595  -5.681891649875002  17.144100277602718  56.116255100063874  -18.57339884834049  17.95046439104459  0.000000
1.55  0.000000  0.000000  0.000000  -34.57547573552246  7.333518490000259  23.55286132463765  59.15555706999577  6.483945302527091  -5.06571531913099  16.65813756616107  56.84130775905006  -18.42321026067498  17.927990738367257  0.000000
1.581  0.000000  0.000000  0.000000  -34.935804393006585  7.625850317709176  23.683890511103137  59.27387380887364  6.830694976726249  -4.483015613869706  16.22535753212654  57.49404339415754  -18.292322783709647  17.912094585233866  0.000000
1.612  0.000000  0.000000  0.000000  -35.264642524320735  7.882858249325485  23.767555585084807  59.37602929577844  7.163208371364024  -3.94742616913564  15.848527274316833  58.06456807895961  -18.177623214595744  17.905313960414798  0.000000
1.643  0.000000  0.000000  0.000000  -35.559272780480086  8.100090886196492  23.81001771817086  59.4636391885235  7.474219042635856  -3.4707205669096717  15.531776440334616  58.5420804716604  -18.07878901799152  17.90920180529145  0.000000
1.674  0.000000  0.000000  0.000000  -35.819038661710636  8.275964548999106  23.817334938248273  59.53704022407678  7.756853295294461  -3.0623178800571518  15.281338292322708  58.91530168694346  -17.99768082068676  17.923424386422692  0.000000
1.705  0.000000  0.000000  0.000000  -36.04337625480016  8.411259480769484  23.794721937700675  59.59504610488274  8.004233983943767  -2.7295725590921784  15.10484466094328  59.173353954649784  -17.937543272750883  17.94572042154559  0.000000
1.736  0.000000  0.000000  0.000000  -36.22969985803148  8.507572157062437  23.745583226347097  59.63539909349287  8.209388575662913  -2.4785842651618655  15.009788915162801  59.30686959268851  -17.902946421337088  17.972575664974755  0.000000
1.767  0.000000  0.000000  0.000000  -36.372261197670525  8.56582650185339  23.670873365030598  59.65543999729583  8.365763112801687  -2.3146872440576147  15.001911037825218  59.30864341037454  -17.900183854078506  18.000083467413056  0.000000
1.798  0.000000  0.000000  0.000000  -36.462701609699884  8.585281819612058  23.56954610269487  59.65306352272997  8.468059465650994  -2.242515764127893  15.084190060908243  59.173881289251476  -17.937735623614337  18.024691395967732  0.000000
1.829  0.000000  0.000000  0.000000  -36.492200312620945  8.563298237201659  23.44000200888958  59.62765366777494  8.513234213346246  -2.2654823742662513  15.256657819243932  58.90008550151607  -18.026287940220662  18.043769719831513  0.000000
1.8599999999999999  0.000000  0.000000  0.000000  -36.45378860694756  8.495978083242894  23.282150092952193  59.580551743099164  8.500593904216817  -2.3853931380353384  15.516717973876341  58.486945580393375  -18.177725827842217  18.055964073691687  0.000000
1.891  0.000000  0.000000  0.000000  -36.34420540786051  8.379110383148387  23.09869548431084  59.514764663391254  8.430792107704747  -2.602581021320315  15.859988165825174  57.93654860809992  -18.402880168115324  18.061706565723977  0.000000
1.922  0.000000  0.000000  0.000000  -36.16463047437473  8.209401312749797  22.894083400266563  59.433807587286125  8.304961631374743  -2.9158523116042567  16.2813429495034  57.25400964392612  -18.70845885587294  18.06373986419165  0.000000
1.953  0.000000  0.000000  0.000000  -35.920311166968816  7.985951695724026  22.672721710074573  59.340102652202816  8.123998373003342  -3.3221614348007877  16.775641070359082  56.44797275626491  -19.094256506837326  18.067193735856915  0.000000
1.984  0.000000  0.000000  0.000000  -35.61969026594082  7.710767833806915  22.437752737725503  59.2341593156741  7.888329418455764  -3.8165412401640344  17.33805821242633  55.530770921985344  -19.552235011793982  18.079010223738642  0.000000
2.015  0.000000  0.000000  0.000000  -35.273363381244  7.38819653948234  22.19026625466454  59.11474085978843  7.598799800280529  -4.3918768490300355  17.9638812950204  54.51786581056871  -20.06812421359424  18.10648896612355  0.000000
2.046  0.000000  0.000000  0.000000  -34.89294181588774  7.023883809856004  21.9294883068554  58.979826416456305  7.257727800058944  -5.038781945965917  18.64791981106506  53.42676487653031  -20.62490713944291  18.155185873173636  0.000000
2.077  0.000000  0.000000  0.000000  -34.49033076422231  6.623590360066909  21.653649399310343  58.82783083115657  6.869400013919108  -5.745936236649142  19.384010493364343  52.27581452450421  -21.20636230380348  18.2272511948026  0.000000
2.108  0.000000  0.000000  0.000000  -34.077135364545505  6.192529143213771  21.360392308905993  58.658260304483385  6.439999583715488  -6.50054361575594  20.16478041838752  51.08311754285755  -21.79918941906833  18.321005720546633  0.000000
2.139  0.000000  0.000000  0.000000  -33.664177716372365  5.735339430189964  21.046633641445055  58.47170027869885  5.977006918735293  -7.288708848581995  20.981520648375  49.86563718013721  -22.393093874873138  18.431707039560163  0.000000
2.17  0.000000  0.000000  0.000000  -33.26102812837422  5.256371896521359  20.708059243645128  58.2694791616231  5.488528352191777  -8.095527376701748  21.82411447388419  48.63850245691419  -22.979497195853604  18.55294514720178  0.000000
2.201  0.000000  0.000000  0.000000  -32.8756969043833  4.760086012506187  20.338762550931932  58.05342024987157  4.982911495681341  -8.904888814656692  22.680974845028643  47.41435048562362  -23.549900483510424  18.677953692295574  0.000000
2.232  0.000000  0.000000  0.000000  -32.51450579793641  4.251357793489166  19.931324771480035  57.82586305178346  4.468798780279972  -9.699192435758663  23.539140649656034  46.20272061529554  -24.094601699708473  18.800573960117077  0.000000
2.263  0.000000  0.000000  0.000000  -32.18222410683963  3.735705579500877  19.477409598457516  57.58989280447507  3.9554454031993154  -10.459331176977093  24.384609833015986  45.00943447434725  -24.60225487243691  18.915869392260657  0.000000
2.294  0.000000  0.000000  0.000000  -31.882207010472815  3.2193653139267053  18.968624414204523  57.34943346023899  3.453032407893487  -11.165236532798023  25.203009127527032  43.83605618159732  -25.060265821321124  19.020424782505167  0.000000
2.325  0.000000  0.000000  0.000000  -31.616383295779688  2.7091095848355526  18.3975533954602  57.10899032155048  2.9727023429252686  -11.797276016136511  25.98073500595118  42.679399670082205  -25.456222278354286  19.112427702200478  0.000000
2.356  0.000000  0.000000  0.000000  -31.384947027364642  2.211749944138778  17.758696831918602  56.87301463474018  2.526164019996132  -12.338186637124977  26.706725524995946  41.53141313324197  -25.78013551377118  19.191611930353975  0.000000
2.387  0.000000  0.000000  0.000000  -31.186048037176846  1.7335861958916707  17.04928061852718  56.64517290556974  2.1250497477517376  -12.775009711434862  27.374376711076565  40.37960775194083  -26.0269179578488  19.259053137264498  0.000000
2.418  0.000000  0.000000  0.000000  -31.01588876954708  1.2799007414380381  16.270088589020457  56.42790177189755  1.7799932941061305  -13.10041080164804  27.982421506080158  39.20835135353445  -26.197924879776963  19.316851933763893  0.000000
2.449  0.000000  0.000000  0.000000  -30.86925631939477  0.854810447422148  15.426280228645483  56.222509643524944  1.4996875628354538  -13.313150637032866  28.53492065281298  38.00065356441428  -26.301415914292527  19.36741721505036  0.000000
2.48  0.000000  0.000000  0.000000  -30.740408159224927  0.46116530734164  14.527663470174277  56.02966671495796  1.2902689113266652  -13.417703134644755  29.040770695517477  36.740488080802955  -26.35189039512667  19.412881011668343  0.000000
2.511  0.000000  0.000000  0.000000  -30.623729452280728  0.1009062638156048  13.588372577111159  55.849957496487455  1.1550716236242924  -13.423270007010759  29.512876818521878  35.41484378699386  -26.36841981503634  19.454733066679257  0.000000
2.542  0.000000  0.000000  0.000000  -30.51391727963716  -0.224453538862632  12.625955828519954  55.68396179384455  1.094104993257012  -13.342721717811047  29.967430156106456  34.015299335597135  -26.37264896236393  19.49364704164339  0.000000
2.573  0.000000  0.000000  0.000000  -30.406703395866028  -0.5140300937399279  11.65928201441003  55.5317575503361  1.1043834995966937  -13.190957435106135  30.42332765389068  32.53900866369362  -26.386459598379403  19.530017742520837  0.000000
2.604  0.000000  0.000000  0.000000  -30.298524878637796  -0.766998669332982  10.706028139520784  55.392557239748164  1.1805870554882063  -12.983223914464958  30.90124936967064  30.988992173003336  -26.429965286058962  19.564123443047965  0.000000
2.635  0.000000  0.000000  0.000000  -30.186622336761513  -0.9828322214223135  9.781357870051467  55.26435809075647  1.3150401628371444  -12.734350040267227  31.422515938139952  29.373336089437913  -26.519927058071733  19.596397892801935  0.000000
2.666  0.000000  0.000000  0.000000  -30.069889976225287  -1.1624089731139222  8.897057335996806  55.1440528898253  1.4979693372229668  -12.458867574976333  32.00833187080692  27.70369456679609  -26.669509192124245  19.62790185037984  0.000000
2.697  0.000000  0.000000  0.000000  -29.949194671693373  -1.308029948262405  8.060220726233373  55.02788805571984  1.7194043398799004  -12.16989739252163  32.679587347052376  25.993710320696103  -26.88959116019592  19.66065994855286  0.000000
2.7279999999999998  0.000000  0.000000  0.000000  -29.82716768158214  -1.4232167311197583  7.273382398045145  54.912409981281094  1.9706348976002848  -11.877664042345721  33.45596181367227  24.25829424812334  -27.189042420676223  19.698029698862175  0.000000
2.759  0.000000  0.000000  0.000000  -29.707143404285457  -1.5120477124287852  6.538127180348019  54.79547846262901  2.2428074568405045  -11.590706086616054  34.355787745005884  22.512742329670953  -27.57568828647356  19.7451039133681  0.000000
2.79  0.000000  0.000000  0.000000  -29.592294652979213  -1.5782294117764104  5.856727839969956  54.67605090980891  2.5268782100714064  -11.316208458902226  35.397017836775845  20.770961049864646  -28.057457045708208  19.809328352364147  0.000000
2.821  0.000000  0.000000  0.000000  -29.484421661705802  -1.62478322471537  5.231207474803549  54.553983675710796  2.814995171495464  -11.059369437592292  36.59895325136454  19.043927165281982  -28.644558905002615  19.89998052291423  0.000000
2.852  0.000000  0.000000  0.000000  -29.383479373459785  -1.6542016757892115  4.663763553099446  54.42993711809895  3.1002200259458004  -10.823892850403984  37.9848451721228  17.339369937756192  -29.352618612662674  20.02723437798629  0.000000
2.883  0.000000  0.000000  0.000000  -29.28788919443288  -1.6681847478971317  4.156727489421779  54.305204894059074  3.3764592048273037  -10.612197954406614  39.586945606719425  15.662171363090692  -30.208398040800894  20.200262796387534  0.000000
2.914  0.000000  0.000000  0.000000  -29.1959003071754  -1.6680641547663073  3.7119143251088915  54.18106231362738  3.6388218283870795  -10.425705185280972  41.45484781079016  14.015521971777844  -31.25945493330469  20.42532040409946  0.000000
2.945  0.000000  0.000000  0.000000  -29.10577117005641  -1.6551527993279274  3.329527715385497  54.058839731433636  3.883791981662672  -10.265057502569215  43.667310361808454  12.4017889175787  -32.586063992115534  20.70423264783311  0.000000
2.976  0.000000  0.000000  0.000000  -29.015443146330128  -1.630859626288461  3.0075688696715632  53.938786441703314  4.108855322903478  -10.12999030336466  46.35568475675595  10.82302634606429  -34.32590855706367  21.03394932567842  0.000000
3.007  0.000000  0.000000  0.000000  -28.923738262763777  -1.5972086550208402  2.740942134467308  53.82069315678285  4.312474518380264  -10.019320681112896  49.74199075973121  9.282893248859983  -36.71084074352288  21.407670871794515  0.000000
3.038  0.000000  0.000000  0.000000  -28.82461196096109  -1.5556064613734515  2.5218302049957093  53.70282790258133  4.493817913818306  -9.930739721074431  54.22156475016978  7.786969410314509  -40.149182741682424  21.81558644480527  0.000000
3.069  0.000000  0.000000  0.000000  -28.715772159415863  -1.5086095187642703  2.339691626586697  53.58393741195968  4.653757414937313  -9.86013842829715  60.52858585441668  6.3536374720994395  -45.38985829306546  22.247272406335565  0.000000
3.1  0.000000  0.000000  0.000000  -28.58380122412499  -1.457192707822797  2.1830194426682796  53.46598694964035  4.795343360169411  -9.80100180447665  70.10079973154618  5.026348942030129  -53.8822527340518  22.694314329821772  0.000000
