Simulation
nRows=80
nColumns=15
endheader
time  TH_x TH_y TH_z SC_y  SC_z  SC_x  AC_y  AC_z  AC_x  GH_y  GH_z  GH_yy  EL_x  PS_y
0.0  0.000000  0.000000  0.000000  -41.425232954028324  -2.857957232606939  10.538989338145125  48.197559693706886  -2.333830859551582  -9.078296317745275  16.465594787831623  1.478429246791679  1.3411032453933185  21.245042787099543  120.000000
0.040506329113924086  0.000000  0.000000  0.000000  -40.29582084410984  -1.0574524169283634  9.025855323648898  47.218095822136085  -1.2763709663612965  -7.308594700919464  32.60106231869242  1.8787530431113946  -15.344303017374326  21.094942837028608  120.000000
0.08101265822784817  0.000000  0.000000  0.000000  -39.28689544229769  0.23649649668426656  7.544834466038415  46.37509860486968  -0.35096769329698563  -5.874190117383023  39.94554799667887  2.396913162775906  -23.264815183684608  20.874190758354732  120.000000
0.12151898734177226  0.000000  0.000000  0.000000  -38.543029471523475  1.109785568572451  6.100521195732365  45.72518723938083  0.4445685236384286  -4.650379716283031  43.242760370403246  2.98921526802094  -27.152848919203638  20.647131799242537  120.000000
0.16202531645569634  0.000000  0.000000  0.000000  -38.06085274584171  1.6197018600558593  4.696182793728379  45.29939599670608  1.1521863174665279  -3.5651634677029396  44.431448473748624  3.6154927104434584  -28.915828438253676  20.490013323222055  120.000000
0.20253164556962044  0.000000  0.000000  0.000000  -37.80328907235801  1.8475207396698456  3.337531090070683  45.12029652748412  1.796400411645214  -2.5383235923249643  44.49373515822797  4.256404721586397  -29.493513035703646  20.421574665260618  120.000000
0.24303797468354452  0.000000  0.000000  0.000000  -37.7178280996669  1.867663522603738  2.0312302972850924  45.184526984781115  2.4056467052989015  -1.5076690818725675  43.98482845660572  4.903741339472959  -29.40548507198042  20.447825545965426  120.000000
0.2835443037974686  0.000000  0.000000  0.000000  -37.7451934817844  1.7402729001235717  0.7761862406995335  45.47992161024799  3.014111682532085  -0.43786561595374407  43.25762993010123  5.567191946378287  -28.978520684154823  20.566225925851246  120.000000
0.3240506329113927  0.000000  0.000000  0.000000  -37.833270518937766  1.517556609249506  -0.4311902261543547  45.97132842723383  3.6585131755584936  0.6871369528116655  42.65477292946418  6.263713819353758  -28.545271055837  20.765164701191672  120.000000
0.3645569620253168  0.000000  0.000000  0.000000  -37.93957970885031  1.2484473374467184  -1.5983250058599825  46.604486478851555  4.370848358349051  1.8589771854193131  42.58122566938679  7.025276808563136  -28.53301710257609  21.02491321309268  120.000000
0.4050632911392409  0.000000  0.000000  0.000000  -38.03681087876092  0.9814198217635159  -2.729230936664621  47.30720828098293  5.173529885102905  3.055165023784081  43.42286472841451  7.8897178274487345  -29.37704621141476  21.31780812677297  120.000000
0.44556962025316493  0.000000  0.000000  0.000000  -38.110782183366666  0.763157384820561  -3.82933630097383  47.99984256119639  6.074105038472689  4.247869976228614  45.41260492023145  8.909623458174256  -31.386708412235464  21.60790630944167  120.000000
0.48607594936708903  0.000000  0.000000  0.000000  -38.15515479570752  0.6344770570117174  -4.903858333368764  48.61324257343284  7.067301037855127  5.417964277676658  48.49028453812429  10.144261392806674  -34.585467653683395  21.856707036652104  120.000000
0.5265822784810131  0.000000  0.000000  0.000000  -38.16355523662193  0.6255803334728657  -5.9677842464610835  49.10051883101004  8.142682574196112  6.570810306112641  52.262828317775686  11.64703585502273  -38.64847091042609  22.040174798788634  120.000000
0.5670886075949372  0.000000  0.000000  0.000000  -38.1286289931757  0.7513827811005244  -7.042932552959999  49.4515491112219  9.293453309543809  7.735155298045861  56.17109484516289  13.442003069841626  -43.05391571655374  22.15763633936632  120.000000
0.6075949367088613  0.000000  0.000000  0.000000  -38.04573787659244  1.0069200590679928  -8.13058783031002  49.68954089663131  10.508530889103342  8.941529175973402  59.706834074201076  15.504411381401098  -47.2903665157996  22.232502367237675  120.000000
0.6481012658227854  0.000000  0.000000  0.000000  -37.92112691395523  1.3676576475350064  -9.209095231546362  49.86525909522819  11.78030983285477  10.20310752234093  62.57131464800732  17.773444881644433  -51.02761465175244  22.29853054799199  120.000000
0.6886075949367094  0.000000  0.000000  0.000000  -37.77812422715546  1.7997665419652475  -10.238232184162577  50.031766591544525  13.103510252672853  11.515310233547082  64.68819282897779  20.17602643570678  -54.13922706726413  22.38106070742639  120.000000
0.7291139240506336  0.000000  0.000000  0.000000  -37.649893640761924  2.2764758061436265  -11.166243649143818  50.22890741849626  14.467601230506236  12.851242406281171  66.15103846069007  22.659592821774073  -56.671780624498105  22.47896140544255  120.000000
0.7696202531645576  0.000000  0.000000  0.000000  -37.570235097780646  2.7880667674295596  -11.93271362788827  50.47230421825848  15.847367574247581  14.170228923385068  67.1435803655173  25.20025150264325  -58.77065824103943  22.560083615967958  120.000000
0.8101265822784818  0.000000  0.000000  0.000000  -37.56569750247606  3.340269718130976  -12.474281048818943  50.75576541472033  17.19771102934675  15.42456603945035  67.86309310223469  27.801160656883145  -60.60893865733415  22.575429952842292  120.000000
0.8506329113924058  0.000000  0.000000  0.000000  -37.652304858092954  3.94646551267109  -12.724228822862647  51.064109364587964  18.455788150729227  16.564647642917983  68.4684551650282  30.47591091159069  -62.32811767541138  22.483373737831055  120.000000
0.8911392405063299  0.000000  0.000000  0.000000  -37.83328922429659  4.61787575396238  -12.622862558014479  51.382841101837684  19.552575998273614  17.547106705625417  69.0488636884184  33.23433216125534  -64.00048435418896  22.270729908282775  120.000000
0.931645569620254  0.000000  0.000000  0.000000  -38.101388026661844  5.357389701506202  -12.126225731951891  51.70538855286705  20.426597030506663  18.341748271186926  69.62413605267383  36.07173890140174  -65.6267489995562  21.958300581528253  120.000000
0.9721518987341781  0.000000  0.000000  0.000000  -38.44424382323021  6.160123621625875  -11.204213279739816  52.03636370058524  21.027884278664988  18.931039315961016  70.1680441657126  38.96618533994672  -67.15854343035068  21.591186051731082  120.000000
1.0126582278481022  0.000000  0.000000  0.000000  -38.85287481629921  7.017890328902704  -9.844421110206854  52.390532650732275  21.32860101042855  19.315805038131618  70.64144752962282  41.879563494287396  -68.53892755256024  21.218154973738624  120.000000
1.0531645569620263  0.000000  0.000000  0.000000  -39.32870536597338  7.927040375071521  -8.06715637134251  52.78421782370917  21.336996716684354  19.531826874468397  71.01460775910006  44.75908515721931  -69.72779197201255  20.870090527234062  120.000000
1.0936708860759503  0.000000  0.000000  0.000000  -39.88434997492923  8.89296353471946  -5.934343412064083  53.22665889566777  21.111509727785496  19.65914293896798  71.27628114827522  47.53309621913165  -70.715999913767  20.55116455714505  120.000000
1.1341772151898744  0.000000  0.000000  0.000000  -40.53614262895871  9.915120057057122  -3.52939784281582  53.71401206534945  20.738829122620714  19.789696602471885  71.42765488857111  50.12594256684055  -71.52054096162877  20.244903304735068  120.000000
1.1746835443037984  0.000000  0.000000  0.000000  -41.291026517362525  10.967117877027365  -0.9154358025905764  54.22915612318086  20.278838164892605  19.963992164990323  71.47667614493471  52.49172049690732  -72.17447974504039  19.930406892179768  120.000000
1.2151898734177227  0.000000  0.000000  0.000000  -42.13993215567058  12.002001039800449  1.855926293101787  54.746916610817294  19.76084180172562  20.17464646392197  71.43266965130415  54.61148270331988  -72.71849685479506  19.600646339257857  120.000000
1.2556962025316467  0.000000  0.000000  0.000000  -43.05867146781245  12.972224880301995  4.712165540623751  55.24060978662734  19.211753860057637  20.40850047659246  71.30282324631645  56.47193816785723  -73.19545108982418  19.267182598701627  120.000000
1.2962025316455708  0.000000  0.000000  0.000000  -44.010134252996785  13.841725403242448  7.5621848249048265  55.68757644813992  18.655978353359494  20.655883867194145  71.09405391595833  58.063087273238914  -73.64473813161364  18.953661797243058  120.000000
1.3367088607594948  0.000000  0.000000  0.000000  -44.94956472545538  14.589381811562358  10.309284098109877  56.07404451806805  18.111302039835117  20.9075752673982  70.81464840141197  59.38109792996099  -74.09386738916679  18.687202106282168  120.000000
1.3772151898734188  0.000000  0.000000  0.000000  -45.83322630018126  15.208614953402487  12.863320321921949  56.39620546262796  17.592849338342596  21.154737334785363  70.47906364050063  60.42672661344389  -74.55192293985253  18.487826704525506  120.000000
1.417721518987343  0.000000  0.000000  0.000000  -46.62553689799076  15.70456751136757  15.149669891504857  56.657398393440786  17.113904126670743  21.388617116863927  70.11105796429761  61.204665772450866  -75.00575948842763  18.361527826122735  120.000000
1.4582278481012672  0.000000  0.000000  0.000000  -47.30228422630508  16.088633307504367  17.112456386253708  56.864461612920195  16.688191949618748  21.600301830755058  69.74342678624284  61.72202283229878  -75.42564023123224  18.299841237470563  120.000000
1.4987341772151912  0.000000  0.000000  0.000000  -47.8494177450701  16.374367299853294  18.71239213596294  57.0239513006945  16.32872464304465  21.780675584517905  69.41388385780061  61.98797220502556  -75.77439539878178  18.285248248067674  120.000000
1.5392405063291152  0.000000  0.000000  0.000000  -48.26051286787357  16.57456869174504  19.920873123605734  57.1393204713681  16.050488849953986  21.922927958224598  69.15997020310394  62.010578629042605  -76.01821415760384  18.299015682318366  120.000000
1.5797468354430393  0.000000  0.000000  0.000000  -48.531843018886796  16.69642721420716  20.71933663152868  57.21076965558883  15.866155083559454  22.017304477039552  69.01396290756567  61.799355023710824  -76.13475680991405  18.327128636835692  120.000000
1.6202531645569636  0.000000  0.000000  0.000000  -48.6561919147367  16.738379600337534  21.103064036142996  57.23718548315552  15.769818679349076  22.03670347077331  68.99788753431156  61.37991030299374  -76.11565645555606  18.362216670385685  120.000000
1.6607594936708876  0.000000  0.000000  0.000000  -48.624964506604336  16.692056877228826  21.077508358849702  57.21924016509044  15.742060122038431  21.944928347654237  69.11953778914418  60.78873665510949  -75.96726117938007  18.402750903848926  120.000000
1.7012658227848116  0.000000  0.000000  0.000000  -48.43398935401502  16.547604162072986  20.646580997160147  57.16014180199935  15.77009816407682  21.722328118846793  69.36917458142337  60.05408984186234  -75.70970708314664  18.45021316266391  120.000000
1.7417721518987357  0.000000  0.000000  0.000000  -48.084080907223274  16.296619064575182  19.81002802995364  57.06393916707237  15.851080355129517  21.37249494256616  69.71899090098854  59.1930497326296  -75.37338577676724  18.505116664847456  120.000000
1.7822784810126597  0.000000  0.000000  0.000000  -47.58077765090433  15.931288219809447  18.570451325303587  56.934878292440835  15.984311095686428  20.914774595951574  70.1249077174367  58.21632072048213  -74.98939955263849  18.565964997500195  120.000000
1.8227848101265838  0.000000  0.000000  0.000000  -46.93674852217973  15.443392857371022  16.940522394376273  56.77628998526849  16.169752092657923  20.37937376265063  70.53253738345836  57.1280582770956  -74.57634404843334  18.629383154962635  120.000000
1.863291139240508  0.000000  0.000000  0.000000  -46.17493906312069  14.826383968896996  14.951152052253963  56.58845278170767  16.407680778813614  19.80379525777075  70.88695346924801  55.92428405707168  -74.12623667004944  18.6892314750833  120.000000
1.903797468354432  0.000000  0.000000  0.000000  -45.33110199780567  14.079472844906308  12.657704921221612  56.36856799096775  16.699980078337912  19.22950584413708  71.14305417790708  54.591783121084  -73.59808041123574  18.73631562756345  120.000000
1.9443037974683561  0.000000  0.000000  0.000000  -44.4522193111632  13.211308799363492  10.141341835542628  56.11290168927899  17.05084463694024  18.69582207649698  71.27387022359746  53.11119677885065  -72.92580470734583  18.759576795217328  120.000000
1.9848101265822802  0.000000  0.000000  0.000000  -43.58900315435712  12.242525557794519  7.502107188229844  55.82011777810868  17.462363382709054  18.231768920940944  71.27151257931946  51.46556984476137  -72.03886974409411  18.750859494228568  120.000000
2.0253164556962044  0.000000  0.000000  0.000000  -42.78612899815953  11.205044775987123  4.846091051357522  55.49261776457772  17.928608055666977  17.85056035130022  71.14354303923918  49.6478927131464  -70.88768798088981  18.711727639683442  120.000000
2.0658227848101283  0.000000  0.000000  0.000000  -42.07366817770991  10.13873508533956  2.271832302779728  55.13445303417708  18.428602266576064  17.547676398516742  70.9063348708687  47.66579093147411  -69.46070036420447  18.65925373710882  120.000000
2.1063291139240525  0.000000  0.000000  0.000000  -41.46338013579943  9.08661360665051  -0.13955335025027582  54.74762926993786  18.925282068890063  17.30526257754432  70.57928568083979  45.53872780924415  -67.78664932511215  18.627137077520796  120.000000
2.1468354430379764  0.000000  0.000000  0.000000  -40.950664282821506  8.089015436968513  -2.3285119923125044  54.33073362161144  19.37142963588315  17.098137443912563  70.18074400527732  43.29306011141955  -65.92181439387991  18.657975776674554  120.000000
2.1873417721519006  0.000000  0.000000  0.000000  -40.52083274477389  7.179458654714736  -4.257436437235987  53.88133871028732  19.717377866480163  16.90073368784406  69.72345108531647  40.95761479283696  -63.92912708712011  18.791211315349692  120.000000
2.227848101265825  0.000000  0.000000  0.000000  -40.155274547853224  6.382615523630569  -5.910272522203521  53.399963043317804  19.92074393201181  16.69320408404579  69.21036427317972  38.56066751447826  -61.85800141236775  19.05069300214888  120.000000
2.2683544303797487  0.000000  0.000000  0.000000  -39.83398412154124  5.711538810442474  -7.291076510343834  52.89322706003695  19.95224849365247  16.46370338075257  68.62745100519292  36.130383793364004  -59.7299751504751  19.435635257411715  120.000000
2.308860759493673  0.000000  0.000000  0.000000  -39.53768965551288  5.165811533572825  -8.425233385700663  52.37310089412958  19.803563053324563  16.212209386677284  67.9388358190371  33.6928038511219  -57.534034460909794  19.922145187777488  120.000000
2.349367088607597  0.000000  0.000000  0.000000  -39.250936983871455  4.733944761764398  -9.359502803645423  51.853175010269794  19.489316166246518  15.950984793093474  67.08332494740586  31.271989458707793  -55.22500388315141  20.475991542234603  120.000000
2.389873417721521  0.000000  0.000000  0.000000  -38.96791041771598  4.396793795760831  -10.136932601991136  51.349087845130065  19.03226022267529  15.6913996327267  65.98161940640293  28.888144033905203  -52.73179870649489  21.06551372431429  120.000000
2.4303797468354453  0.000000  0.000000  0.000000  -38.69481636353855  4.129943621538133  -10.791522478536404  50.8766048860486  18.46418429266968  15.438624086784245  64.5482723461031  26.561464527995494  -49.972924781147256  21.66519400584773  120.000000
2.470886075949369  0.000000  0.000000  0.000000  -38.44533439803775  3.907976181329384  -11.358042925203375  50.44319033539927  17.829963396468912  15.200155777161585  62.70018060748002  24.31423411449669  -46.86613254205434  22.252131852211757  120.000000
2.5113924050632934  0.000000  0.000000  0.000000  -38.2352255954381  3.709445909481439  -11.878752757239436  50.0457711764625  17.188721003442815  14.989530676656173  60.36842791400196  22.17355196034435  -43.342835219582945  22.80113698815411  120.000000
2.5518987341772172  0.000000  0.000000  0.000000  -38.07811577827118  3.52013124820244  -12.393468016087764  49.67190446648433  16.59747124670761  14.819325090542348  57.51059999223516  20.17312460099056  -39.3603617865679  23.287117573700183  120.000000
2.5924050632911415  0.000000  0.000000  0.000000  -37.981688868019305  3.335236187200503  -12.918412069810667  49.3047563732669  16.094324724278735  14.690513071085729  54.13858539085292  18.34486603969088  -34.9266803304222  23.685593965452746  120.000000
2.6329113924050658  0.000000  0.000000  0.000000  -37.94440426424264  3.159059021642594  -13.454623406251095  48.927023179239434  15.700882700374558  14.595545191056015  50.33794309151888  16.71542332954043  -30.121729089497954  23.97065545034105  120.000000
2.6734177215189896  0.000000  0.000000  0.000000  -37.95855501351582  3.00080835814806  -13.997370440330144  48.523754689372865  15.42730667240989  14.529366421531577  46.26490995643263  15.29581306163149  -25.09656857987225  24.11856353182997  120.000000
2.713924050632914  0.000000  0.000000  0.000000  -38.01318098869711  2.868378818620632  -14.540130297560424  48.090016435472414  15.275021582888623  14.48689867102657  42.12118125510589  14.081184741753104  -20.054480271334228  24.112858139789335  120.000000
2.7544303797468377  0.000000  0.000000  0.000000  -38.095179428184785  2.7643398319570505  -15.077007720216535  47.63001148364898  15.2361025590432  14.468656517290079  38.09124799197264  13.048293306791448  -15.189345177294644  23.950368206523308  120.000000
2.794936708860762  0.000000  0.000000  0.000000  -38.191502288885175  2.6845571082191895  -15.601549123128013  47.15986541189074  15.29745528875816  14.474822577876717  34.308334870665576  12.160418801541221  -10.651786298835777  23.639049843866115  120.000000
2.835443037974686  0.000000  0.000000  0.000000  -38.293202193619145  2.616248986522257  -16.105370564623943  46.703032777971806  15.443577491036477  14.503107965081545  30.822812689506932  11.371831472278378  -6.511710070773005  23.195921689622  120.000000
2.87594936708861  0.000000  0.000000  0.000000  -38.399766191770595  2.538238552569453  -16.577934487483606  46.285139944817494  15.663543973757902  14.544237099612713  27.62152291465853  10.630098250957431  -2.770625910541275  22.643210942518046  120.000000
2.9164556962025343  0.000000  0.000000  0.000000  -38.52131607988927  2.422897697035308  -17.009274111347334  45.92870241295057  15.953151439937812  14.579824604851787  24.654137198260145  9.879860661926543  0.6164582968692199  22.00958714996413  120.000000
2.956962025316458  0.000000  0.000000  0.000000  -38.67766535031822  2.2360758924709034  -17.39220839163155  45.64655546018416  16.31721457366625  14.583290829180612  21.8563480597873  9.063049821991616  3.7230765783390916  21.33159806277888  120.000000
2.9974683544303824  0.000000  0.000000  0.000000  -38.89018135431831  1.9334441053073967  -17.728618538527762  45.44249947778365  16.769772932528337  14.518084233612184  19.154131463985024  8.127054723704356  6.639207190746765  20.648191356459677  120.000000
3.0379746835443067  0.000000  0.000000  0.000000  -39.174284364086446  1.4588768123682325  -18.03369960879162  45.308498692232924  17.330036497630307  14.34550465721993  16.393935861327346  7.029153518722499  9.53439655262127  19.99385336297905  120.000000
3.0784810126582305  0.000000  0.000000  0.000000  -39.53043415211404  0.7476171228307629  -18.346698755126425  45.23421400168516  18.020276868126068  14.029076335611284  13.17601330146605  5.751212335392311  12.82435502145641  19.393434384769957  120.000000
3.1189873417721548  0.000000  0.000000  0.000000  -39.93474358808992  -0.2706171955988946  -18.737326290494313  45.200331287353656  18.862528848843827  13.54221152330494  8.458588337295337  4.307668231895549  17.554030016113053  18.852556261871282  120.000000
3.1594936708860786  0.000000  0.000000  0.000000  -40.36336995661926  -1.6815251885977582  -19.26859194170273  45.22080359571987  19.86245280121042  12.844953322357103  -1.229277428119229  2.7821363326520285  27.190963344173166  18.318732616544228  120.000000
3.200000000000003  0.000000  0.000000  0.000000  -40.76871689828047  -3.5777495437816187  -20.02705504234423  45.295306463956884  21.043949786414718  11.928300872820197  -33.031906627290184  1.4702077123686605  58.87175496482003  17.711366201724363  120.000000
