simulation
nRows=100
nColumns=15
endheader
time  TH_x TH_y TH_z SC_y  SC_z  SC_x  AC_y  AC_z  AC_x  GH_y  GH_z  GH_yy  EL_x  PS_y
0.000000  0.000000  0.000000  0.000000  -25.364953  4.458560  -4.125773  37.782448  9.922386  4.928605  -11.820818  -1.685791  58.612979  20.289326  78.575978
0.032121  0.000000  0.000000  0.000000  -25.255887  4.557826  -4.288979  37.976070  10.051520  5.031313  -11.733324  -1.849888  58.818703  20.594284  78.668897
0.064242  0.000000  0.000000  0.000000  -25.132425  4.656185  -4.408891  38.084762  10.152559  5.087803  -11.613174  -2.005670  58.955342  20.851710  78.729309
0.096364  0.000000  0.000000  0.000000  -24.998717  4.750665  -4.493392  38.124186  10.227823  5.108761  -11.476448  -2.149197  59.031231  21.058018  78.762557
0.128485  0.000000  0.000000  0.000000  -24.858912  4.838296  -4.541452  38.111257  10.274485  5.097403  -11.339229  -2.276529  59.054703  21.209623  78.773981
0.160606  0.000000  0.000000  0.000000  -24.717159  4.916108  -4.568475  38.060529  10.300066  5.069884  -11.217597  -2.383727  59.034089  21.302940  78.768922
0.192727  0.000000  0.000000  0.000000  -24.577607  4.981131  -4.572595  37.988991  10.301530  5.028466  -11.127635  -2.466851  58.977724  21.334383  78.752722
0.224848  0.000000  0.000000  0.000000  -24.444406  5.030393  -4.566454  37.911533  10.284805  4.987016  -11.085423  -2.521961  58.893939  21.300366  78.730722
0.256970  0.000000  0.000000  0.000000  -24.321704  5.060925  -4.553736  37.844309  10.250267  4.952276  -11.107043  -2.545116  58.791069  21.197305  78.708264
0.289091  0.000000  0.000000  0.000000  -24.213652  5.069756  -4.537552  37.803545  10.197908  4.930570  -11.208577  -2.532377  58.677446  21.021613  78.690689
0.321212  0.000000  0.000000  0.000000  -24.124397  5.053915  -4.528532  37.804407  10.132303  4.934289  -11.406106  -2.479804  58.561403  20.769706  78.683338
0.353333  0.000000  0.000000  0.000000  -24.057942  5.011075  -4.529240  37.861729  10.053214  4.968704  -11.712868  -2.383276  58.449138  20.438270  78.690459
0.385455  0.000000  0.000000  0.000000  -24.015865  4.949382  -4.539979  37.966142  9.960958  5.027119  -12.095800  -2.235717  58.312069  20.028442  78.698474
0.417576  0.000000  0.000000  0.000000  -23.997777  4.885503  -4.565430  38.087684  9.860080  5.098151  -12.484168  -2.027648  58.093319  19.544977  78.679305
0.449697  0.000000  0.000000  0.000000  -24.003229  4.836350  -4.600685  38.197093  9.749189  5.162607  -12.806146  -1.749523  57.735192  18.992733  78.604452
0.481818  0.000000  0.000000  0.000000  -24.031776  4.818838  -4.644075  38.264581  9.628789  5.204006  -12.989905  -1.391791  57.179989  18.376572  78.445416
0.513939  0.000000  0.000000  0.000000  -24.083032  4.849608  -4.693119  38.261128  9.498980  5.205991  -12.967002  -0.944423  56.372289  17.701750  78.175065
0.546061  0.000000  0.000000  0.000000  -24.159547  4.932430  -4.727724  38.194205  9.353783  5.173737  -12.828826  -0.374605  55.364229  16.992284  77.830874
0.578182  0.000000  0.000000  0.000000  -24.268015  5.052901  -4.697911  38.123441  9.175396  5.138999  -12.892435  0.382642  54.359811  16.298682  77.541534
0.610303  0.000000  0.000000  0.000000  -24.415446  5.195247  -4.553938  38.111925  8.946436  5.137815  -13.491935  1.394730  53.574505  15.673451  77.442630
0.642424  0.000000  0.000000  0.000000  -24.608845  5.343692  -4.244633  38.222669  8.648189  5.205524  -14.961430  2.729067  53.223783  15.169098  77.669744
0.674545  0.000000  0.000000  0.000000  -24.855213  5.482475  -3.720586  38.518057  8.262426  5.379149  -17.634399  4.452932  53.522706  14.838066  78.358219
0.706667  0.000000  0.000000  0.000000  -25.158205  5.601072  -2.958627  39.024133  7.786814  5.670110  -21.600130  6.581860  54.526403  14.707230  79.550295
0.738788  0.000000  0.000000  0.000000  -25.513071  5.702122  -2.026300  39.673755  7.275750  6.044405  -26.334163  9.001347  55.888030  14.739205  81.054202
0.770909  0.000000  0.000000  0.000000  -25.913762  5.790303  -1.004844  40.386103  6.792513  6.460587  -31.217145  11.576777  57.198590  14.886669  82.641988
0.803030  0.000000  0.000000  0.000000  -26.354231  5.870290  0.033257  41.082158  6.395184  6.870430  -35.629721  14.173538  58.049086  15.102302  84.085701
0.835152  0.000000  0.000000  0.000000  -26.828428  5.946758  1.011077  41.683819  6.145427  7.228990  -38.952537  16.657016  58.030523  15.338783  85.157390
0.867273  0.000000  0.000000  0.000000  -27.328362  6.024540  1.867534  42.130263  6.089655  7.499215  -40.713645  18.917465  56.843822  15.556090  85.681833
0.899394  0.000000  0.000000  0.000000  -27.836934  6.109185  2.614147  42.433806  6.198865  7.684692  -41.131756  20.961653  54.704912  15.748395  85.730873
0.931515  0.000000  0.000000  0.000000  -28.334384  6.206457  3.278980  42.626652  6.425118  7.804188  -40.627685  22.830442  51.980429  15.919879  85.448651
0.963636  0.000000  0.000000  0.000000  -28.800949  6.322120  3.892214  42.739494  6.718819  7.874892  -39.622273  24.564698  49.037025  16.074723  84.979316
0.995758  0.000000  0.000000  0.000000  -29.216867  6.461936  4.485188  42.801105  7.029023  7.913525  -38.536358  26.205289  46.241353  16.217106  84.467016
1.027879  0.000000  0.000000  0.000000  -29.565505  6.630567  5.086722  42.837629  7.309334  7.936265  -37.757069  27.789573  43.926080  16.351747  84.047870
1.060000  0.000000  0.000000  0.000000  -29.858694  6.822647  5.697043  42.868019  7.564338  7.953693  -37.364866  29.323010  42.114702  16.488248  83.784926
1.092121  0.000000  0.000000  0.000000  -30.123458  7.027457  6.296292  42.907929  7.829075  7.977023  -37.276515  30.794028  40.665687  16.638814  83.702234
1.124242  0.000000  0.000000  0.000000  -30.386963  7.234231  6.867342  42.973789  8.136660  8.015527  -37.407243  32.190898  39.435952  16.815679  83.823475
1.156364  0.000000  0.000000  0.000000  -30.676378  7.432199  7.392962  43.082320  8.520185  8.078662  -37.672280  33.501889  38.282416  17.031075  84.172331
1.188485  0.000000  0.000000  0.000000  -31.018081  7.610736  7.856191  43.249593  9.011830  8.176422  -37.989098  34.716753  37.065875  17.296904  84.771362
1.220606  0.000000  0.000000  0.000000  -31.422402  7.762090  8.272241  43.480530  9.606127  8.310175  -38.320922  35.855443  35.726231  17.618359  85.620210
1.252727  0.000000  0.000000  0.000000  -31.884684  7.881195  8.679214  43.770315  10.266770  8.478815  -38.673696  36.966114  34.277238  17.994367  86.697126
1.284848  0.000000  0.000000  0.000000  -32.399696  7.963088  9.118282  44.116743  10.953621  8.680181  -39.054998  38.097997  32.735478  18.423616  87.979540
1.316970  0.000000  0.000000  0.000000  -32.962210  8.002805  9.623295  44.519873  11.630102  8.918346  -39.472407  39.300326  31.117535  18.904793  89.444882
1.349091  0.000000  0.000000  0.000000  -33.566861  7.995527  10.227483  44.982940  12.258340  9.198351  -39.933292  40.621637  29.440313  19.436401  91.070043
1.381212  0.000000  0.000000  0.000000  -34.199232  7.946205  10.933214  45.499540  12.819027  9.519481  -40.430795  42.062791  27.742745  20.004368  92.794989
1.413333  0.000000  0.000000  0.000000  -34.830198  7.875669  11.699400  46.041163  13.322264  9.864452  -40.934944  43.547200  26.099551  20.574188  94.499701
1.445455  0.000000  0.000000  0.000000  -35.429284  7.806202  12.485475  46.571131  13.781551  10.208688  -41.413646  44.991179  24.588727  21.109488  96.058667
1.477576  0.000000  0.000000  0.000000  -35.966017  7.760088  13.256065  47.046846  14.210956  10.521137  -41.834811  46.311044  23.288272  21.573890  97.346371
1.509697  0.000000  0.000000  0.000000  -36.409932  7.759601  13.980645  47.420977  14.624600  10.765188  -42.166359  47.423137  22.276154  21.931033  98.237348
1.541818  0.000000  0.000000  0.000000  -36.740719  7.818491  14.640667  47.659220  15.028536  10.913084  -42.389354  48.272131  21.595579  22.160011  98.661988
1.573939  0.000000  0.000000  0.000000  -36.967784  7.925555  15.242869  47.775001  15.405682  10.973369  -42.523317  48.885610  21.188049  22.285151  98.714109
1.606061  0.000000  0.000000  0.000000  -37.105938  8.065050  15.795402  47.793309  15.734819  10.964893  -42.594768  49.306242  20.976561  22.339004  98.517266
1.638182  0.000000  0.000000  0.000000  -37.169993  8.221234  16.306485  47.741971  15.993321  10.907104  -42.630224  49.576691  20.884110  22.354126  98.195011
1.670303  0.000000  0.000000  0.000000  -37.174760  8.378365  16.774270  47.648758  16.165636  10.826321  -42.656206  49.739626  20.833693  22.363069  97.870899
1.702424  0.000000  0.000000  0.000000  -37.136296  8.520061  17.198935  47.542822  16.239760  10.742816  -42.696493  49.831706  20.763685  22.392568  97.652641
1.734545  0.000000  0.000000  0.000000  -37.077487  8.626435  17.553991  47.448118  16.250296  10.672739  -42.759823  49.856580  20.696985  22.437375  97.560876
1.766667  0.000000  0.000000  0.000000  -37.023559  8.676401  17.807128  47.387149  16.244909  10.629040  -42.849788  49.806613  20.685381  22.481308  97.586484
1.798788  0.000000  0.000000  0.000000  -36.999737  8.648870  17.927315  47.382609  16.269953  10.624148  -42.969978  49.674161  20.780683  22.508179  97.720318
1.830909  0.000000  0.000000  0.000000  -37.031248  8.522756  17.884457  47.457347  16.371116  10.669822  -43.123983  49.451579  21.034704  22.501797  97.953234
1.863030  0.000000  0.000000  0.000000  -37.139366  8.280832  17.647986  47.628521  16.591686  10.777622  -43.312345  49.130628  21.492077  22.447306  98.273478
1.895152  0.000000  0.000000  0.000000  -37.302223  7.948015  17.233731  47.863974  16.903730  10.926594  -43.502374  48.696576  22.119078  22.344391  98.640830
1.927273  0.000000  0.000000  0.000000  -37.471398  7.575160  16.686548  48.101971  17.233874  11.076430  -43.640917  48.130690  22.833750  22.201692  98.997550
1.959394  0.000000  0.000000  0.000000  -37.598079  7.213505  16.052126  48.281363  17.505949  11.187763  -43.674524  47.414183  23.553429  22.027978  99.285641
1.991515  0.000000  0.000000  0.000000  -37.633457  6.914288  15.378001  48.342165  17.640709  11.221412  -43.549744  46.528264  24.195452  21.832018  99.447105
2.023636  0.000000  0.000000  0.000000  -37.530083  6.727311  14.709567  48.226188  17.561486  11.140667  -43.215094  45.455044  24.679588  21.622382  99.425780
2.055758  0.000000  0.000000  0.000000  -37.276111  6.664975  14.064298  47.925428  17.249284  10.942248  -42.670475  44.200135  24.989089  21.402400  99.213377
2.087879  0.000000  0.000000  0.000000  -36.897827  6.699616  13.428752  47.485402  16.747491  10.659515  -41.970821  42.794319  25.175204  21.169790  98.852890
2.120000  0.000000  0.000000  0.000000  -36.423386  6.801604  12.790351  46.954570  16.100384  10.326408  -41.173766  41.269611  25.292518  20.921995  98.389827
2.152121  0.000000  0.000000  0.000000  -35.880943  6.941312  12.139994  46.382737  15.347901  9.975911  -40.336944  39.658028  25.395615  20.656459  97.869696
2.184242  0.000000  0.000000  0.000000  -35.298586  7.089157  11.470737  45.821409  14.525983  9.641105  -39.517745  37.991476  25.538982  20.370609  97.337744
2.216364  0.000000  0.000000  0.000000  -34.697012  7.220486  10.779347  45.301587  13.665636  9.339553  -38.747442  36.290051  25.766788  20.060180  96.811568
2.248485  0.000000  0.000000  0.000000  -34.083075  7.319886  10.066231  44.812638  12.794596  9.059790  -38.008384  34.551731  26.103873  19.717733  96.256956
2.280606  0.000000  0.000000  0.000000  -33.462110  7.372957  9.332071  44.339523  11.940837  8.786899  -37.277542  32.772058  26.572951  19.335479  95.634003
2.312727  0.000000  0.000000  0.000000  -32.839450  7.365301  8.569564  43.865879  11.138162  8.511820  -36.531888  30.946576  27.196736  18.905632  94.902802
2.344848  0.000000  0.000000  0.000000  -32.220430  7.282521  7.776252  43.375649  10.416942  8.222312  -35.748395  29.070831  27.997947  18.420404  94.023451
2.376970  0.000000  0.000000  0.000000  -31.612463  7.117193  6.954074  42.861915  9.799105  7.916058  -34.939189  27.150400  29.023841  17.878811  92.974197
2.409091  0.000000  0.000000  0.000000  -31.030068  6.885736  6.134131  42.353090  9.268827  7.612445  -34.236507  25.225147  30.405552  17.303111  91.795322
2.441212  0.000000  0.000000  0.000000  -30.489279  6.609655  5.352844  41.884864  8.803776  7.335189  -33.798225  23.342253  32.292108  16.720523  90.540345
2.473333  0.000000  0.000000  0.000000  -30.006132  6.310456  4.649463  41.493158  8.381054  7.104624  -33.782216  21.548900  34.832542  16.158267  89.262786
2.505455  0.000000  0.000000  0.000000  -29.596664  6.009644  4.060237  41.213562  7.981264  6.942016  -34.346355  19.892269  38.175884  15.643561  88.016165
2.537576  0.000000  0.000000  0.000000  -29.271882  5.726832  3.610056  41.071909  7.591940  6.861243  -35.593980  18.407813  42.407267  15.201747  86.857814
2.569697  0.000000  0.000000  0.000000  -29.010292  5.469396  3.247313  41.029803  7.238462  6.838394  -37.275704  17.055145  47.198555  14.846017  85.869727
2.601818  0.000000  0.000000  0.000000  -28.777466  5.239838  2.891439  41.022390  6.958633  6.834984  -39.001802  15.763698  52.057182  14.584729  85.143707
2.633939  0.000000  0.000000  0.000000  -28.538943  5.040653  2.464590  40.983640  6.786467  6.812216  -40.382190  14.462830  56.490164  14.426231  84.771583
2.666061  0.000000  0.000000  0.000000  -28.260262  4.874333  1.892022  40.846383  6.751753  6.730926  -41.026783  13.081897  60.004517  14.378867  84.845185
2.698182  0.000000  0.000000  0.000000  -27.909474  4.743191  1.109671  40.547583  6.876374  6.554676  -40.573758  11.556584  62.144158  14.449905  85.442814
2.730303  0.000000  0.000000  0.000000  -27.487894  4.647179  0.152767  40.093596  7.134971  6.288460  -39.035460  9.906344  62.941632  14.632294  86.463666
2.762424  0.000000  0.000000  0.000000  -27.020395  4.584574  -0.877464  39.541348  7.473991  5.967619  -36.689239  8.209958  62.775549  14.908847  87.680085
2.794545  0.000000  0.000000  0.000000  -26.532351  4.553617  -1.880437  38.950589  7.842968  5.627484  -33.818055  6.547466  62.031844  15.262163  88.861732
2.826667  0.000000  0.000000  0.000000  -26.049132  4.552551  -2.757603  38.382854  8.195199  5.302815  -30.704869  4.998903  61.096451  15.674841  89.778266
2.858788  0.000000  0.000000  0.000000  -25.595806  4.579539  -3.415827  37.900195  8.489257  5.028797  -27.629501  3.642996  60.349509  16.129519  90.203946
2.890909  0.000000  0.000000  0.000000  -25.186885  4.630100  -3.827543  37.533547  8.710817  4.823748  -24.763705  2.513206  59.971424  16.610242  90.071483
2.923030  0.000000  0.000000  0.000000  -24.823911  4.696497  -4.039808  37.274601  8.873159  4.682123  -22.146400  1.587368  59.897109  17.102784  89.508343
2.955152  0.000000  0.000000  0.000000  -24.507630  4.770793  -4.091695  37.113590  8.983067  4.587290  -19.808349  0.839899  60.046404  17.593024  88.653952
2.987273  0.000000  0.000000  0.000000  -24.238786  4.845051  -4.050097  37.036675  9.063501  4.545583  -17.780314  0.245214  60.339146  18.066843  87.647737
3.019394  0.000000  0.000000  0.000000  -24.018126  4.911336  -3.955184  37.032865  9.120615  4.542295  -16.093057  -0.222268  60.695173  18.510119  86.629124
3.051515  0.000000  0.000000  0.000000  -23.846394  4.961710  -3.857305  37.089523  9.166092  4.571403  -14.777342  -0.588131  61.034325  18.908733  85.737539
3.083636  0.000000  0.000000  0.000000  -23.724336  4.988237  -3.806176  37.193852  9.210663  4.626809  -13.863930  -0.877958  61.276438  19.248563  85.112407
3.115758  0.000000  0.000000  0.000000  -23.652696  4.982980  -3.851127  37.333029  9.264344  4.702471  -13.383585  -1.117332  61.341352  19.515489  84.893156
3.147879  0.000000  0.000000  0.000000  -23.632222  4.938004  -4.042911  37.494141  9.337646  4.793774  -13.367068  -1.331836  61.148905  19.695391  85.219211
3.180000  0.000000  0.000000  0.000000  -23.663657  4.845370  -4.415154  37.666812  9.430402  4.882540  -13.845143  -1.547053  60.618935  19.774149  86.229999
