simulation
nRows=100
nColumns=15
endheader
time  TH_x TH_y TH_z SC_y  SC_z  SC_x  AC_y  AC_z  AC_x  GH_y  GH_z  GH_yy  EL_x  PS_y
0.000000  0.000000  0.000000  0.000000  -5.783610  -2.240990  8.436141  48.585097  3.182395  -22.717690  56.495356  13.538729  -28.039105  22.618201  97.023495
0.028182  0.000000  0.000000  0.000000  -5.822016  -2.356294  8.353540  48.580323  3.222836  -22.754660  56.323863  13.711231  -27.903123  22.520567  96.914910
0.056364  0.000000  0.000000  0.000000  -5.879191  -2.501031  8.258468  48.627782  3.276370  -22.779097  56.076130  13.953024  -27.716917  22.444799  96.834855
0.084545  0.000000  0.000000  0.000000  -5.950206  -2.664524  8.155458  48.725458  3.340396  -22.789740  55.768253  14.268291  -27.507700  22.385922  96.777742
0.112727  0.000000  0.000000  0.000000  -6.030134  -2.836094  8.048917  48.871337  3.412440  -22.785297  55.416326  14.661213  -27.302686  22.338963  96.737980
0.140909  0.000000  0.000000  0.000000  -6.114048  -3.005066  7.943284  49.063415  3.490022  -22.764519  55.036446  15.135973  -27.129090  22.298946  96.709981
0.169091  0.000000  0.000000  0.000000  -6.197019  -3.160759  7.842701  49.299687  3.570886  -22.725967  54.644708  15.696753  -27.014123  22.260897  96.688154
0.197273  0.000000  0.000000  0.000000  -6.274121  -3.292497  7.751279  49.578156  3.652778  -22.668171  54.257208  16.347734  -26.985002  22.219841  96.666911
0.225455  0.000000  0.000000  0.000000  -6.340425  -3.389603  7.673050  49.896832  3.733476  -22.589578  53.890041  17.093098  -27.068938  22.170804  96.640662
0.253636  0.000000  0.000000  0.000000  -6.391004  -3.441397  7.611773  50.253720  3.810917  -22.488422  53.559302  17.937027  -27.293146  22.108811  96.603817
0.281818  0.000000  0.000000  0.000000  -6.420930  -3.437203  7.571155  50.646830  3.883037  -22.362845  53.281088  18.883704  -27.684840  22.028887  96.550787
0.310000  0.000000  0.000000  0.000000  -6.425853  -3.366873  7.555033  51.074047  3.947670  -22.210973  53.070169  19.937313  -28.268840  21.926132  96.476414
0.338182  0.000000  0.000000  0.000000  -6.410828  -3.228905  7.568684  51.531179  4.002461  -22.031116  52.919732  21.102096  -29.030996  21.796826  96.382567
0.366364  0.000000  0.000000  0.000000  -6.388559  -3.028831  7.619343  52.012370  4.044241  -21.822162  52.805402  22.382337  -29.925453  21.638215  96.276836
0.394545  0.000000  0.000000  0.000000  -6.371974  -2.772386  7.714092  52.511697  4.069858  -21.582711  52.702299  23.782324  -30.905436  21.447573  96.166973
0.422727  0.000000  0.000000  0.000000  -6.374001  -2.465306  7.860068  53.023219  4.076000  -21.311224  52.585538  25.306345  -31.924167  21.222174  96.060733
0.450909  0.000000  0.000000  0.000000  -6.407397  -2.113353  8.064610  53.541006  4.059126  -21.006195  52.430482  26.958466  -32.935234  20.959412  95.965762
0.479091  0.000000  0.000000  0.000000  -6.476844  -1.723598  8.333311  54.060232  4.019017  -20.668869  52.224027  28.732431  -33.909308  20.662380  95.884633
0.507273  0.000000  0.000000  0.000000  -6.575622  -1.304953  8.669447  54.577659  3.960110  -20.304605  51.969353  30.607397  -34.841184  20.342222  95.812758
0.535455  0.000000  0.000000  0.000000  -6.696151  -0.866473  9.076519  55.090198  3.886869  -19.919271  51.670873  32.561422  -35.727481  20.010686  95.745007
0.563636  0.000000  0.000000  0.000000  -6.830852  -0.417209  9.558256  55.594797  3.803567  -19.518829  51.332999  34.572565  -36.564816  19.679524  95.676249
0.591818  0.000000  0.000000  0.000000  -6.972165  0.033790  10.118635  56.088468  3.714285  -19.109365  50.960152  36.618885  -37.349825  19.360478  95.601359
0.620000  0.000000  0.000000  0.000000  -7.120230  0.479493  10.760894  56.571360  3.625296  -18.697723  50.560465  38.678871  -38.085971  19.062255  95.516841
0.648182  0.000000  0.000000  0.000000  -7.294545  0.917944  11.485433  57.051409  3.549183  -18.292115  50.151407  40.732092  -38.793876  18.785930  95.423296
0.676364  0.000000  0.000000  0.000000  -7.517600  1.347968  12.292059  57.537914  3.499619  -17.900860  49.751886  42.758287  -39.496816  18.531401  95.321958
0.704545  0.000000  0.000000  0.000000  -7.811886  1.768391  13.180828  58.040376  3.490025  -17.532335  49.380811  44.737193  -40.218067  18.298565  95.214062
0.732727  0.000000  0.000000  0.000000  -8.199893  2.178040  14.150426  58.568462  3.534930  -17.194080  49.057092  46.648546  -40.980903  18.087319  95.100842
0.760909  0.000000  0.000000  0.000000  -8.696687  2.577261  15.202054  59.127596  3.641779  -16.891190  48.794925  48.472330  -41.803851  17.899786  94.986465
0.789091  0.000000  0.000000  0.000000  -9.282552  2.973529  16.341479  59.702589  3.791243  -16.614050  48.586430  50.189684  -42.683169  17.748525  94.888835
0.817273  0.000000  0.000000  0.000000  -9.927591  3.376403  17.577288  60.272058  3.954965  -16.349611  48.417263  51.782082  -43.608605  17.649146  94.829874
0.845455  0.000000  0.000000  0.000000  -10.601907  3.795443  18.916613  60.814440  4.105991  -16.084331  48.273081  53.230998  -44.569904  17.617262  94.831507
0.873636  0.000000  0.000000  0.000000  -11.275603  4.240208  20.366836  61.308018  4.217403  -15.805261  48.139540  54.517909  -45.556812  17.668484  94.915658
0.901818  0.000000  0.000000  0.000000  -11.921213  4.719007  21.933842  61.733144  4.264276  -15.500325  48.001697  55.626403  -46.557849  17.816961  95.102037
0.930000  0.000000  0.000000  0.000000  -12.533413  5.228770  23.609066  62.090572  4.237553  -15.158997  47.839141  56.559296  -47.550399  18.063540  95.390225
0.958182  0.000000  0.000000  0.000000  -13.118689  5.760349  25.377588  62.391805  4.135362  -14.772048  47.628544  57.329667  -48.505898  18.401967  95.769053
0.986364  0.000000  0.000000  0.000000  -13.683642  6.304542  27.221747  62.648010  3.958246  -14.328932  47.346552  57.950693  -49.395728  18.825920  96.227255
1.014545  0.000000  0.000000  0.000000  -14.234873  6.852146  29.129217  62.870158  3.701895  -13.821309  46.969810  58.435548  -50.191271  19.329080  96.753564
1.042727  0.000000  0.000000  0.000000  -14.778606  7.394000  31.084142  63.068420  3.365341  -13.239863  46.476302  58.797485  -50.865313  19.904685  97.336138
1.070909  0.000000  0.000000  0.000000  -15.313463  7.921815  33.069500  63.246547  2.956518  -12.596259  45.871306  59.051302  -51.419281  20.537009  97.951462
1.099091  0.000000  0.000000  0.000000  -15.830960  8.428112  35.061695  63.402629  2.496754  -11.919709  45.185588  59.213244  -51.881344  21.201953  98.565120
1.127273  0.000000  0.000000  0.000000  -16.322342  8.905445  37.037400  63.535018  2.007537  -11.240620  44.450886  59.299610  -52.280693  21.875098  99.142276
1.155455  0.000000  0.000000  0.000000  -16.778856  9.346365  38.972721  63.642572  1.510941  -10.589378  43.698941  59.326699  -52.646522  22.532027  99.648097
1.183636  0.000000  0.000000  0.000000  -17.191837  9.743463  40.831222  63.724649  1.040293  -9.990729  42.961363  59.310666  -53.007777  23.148455  100.047956
1.211818  0.000000  0.000000  0.000000  -17.558929  10.091761  42.607028  63.786335  0.597998  -9.465513  42.261001  59.257806  -53.376681  23.709461  100.321445
1.240000  0.000000  0.000000  0.000000  -17.888019  10.390233  44.269422  63.840582  0.202766  -8.994635  41.606468  59.158395  -53.738282  24.215323  100.471256
1.268182  0.000000  0.000000  0.000000  -18.187931  10.638217  45.819805  63.900995  -0.156377  -8.569818  41.005071  59.001240  -54.075140  24.667716  100.502195
1.296364  0.000000  0.000000  0.000000  -18.467490  10.835052  47.235734  63.980846  -0.469287  -8.171613  40.464119  58.775150  -54.369814  25.068310  100.419071
1.324545  0.000000  0.000000  0.000000  -18.735517  10.980075  48.512319  64.093169  -0.741760  -7.787861  39.990922  58.468944  -54.604875  25.418780  100.226700
1.352727  0.000000  0.000000  0.000000  -18.995407  11.073052  49.625105  64.243367  -0.965742  -7.410632  39.595929  58.083665  -54.774809  25.720603  99.942275
1.380909  0.000000  0.000000  0.000000  -19.234683  11.114997  50.539038  64.414813  -1.134240  -7.065882  39.298767  57.656127  -54.908975  25.974683  99.619197
1.409091  0.000000  0.000000  0.000000  -19.437981  11.107152  51.204227  64.587135  -1.228481  -6.781000  39.120731  57.229649  -55.043075  26.181823  99.317452
1.437273  0.000000  0.000000  0.000000  -19.589936  11.050761  51.601566  64.739769  -1.257294  -6.597211  39.083120  56.847552  -55.212812  26.342823  99.097028
1.465455  0.000000  0.000000  0.000000  -19.675184  10.947064  51.673486  64.852490  -1.194821  -6.539326  39.207229  56.553157  -55.453887  26.458487  99.017913
1.493636  0.000000  0.000000  0.000000  -19.680649  10.796621  51.393134  64.908717  -1.036488  -6.633872  39.505501  56.381721  -55.790196  26.529596  99.125215
1.521818  0.000000  0.000000  0.000000  -19.605832  10.596225  50.790605  64.913467  -0.792662  -6.870283  39.941701  56.324184  -56.180743  26.556836  99.382256
1.550000  0.000000  0.000000  0.000000  -19.454535  10.341385  49.909161  64.879146  -0.473211  -7.222365  40.462959  56.356338  -56.562352  26.540858  99.724408
1.578182  0.000000  0.000000  0.000000  -19.230563  10.027608  48.806015  64.818111  -0.100655  -7.669701  41.016391  56.453962  -56.871828  26.482311  100.087021
1.606364  0.000000  0.000000  0.000000  -18.937719  9.650402  47.520649  64.742878  0.318643  -8.184589  41.549112  56.592838  -57.045978  26.381848  100.405441
1.634545  0.000000  0.000000  0.000000  -18.580758  9.205995  46.104402  64.665306  0.767010  -8.746473  42.011886  56.749750  -57.027549  26.240351  100.620269
1.662727  0.000000  0.000000  0.000000  -18.174787  8.698490  44.575332  64.588725  1.248247  -9.338505  42.395278  56.912478  -56.824156  26.061246  100.729430
1.690909  0.000000  0.000000  0.000000  -17.741289  8.136835  42.970592  64.511407  1.743506  -9.962836  42.714356  57.075566  -56.483343  25.849519  100.766139
1.719091  0.000000  0.000000  0.000000  -17.301841  7.530050  41.310664  64.431507  2.248924  -10.614604  42.984544  57.233657  -56.053238  25.610183  100.764125
1.747273  0.000000  0.000000  0.000000  -16.878018  6.887154  39.615827  64.347162  2.760796  -11.288788  43.221269  57.381393  -55.581969  25.348248  100.757117
1.775455  0.000000  0.000000  0.000000  -16.490948  6.217116  37.907442  64.256648  3.273923  -11.980882  43.439513  57.513435  -55.116327  25.068580  100.777812
1.803636  0.000000  0.000000  0.000000  -16.150064  5.527534  36.196266  64.161369  3.779907  -12.684870  43.642664  57.624847  -54.668210  24.772264  100.831885
1.831818  0.000000  0.000000  0.000000  -15.852275  4.824542  34.469542  64.065874  4.277947  -13.388032  43.821693  57.711126  -54.212138  24.456332  100.896074
1.860000  0.000000  0.000000  0.000000  -15.593873  4.114202  32.719608  63.975233  4.762104  -14.080320  43.966963  57.767795  -53.720803  24.117616  100.945699
1.888182  0.000000  0.000000  0.000000  -15.371152  3.402576  30.940552  63.894846  5.225011  -14.752780  44.068836  57.790372  -53.166891  23.752951  100.956077
1.916364  0.000000  0.000000  0.000000  -15.180384  2.695746  29.110800  63.829624  5.673609  -15.389847  44.117818  57.774276  -52.523278  23.359247  100.902650
1.944545  0.000000  0.000000  0.000000  -15.015594  2.002109  27.248251  63.775657  6.090437  -15.991194  44.119766  57.704101  -51.782456  22.941682  100.773947
1.972727  0.000000  0.000000  0.000000  -14.866598  1.334390  25.381841  63.709514  6.468226  -16.555999  44.109297  57.544157  -50.973673  22.520916  100.583015
2.000909  0.000000  0.000000  0.000000  -14.722748  0.705790  23.552362  63.605891  6.790588  -17.086686  44.124188  57.256524  -50.130218  22.119314  100.345597
2.029091  0.000000  0.000000  0.000000  -14.573397  0.129511  21.795844  63.439008  7.044738  -17.582180  44.202216  56.803285  -49.285381  21.759239  100.077437
2.057273  0.000000  0.000000  0.000000  -14.407898  -0.381245  20.148651  63.182843  7.217091  -18.040535  44.381157  56.146522  -48.472448  21.463056  99.794276
2.085455  0.000000  0.000000  0.000000  -14.218343  -0.818412  18.638745  62.820132  7.297133  -18.457168  44.678483  55.257399  -47.707217  21.247946  99.513123
2.113636  0.000000  0.000000  0.000000  -14.006181  -1.191463  17.262757  62.364126  7.288238  -18.819431  45.042288  54.138113  -46.945725  21.113394  99.255314
2.141818  0.000000  0.000000  0.000000  -13.774858  -1.513615  16.013406  61.834840  7.194835  -19.115418  45.405860  52.797487  -46.131251  21.055104  99.043107
2.170000  0.000000  0.000000  0.000000  -13.527821  -1.798085  14.885967  61.252500  7.019625  -19.335525  45.702485  51.244341  -45.207076  21.068780  98.898759
2.198182  0.000000  0.000000  0.000000  -13.268516  -2.058091  13.875918  60.637346  6.765562  -19.471044  45.865450  49.487497  -44.116480  21.150128  98.844528
2.226364  0.000000  0.000000  0.000000  -13.000560  -2.305696  12.980353  60.008283  6.437562  -19.519905  45.843394  47.538561  -42.817705  21.292828  98.897884
2.254545  0.000000  0.000000  0.000000  -12.728666  -2.545487  12.194487  59.374982  6.062040  -19.513712  45.684247  45.427144  -41.365754  21.477478  99.045319
2.282727  0.000000  0.000000  0.000000  -12.457985  -2.779082  11.511200  58.743096  5.675271  -19.496485  45.475443  43.190021  -39.854134  21.679469  99.261004
2.310909  0.000000  0.000000  0.000000  -12.193668  -3.008089  10.919901  58.117878  5.316431  -19.510237  45.304520  40.863986  -38.376446  21.874179  99.519075
2.339091  0.000000  0.000000  0.000000  -11.940867  -3.234117  10.407660  57.504402  5.026494  -19.595376  45.259012  38.485833  -37.026294  22.036987  99.793672
2.367273  0.000000  0.000000  0.000000  -11.704073  -3.458295  9.959934  56.907481  4.844905  -19.787487  45.420835  36.091671  -35.891101  22.145050  100.059873
2.395455  0.000000  0.000000  0.000000  -11.479048  -3.675409  9.567517  56.329542  4.771592  -20.078467  45.797471  33.708548  -34.976470  22.199104  100.305234
2.423636  0.000000  0.000000  0.000000  -11.255368  -3.875753  9.228563  55.771613  4.775619  -20.431425  46.343687  31.357094  -34.230054  22.216582  100.526146
2.451818  0.000000  0.000000  0.000000  -11.022477  -4.049525  8.942277  55.234924  4.824695  -20.809409  47.013135  29.057802  -33.598281  22.215269  100.719188
2.480000  0.000000  0.000000  0.000000  -10.769821  -4.186924  8.708501  54.720915  4.886062  -21.175894  47.759465  26.831167  -33.027578  22.212953  100.880938
2.508182  0.000000  0.000000  0.000000  -10.487078  -4.278327  8.530066  54.231244  4.924994  -21.496879  48.537267  24.697787  -32.465704  22.227129  101.007910
2.536364  0.000000  0.000000  0.000000  -10.171893  -4.320300  8.402342  53.764904  4.926919  -21.758129  49.333475  22.681814  -31.906313  22.265263  101.094398
2.564545  0.000000  0.000000  0.000000  -9.831709  -4.317016  8.315896  53.317701  4.898350  -21.972080  50.174776  20.811772  -31.399467  22.322495  101.131972
2.592727  0.000000  0.000000  0.000000  -9.474568  -4.273112  8.259844  52.885148  4.847950  -22.152013  51.090298  19.116455  -30.998692  22.393211  101.112033
2.620909  0.000000  0.000000  0.000000  -9.108516  -4.193228  8.221774  52.462663  4.785517  -22.310171  52.109170  17.624654  -30.757514  22.471793  101.025981
2.649091  0.000000  0.000000  0.000000  -8.741595  -4.082003  8.190151  52.045705  4.720061  -22.459223  53.260520  16.365161  -30.729459  22.552624  100.865219
2.677273  0.000000  0.000000  0.000000  -8.381850  -3.944075  8.152752  51.629714  4.661061  -22.611319  54.573477  15.366770  -30.968054  22.630089  100.621148
2.705455  0.000000  0.000000  0.000000  -8.037324  -3.784083  8.096039  51.210080  4.618943  -22.777694  56.077169  14.658272  -31.526825  22.698571  100.285168
2.733636  0.000000  0.000000  0.000000  -7.716060  -3.606666  8.007086  50.782238  4.603547  -22.969847  57.800725  14.268460  -32.459298  22.752454  99.848681
2.761818  0.000000  0.000000  0.000000  -7.426103  -3.416463  7.872024  50.341570  4.625339  -23.198555  59.773273  14.226126  -33.819000  22.786122  99.303088
2.790000  0.000000  0.000000  0.000000  -7.175495  -3.218113  7.677065  49.883422  4.694587  -23.474491  62.023941  14.560063  -35.659456  22.793957  98.639790
