IKResults
version=1
nRows=4169
nColumns=18
inDegrees=yes

Units are S.I. units (second, meters, Newtons, ...)
If the header above contains a line with 'inDegrees', this indicates whether rotational values are in degrees (yes) or radians (no).

endheader
time	TH_x	TH_y	TH_z	TH_x_trans	TH_y_trans	TH_z_trans	SC_y	SC_z	SC_x	AC_y	AC_z	AC_x	GH_y	GH_z	GH_yy	EL_x	PS_y
     33.44000000	      2.49459325	    175.02853414	      0.00000000	      0.46833998	      1.43453244	     -0.11456345	     -5.78361047	     -2.24099027	      9.75632945	     48.62607151	      2.19200275	    -23.59159921	     56.49535577	     13.53872926	    -28.03910533	     22.61820053	     97.02349493
     33.45000000	      2.47194582	    175.02955667	      0.00000000	      0.46836874	      1.43458474	     -0.11466520	     -5.73482040	     -2.29147918	      9.73784790	     48.58084103	      2.18474404	    -23.58009547	     56.35680337	     13.55159990	    -27.96428636	     22.57278976	     96.95419197
     33.46000000	      2.46897167	    175.04151218	      0.00000000	      0.46845637	      1.43456306	     -0.11474100	     -5.69103217	     -2.32210244	      9.71508432	     48.56248570	      2.17813384	    -23.57458897	     56.22521499	     13.59120753	    -27.88383539	     22.55835084	     96.88818887
     33.47000000	      2.47402460	    175.06297496	      0.00000000	      0.46855019	      1.43455220	     -0.11479810	     -5.66647440	     -2.36389868	      9.69510013	     48.55804799	      2.17954081	    -23.57451309	     56.10157600	     13.64183692	    -27.80969983	     22.54418393	     96.83172606
     33.48000000	      2.44460892	    175.07115495	      0.00000000	      0.46858551	      1.43460433	     -0.11472047	     -5.73956036	     -2.43506503	      9.65121016	     48.66218887	      2.17870705	    -23.60594616	     56.01877181	     13.74598663	    -27.73337720	     22.50011886	     96.81888702
     33.49000000	      2.48868575	    175.12341587	      0.00000000	      0.46870765	      1.43447321	     -0.11479138	     -5.72073961	     -2.44266178	      9.64610304	     48.63313141	      2.17163562	    -23.58034870	     55.91104589	     13.82579338	    -27.65963820	     22.48587556	     96.76577451
     33.50000000	      2.52267901	    175.28261433	      0.00000000	      0.46891287	      1.43448275	     -0.11457241	     -6.03997466	     -2.55260074	      9.60115100	     48.88580496	      2.23219560	    -23.68200518	     55.89133818	     14.04109894	    -27.55479209	     22.46705385	     96.87236350
     33.51000000	      2.55979237	    175.32186104	      0.00000000	      0.46902366	      1.43440835	     -0.11470857	     -5.94791312	     -2.57330187	      9.61159404	     48.78527027	      2.23989325	    -23.65165753	     55.74354222	     14.06103786	    -27.51940473	     22.50923090	     96.80441021
     33.52000000	      2.55753552	    175.33639815	      0.00000000	      0.46907860	      1.43442399	     -0.11480649	     -5.89116970	     -2.60503199	      9.60825462	     48.76384861	      2.21827552	    -23.61729888	     55.65122688	     14.12354978	    -27.48260062	     22.43120233	     96.76214801
     33.53000000	      2.55478951	    175.35768456	      0.00000000	      0.46921336	      1.43438638	     -0.11476374	     -5.91145116	     -2.65497924	      9.55338758	     48.90068976	      2.21422881	    -23.66702261	     55.55779087	     14.30618726	    -27.41536997	     22.40750242	     96.75797635
     33.54000000	      2.58395798	    175.40243392	      0.00000000	      0.46926289	      1.43438244	     -0.11483367	     -5.90663268	     -2.71527714	      9.55922210	     48.86667414	      2.22777433	    -23.65309928	     55.43594827	     14.40430971	    -27.36991184	     22.37997900	     96.72036599
     33.55000000	      2.62764455	    175.45737775	      0.00000000	      0.46938987	      1.43431142	     -0.11496444	     -5.84246408	     -2.73585484	      9.56997316	     48.81332892	      2.22985989	    -23.62033857	     55.30353547	     14.49396882	    -27.32139917	     22.37426096	     96.65842507
     33.56000000	      2.63578696	    175.57691355	      0.00000000	      0.46953776	      1.43439685	     -0.11476090	     -6.11309480	     -2.88763250	      9.50661003	     49.06590154	      2.29782526	    -23.77350927	     55.28445761	     14.80715219	    -27.24398617	     22.35127266	     96.76840421
     33.57000000	      2.65326687	    175.59659452	      0.00000000	      0.46959134	      1.43434923	     -0.11492315	     -6.02385973	     -2.89928983	      9.52166768	     48.99757578	      2.27994665	    -23.71171540	     55.13858492	     14.89677305	    -27.19991556	     22.33165353	     96.69893189
     33.58000000	      2.66495940	    175.61282216	      0.00000000	      0.46967284	      1.43433550	     -0.11501131	     -5.96100483	     -2.93025895	      9.52269501	     48.99554973	      2.27009421	    -23.67893599	     54.99716628	     15.02778068	    -27.14815153	     22.29648662	     96.63742815
     33.59000000	      2.67728914	    175.74724242	      0.00000000	      0.46986484	      1.43442574	     -0.11488853	     -6.19446003	     -3.08129733	      9.46557083	     49.23909380	      2.34474736	    -23.82237488	     54.93221819	     15.34593086	    -27.07966378	     22.28666207	     96.73338511
     33.60000000	      2.67519674	    175.74752645	      0.00000000	      0.46998025	      1.43439183	     -0.11498811	     -6.12867117	     -3.09655400	      9.45153329	     49.31339059	      2.32796187	    -23.80195014	     54.79656829	     15.53157756	    -27.04493726	     22.25613809	     96.70284061
     33.61000000	      2.73321209	    175.80692560	      0.00000000	      0.47010005	      1.43430357	     -0.11516508	     -6.03619703	     -3.10253347	      9.49819003	     49.20745577	      2.32725355	    -23.71606868	     54.62783000	     15.64173211	    -27.01156988	     22.26260536	     96.61802988
     33.62000000	      2.73014627	    175.83200490	      0.00000000	      0.47016801	      1.43433585	     -0.11535280	     -5.96917868	     -3.13223734	      9.51457217	     49.21143845	      2.31950065	    -23.66462907	     54.47847110	     15.79406204	    -26.97884999	     22.22627780	     96.55105235
     33.63000000	      2.72620925	    175.93398855	      0.00000000	      0.47037416	      1.43441311	     -0.11514922	     -6.24471213	     -3.28153485	      9.43828875	     49.55902740	      2.38117797	    -23.82298874	     54.38228803	     16.22200064	    -26.92330442	     22.20847370	     96.61165423
     33.64000000	      2.74462967	    175.98471628	      0.00000000	      0.47051410	      1.43435865	     -0.11541337	     -6.13526803	     -3.26908241	      9.48660718	     49.48807115	      2.37641334	    -23.72990382	     54.21419069	     16.34611185	    -26.90074930	     22.22028878	     96.52928579
     33.65000000	      2.72223201	    176.02797147	      0.00000000	      0.47064088	      1.43443362	     -0.11531812	     -6.29261552	     -3.37258673	      9.43357700	     49.76201218	      2.39369805	    -23.80121051	     54.08036288	     16.71835965	    -26.90240229	     22.16950332	     96.56043913
     33.66000000	      2.73289207	    176.08415318	      0.00000000	      0.47081788	      1.43437603	     -0.11561820	     -6.17552966	     -3.34726021	      9.48802074	     49.70294002	      2.39031512	    -23.70144320	     53.90646389	     16.85882678	    -26.88777757	     22.18875194	     96.47609845
     33.67000000	      2.70352277	    176.14593166	      0.00000000	      0.47097749	      1.43443168	     -0.11551274	     -6.37126573	     -3.44213145	      9.43520907	     50.02047907	      2.40729206	    -23.77366785	     53.78376899	     17.26664520	    -26.93184970	     22.14072755	     96.52031966
     33.68000000	      2.69436988	    176.17554743	      0.00000000	      0.47112486	      1.43438981	     -0.11564892	     -6.36557942	     -3.43494830	      9.45688450	     50.11431945	      2.39689293	    -23.72386831	     53.69996963	     17.54106605	    -27.04045524	     22.11618583	     96.52954176
     33.69000000	      2.68130868	    176.20443946	      0.00000000	      0.47129224	      1.43435069	     -0.11579024	     -6.35888960	     -3.42819268	      9.47460491	     50.22735303	      2.38758413	    -23.68127609	     53.60377669	     17.84021354	    -27.15518793	     22.08912473	     96.52841799
     33.70000000	      2.65260575	    176.23525576	      0.00000000	      0.47146581	      1.43431548	     -0.11595133	     -6.36258480	     -3.42812406	      9.48573755	     50.35899280	      2.37787357	    -23.64757909	     53.49788017	     18.15892123	    -27.28489015	     22.06023926	     96.52336182
     33.71000000	      2.61949830	    176.26952264	      0.00000000	      0.47165597	      1.43430940	     -0.11610820	     -6.36858310	     -3.42674401	      9.49863322	     50.50047056	      2.37120153	    -23.61431046	     53.38859975	     18.48690466	    -27.42461866	     22.03420740	     96.51418969
     33.72000000	      2.57083414	    176.37820579	      0.00000000	      0.47197463	      1.43440959	     -0.11623983	     -6.48304845	     -3.49490149	      9.49603947	     50.75460118	      2.43484539	    -23.68012189	     53.32484300	     18.83078555	    -27.70918994	     22.05975817	     96.54742998
     33.73000000	      2.53927075	    176.36897335	      0.00000000	      0.47211011	      1.43430998	     -0.11643856	     -6.44179223	     -3.43453564	      9.52361576	     50.85160595	      2.39213687	    -23.58138956	     53.22220788	     19.18625764	    -27.85078712	     22.01057694	     96.53072516
     33.74000000	      2.48651039	    176.38156016	      0.00000000	      0.47231732	      1.43428618	     -0.11666466	     -6.41499288	     -3.39820466	      9.54888406	     50.98339264	      2.37249593	    -23.51278986	     53.10957233	     19.53688151	    -28.01549508	     21.95825305	     96.50881704
     33.75000000	      2.43665139	    176.39783896	      0.00000000	      0.47252694	      1.43424062	     -0.11689771	     -6.39741168	     -3.35797269	      9.56775936	     51.14368168	      2.34979883	    -23.44916918	     52.98645478	     19.92364021	    -28.20667328	     21.91800566	     96.47877249
     33.76000000	      2.37728855	    176.42017532	      0.00000000	      0.47276381	      1.43422827	     -0.11712146	     -6.39091183	     -3.31992185	      9.59102765	     51.31458250	      2.33677268	    -23.39004654	     52.86809646	     20.30777803	    -28.41705988	     21.88060673	     96.44408749
     33.77000000	      2.31761309	    176.43617933	      0.00000000	      0.47299844	      1.43420147	     -0.11735602	     -6.38032250	     -3.26977856	      9.62145543	     51.48069632	      2.32077487	    -23.31614602	     52.74848037	     20.70521329	    -28.62667578	     21.84299133	     96.40593466
     33.78000000	      2.25073665	    176.46292738	      0.00000000	      0.47321708	      1.43420247	     -0.11758578	     -6.39230261	     -3.22349774	      9.61566482	     51.51106724	      2.59367485	    -23.61703022	     54.19806276	     21.36451370	    -30.39707717	     21.68428787	     96.45033429
     33.79000000	      2.19197274	    176.46068216	      0.00000000	      0.47342632	      1.43413443	     -0.11786459	     -6.35465315	     -3.13747205	      9.65530195	     51.65680786	      2.55970648	    -23.50574643	     54.03648160	     21.79517085	    -30.55710307	     21.63559029	     96.41974630
     33.80000000	      2.12240843	    176.46087651	      0.00000000	      0.47366148	      1.43407620	     -0.11815491	     -6.31638260	     -3.04264419	      9.70210549	     51.80908887	      2.53558265	    -23.39561519	     53.88538383	     22.21957197	    -30.70942403	     21.60683151	     96.38645215
     33.81000000	      2.05440272	    176.47316721	      0.00000000	      0.47390465	      1.43404572	     -0.11844359	     -6.30553294	     -2.97436543	      9.72803732	     52.00410409	      2.49508494	    -23.29589624	     53.68043917	     22.70572384	    -30.93375710	     21.51717996	     96.33976269
     33.82000000	      1.98218637	    176.47721275	      0.00000000	      0.47415314	      1.43399336	     -0.11873155	     -6.28434598	     -2.87363070	      9.77878892	     52.17691974	      2.47313568	    -23.18068695	     53.51987816	     23.16289544	    -31.11150321	     21.48886897	     96.29939094
     33.83000000	      1.89789630	    176.52089487	      0.00000000	      0.47442384	      1.43404210	     -0.11901284	     -6.33187105	     -2.82493908	      9.81021262	     52.43216780	      2.45092787	    -23.09210651	     53.32213438	     23.65661599	    -31.40325089	     21.38595584	     96.23973142
     33.84000000	      1.84357185	    176.52359817	      0.00000000	      0.47467588	      1.43393496	     -0.11930865	     -6.31218548	     -2.69701175	      9.87411266	     52.59595799	      2.42926638	    -22.95545572	     53.16825617	     24.15177007	    -31.58816609	     21.36596816	     96.19788062
     33.85000000	      1.77252091	    176.53744224	      0.00000000	      0.47491788	      1.43391722	     -0.11964088	     -6.29966518	     -2.58878724	      9.93435365	     52.76706219	      2.40384028	    -22.81953143	     52.99381115	     24.65939507	    -31.79427366	     21.29682622	     96.15366762
     33.86000000	      1.70495146	    176.54934935	      0.00000000	      0.47515580	      1.43385382	     -0.11995175	     -6.30372245	     -2.47419313	      9.98405341	     52.96804130	      2.36477531	    -22.68121951	     52.80470404	     25.21571250	    -32.03110161	     21.21016109	     96.10389899
     33.87000000	      1.61819335	    176.61837822	      0.00000000	      0.47546113	      1.43391284	     -0.12025117	     -6.39492374	     -2.39810612	     10.03456482	     53.26508990	      2.35625331	    -22.57795084	     52.64943626	     25.76696128	    -32.36730320	     21.07110330	     96.04304588
     33.88000000	      1.56455594	    176.61517690	      0.00000000	      0.47568040	      1.43384192	     -0.12056394	     -6.39173637	     -2.25576270	     10.12391878	     53.41416346	      2.34679509	    -22.41402634	     52.50326993	     26.30538471	    -32.55738217	     21.06225440	     96.00128618
     33.89000000	      1.50285036	    176.63065043	      0.00000000	      0.47591597	      1.43379492	     -0.12091231	     -6.39163027	     -2.11924767	     10.19340488	     53.58946071	      2.31489425	    -22.25173399	     52.32028568	     26.89229308	    -32.78703261	     20.97591051	     95.95527332
     33.90000000	      1.43271676	    176.64445535	      0.00000000	      0.47613739	      1.43375662	     -0.12124931	     -6.40740802	     -1.98495877	     10.26332757	     53.78295230	      2.28327957	    -22.08777774	     52.13813148	     27.49551359	    -33.02632728	     20.88059186	     95.90882710
     33.91000000	      1.36677272	    176.66647131	      0.00000000	      0.47636005	      1.43373008	     -0.12158121	     -6.43642690	     -1.85086218	     10.33850400	     53.98717525	      2.25691781	    -21.92107928	     51.95773628	     28.11466325	    -33.27578161	     20.77624366	     95.86218025
     33.92000000	      1.29009270	    176.73969091	      0.00000000	      0.47656934	      1.43384949	     -0.12184914	     -6.60003414	     -1.79229172	     10.39670061	     54.07980562	      2.57851985	    -22.27063280	     53.21158947	     29.07627865	    -34.90807292	     20.47854455	     95.96861174
     33.93000000	      1.22742747	    176.75734167	      0.00000000	      0.47679710	      1.43379107	     -0.12221841	     -6.60405469	     -1.62069077	     10.49065066	     54.24109061	      2.54022892	    -22.05542378	     52.99403850	     29.68304599	    -35.12677364	     20.38024260	     95.93377523
     33.94000000	      1.16275462	    176.74957708	      0.00000000	      0.47700154	      1.43374224	     -0.12255454	     -6.60575058	     -1.44757300	     10.59218447	     54.40253798	      2.52041700	    -21.85207542	     52.79838910	     30.29889987	    -35.31334817	     20.34117861	     95.89774155
     33.95000000	      1.08841638	    176.79337693	      0.00000000	      0.47724090	      1.43377362	     -0.12292755	     -6.66620016	     -1.31560362	     10.67389566	     54.63673863	      2.48718245	    -21.66074061	     52.56375978	     30.96823532	    -35.56902766	     20.14488609	     95.86815478
     33.96000000	      1.03276860	    176.78197572	      0.00000000	      0.47743675	      1.43371023	     -0.12323614	     -6.68239812	     -1.13666107	     10.78790195	     54.80156028	      2.48236757	    -21.45518056	     52.38115237	     31.60650136	    -35.74967187	     20.13088197	     95.83357090
     33.97000000	      0.95987929	    176.83132721	      0.00000000	      0.47765051	      1.43374028	     -0.12357958	     -6.77322099	     -1.00418121	     10.87117370	     55.05986505	      2.45546370	    -21.26792112	     52.16343905	     32.32034121	    -36.02183853	     19.91422435	     95.80971750
     33.98000000	      0.91414225	    176.82054048	      0.00000000	      0.47786243	      1.43369007	     -0.12389471	     -6.79013314	     -0.82541844	     10.99913748	     55.20990817	      2.46394254	    -21.05590487	     51.98412640	     32.97069781	    -36.20425561	     19.90365375	     95.77569091
     33.99000000	      0.85860329	    176.82596427	      0.00000000	      0.47806628	      1.43367391	     -0.12424427	     -6.80929277	     -0.65479512	     11.10920883	     55.37658362	      2.44929669	    -20.84064711	     51.77106905	     33.66160958	    -36.42029906	     19.80686089	     95.73958681
     34.00000000	      0.79849573	    176.82965788	      0.00000000	      0.47826056	      1.43366844	     -0.12458588	     -6.83782285	     -0.48820089	     11.22278768	     55.55714368	      2.44060132	    -20.62641412	     51.56399180	     34.35861675	    -36.63712841	     19.69965912	     95.70519534
     34.01000000	      0.74316937	    176.83465189	      0.00000000	      0.47845186	      1.43367278	     -0.12491780	     -6.87417781	     -0.32357516	     11.34284418	     55.74002416	      2.43980635	    -20.41129381	     51.36192760	     35.06134465	    -36.85365101	     19.59246602	     95.67157612
     34.02000000	      0.69083162	    176.84032752	      0.00000000	      0.47863871	      1.43368409	     -0.12524054	     -6.91613196	     -0.15860650	     11.46789869	     55.92334080	      2.44499395	    -20.19517222	     51.16446706	     35.76949041	    -37.06986583	     19.48681970	     95.63833878
     34.03000000	      0.64223621	    176.84675199	      0.00000000	      0.47882113	      1.43370168	     -0.12555638	     -6.96220174	      0.00615486	     11.59802552	     56.10562751	      2.45608779	    -19.97788089	     50.97041298	     36.48231838	    -37.28656537	     19.38212984	     95.60501376
     34.04000000	      0.59754814	    176.85360453	      0.00000000	      0.47899881	      1.43372603	     -0.12586380	     -7.01186379	      0.17071655	     11.73335115	     56.28656552	      2.47343936	    -19.75973323	     50.77990518	     37.19850583	    -37.50363740	     19.27928068	     95.57151111
     34.05000000	      0.55703085	    176.86107380	      0.00000000	      0.47917127	      1.43375661	     -0.12616315	     -7.06461689	      0.33488566	     11.87388598	     56.46558879	      2.49713517	    -19.54088319	     50.59268773	     37.91693222	    -37.72118509	     19.17856631	     95.53758450
     34.06000000	      0.52103712	    176.86914400	      0.00000000	      0.47933954	      1.43379446	     -0.12645338	     -7.12054304	      0.49828536	     12.01991802	     56.64276702	      2.52769856	    -19.32161464	     50.40882196	     38.63635690	    -37.93911612	     19.08017631	     95.50315373
     34.07000000	      0.48941081	    176.87759309	      0.00000000	      0.47950345	      1.43383962	     -0.12673332	     -7.17944269	      0.66082116	     12.17143558	     56.81833021	      2.56540553	    -19.10237768	     50.22833371	     39.35542234	    -38.15755803	     18.98491487	     95.46809848
     34.08000000	      0.46292351	    176.88670523	      0.00000000	      0.47966318	      1.43389231	     -0.12700270	     -7.24160585	      0.82209603	     12.32874642	     56.99221748	      2.61059284	    -18.88316064	     50.05097630	     40.07314794	    -38.37677743	     18.89258854	     95.43224034
     34.09000000	      0.44125482	    176.89674633	      0.00000000	      0.47981926	      1.43395329	     -0.12726078	     -7.30733496	      0.98216717	     12.49183766	     57.16470211	      2.66355901	    -18.66445862	     49.87708198	     40.78818523	    -38.59653484	     18.80374999	     95.39563546
     34.10000000	      0.42517636	    176.90772881	      0.00000000	      0.47997102	      1.43402347	     -0.12750560	     -7.37729644	      1.14032108	     12.66108902	     57.33627592	      2.72488977	    -18.44649032	     49.70668641	     41.49949988	    -38.81701211	     18.71850692	     95.35818788
     34.11000000	      0.41496161	    176.92015919	      0.00000000	      0.48011830	      1.43410293	     -0.12773740	     -7.45199555	      1.29630489	     12.83662734	     57.50727654	      2.79482932	    -18.22942297	     49.53972324	     42.20620135	    -39.03847122	     18.63643966	     95.31993145
     34.12000000	      0.41036510	    176.93414230	      0.00000000	      0.48026129	      1.43419245	     -0.12795420	     -7.53230605	      1.45011913	     13.01832288	     57.67865939	      2.87358979	    -18.01381268	     49.37645895	     42.90752789	    -39.26093213	     18.55790579	     95.28080278
     34.13000000	      0.41187963	    176.94980798	      0.00000000	      0.48039488	      1.43427625	     -0.12814982	     -7.62028864	      1.60029576	     13.20674445	     57.85057590	      2.96126033	    -17.79876940	     49.21688735	     43.60437499	    -39.48523270	     18.48238973	     95.24077997
     34.14000000	      0.41925668	    176.96943740	      0.00000000	      0.48052946	      1.43438612	     -0.12833658	     -7.71439482	      1.74932554	     13.40151286	     58.02400760	      3.05935457	    -17.58734987	     49.06180947	     44.29160081	    -39.70979071	     18.41055193	     95.20015421
     34.15000000	      0.43297021	    176.99166941	      0.00000000	      0.48065591	      1.43450611	     -0.12850429	     -7.81777307	      1.89497875	     13.60244248	     58.19935683	      3.16633317	    -17.37752823	     48.91097957	     44.97250454	    -39.93651925	     18.34151657	     95.15868879
     34.16000000	      0.45206600	    177.01785970	      0.00000000	      0.48077776	      1.43463479	     -0.12865442	     -7.93130725	      2.03814226	     13.80969386	     58.37709729	      3.28291651	    -17.17015891	     48.76530999	     45.64519894	    -40.16543547	     18.27497259	     95.11656996
     34.17000000	      0.47588229	    177.04837673	      0.00000000	      0.48089521	      1.43477184	     -0.12878659	     -8.05564307	      2.17923563	     14.02305984	     58.55771500	      3.40909602	    -16.96563124	     48.62517961	     46.30902162	    -40.39672136	     18.21097851	     95.07378538
     34.18000000	      0.50798745	    177.19870471	      0.00000000	      0.48097607	      1.43502116	     -0.12873609	     -8.44270960	      2.22572524	     14.25865500	     58.62374148	      3.90018998	    -17.38245408	     49.64489205	     47.34599588	    -41.90624994	     17.90255659	     95.13009686
     34.19000000	      0.53095625	    177.19394506	      0.00000000	      0.48108563	      1.43519244	     -0.12892656	     -8.46949142	      2.37768149	     14.49213334	     58.71608319	      4.03538540	    -17.15772256	     49.45607138	     47.92399968	    -42.03330249	     17.93432948	     95.10592156
     34.20000000	      0.56374122	    177.20280250	      0.00000000	      0.48116582	      1.43532389	     -0.12905772	     -8.54531649	      2.53137628	     14.71389400	     58.84865665	      4.15275096	    -16.92289036	     49.25672782	     48.54367955	    -42.19504346	     17.91567443	     95.07678743
     34.21000000	      0.61464494	    177.22676092	      0.00000000	      0.48122436	      1.43540261	     -0.12911297	     -8.67488288	      2.68433539	     14.93779599	     59.02620880	      4.27394618	    -16.68603137	     49.06413466	     49.18702970	    -42.38216525	     17.87088467	     95.04531778
     34.22000000	      0.65608103	    177.42985968	      0.00000000	      0.48144909	      1.43563879	     -0.12896789	     -9.18345868	      2.77864707	     15.20773026	     59.46699327	      4.50538368	    -16.53865918	     49.01502103	     49.78741509	    -42.80615609	     17.71011551	     95.04932623
     34.23000000	      0.70639709	    177.42510741	      0.00000000	      0.48151885	      1.43576941	     -0.12909488	     -9.22156390	      2.93380521	     15.46167619	     59.55019454	      4.66862915	    -16.31798696	     48.84285052	     50.34106631	    -42.94415760	     17.76195195	     95.02050015
     34.24000000	      0.74119096	    177.55261766	      0.00000000	      0.48165379	      1.43588941	     -0.12906766	     -9.55204114	      3.09574456	     15.70551027	     59.87490896	      4.83430841	    -16.10810646	     48.72605137	     50.95689871	    -43.29510208	     17.57362553	     94.99796903
     34.25000000	      0.78920964	    177.54107832	      0.00000000	      0.48169675	      1.43608881	     -0.12913121	     -9.61755948	      3.22342547	     15.97759715	     59.94360722	      5.02738341	    -15.90218732	     48.58708112	     51.45965077	    -43.41412129	     17.68768710	     94.96998577
     34.26000000	      0.87187570	    177.69061708	      0.00000000	      0.48183057	      1.43623526	     -0.12889755	    -10.07162371	      3.35621243	     16.27758157	     60.30115495	      5.26795243	    -15.70866254	     48.56534038	     52.00746813	    -43.86413364	     17.60370327	     94.94576978
     34.27000000	      0.89508949	    177.73228104	      0.00000000	      0.48191559	      1.43637011	     -0.12900039	    -10.17432220	      3.52663662	     16.52422589	     60.39973032	      5.43014748	    -15.49937490	     48.41457164	     52.53477246	    -44.09527967	     17.60582833	     94.92332836
     34.28000000	      0.94451553	    177.82325529	      0.00000000	      0.48202118	      1.43649122	     -0.12894726	    -10.43512653	      3.69691888	     16.80392590	     60.61305656	      5.63490932	    -15.28935084	     48.32551232	     53.05238727	    -44.41368406	     17.55559134	     94.90596576
     34.29000000	      1.00874094	    177.90709340	      0.00000000	      0.48211424	      1.43659153	     -0.12885509	    -10.70467030	      3.85992374	     17.09755212	     60.80915594	      5.85462070	    -15.07939944	     48.25389860	     53.54258753	    -44.75211393	     17.55989222	     94.89366393
     34.30000000	      1.05455094	    177.95768979	      0.00000000	      0.48219898	      1.43676059	     -0.12879077	    -10.90949066	      4.01230856	     17.39140540	     60.95409385	      6.07385487	    -14.87098988	     48.17429208	     53.99461258	    -45.03767007	     17.59790191	     94.88808216
     34.31000000	      1.08768972	    178.02466408	      0.00000000	      0.48229666	      1.43691340	     -0.12866314	    -11.18754975	      4.18186702	     17.71115367	     61.14904042	      6.32743209	    -14.66974098	     48.15737749	     54.39101129	    -45.40155085	     17.65224305	     94.90693254
     34.32000000	      1.16203582	    178.10823968	      0.00000000	      0.48241274	      1.43703498	     -0.12857410	    -11.44643039	      4.34631398	     18.04347904	     61.30011544	      6.57850625	    -14.44561905	     48.11722039	     54.78857984	    -45.80742316	     17.68988793	     94.95400223
     34.33000000	      1.11129816	    178.11217788	      0.00000000	      0.48256659	      1.43729563	     -0.12872924	    -11.46321393	      4.50671719	     18.30896315	     61.33892597	      6.79717130	    -14.29717248	     47.98185998	     55.15072989	    -45.88225027	     17.77168898	     94.94193792
     34.34000000	      1.24545953	    178.23345407	      0.00000000	      0.48260122	      1.43728107	     -0.12840341	    -11.89395913	      4.68993478	     18.66487299	     61.55677567	      7.02169425	    -13.96878456	     47.95230880	     55.55917957	    -46.41881416	     17.79030493	     94.98657335
     34.35000000	      1.17051488	    178.22332456	      0.00000000	      0.48275515	      1.43753600	     -0.12852585	    -11.91186861	      4.85478976	     18.93167339	     61.60226806	      7.24878599	    -13.83171665	     47.83237226	     55.88970679	    -46.48258938	     17.88271688	     94.97828953
     34.36000000	      1.31354006	    178.33522857	      0.00000000	      0.48279075	      1.43747752	     -0.12815575	    -12.35370046	      5.06531727	     19.31407859	     61.80627400	      7.47709510	    -13.45547510	     47.81155822	     56.22387340	    -47.07179707	     17.94905315	     95.05368773
     34.37000000	      1.25969132	    178.31442738	      0.00000000	      0.48290908	      1.43766355	     -0.12820167	    -12.38483958	      5.22589713	     19.58740693	     61.84532135	      7.70460093	    -13.30656545	     47.68860379	     56.56306775	    -47.14540655	     18.05357431	     95.04986689
     34.38000000	      1.37902144	    178.43194699	      0.00000000	      0.48300566	      1.43765060	     -0.12789812	    -12.80234422	      5.45392270	     19.98826292	     62.01302478	      7.93473181	    -12.90139418	     47.66305474	     56.78587033	    -47.78534225	     18.16251780	     95.20034069
     34.39000000	      1.30871415	    178.39598616	      0.00000000	      0.48310414	      1.43782635	     -0.12789987	    -12.83517399	      5.61013526	     20.25938617	     62.05133487	      8.16303173	    -12.75838199	     47.55049476	     57.11006060	    -47.84376392	     18.27731113	     95.20248514
     34.40000000	      1.39461444	    178.46686715	      0.00000000	      0.48316189	      1.43776254	     -0.12753945	    -13.22106480	      5.87183981	     20.64986638	     62.20794095	      8.36623758	    -12.32903746	     47.50711308	     57.29892961	    -48.47721360	     18.45186827	     95.45985871
     34.41000000	      1.36243346	    178.45625476	      0.00000000	      0.48329553	      1.43793821	     -0.12757947	    -13.25209000	      5.99525362	     20.94216421	     62.21322892	      8.61241984	    -12.17979945	     47.37800431	     57.60139584	    -48.53668318	     18.54942794	     95.46656567
     34.42000000	      1.43894085	    178.53454382	      0.00000000	      0.48336964	      1.43784138	     -0.12722032	    -13.64131080	      6.29601145	     21.36222115	     62.34490787	      8.76899709	    -11.68777133	     47.29428544	     57.69871666	    -49.49512784	     18.85186950	     96.79750871
     34.43000000	      1.38740925	    178.50763679	      0.00000000	      0.48347517	      1.43802525	     -0.12722186	    -13.67432758	      6.40639892	     21.65555394	     62.35513953	      9.02097665	    -11.54649274	     47.18138265	     57.98144545	    -49.53688808	     18.96117245	     96.78961977
     34.44000000	      1.46374788	    178.56972180	      0.00000000	      0.48355142	      1.43794987	     -0.12689044	    -14.03943658	      6.65343276	     22.06911170	     62.48050617	      9.23486530	    -11.08908384	     47.09903818	     58.07738755	    -49.99886618	     19.15166722	     96.86872575
     34.45000000	      1.41406720	    178.53898457	      0.00000000	      0.48362447	      1.43811510	     -0.12681665	    -14.08966144	      6.76470952	     22.34942691	     62.48017011	      9.46341775	    -10.93321117	     46.97901140	     58.37017326	    -50.04801054	     19.27317497	     96.86615750
     34.46000000	      1.48819652	    178.61734540	      0.00000000	      0.48372012	      1.43799591	     -0.12650448	    -14.46785758	      7.03992778	     22.77783229	     62.59720399	      9.65335426	    -10.40021959	     46.83550336	     58.38194039	    -50.51250340	     19.49810236	     97.04047065
     34.47000000	      1.42301319	    178.57853946	      0.00000000	      0.48377406	      1.43816511	     -0.12640024	    -14.51976809	      7.13995551	     23.05253292	     62.59323414	      9.87706240	    -10.24782263	     46.71999751	     58.66191901	    -50.55234085	     19.63192085	     97.04520252
     34.48000000	      1.48049830	    178.64110939	      0.00000000	      0.48384163	      1.43804822	     -0.12605499	    -14.89598686	      7.41448128	     23.48066017	     62.71941614	     10.03860181	     -9.66375993	     46.51599458	     58.61463290	    -50.98359017	     19.91709169	     97.35121539
     34.49000000	      1.42872047	    178.62006446	      0.00000000	      0.48392420	      1.43819343	     -0.12597935	    -14.94271760	      7.50672906	     23.76266428	     62.69529800	     10.27145636	     -9.51693596	     46.38700452	     58.87910381	    -51.02064339	     20.03937838	     97.36066806
     34.50000000	      1.47939361	    178.67839710	      0.00000000	      0.48397375	      1.43806317	     -0.12559696	    -15.33551122	      7.78379746	     24.19154700	     62.81374825	     10.41610266	     -8.89578564	     46.16377846	     58.80142331	    -51.40872282	     20.33854568	     97.68585420
     34.51000000	      1.42362687	    178.66138655	      0.00000000	      0.48405130	      1.43820050	     -0.12552756	    -15.37434640	      7.86605908	     24.47228927	     62.77940787	     10.65067498	     -8.75708667	     46.02787695	     59.05091087	    -51.44061161	     20.46266704	     97.69835059
     34.52000000	      1.46591916	    178.72099747	      0.00000000	      0.48412154	      1.43806166	     -0.12516587	    -15.74642417	      8.14141302	     24.89613740	     62.91289719	     10.75887428	     -8.08167937	     45.68158307	     58.90978269	    -51.78099599	     20.82410067	     98.17928564
     34.53000000	      1.39811344	    178.69476973	      0.00000000	      0.48419054	      1.43819444	     -0.12507326	    -15.78361183	      8.21980923	     25.17158577	     62.87781998	     10.99194236	     -7.95168776	     45.55246850	     59.14766725	    -51.80540753	     20.94199803	     98.19148848
     34.54000000	      1.38201439	    178.67233946	      0.00000000	      0.48423498	      1.43824401	     -0.12488247	    -15.86285995	      8.30245918	     25.45608535	     62.82833932	     11.20308417	     -7.76412722	     45.40864345	     59.40126208	    -51.85930994	     21.09690896	     98.20234782
     34.55000000	      1.41232167	    178.71961357	      0.00000000	      0.48427951	      1.43803969	     -0.12448806	    -16.28682783	      8.65024253	     25.92497827	     62.95922994	     11.28849414	     -6.93799026	     45.06455138	     59.08612949	    -52.21859393	     21.48323305	     98.55212594
     34.56000000	      1.39458710	    178.73827182	      0.00000000	      0.48440841	      1.43803009	     -0.12424821	    -16.49027779	      8.80612953	     26.27483726	     63.21531578	     11.34030704	     -6.34337447	     44.35511177	     58.97227341	    -52.19836828	     21.85174910	     99.73038205
     34.57000000	      1.35164295	    178.71827021	      0.00000000	      0.48448107	      1.43806609	     -0.12407272	    -16.55265661	      8.89611148	     26.54104102	     63.14335437	     11.53643319	     -6.17322463	     44.21215112	     59.20331271	    -52.27716136	     22.00595498	     99.72130448
     34.58000000	      1.32917027	    178.72738639	      0.00000000	      0.48455536	      1.43795750	     -0.12382196	    -16.77869737	      9.14662679	     26.91736096	     63.18432174	     11.65581752	     -5.63974032	     43.90862752	     59.07972454	    -52.51819331	     22.31006762	     99.89445087
     34.59000000	      1.22415328	    178.69388012	      0.00000000	      0.48466139	      1.43807927	     -0.12372765	    -16.79638657	      9.20993707	     27.16533436	     63.13708284	     11.87074307	     -5.53640328	     43.77714754	     59.27665062	    -52.54721383	     22.39520040	     99.88991213
     34.60000000	      1.21053887	    178.65367335	      0.00000000	      0.48470364	      1.43807494	     -0.12352093	    -16.83746446	      9.28486457	     27.42653130	     63.06998983	     12.06500064	     -5.37043824	     43.60590213	     59.50713224	    -52.61056205	     22.54414031	     99.87847692
     34.61000000	      1.20060082	    178.62710581	      0.00000000	      0.48470292	      1.43791337	     -0.12323773	    -17.06079530	      9.58690008	     27.81664801	     63.08803291	     12.11627551	     -4.66038227	     43.23780694	     59.23617790	    -52.86198633	     22.92840554	     99.95227840
     34.62000000	      1.09997894	    178.60062197	      0.00000000	      0.48482080	      1.43801622	     -0.12314040	    -17.08430441	      9.65172315	     28.05132087	     63.04150802	     12.32087505	     -4.56599282	     43.08936688	     59.41488553	    -52.89165828	     22.99847204	     99.95232186
     34.63000000	      1.13833051	    178.59840946	      0.00000000	      0.48486779	      1.43782849	     -0.12277494	    -17.36772599	      9.90401663	     28.44563553	     63.23242163	     12.36278349	     -3.80543206	     42.47629682	     59.11083883	    -52.97464411	     23.39961375	    100.20744047
     34.64000000	      1.03343156	    178.57268954	      0.00000000	      0.48496845	      1.43795153	     -0.12267691	    -17.38491804	      9.94912614	     28.66449257	     63.17818504	     12.55230108	     -3.71775684	     42.33806954	     59.28165595	    -53.00145597	     23.46435474	    100.20682330
     34.65000000	      1.00038328	    178.54092889	      0.00000000	      0.48502354	      1.43794648	     -0.12252588	    -17.40856756	     10.00645515	     28.89783019	     63.11538169	     12.73701616	     -3.59251718	     42.16707544	     59.46505151	    -53.05484659	     23.57291497	    100.19973823
     34.66000000	      1.00759444	    178.51793674	      0.00000000	      0.48505522	      1.43776670	     -0.12222624	    -17.63288692	     10.28996140	     29.27041795	     63.20235805	     12.78056669	     -2.89130512	     41.69079236	     59.12611362	    -53.27477887	     23.97020975	    100.29497367
     34.67000000	      0.84371251	    178.50626709	      0.00000000	      0.48505485	      1.43807310	     -0.12221905	    -17.64248058	     10.26235250	     29.45019289	     63.14331655	     12.92718403	     -2.80484503	     41.60119845	     59.24898463	    -53.30085008	     23.99672893	    100.28886441
     34.68000000	      0.85215671	    178.46321535	      0.00000000	      0.48517537	      1.43796487	     -0.12204156	    -17.66656870	     10.34011260	     29.69491843	     63.08734798	     13.14401205	     -2.71505303	     41.43738807	     59.39885757	    -53.34654714	     24.08737409	    100.28264404
     34.69000000	      0.88644001	    178.42031164	      0.00000000	      0.48516394	      1.43795102	     -0.12180361	    -17.72332272	     10.37676986	     29.93955593	     63.04395157	     13.29812720	     -2.50481562	     41.25294876	     59.49189180	    -53.45943840	     24.24963319	    100.26404031
     34.70000000	      0.73740446	    178.40585404	      0.00000000	      0.48515654	      1.43821629	     -0.12177048	    -17.73488428	     10.35154095	     30.10060055	     62.98854934	     13.42801163	     -2.42598617	     41.17007732	     59.59572647	    -53.48645244	     24.27360668	    100.25768235
     34.71000000	      0.84530507	    178.39648141	      0.00000000	      0.48518339	      1.43782810	     -0.12132783	    -18.18728914	     10.74658794	     30.62411989	     63.17623774	     13.52224879	     -1.47759489	     40.71858564	     58.85019748	    -54.00806029	     24.79900475	    100.24558848
     34.72000000	      0.71352149	    178.38402608	      0.00000000	      0.48516578	      1.43807769	     -0.12130520	    -18.19604845	     10.72090256	     30.76926708	     63.12455968	     13.64082006	     -1.40993794	     40.64447084	     58.94678473	    -54.02965625	     24.81972732	    100.24097479
     34.73000000	      0.75603707	    178.35171826	      0.00000000	      0.48525819	      1.43800350	     -0.12119873	    -18.21542066	     10.75028327	     31.00234731	     63.07420064	     13.84586581	     -1.32179878	     40.50592839	     59.00873912	    -54.07412112	     24.89056775	    100.24025551
     34.74000000	      0.63721792	    178.33704074	      0.00000000	      0.48522466	      1.43820249	     -0.12115952	    -18.22563679	     10.72424526	     31.13402608	     63.02690380	     13.95183441	     -1.25796403	     40.43833536	     59.09286880	    -54.09684741	     24.91159627	    100.23508948
     34.75000000	      0.77084007	    178.31273441	      0.00000000	      0.48521699	      1.43789169	     -0.12061501	    -18.72423841	     11.01060042	     31.62553678	     63.26632531	     14.09072807	     -0.45195404	     40.10155055	     58.39896735	    -54.57464236	     25.38098613	    100.25453690
     34.76000000	      0.66860858	    178.30581950	      0.00000000	      0.48516741	      1.43806353	     -0.12061347	    -18.72853801	     10.98250644	     31.74101909	     63.22122524	     14.18395521	     -0.39751955	     40.04144744	     58.47257438	    -54.59352155	     25.39560821	    100.25077436
     34.77000000	      0.70918796	    178.29260299	      0.00000000	      0.48523414	      1.43806895	     -0.12063868	    -18.72067920	     10.94665344	     31.94001154	     63.16703072	     14.35732792	     -0.32248203	     39.94138632	     58.46731227	    -54.63958001	     25.43331731	    100.24988128
     34.78000000	      0.74664174	    178.28600949	      0.00000000	      0.48521434	      1.43803679	     -0.12035467	    -19.03575593	     11.03830645	     32.28497011	     63.35655609	     14.47216038	      0.13233538	     39.72269447	     58.03360819	    -54.87764699	     25.68712862	    100.17141214
     34.79000000	      0.71905653	    178.20491404	      0.00000000	      0.48514023	      1.43803511	     -0.12032498	    -19.00626118	     11.07470744	     32.45330848	     63.32732975	     14.52608556	      0.30864648	     39.60209683	     57.95717501	    -54.86506035	     25.75593735	    100.07541357
     34.80000000	      0.70341024	    178.15866423	      0.00000000	      0.48510937	      1.43806573	     -0.12029017	    -19.03336727	     11.09360529	     32.63099258	     63.32280547	     14.60417409	      0.46515688	     39.50432021	     57.83363215	    -54.88541759	     25.86203774	     99.97185168
     34.81000000	      0.71751712	    178.21840596	      0.00000000	      0.48516501	      1.43814384	     -0.12008490	    -19.32502119	     11.05881995	     32.84777003	     63.48264882	     14.75820411	      0.61838544	     39.46756640	     57.62511522	    -55.15296951	     25.98456582	     99.99759438
     34.82000000	      0.69541910	    178.13308198	      0.00000000	      0.48509896	      1.43807256	     -0.12011846	    -19.25424580	     11.11249198	     32.97478536	     63.42945897	     14.78901306	      0.75087817	     39.38278136	     57.55286506	    -55.12844596	     26.02093975	     99.88971244
     34.83000000	      0.69452327	    178.09321361	      0.00000000	      0.48504124	      1.43809606	     -0.12011466	    -19.27068847	     11.09044419	     33.10431710	     63.43007069	     14.85167675	      0.85214019	     39.34549888	     57.46147833	    -55.14955664	     26.07918202	     99.80358875
     34.84000000	      0.72273281	    178.15156840	      0.00000000	      0.48511288	      1.43813967	     -0.11993070	    -19.54270317	     11.05880484	     33.29570750	     63.57429036	     15.01157050	      0.92567740	     39.40229406	     57.22833912	    -55.56180417	     26.21786053	     99.86464562
     34.85000000	      0.68027476	    178.07733717	      0.00000000	      0.48500875	      1.43811939	     -0.12000751	    -19.45731839	     11.08748561	     33.35046805	     63.50896479	     14.98951780	      1.01006687	     39.37455034	     57.19186562	    -55.48514379	     26.23659082	     99.76296142
     34.86000000	      0.67954588	    178.11570418	      0.00000000	      0.48503532	      1.43819211	     -0.11995178	    -19.62277035	     11.02482669	     33.47465416	     63.62125842	     15.07736290	      1.04829488	     39.39799977	     57.03685991	    -55.58659799	     26.27865651	     99.68296696
     34.87000000	      0.70435220	    178.10915940	      0.00000000	      0.48505009	      1.43817353	     -0.11992182	    -19.66559153	     10.98548052	     33.57816643	     63.69486537	     15.11107018	      1.03919784	     39.37174971	     56.93599230	    -55.67558588	     26.36115900	     99.45312122
     34.88000000	      0.69878250	    177.96560612	      0.00000000	      0.48484522	      1.43806352	     -0.11995955	    -19.53578892	     11.03349148	     33.64262052	     63.62552117	     15.01149436	      1.16722121	     39.35279766	     56.89286232	    -55.42578193	     26.32902427	     99.17421076
     34.89000000	      0.69744966	    178.01285047	      0.00000000	      0.48487277	      1.43813331	     -0.11997596	    -19.63962518	     10.94834480	     33.68702588	     63.73304144	     15.06732191	      1.13228445	     39.38912468	     56.78627967	    -55.56580936	     26.34664640	     99.17447490
     34.90000000	      0.68119387	    177.99451156	      0.00000000	      0.48483896	      1.43806072	     -0.12005716	    -19.60467656	     10.96525578	     33.68488291	     63.74148208	     15.03225965	      1.15757678	     39.37336435	     56.69052514	    -55.61024437	     26.40796453	     99.13548794
     34.91000000	      0.69886373	    177.99041898	      0.00000000	      0.48482777	      1.43804906	     -0.12000290	    -19.68752269	     10.91580575	     33.74926462	     63.90325573	     15.01279349	      1.18505368	     39.30517222	     56.53063752	    -55.58643433	     26.47660649	     99.10249509
     34.92000000	      0.66657765	    178.02748810	      0.00000000	      0.48475432	      1.43820840	     -0.12015864	    -19.60605355	     10.79459436	     33.69932240	     63.46121185	     15.18570417	      0.52700082	     40.39718622	     56.76718875	    -56.98535554	     26.50927376	    100.22043991
     34.93000000	      0.67884105	    177.99015782	      0.00000000	      0.48467076	      1.43808751	     -0.12020166	    -19.56501176	     10.80993162	     33.66005639	     63.48873080	     15.10586881	      0.57475665	     40.37445636	     56.67613191	    -56.98391788	     26.54756994	    100.17373626
     34.94000000	      0.69227500	    178.04124630	      0.00000000	      0.48467712	      1.43813698	     -0.12018737	    -19.63754069	     10.67699853	     33.61799396	     63.60509659	     15.12319063	      0.45977389	     40.43900187	     56.62063788	    -56.95070043	     26.55426895	    100.21253000
     34.95000000	      0.70804686	    178.02629961	      0.00000000	      0.48459684	      1.43804493	     -0.12028099	    -19.57889755	     10.66102305	     33.55032689	     63.62888037	     15.02043598	      0.48003716	     40.42656759	     56.53428741	    -56.95311233	     26.55942877	    100.16222961
     34.96000000	      0.69976786	    178.08059987	      0.00000000	      0.48463469	      1.43809450	     -0.12029196	    -19.59819966	     10.52796459	     33.44123883	     63.73489749	     15.01662287	      0.25151868	     40.51238465	     56.54165989	    -56.96593843	     26.58184534	    100.22380777
     34.97000000	      0.71001015	    178.09670248	      0.00000000	      0.48460073	      1.43806818	     -0.12034371	    -19.56757814	     10.43485791	     33.33802781	     63.77867598	     14.96512221	      0.10896216	     40.61104927	     56.52058060	    -56.97430421	     26.57397782	    100.26245991
     34.98000000	      0.73004765	    178.07652777	      0.00000000	      0.48450619	      1.43792483	     -0.12038409	    -19.50768036	     10.43328320	     33.23511802	     63.80177611	     14.83826627	      0.11274509	     40.62707399	     56.43580414	    -56.96662834	     26.57819409	    100.21644972
     34.99000000	      0.75632826	    178.10124967	      0.00000000	      0.48441601	      1.43784121	     -0.12041497	    -19.49762931	     10.36295626	     33.11765670	     63.83696388	     14.74707856	      0.04456984	     40.70292034	     56.37541301	    -56.94841407	     26.58919150	    100.22740932
     35.00000000	      0.84158872	    178.10733637	      0.00000000	      0.48440615	      1.43753191	     -0.12036015	    -19.49386547	     10.37473164	     33.02410842	     63.86814585	     14.67116416	     -0.00050234	     40.74705353	     56.31070663	    -56.93469294	     26.57550252	    100.23112506
     35.01000000	      0.71965220	    178.12253946	      0.00000000	      0.48436680	      1.43786306	     -0.12064347	    -19.14986278	     10.06151763	     32.69492415	     63.65897436	     14.66460000	     -0.84979010	     41.38002072	     56.75323051	    -57.34312853	     26.44030126	    100.37452485
     35.02000000	      0.77538004	    178.15422060	      0.00000000	      0.48429711	      1.43771944	     -0.12063774	    -19.14289242	      9.99645723	     32.56923814	     63.68679457	     14.55230501	     -0.89536910	     41.44956560	     56.65902874	    -57.32195732	     26.43182506	    100.38223591
     35.03000000	      0.78695395	    178.18688706	      0.00000000	      0.48423929	      1.43763421	     -0.12064775	    -19.12536001	      9.91887483	     32.41464129	     63.73473544	     14.43669526	     -0.99334944	     41.53262616	     56.56244148	    -57.28135797	     26.43261366	    100.39614063
     35.04000000	      0.75210641	    178.26748452	      0.00000000	      0.48438479	      1.43773472	     -0.12081628	    -18.98303039	      9.70971408	     32.18374525	     63.80482915	     14.38113784	     -1.37946786	     41.57356477	     56.56904995	    -57.17282480	     26.41689167	    100.44565433
     35.05000000	      0.82250779	    178.27455718	      0.00000000	      0.48423205	      1.43751893	     -0.12070774	    -18.96380545	      9.64973285	     32.02189790	     63.84926734	     14.23767722	     -1.43895644	     41.65038503	     56.52281332	    -57.15036156	     26.39871246	    100.45350732
     35.06000000	      0.79140324	    178.30035302	      0.00000000	      0.48427301	      1.43758859	     -0.12081787	    -18.72086771	      9.40164819	     31.71804653	     63.87661032	     14.15346646	     -1.94750496	     41.74792543	     56.72608662	    -56.98743793	     26.29317934	    100.51549504
     35.07000000	      0.86534237	    178.33184849	      0.00000000	      0.48418175	      1.43738052	     -0.12075188	    -18.69715067	      9.33271757	     31.55859220	     63.89541195	     14.01382870	     -2.01536448	     41.82955654	     56.63377409	    -56.96453950	     26.26653744	    100.52115471
     35.08000000	      0.83057441	    178.36113330	      0.00000000	      0.48421479	      1.43745087	     -0.12086973	    -18.45078262	      9.08874734	     31.25472091	     63.88420797	     13.92910044	     -2.53356147	     41.97163870	     56.80264141	    -56.82246870	     26.17864641	    100.55579347
     35.09000000	      0.91390162	    178.39549764	      0.00000000	      0.48411883	      1.43723679	     -0.12076713	    -18.42496869	      9.00890520	     31.08787887	     63.89785303	     13.78488212	     -2.60977022	     42.05632426	     56.70344152	    -56.79796861	     26.14964473	    100.56080162
     35.10000000	      0.89079120	    178.42530491	      0.00000000	      0.48415045	      1.43732709	     -0.12087788	    -18.13260113	      8.71733130	     30.75739784	     63.85340577	     13.71498670	     -3.22854218	     42.23513909	     56.95471940	    -56.63862765	     26.01395229	    100.58525305
     35.11000000	      0.98616781	    178.45734110	      0.00000000	      0.48404297	      1.43708422	     -0.12073748	    -18.11547775	      8.63948241	     30.58806153	     63.86657881	     13.56392012	     -3.29609920	     42.31857107	     56.84277079	    -56.61692418	     25.99110874	    100.58894929
     35.12000000	      0.96026744	    178.49925146	      0.00000000	      0.48406494	      1.43719844	     -0.12084341	    -17.81244201	      8.31610284	     30.23634988	     63.82632263	     13.48638411	     -3.94411139	     42.47271886	     57.10407780	    -56.44437660	     25.85240234	    100.61019396
     35.13000000	      1.05609500	    178.53073988	      0.00000000	      0.48395624	      1.43695943	     -0.12066676	    -17.79860792	      8.23537146	     30.06507229	     63.83403628	     13.33850850	     -4.02342117	     42.56336236	     56.97727654	    -56.41304419	     25.83187764	    100.61558899
     35.14000000	      1.12968148	    178.57875568	      0.00000000	      0.48384330	      1.43678522	     -0.12053627	    -17.76487165	      8.12470171	     29.87794404	     63.83818732	     13.19413164	     -4.14565153	     42.65407165	     56.84719090	    -56.36088574	     25.81120418	    100.62659665
     35.15000000	      1.06344259	    178.63524773	      0.00000000	      0.48396339	      1.43703951	     -0.12069596	    -17.38278809	      7.69262152	     29.45813073	     63.81942761	     13.16247045	     -5.02573032	     42.75512641	     57.21572764	    -56.02270988	     25.65971989	    100.69503782
     35.16000000	      1.18104940	    178.67140026	      0.00000000	      0.48382257	      1.43677437	     -0.12048889	    -17.36443857	      7.60051397	     29.28104192	     63.81670423	     13.00826336	     -5.10745391	     42.83810736	     57.09301647	    -55.99388685	     25.62540345	    100.70023810
     35.17000000	      1.14881375	    178.72068944	      0.00000000	      0.48384869	      1.43696609	     -0.12059942	    -17.03559623	      7.19899799	     28.90199781	     63.72601569	     12.96140301	     -5.88822331	     43.03620203	     57.42193025	    -55.71343748	     25.43703339	    100.72211399
     35.18000000	      1.26127637	    178.75998852	      0.00000000	      0.48367078	      1.43671045	     -0.12037555	    -17.01852708	      7.10314921	     28.71950776	     63.72101407	     12.80464957	     -5.97727502	     43.11616633	     57.29123549	    -55.68656000	     25.40673948	    100.72604696
     35.19000000	      1.23117204	    178.82197111	      0.00000000	      0.48372770	      1.43687602	     -0.12043148	    -16.73040577	      6.71915270	     28.34838270	     63.67725510	     12.75706722	     -6.72411861	     43.24250757	     57.55536741	    -55.42110200	     25.26048400	    100.74912453
     35.20000000	      1.33889515	    178.86499644	      0.00000000	      0.48356012	      1.43663803	     -0.12020238	    -16.71159736	      6.60862388	     28.16084685	     63.66227152	     12.60086942	     -6.82764385	     43.32271238	     57.41993052	    -55.38584376	     25.22283908	    100.75490352
     35.21000000	      1.32179639	    178.93885372	      0.00000000	      0.48358064	      1.43681237	     -0.12024395	    -16.44909701	      6.21094414	     27.78987090	     63.64450636	     12.55083042	     -7.55694383	     43.39679455	     57.66536167	    -55.08590475	     25.10672482	    100.79876191
     35.22000000	      1.43946405	    178.97493195	      0.00000000	      0.48339997	      1.43653750	     -0.11999238	    -16.43410897	      6.11698385	     27.60400911	     63.63181324	     12.39157632	     -7.64970963	     43.46834327	     57.52877252	    -55.05794370	     25.05177772	    100.80504214
     35.23000000	      1.39534121	    179.05198620	      0.00000000	      0.48340564	      1.43675613	     -0.12005735	    -16.16473301	      5.68989312	     27.21327254	     63.60913928	     12.33917378	     -8.41827406	     43.54663094	     57.80406865	    -54.71222506	     24.86941148	    100.85365682
     35.24000000	      1.52078822	    179.08524317	      0.00000000	      0.48320888	      1.43649033	     -0.11979654	    -16.15429539	      5.59038685	     27.02510805	     63.59243002	     12.17564048	     -8.50822335	     43.61610470	     57.66544485	    -54.68679124	     24.81953563	    100.85872960
     35.25000000	      1.47378461	    179.15456063	      0.00000000	      0.48317476	      1.43673339	     -0.11985945	    -15.88692555	      5.14435036	     26.63052556	     63.54488253	     12.12916595	     -9.30688724	     43.72583024	     57.96858507	    -54.32498035	     24.60850008	    100.87080271
     35.26000000	      1.58223578	    179.19775773	      0.00000000	      0.48298111	      1.43650322	     -0.11962826	    -15.87633409	      5.03698116	     26.43343573	     63.52387059	     11.96306198	     -9.41240564	     43.79177178	     57.82073590	    -54.29757544	     24.55510946	    100.87471108
     35.27000000	      1.54972991	    179.29039354	      0.00000000	      0.48297319	      1.43670384	     -0.11965057	    -15.68081046	      4.62789183	     26.05488517	     63.54493906	     11.89604903	    -10.11463467	     43.80352888	     58.02739072	    -53.98380038	     24.40370401	    100.89635932
     35.28000000	      1.59491381	    179.34848340	      0.00000000	      0.48281917	      1.43657112	     -0.11949810	    -15.65433354	      4.49843674	     25.82806001	     63.52040489	     11.73976867	    -10.30710486	     43.88188121	     57.88529755	    -53.90129402	     24.32013098	    100.90444982
     35.29000000	      1.61530716	    179.40779678	      0.00000000	      0.48269327	      1.43667876	     -0.11942800	    -15.48212684	      4.10550218	     25.46319973	     63.53291883	     11.64224718	    -10.92244660	     43.89044226	     58.11845028	    -53.57871893	     24.13170458	    100.91101026
     35.30000000	      1.70447890	    179.45225240	      0.00000000	      0.48246632	      1.43650534	     -0.11922250	    -15.47842661	      3.98770907	     25.25325673	     63.50282186	     11.46638412	    -11.03857057	     43.95686825	     57.95901280	    -53.54091271	     24.06481007	    100.91530089
     35.31000000	      1.66683275	    179.54126709	      0.00000000	      0.48240863	      1.43669695	     -0.11923592	    -15.32304387	      3.59103616	     24.86862745	     63.53385314	     11.37147379	    -11.69823685	     43.94493358	     58.15779735	    -53.17168323	     23.87028208	    100.91174078
     35.32000000	      1.75660901	    179.58240158	      0.00000000	      0.48215924	      1.43652105	     -0.11903047	    -15.32467416	      3.47393195	     24.65416994	     63.50245885	     11.18837049	    -11.80999354	     44.01093187	     57.99603047	    -53.13499945	     23.80046254	    100.91474762
     35.33000000	      1.72431059	    179.68531364	      0.00000000	      0.48208707	      1.43668777	     -0.11902703	    -15.22021935	      3.10873126	     24.28530531	     63.53766598	     11.07560208	    -12.39652007	     43.98478227	     58.12595017	    -52.79167908	     23.63321828	    100.90924530
     35.34000000	      1.80363697	    179.72360539	      0.00000000	      0.48182727	      1.43654414	     -0.11884146	    -15.22233637	      2.99145745	     24.06253843	     63.50769444	     10.88553626	    -12.51230768	     44.05102138	     57.96060073	    -52.75062459	     23.55004084	    100.91254524
     35.35000000	      1.81487991	    179.79614069	      0.00000000	      0.48162915	      1.43650580	     -0.11876144	    -15.21812629	      2.84467440	     23.80687060	     63.48376153	     10.69923153	    -12.70706235	     44.10744490	     57.79295710	    -52.66480045	     23.44515844	    100.92387971
     35.36000000	      1.76909556	    179.88787226	      0.00000000	      0.48155596	      1.43676363	     -0.11878212	    -15.06648849	      2.36505013	     23.36967400	     63.56150627	     10.60671651	    -13.47871451	     44.01806104	     58.09870699	    -52.11571440	     23.19132193	    100.90354774
     35.37000000	      1.85136391	    179.92103843	      0.00000000	      0.48127750	      1.43662924	     -0.11859233	    -15.07824523	      2.24884937	     23.14202029	     63.52265102	     10.40630139	    -13.58597632	     44.09066562	     57.91815680	    -52.07731239	     23.11725558	    100.90267892
     35.38000000	      1.85131198	    179.99308666	      0.00000000	      0.48107343	      1.43660783	     -0.11853911	    -15.08139408	      2.11642482	     22.88233628	     63.48935759	     10.20944533	    -13.77018597	     44.15665693	     57.71842808	    -51.99452935	     23.01331183	    100.90771879
     35.39000000	      1.88586566	    180.04679354	      0.00000000	      0.48083845	      1.43651822	     -0.11842719	    -15.08512513	      1.97416461	     22.62640094	     63.46404924	     10.01718168	    -13.95345498	     44.21459221	     57.54807307	    -51.91050882	     22.92347316	    100.91567677
     35.40000000	      1.78368871	    180.17331304	      0.00000000	      0.48090270	      1.43683213	     -0.11855721	    -14.93585059	      1.47797700	     22.15600193	     63.55441602	      9.94296523	    -14.83195867	     44.07018235	     57.83102653	    -51.25870037	     22.69881500	    100.89221285
     35.41000000	      1.87661313	    180.18026717	      0.00000000	      0.48053681	      1.43669526	     -0.11832003	    -14.95078869	      1.34810492	     21.91933890	     63.51394239	      9.72186034	    -14.91746715	     44.15351959	     57.64507013	    -51.22539634	     22.61720056	    100.88926608
     35.42000000	      1.81101756	    180.25193337	      0.00000000	      0.48040400	      1.43673782	     -0.11836827	    -14.92986975	      1.23125737	     21.63565207	     63.47918717	      9.52409194	    -15.15311173	     44.23058671	     57.39736620	    -51.08823145	     22.47226581	    100.88428540
     35.43000000	      1.87431790	    180.27370081	      0.00000000	      0.48010589	      1.43661706	     -0.11820150	    -14.93403013	      1.08850513	     21.38262447	     63.44319906	      9.31722107	    -15.30232616	     44.30231417	     57.21147067	    -51.01266793	     22.39162100	    100.88498220
     35.44000000	      1.72650586	    180.33644305	      0.00000000	      0.48007099	      1.43696445	     -0.11843614	    -14.69506276	      0.60267625	     20.88998363	     63.45965008	      9.18367963	    -16.12871862	     44.14580733	     57.46280201	    -50.21186089	     22.09739190	    100.71691401
     35.45000000	      1.79750206	    180.34752104	      0.00000000	      0.47976586	      1.43681503	     -0.11822485	    -14.71695754	      0.48546668	     20.65075974	     63.41370559	      8.97138114	    -16.23782665	     44.24911054	     57.21984173	    -50.15895835	     22.03164189	    100.70797504
     35.46000000	      1.71964959	    180.41973290	      0.00000000	      0.47968388	      1.43686757	     -0.11830194	    -14.69251841	      0.36359539	     20.37804140	     63.35535399	      8.79826462	    -16.50184637	     44.34484654	     56.89555773	    -49.96689135	     21.94494989	    100.66713575
     35.47000000	      1.75853252	    180.43693868	      0.00000000	      0.47941668	      1.43673713	     -0.11815437	    -14.69311967	      0.23360421	     20.11520681	     63.31058478	      8.58379090	    -16.65837714	     44.43009456	     56.65568746	    -49.88115473	     21.86175764	    100.65907932
     35.48000000	      1.68294184	    180.49296759	      0.00000000	      0.47931586	      1.43677497	     -0.11821597	    -14.65190632	      0.09605112	     19.82767039	     63.25354504	      8.39806924	    -16.92790219	     44.51467198	     56.34445617	    -49.69762983	     21.76019825	    100.64826678
     35.49000000	      1.61573701	    180.52471246	      0.00000000	      0.47923117	      1.43690772	     -0.11837798	    -14.43926558	     -0.26339098	     19.41695734	     63.16931604	      8.17971700	    -17.43395389	     44.31658154	     56.37198774	    -48.67275908	     21.50063978	     99.89533869
     35.50000000	      1.58629547	    180.53154500	      0.00000000	      0.47904213	      1.43685908	     -0.11828627	    -14.42490158	     -0.38980801	     19.16759042	     63.11868246	      8.00395020	    -17.63866384	     44.44788526	     55.99715885	    -48.51820764	     21.48724927	     99.85059983
     35.51000000	      1.54241450	    180.56118744	      0.00000000	      0.47890103	      1.43681775	     -0.11826649	    -14.38075582	     -0.51927200	     18.89372535	     63.02990173	      7.80937428	    -17.86503354	     44.54640558	     55.64742353	    -48.33055628	     21.43548374	     99.81173609
     35.52000000	      1.49521672	    180.58562577	      0.00000000	      0.47876197	      1.43678284	     -0.11826240	    -14.31687314	     -0.66021500	     18.61698268	     62.91889121	      7.61642884	    -18.10320486	     44.64426745	     55.29503556	    -48.10012393	     21.38411291	     99.77614080
     35.53000000	      1.44126902	    180.55755549	      0.00000000	      0.47855732	      1.43679733	     -0.11831624	    -14.13943719	     -0.89501954	     18.28742901	     62.78185561	      7.36430564	    -18.36696209	     44.54497873	     55.06468484	    -47.28200581	     21.24645587	     99.27192708
     35.54000000	      1.38747254	    180.60983899	      0.00000000	      0.47847843	      1.43668742	     -0.11827107	    -14.12718580	     -0.98138922	     18.03444915	     62.69051434	      7.17971679	    -18.56487072	     44.68025316	     54.61786733	    -47.14691989	     21.20515662	     99.25004450
     35.55000000	      1.32911269	    180.60524755	      0.00000000	      0.47831816	      1.43663947	     -0.11833175	    -13.99083948	     -1.12534443	     17.75298813	     62.52892756	      6.91197949	    -18.69820584	     44.60369076	     54.19478766	    -46.46458988	     21.15232697	     98.73925203
     35.56000000	      1.27833477	    180.64719816	      0.00000000	      0.47821862	      1.43655989	     -0.11825365	    -13.97939628	     -1.23113237	     17.50585313	     62.42081924	      6.73653567	    -18.90137530	     44.76194045	     53.72041820	    -46.31597240	     21.12469270	     98.73981017
     35.57000000	      1.22169559	    180.67793509	      0.00000000	      0.47810321	      1.43649902	     -0.11822588	    -13.92655269	     -1.34536460	     17.25614193	     62.25204877	      6.55465552	    -19.10406703	     44.91782174	     53.23378187	    -46.11317434	     21.12214154	     98.74642710
     35.58000000	      1.16028702	    180.69949031	      0.00000000	      0.47798430	      1.43643162	     -0.11821036	    -13.84812124	     -1.45546386	     17.00413271	     62.05865206	      6.36730928	    -19.30293416	     45.06903549	     52.73813212	    -45.87962207	     21.11683284	     98.75918275
     35.59000000	      1.05676267	    180.63854098	      0.00000000	      0.47778700	      1.43632987	     -0.11831414	    -13.58227474	     -1.52956859	     16.72129149	     61.71115298	      6.10202486	    -19.44285764	     45.12278514	     52.24261140	    -45.36454201	     21.14575670	     98.71704226
     35.60000000	      1.02785693	    180.69100376	      0.00000000	      0.47770029	      1.43625130	     -0.11821305	    -13.58194339	     -1.66082911	     16.48890908	     61.59139469	      5.94162735	    -19.63963075	     45.27386506	     51.71875390	    -45.17462339	     21.10180380	     98.72990178
     35.61000000	      0.97128485	    180.72745343	      0.00000000	      0.47760800	      1.43618880	     -0.11815705	    -13.53071639	     -1.77278496	     16.25348483	     61.39346088	      5.77086785	    -19.83073977	     45.43343713	     51.15376829	    -44.92005863	     21.11644206	     98.74878188
     35.62000000	      0.92032789	    180.75989074	      0.00000000	      0.47747496	      1.43610637	     -0.11804917	    -13.49712240	     -1.89613147	     16.00400923	     61.22603235	      5.58227264	    -20.01356466	     45.58617466	     50.62170696	    -44.73412412	     21.06765303	     98.77557441
     35.63000000	      0.85146584	    180.79474619	      0.00000000	      0.47738967	      1.43606364	     -0.11799259	    -13.43404415	     -2.00510992	     15.77235213	     61.01461619	      5.42101345	    -20.21223822	     45.76396946	     50.02016180	    -44.48764554	     21.07147449	     98.81219757
     35.64000000	      0.79364559	    180.81302177	      0.00000000	      0.47728890	      1.43600708	     -0.11796147	    -13.31611659	     -2.09276449	     15.55645185	     60.73295272	      5.26301719	    -20.38986817	     45.93674580	     49.38184160	    -44.16404085	     21.13279214	     98.85373558
     35.65000000	      0.76511557	    180.70179345	      0.00000000	      0.47708068	      1.43580091	     -0.11798254	    -12.97868957	     -2.11638771	     15.32969941	     60.34592276	      4.91912979	    -20.27510781	     45.69848812	     48.67892170	    -43.27659174	     21.24169462	     98.82768488
     35.66000000	      0.70797238	    180.76216415	      0.00000000	      0.47701213	      1.43577021	     -0.11783520	    -12.98843878	     -2.24674082	     15.09516221	     60.20841103	      4.76721522	    -20.48506234	     45.85998589	     48.06741399	    -43.08362767	     21.19075303	     98.85783171
     35.67000000	      0.70327616	    180.75616703	      0.00000000	      0.47695788	      1.43565886	     -0.11768062	    -12.89438119	     -2.29706191	     14.92841676	     60.17471016	      4.37206434	    -20.14763711	     45.14189668	     47.08518872	    -41.74606646	     21.38200096	     98.61785487
     35.68000000	      0.68010095	    180.80881420	      0.00000000	      0.47686314	      1.43560996	     -0.11750165	    -12.85573276	     -2.39939326	     14.72104601	     59.89644365	      4.23747763	    -20.34304139	     45.35445786	     46.43045142	    -41.51298688	     21.43127195	     98.64021376
     35.69000000	      0.63672819	    180.85920426	      0.00000000	      0.47679152	      1.43558196	     -0.11735740	    -12.82176909	     -2.51917604	     14.50105404	     59.72492746	      4.10781282	    -20.56179629	     45.53240953	     45.79239519	    -41.33186335	     21.35662945	     98.68056796
     35.70000000	      0.61220437	    180.88973937	      0.00000000	      0.47668635	      1.43561358	     -0.11716303	    -12.78263735	     -2.65444492	     14.31042766	     59.49229012	      4.00342883	    -20.76803217	     45.74486800	     45.09375411	    -41.09411448	     21.36542293	     98.73083338
     35.71000000	      0.59754519	    180.91844703	      0.00000000	      0.47661487	      1.43560660	     -0.11698379	    -12.70988131	     -2.75843865	     14.13453753	     59.22757210	      3.91074135	    -20.96585078	     45.95921077	     44.36536311	    -40.82123166	     21.40573726	     98.78876304
     35.72000000	      0.59384222	    180.93415325	      0.00000000	      0.47651552	      1.43559383	     -0.11678620	    -12.62231572	     -2.85906271	     13.96317459	     58.94490356	      3.81128113	    -21.14310130	     46.16155582	     43.63007165	    -40.53722818	     21.44746472	     98.85091409
     35.73000000	      0.59510830	    180.94159863	      0.00000000	      0.47640622	      1.43558070	     -0.11657585	    -12.52494287	     -2.95421623	     13.79717379	     58.65832905	      3.71211690	    -21.30932810	     46.35494899	     42.88078114	    -40.24178545	     21.48928696	     98.91794128
     35.74000000	      0.60350735	    180.94400592	      0.00000000	      0.47628996	      1.43557265	     -0.11635177	    -12.42341023	     -3.04749966	     13.63774724	     58.37244737	      3.61614208	    -21.46684604	     46.53943280	     42.11796064	    -39.93779097	     21.53045486	     98.98941687
     35.75000000	      0.61794858	    180.94242621	      0.00000000	      0.47616992	      1.43557008	     -0.11611192	    -12.32084740	     -3.13826226	     13.48442971	     58.09079902	      3.52402180	    -21.61754207	     46.71609399	     41.34218789	    -39.62654021	     21.57215819	     99.06498488
     35.76000000	      0.63895765	    180.93781081	      0.00000000	      0.47604702	      1.43557443	     -0.11585676	    -12.21882176	     -3.22750719	     13.33721407	     57.81566144	      3.43644072	    -21.76250258	     46.88477222	     40.55464370	    -39.31063514	     21.61362278	     99.14407118
     35.77000000	      0.66591066	    180.93036705	      0.00000000	      0.47592140	      1.43558495	     -0.11558648	    -12.11851271	     -3.31463341	     13.19570496	     57.54873404	      3.35344005	    -21.90252509	     47.04655491	     39.75675859	    -38.99148695	     21.65447933	     99.22641525
     35.78000000	      0.69863876	    180.92027010	      0.00000000	      0.47579251	      1.43560376	     -0.11530211	    -12.02040977	     -3.40041625	     13.05994093	     57.29024929	      3.27535961	    -22.03813559	     47.20233066	     38.94912509	    -38.67072122	     21.69423131	     99.31155883
     35.79000000	      0.78254500	    180.85396412	      0.00000000	      0.47572345	      1.43536911	     -0.11498509	    -11.84589887	     -3.31697413	     12.98120393	     57.38223665	      2.60490203	    -21.11173586	     45.22289688	     37.54124237	    -36.49855555	     22.09655129	     99.91618850
     35.80000000	      0.80634247	    180.88050605	      0.00000000	      0.47561892	      1.43549403	     -0.11465108	    -11.83416976	     -3.46611904	     12.82684034	     57.21735447	      2.57452319	    -21.34952211	     45.42514907	     36.79017598	    -36.29289660	     22.03976765	     99.96124567
     35.81000000	      0.84567780	    180.88771739	      0.00000000	      0.47550545	      1.43558913	     -0.11430489	    -11.79893574	     -3.58985905	     12.70373776	     57.01285987	      2.56588392	    -21.56395423	     45.65634912	     35.98865252	    -36.04830533	     22.05001955	    100.01387989
     35.82000000	      0.89641927	    180.88454776	      0.00000000	      0.47539652	      1.43564774	     -0.11396266	    -11.73904095	     -3.68817594	     12.58856340	     56.79282186	      2.55342533	    -21.75740320	     45.88257509	     35.18032158	    -35.79831869	     22.06708221	    100.06993003
     35.83000000	      0.95190992	    180.86949412	      0.00000000	      0.47527462	      1.43569643	     -0.11361903	    -11.66396994	     -3.77256476	     12.47904735	     56.56936070	      2.53765300	    -21.93438206	     46.10439909	     34.36557361	    -35.54605332	     22.08401580	    100.12914828
     35.84000000	      1.01102668	    180.84564717	      0.00000000	      0.47514286	      1.43575274	     -0.11327902	    -11.57634625	     -3.84663913	     12.37840646	     56.34477541	      2.52397681	    -22.09735735	     46.32434436	     33.53839547	    -35.28896705	     22.10244347	    100.19195620
     35.85000000	      1.07502898	    180.81439016	      0.00000000	      0.47500669	      1.43579391	     -0.11293059	    -11.48496911	     -3.91450758	     12.28199906	     56.12638201	      2.50956218	    -22.25030761	     46.53995750	     32.71087957	    -35.03334266	     22.11705091	    100.25696255
     35.86000000	      1.18226609	    180.67666339	      0.00000000	      0.47474298	      1.43560744	     -0.11264555	    -11.20117979	     -3.81734332	     12.25010609	     55.73600472	      2.40526754	    -22.15869980	     46.65499272	     31.74980505	    -34.67770493	     22.20934976	    100.36396605
     35.87000000	      1.22427306	    180.68293496	      0.00000000	      0.47466714	      1.43573057	     -0.11228193	    -11.17867477	     -3.94101481	     12.11882967	     55.63458993	      2.40416355	    -22.38595409	     46.83525420	     30.99417431	    -34.45420730	     22.14827542	    100.42917339
     35.88000000	      1.29015425	    180.66852396	      0.00000000	      0.47455210	      1.43583211	     -0.11190069	    -11.13787080	     -4.04076092	     12.02772893	     55.49631451	      2.42717076	    -22.57811235	     47.05765663	     30.18676031	    -34.20089381	     22.15100683	    100.49797438
     35.89000000	      1.37146134	    180.62160281	      0.00000000	      0.47441573	      1.43588388	     -0.11149451	    -11.06740084	     -4.09975434	     11.96282163	     55.32021820	      2.44377050	    -22.71521997	     47.29447199	     29.35050155	    -33.93113099	     22.19057590	    100.57113749
     35.90000000	      1.49033087	    180.51520979	      0.00000000	      0.47418717	      1.43573637	     -0.11114005	    -10.87955829	     -4.03794690	     11.93879943	     55.04794003	      2.39070139	    -22.68192545	     47.46884980	     28.44993863	    -33.62643886	     22.24078061	    100.67285437
     35.91000000	      1.55440918	    180.46743523	      0.00000000	      0.47405129	      1.43584036	     -0.11074921	    -10.81764433	     -4.11509253	     11.86684443	     54.91180663	      2.40804365	    -22.82824062	     47.68066991	     27.63080672	    -33.35975754	     22.24774832	    100.75340152
     35.92000000	      1.63995936	    180.38553965	      0.00000000	      0.47385720	      1.43577042	     -0.11042240	    -10.66813418	     -4.08659372	     11.81774223	     54.70284012	      2.35896128	    -22.83946029	     47.83678592	     26.78630892	    -33.07063976	     22.24700673	    100.86017413
     35.93000000	      1.69935481	    180.37733813	      0.00000000	      0.47377581	      1.43590747	     -0.11006214	    -10.63739130	     -4.19338159	     11.71861516	     54.61335068	      2.38562425	    -23.04412350	     48.04949963	     26.05862880	    -32.85319758	     22.21132852	    100.92079584
     35.94000000	      1.76876168	    180.33707331	      0.00000000	      0.47365708	      1.43598809	     -0.10967786	    -10.58424653	     -4.26413744	     11.65235088	     54.49950382	      2.42284271	    -23.20740751	     48.30565054	     25.29813291	    -32.61305481	     22.22851020	    100.98239659
     35.95000000	      1.84642106	    180.28376267	      0.00000000	      0.47351611	      1.43603805	     -0.10930365	    -10.51367888	     -4.31427055	     11.59805257	     54.36453866	      2.45222713	    -23.33952271	     48.57048624	     24.54256516	    -32.37851752	     22.24586996	    101.04093015
     35.96000000	      1.92475190	    180.21864765	      0.00000000	      0.47336810	      1.43606216	     -0.10893920	    -10.42854454	     -4.34541000	     11.54698750	     54.22346134	      2.47186053	    -23.45228752	     48.84077432	     23.80180178	    -32.15165706	     22.26293783	    101.09567109
     35.97000000	      2.05798232	    180.03852396	      0.00000000	      0.47307114	      1.43584055	     -0.10861640	    -10.17806706	     -4.20895992	     11.56791941	     53.91605401	      2.42623649	    -23.35457897	     49.18194597	     22.99115750	    -31.93350518	     22.28160810	    101.14298245
     35.98000000	      2.11336462	    180.01655622	      0.00000000	      0.47302100	      1.43588939	     -0.10828140	    -10.12889106	     -4.26790370	     11.45994160	     53.85262159	      2.42669692	    -23.53356192	     49.39620101	     22.38116999	    -31.75854299	     22.25838041	    101.18481482
     35.99000000	      2.20810966	    179.86162005	      0.00000000	      0.47275689	      1.43584709	     -0.10796281	     -9.93639270	     -4.21645271	     11.47831397	     53.59837635	      2.44408816	    -23.52343315	     49.78784040	     21.60032512	    -31.56211772	     22.29065488	    101.20601652
     36.00000000	      2.26972433	    179.80339909	      0.00000000	      0.47264166	      1.43592343	     -0.10762689	     -9.87464132	     -4.27408841	     11.41511969	     53.50592204	      2.47293919	    -23.66463892	     50.05828383	     20.96821894	    -31.38184370	     22.31156486	    101.23682723
     36.01000000	      2.33481942	    179.72683439	      0.00000000	      0.47252240	      1.43595710	     -0.10730041	     -9.78531663	     -4.29607963	     11.36763444	     53.38722371	      2.49298293	    -23.76831047	     50.34827219	     20.33714198	    -31.20202934	     22.34202194	    101.26222533
     36.02000000	      2.41666152	    179.62835133	      0.00000000	      0.47237289	      1.43592844	     -0.10698891	     -9.67143762	     -4.29099968	     11.32825909	     53.24292986	      2.49564110	    -23.83604529	     50.64559178	     19.73899647	    -31.04262087	     22.37304545	    101.27463574
     36.03000000	      2.49407721	    179.39477138	      0.00000000	      0.47204120	      1.43575919	     -0.10678078	     -9.36345521	     -4.16586896	     11.31284830	     52.89590771	      2.50459943	    -23.85648743	     51.43148780	     19.18363633	    -31.23294443	     22.32797469	    101.01725404
     36.04000000	      2.52268091	    179.37673875	      0.00000000	      0.47206445	      1.43582084	     -0.10649364	     -9.34165552	     -4.20810143	     11.21501388	     52.85531234	      2.50400156	    -24.01281898	     51.64838712	     18.69288084	    -31.09578254	     22.34390833	    101.03963031
     36.05000000	      2.57105526	    179.29539119	      0.00000000	      0.47194635	      1.43590599	     -0.10620008	     -9.28015975	     -4.24286626	     11.18462523	     52.76115763	      2.53446977	    -24.10010021	     51.93475314	     18.13666620	    -30.93590533	     22.41493617	    101.05451685
     36.06000000	      2.66428028	    179.14953693	      0.00000000	      0.47176505	      1.43579588	     -0.10595299	     -9.11375461	     -4.17805047	     11.17195710	     52.57091378	      2.51615851	    -24.09492977	     52.29042509	     17.62835707	    -30.85622392	     22.45758692	    101.01511877
     36.07000000	      2.69459258	    179.05119212	      0.00000000	      0.47165784	      1.43582868	     -0.10572352	     -9.01953629	     -4.17485391	     11.11905975	     52.46241499	      2.50298783	    -24.16134800	     52.56973723	     17.16324632	    -30.76031521	     22.49751714	    100.99727577
     36.08000000	      2.73538762	    178.94399440	      0.00000000	      0.47156396	      1.43579554	     -0.10548742	     -8.92601478	     -4.15205716	     11.06707737	     52.35915106	      2.48147105	    -24.21573039	     52.82521218	     16.74755838	    -30.67035362	     22.55150378	    100.97845018
     36.09000000	      2.81261909	    178.70070015	      0.00000000	      0.47126982	      1.43562031	     -0.10541721	     -8.57762451	     -4.00846453	     11.06780488	     51.98057183	      2.43945876	    -24.15262804	     53.49515443	     16.33375237	    -30.89140237	     22.49028233	    100.69218887
     36.10000000	      2.82802155	    178.62970253	      0.00000000	      0.47125510	      1.43565316	     -0.10515551	     -8.57054723	     -4.02021738	     10.98595202	     51.96879608	      2.43185770	    -24.26933162	     53.73354733	     16.01843650	    -30.82253795	     22.58405386	    100.66720255
     36.11000000	      2.84914836	    178.53499687	      0.00000000	      0.47119519	      1.43566366	     -0.10495362	     -8.51826762	     -4.01359164	     10.93333463	     51.90406387	      2.41684189	    -24.33169674	     53.97181002	     15.68332257	    -30.75105452	     22.66433201	    100.64149404
     36.12000000	      2.91070792	    178.30554232	      0.00000000	      0.47086670	      1.43555799	     -0.10482586	     -8.30273215	     -3.88289502	     10.81864417	     51.33935055	      2.92785865	    -24.92857476	     58.19658130	     15.93128055	    -33.80302344	     22.25763769	     98.63557930
     36.13000000	      2.99291037	    178.25782112	      0.00000000	      0.47088787	      1.43545118	     -0.10456726	     -8.32335583	     -3.88152341	     10.71005930	     51.32113622	      2.84804817	    -25.00068225	     58.22575157	     15.83758307	    -33.78305396	     22.25221521	     98.64149856
     36.14000000	      2.96311094	    178.08649770	      0.00000000	      0.47078568	      1.43553197	     -0.10455260	     -8.13310220	     -3.82508481	     10.73627287	     51.15177902	      2.85246319	    -24.96221105	     58.51784264	     15.38112567	    -33.65367229	     22.43623698	     98.73679845
     36.15000000	      2.97742148	    177.91449226	      0.00000000	      0.47066038	      1.43547829	     -0.10447700	     -7.97792149	     -3.75365502	     10.69522866	     51.00017329	      2.77917406	    -24.93158800	     58.70800454	     15.15099915	    -33.65813738	     22.49378371	     98.80510871
     36.16000000	      3.03892071	    177.87232706	      0.00000000	      0.47072039	      1.43542790	     -0.10430373	     -7.99582023	     -3.75200513	     10.61018364	     50.98616912	      2.71542333	    -24.98651518	     58.73102317	     15.08050957	    -33.64328691	     22.49125915	     98.80900343
     36.17000000	      2.98740159	    177.69903896	      0.00000000	      0.47059769	      1.43540908	     -0.10432442	     -7.79626113	     -3.66653818	     10.54271764	     50.78225826	      2.62958228	    -24.93108560	     58.67889914	     14.82227526	    -33.41756146	     22.66660673	     98.66195277
     36.18000000	      2.94802716	    177.50010025	      0.00000000	      0.47055136	      1.43548080	     -0.10430825	     -7.62741877	     -3.63458207	     10.49772443	     50.72195769	      2.59417442	    -24.89935935	     58.70061205	     14.58192339	    -33.20380163	     22.74705125	     98.56700659
     36.19000000	      2.96781507	    177.36549659	      0.00000000	      0.47046877	      1.43541831	     -0.10426168	     -7.53026710	     -3.56633444	     10.44513885	     50.58197017	      2.50871847	    -24.83899153	     58.66411347	     14.47381947	    -33.05274494	     22.77879421	     98.46402958
     36.20000000	      2.98783761	    177.26163689	      0.00000000	      0.47051208	      1.43527460	     -0.10428028	     -7.41822210	     -3.46302397	     10.38628894	     50.45922334	      2.41592249	    -24.78501855	     58.61894387	     14.39697980	    -32.90757124	     22.81981538	     98.35976474
     36.21000000	      2.95770151	    177.07933197	      0.00000000	      0.47046469	      1.43529847	     -0.10423635	     -7.32980381	     -3.40555451	     10.36033434	     50.42862820	      2.37635673	    -24.74258015	     58.66906341	     14.25483855	    -32.72993076	     22.89454772	     98.28509956
     36.22000000	      2.97901710	    176.89662971	      0.00000000	      0.47030764	      1.43525233	     -0.10412767	     -7.27072394	     -3.30081374	     10.29061781	     50.11914252	      2.81487288	    -25.18857665	     62.12089357	     14.62043012	    -35.78566016	     22.74282270	     98.75082374
     36.23000000	      2.97301112	    176.78907864	      0.00000000	      0.47032585	      1.43518340	     -0.10417340	     -7.17549515	     -3.21811277	     10.24348810	     49.99061894	      2.73027074	    -25.12970846	     62.02394121	     14.56006294	    -35.65945568	     22.79395700	     98.63979048
