Simulation
nRows=101
nColumns=15
endheader
time  TH_x TH_y TH_z SC_y  SC_z  SC_x  AC_y  AC_z  AC_x  GH_y  GH_z  GH_yy  EL_x  PS_y
0.0  0.000000  0.000000  0.000000  -8.21893530323222  0.23715923143476392  6.133003872860175  52.38391606545871  0.5739463062142207  -18.639925346581023  56.369177071095116  14.688288064790772  -29.794806039613373  22.933334529890487  120.000000
0.02789999999999999  0.000000  0.000000  0.000000  -8.393005970905271  0.4109567539171736  5.673366970037403  52.35194748507609  1.1823682914051943  -18.292077113676452  52.87570077046447  14.48519911145447  -26.290663183765034  22.642540972804504  120.000000
0.05579999999999998  0.000000  0.000000  0.000000  -8.56294535889535  0.4917027309241041  5.140589747775645  52.35480066096788  1.695752949027608  -17.793571135932655  50.01548000362133  14.432997688468959  -23.48227963222034  22.43969326267099  120.000000
0.08369999999999997  0.000000  0.000000  0.000000  -8.701302100458753  0.4847114559684741  4.555876186750815  52.40086758560458  2.145815350699731  -17.21430742766612  47.90952174006214  14.524091158621236  -21.477490311458574  22.311223439742918  120.000000
0.11159999999999996  0.000000  0.000000  0.000000  -8.801330939807984  0.40928825312265704  3.9234486737047995  52.500945586714984  2.578247336209486  -16.618571587797394  46.59838458032999  14.761670343459004  -20.311267668343653  22.243238684581367  120.000000
0.13949999999999996  0.000000  0.000000  0.000000  -8.862642308822801  0.2936396435388544  3.258167625277326  52.64732380324537  3.0298620522391673  -16.057745889235687  45.99047990784227  15.134603057194932  -19.89289014099114  22.215657304884907  120.000000
0.16739999999999994  0.000000  0.000000  0.000000  -8.891560110472573  0.15795263033498771  2.584152457116109  52.8166601421849  3.5247035878087707  -15.561783120034887  45.88905288122273  15.632127586799724  -20.034338035781097  22.20671520499202  120.000000
0.19529999999999995  0.000000  0.000000  0.000000  -8.893291470331848  0.01557245642099351  1.9461763388204307  52.98645046636823  4.0599014211591475  -15.139266755262028  46.097142095844475  16.2381072160203  -20.547785258366087  22.19626187522052  120.000000
0.22319999999999993  0.000000  0.000000  0.000000  -8.867141882919293  -0.12266595842701151  1.3654850342573048  53.150032373929115  4.623394626119136  -14.782841793966082  46.46248400642757  16.950004906701608  -21.290880494478152  22.172553550251205  120.000000
0.25109999999999993  0.000000  0.000000  0.000000  -8.80913174023231  -0.24387767105509633  0.8568023968046647  53.31160450449444  5.195926410812879  -14.482793005680232  46.891558532238605  17.764907418734243  -22.17668283555204  22.128170567465688  120.000000
0.2789999999999999  0.000000  0.000000  0.000000  -8.720643018923813  -0.3386674646371676  0.4253601482139057  53.476378418592276  5.761374204218349  -14.226926396577447  47.32533173361758  18.684550575381163  -23.151640114491215  22.059228416997254  120.000000
0.3068999999999999  0.000000  0.000000  0.000000  -8.605965784709584  -0.40038030099647576  0.07510632074984425  53.64853991042276  6.30668691145017  -14.003449439641843  47.73514503464099  19.709485458499554  -24.188733449279542  21.96215058791196  120.000000
0.3347999999999999  0.000000  0.000000  0.000000  -8.471773971682431  -0.4244310071361122  -0.1932998199494671  53.831346961259634  6.822615361528796  -13.802864334174275  48.10910482236738  20.843320562037107  -25.275121990359096  21.83481226310839  120.000000
0.36269999999999986  0.000000  0.000000  0.000000  -8.329568646808648  -0.4094271379060463  -0.3804609106139541  54.02792756346606  7.30385770847303  -13.61876231048325  48.44389692545289  22.088918752132884  -26.403009572476247  21.674966729904774  120.000000
0.3905999999999999  0.000000  0.000000  0.000000  -8.188945987397899  -0.35390444446460917  -0.48781012592495393  54.24150991496464  7.746710600350399  -13.447865696718827  48.74035682932025  23.450036939155886  -27.566404057273044  21.4815294706783  120.000000
0.41849999999999987  0.000000  0.000000  0.000000  -8.061585148016984  -0.2605467687692742  -0.5160203364203686  54.47571550579441  8.151590841419372  -13.287025600851349  48.99759398512753  24.928895476556747  -28.755865436645394  21.25453122813099  120.000000
0.44639999999999985  0.000000  0.000000  0.000000  -7.95509323840267  -0.13082687326149303  -0.46607067128607876  54.73452661934355  8.520049412590023  -13.132785043650502  49.21414218897451  26.52579384913555  -29.96003383813504  20.996340225270263  120.000000
0.47429999999999983  0.000000  0.000000  0.000000  -7.876748403353792  0.03105556644830272  -0.33971199589394546  55.02253517695797  8.855767697636091  -12.982491318657129  49.38483238927787  28.236383750295072  -31.164307805717545  20.711221694080255  120.000000
0.5021999999999999  0.000000  0.000000  0.000000  -7.830813589248749  0.22335420434558154  -0.13774144560496873  55.34424410837617  9.163139611368235  -12.833017858405949  49.50438871137722  30.052174169998487  -32.353733031919624  20.406294914489724  120.000000
0.5300999999999998  0.000000  0.000000  0.000000  -7.820910655055118  0.44271943180380374  0.13740553131460417  55.70297762571456  9.448356940445064  -12.68098610898441  49.56674330916767  31.959173211208842  -33.51429963840706  20.08968332912584  120.000000
0.5579999999999998  0.000000  0.000000  0.000000  -7.851037466746509  0.6869606161068043  0.4842872484082964  56.10070741383329  9.715929346670784  -12.522992527868011  49.569187805612074  33.93727513840065  -34.635406273023804  19.770090986522565  120.000000
0.5858999999999998  0.000000  0.000000  0.000000  -7.926923945491987  0.9539769004420732  0.9004766162172575  56.538391269985276  9.970879561900402  -12.355702316246626  49.511772230401796  35.96403320023495  -35.71151096258394  19.455087709199606  120.000000
0.6137999999999998  0.000000  0.000000  0.000000  -8.05499004330127  1.2443334163430138  1.3864518337047442  57.015983782794  10.218087672530242  -12.175642112101034  49.39760891840598  38.01530676068676  -36.740961554091555  19.151091001751357  120.000000
0.6416999999999998  0.000000  0.000000  0.000000  -8.244949325333332  1.5606934845385985  1.941884696924588  57.53271861427333  10.462503412337934  -11.979066354635762  49.23311003599314  40.0680136546779  -37.72740231637364  18.862529772437586  120.000000
0.6695999999999998  0.000000  0.000000  0.000000  -8.505716379254517  1.9060065297705422  2.5682348532388755  58.08586176271084  10.70852245245993  -11.761912025638816  49.02524661371306  42.09860924876391  -38.67590113501626  18.59247430742857  120.000000
0.6974999999999998  0.000000  0.000000  0.000000  -8.847531198063537  2.284692541777401  3.2664147111788293  58.67221610550794  10.957709447368462  -11.51906758571841  48.7824012314977  44.08564491140266  -39.59402810485072  18.343719457310236  120.000000
0.7253999999999997  0.000000  0.000000  0.000000  -9.277009156950623  2.699526996197634  4.039210923382911  59.28686330932253  11.209004299556756  -11.244863398508533  48.5100210651834  46.00812105652315  -40.487324418395964  18.119872752685467  120.000000
0.7532999999999997  0.000000  0.000000  0.000000  -9.797421789198182  3.154393491150417  4.887306596142516  59.924383173159896  11.458181136016012  -10.932102928720346  48.21107547218423  47.84729216922071  -41.360388812254506  17.926373354213155  120.000000
0.7811999999999998  0.000000  0.000000  0.000000  -10.408473111455969  3.649751963205503  5.811696934560112  60.57904405644745  11.69816174796491  -10.57197468795015  47.88542482319336  49.585707435898705  -42.21542564168668  17.771505382597084  120.000000
0.8090999999999997  0.000000  0.000000  0.000000  -11.101956463611334  4.187359186474357  6.8088358934154565  61.245550622981746  11.920274356189832  -10.155431588589726  47.52913466060949  51.209684703064106  -43.05266410773226  17.66596154601451  120.000000
0.8369999999999997  0.000000  0.000000  0.000000  -11.869201564016782  4.765272714395007  7.876350689559264  61.920631832513884  12.114465544059295  -9.67294511026005  47.13762423551112  52.70895232437998  -43.87124475956134  17.622454978407642  120.000000
0.8648999999999997  0.000000  0.000000  0.000000  -12.69520022532297  5.381580868073078  9.007733648881617  62.60020173218345  12.272811470476697  -9.117361223360831  46.702445812864  54.07708555205372  -44.66796504445239  17.65298381779479  120.000000
0.8927999999999997  0.000000  0.000000  0.000000  -13.567720978650309  6.031490616634286  10.198137074609408  63.28239695913907  12.388067156870669  -8.483224665085737  46.21673086816266  55.31143213899295  -45.43907060496642  17.76773617061131  120.000000
0.9206999999999997  0.000000  0.000000  0.000000  -14.47148042362203  6.708688942879556  11.440006534717961  63.9643988242454  12.457754295031195  -7.769381330194414  45.671455828620736  56.41313580865712  -46.17886242180585  17.972927502688336  120.000000
0.9485999999999997  0.000000  0.000000  0.000000  -15.394883296908247  7.405981870439194  12.727755542294274  64.64506278874998  12.480856777057747  -6.97765875891624  45.06048504584302  57.386773424626064  -46.881441154040175  18.27034268951036  120.000000
0.9764999999999997  0.000000  0.000000  0.000000  -16.326525571869894  8.11370434978016  14.05408196106123  65.32195527124239  12.46026322711596  -6.114041661494381  44.377046469332356  58.23928771904759  -47.539972426428996  18.657282389883342  120.000000
1.0043999999999997  0.000000  0.000000  0.000000  -17.258009811367042  8.823186789430085  15.412420756051677  65.99246810947987  12.398120823713011  -5.187160695213354  43.61747811856879  58.97929707593511  -48.14834497868925  19.12624966603999  120.000000
1.0322999999999996  0.000000  0.000000  0.000000  -18.183727500595978  9.523806572181211  16.795059553219087  66.65245674720893  12.297835264669725  -4.208612293717523  42.779382359283545  59.61609424396398  -48.701269854878056  19.6657280101239  120.000000
1.0601999999999996  0.000000  0.000000  0.000000  -19.09816874480591  10.20818180010797  18.194482735029588  67.29775501129605  12.161271480999606  -3.1919855936242674  41.86563413093709  60.160127953091546  -49.195932417641664  20.259601816274703  120.000000
1.0880999999999996  0.000000  0.000000  0.000000  -19.99568238000473  10.86842202832977  19.602485499509275  67.92521598274213  11.99126188188178  -2.151069030090968  40.88583547945011  60.6227504641369  -49.63249981132914  20.889749020207752  120.000000
1.1159999999999997  0.000000  0.000000  0.000000  -20.869108691731103  11.498715338698617  21.010183004629482  68.53140945858107  11.789353637458337  -1.0997068973327566  39.856671633089384  61.01559734138817  -50.01434345577678  21.53569828974407  120.000000
1.1438999999999997  0.000000  0.000000  0.000000  -21.712563059601095  12.093800406325158  22.40702253848295  69.11254377221249  11.557934593797263  -0.05197592410805472  38.79780914399508  61.34826565628897  -50.345912833265956  22.17725600737787  120.000000
1.1717999999999995  0.000000  0.000000  0.000000  -22.519702694582588  12.650023879863635  23.781726860753444  69.66351424125848  11.29877370028524  0.9775699429138615  37.73139436215981  61.62837863906651  -50.63272840929144  22.795028916318675  120.000000
1.1996999999999995  0.000000  0.000000  0.000000  -23.28518314998308  13.165199531847307  25.122127198140433  70.18003328419115  11.015075710687725  1.9745690685449857  36.68033628503201  61.86089782158832  -50.87990835984528  23.37448620713616  120.000000
1.2275999999999996  0.000000  0.000000  0.000000  -24.00133676770053  13.63738088533514  26.415690581834035  70.65760428668888  10.709619722120125  2.924323028342374  35.668860641884685  62.04865157169066  -51.09294872016379  23.90584416463963  120.000000
1.2554999999999996  0.000000  0.000000  0.000000  -24.66091943018711  14.066388815664407  27.649788276454792  71.09226867997525  10.38585517839766  3.8117648019202464  34.72044418779367  62.192185946308825  -51.27703627000628  24.3844836044188  120.000000
1.2833999999999997  0.000000  0.000000  0.000000  -25.25537282405715  14.450708349854596  28.811148478931702  71.47899481514821  10.046354916385589  4.621150075828198  33.85798258935804  62.29146477199074  -51.4384489203689  24.809200199475626  120.000000
1.3112999999999995  0.000000  0.000000  0.000000  -25.777764326687755  14.789796434097207  29.88713241595811  71.81276188476238  9.693796629518111  5.335610442542112  33.10222581983555  62.34569821742469  -51.584281885963264  25.18112504110358  120.000000
1.3391999999999995  0.000000  0.000000  0.000000  -26.220330827237472  15.080971232275866  30.863760021933427  72.08840183559713  9.330262163354611  5.936253604655798  32.47196550725141  62.355028826261105  -51.72399216366137  25.502263505048045  120.000000
1.3670999999999995  0.000000  0.000000  0.000000  -26.57857408573156  15.319802984834443  31.729019401293975  72.30267900025245  8.959323314277272  6.403293605638638  31.983418570828142  62.31929944168479  -51.86826250188179  25.77503396529802  120.000000
1.3949999999999996  0.000000  0.000000  0.000000  -26.84802609598547  15.49806741713858  32.47056156492679  72.45611776874277  8.586776601653664  6.7167652546347885  31.648431968580077  62.2397462328966  -52.02842904260326  26.001508392243803  120.000000
1.4228999999999996  0.000000  0.000000  0.000000  -27.029341042482606  15.600257967897665  33.079949819448814  72.55860287220796  8.221220105323953  6.861339914827096  31.47503330310582  62.117035733606386  -52.214061044845025  26.183099930844573  120.000000
1.4507999999999994  0.000000  0.000000  0.000000  -27.12446835368233  15.606835372108348  33.548251002243354  72.63462247679034  7.873647754050815  6.830178579169098  31.4615574414998  61.9558452070438  -52.42979840222883  26.32055550803096  120.000000
1.4786999999999995  0.000000  0.000000  0.000000  -27.140291204510127  15.49968091523965  33.87115611343271  72.71273525738111  7.554506853518881  6.623847627648359  31.598588830050545  61.76256138365023  -52.673942857093785  26.4137235410108  120.000000
1.5065999999999995  0.000000  0.000000  0.000000  -27.073120306992557  15.277873967581485  34.04119182609463  72.79205393874162  7.268811796162393  6.243740435774711  31.87246275588569  61.548287412134435  -52.93820329836312  26.463239967349914  120.000000
1.5344999999999995  0.000000  0.000000  0.000000  -26.91483095629193  14.961767113935165  34.0546420609481  72.84262281169342  7.015779487780413  5.693365643113543  32.26777218722744  61.324326072277735  -53.20960889987175  26.47004624653698  120.000000
1.5623999999999996  0.000000  0.000000  0.000000  -26.659504387215513  14.568735407593469  33.90788467575597  72.84099501244363  6.795257283136438  4.98257596844332  32.76161971961065  61.10525493718621  -53.46870756020427  26.435291602864353  120.000000
1.5902999999999994  0.000000  0.000000  0.000000  -26.310430191954246  14.11451348688245  33.606265120903544  72.7792236544192  6.60779900811093  4.130694465401654  33.32724850928008  60.901914626049724  -53.694719062347005  26.35961298859128  120.000000
1.6181999999999994  0.000000  0.000000  0.000000  -25.873454312091297  13.605389651826972  33.15509023530643  72.65988777214965  6.456833433069941  3.16132920200856  33.93667170286739  60.723805930269506  -53.86750774013003  26.24483266974009  120.000000
1.6460999999999995  0.000000  0.000000  0.000000  -25.36283538062764  13.046043579141015  32.568303602092485  72.49097925881485  6.345820986098804  2.0987314662884136  34.565998262767  60.57353892232141  -53.973354620842855  26.093125949376994  120.000000
1.6739999999999995  0.000000  0.000000  0.000000  -24.793485425036604  12.43773300696492  31.856892581662088  72.28198731063252  6.279748128472501  0.9653936814931029  35.1941069379936  60.45237250675694  -54.004592248777584  25.908242432095957  120.000000
1.7018999999999995  0.000000  0.000000  0.000000  -24.186231557004852  11.782412932513633  31.037105412626545  72.0425888672762  6.260731236873212  -0.21847412256205262  35.806361282439326  60.35590740185094  -53.96109950909687  25.69384898212079  120.000000
1.7297999999999993  0.000000  0.000000  0.000000  -23.55882381844777  11.081705346540733  30.120147413921696  71.78051539523855  6.290850827249875  -1.4358190581342865  36.392021667057534  60.279140339540625  -53.84695209968063  25.45408253938546  120.000000
1.7576999999999994  0.000000  0.000000  0.000000  -22.929967949921064  10.339070703266463  29.120589383170742  71.50179663985887  6.368560310968293  -2.6715977783682727  36.94628473503572  60.21292549553963  -53.668555307077334  25.191737995058148  120.000000
1.7855999999999994  0.000000  0.000000  0.000000  -22.31263916292124  9.558515531401019  28.04780411925301  71.20983945677219  6.491213854266901  -3.9125238331329784  37.46709491157495  60.147866530666064  -53.430725709456084  24.908394887696293  120.000000
1.8134999999999994  0.000000  0.000000  0.000000  -21.71735168182167  8.746422170475789  26.913445230217924  70.90571289446848  6.65209745006307  -5.146113565631937  37.95544225949388  60.071202815325464  -53.13538914416226  24.603417829885192  120.000000
1.8413999999999995  0.000000  0.000000  0.000000  -21.150022164465504  7.910117185610282  25.724788121106016  70.58741974097728  6.84305963408828  -6.360847692325795  38.41304976486146  59.9695056343013  -52.780327551365  24.274956029022334  120.000000
1.8692999999999993  0.000000  0.000000  0.000000  -20.614008418108625  7.059160908631981  24.491694110595624  70.24998242390294  7.053109022816079  -7.545433619258488  38.84320298460002  59.82601988368478  -52.36117061753247  23.920908288003137  120.000000
1.8971999999999993  0.000000  0.000000  0.000000  -20.10737107659545  6.203114681396872  23.22219033513767  69.88747867120532  7.272434355282731  -8.686430817325089  39.25332342216593  59.625393551350996  -51.87394810042671  23.54264355766461  120.000000
1.9250999999999994  0.000000  0.000000  0.000000  -19.624005344953115  5.35329436713443  21.927967441862492  69.49425057590314  7.491681737550788  -9.769505676545004  39.6547620590446  59.35106567564285  -51.3176659005184  23.146615824773548  120.000000
1.9529999999999994  0.000000  0.000000  0.000000  -19.15678347974298  4.521705935823227  20.617722591642774  69.0645353768943  7.703165938582237  -10.782009854625143  40.05854407771836  58.98589037980904  -50.69467090742659  22.744190729159612  120.000000
1.9808999999999994  0.000000  0.000000  0.000000  -18.700869747783525  3.720043787234482  19.301149854497854  68.59217831281755  7.8992655887550205  -11.713413360636993  40.472396568991385  58.50964385695696  -50.00979807446388  22.35085223596494  120.000000
2.0087999999999995  0.000000  0.000000  0.000000  -18.25297529312515  2.9586736570595944  17.985377480854996  68.07235594270253  8.073277012492358  -12.554895633914404  40.89969237353918  57.90311036396295  -49.27013771461681  21.984430273424874  120.000000
2.0366999999999993  0.000000  0.000000  0.000000  -17.81294893703612  2.2460402017257137  16.67891002034191  67.50285040365935  8.219796226913836  -13.30034976697517  41.33866050837691  57.14758120320533  -48.482209673862386  21.662886889959506  120.000000
2.064599999999999  0.000000  0.000000  0.000000  -17.38149929890861  1.5887364641523  15.38860546805843  66.88464818422453  8.335436101985215  -13.945870834165387  41.78166638465689  56.22898833777656  -47.650811182310605  21.40152007350338  120.000000
2.0924999999999994  0.000000  0.000000  0.000000  -16.96118179177907  0.9898950781660265  14.121908862371598  66.22305889924287  8.419269219268857  -14.490418157552146  42.217042614815284  55.13701722172027  -46.77731013747498  21.21131496621844  120.000000
2.120399999999999  0.000000  0.000000  0.000000  -16.553478025099306  0.45034501457484916  12.884522527165101  65.52723781498446  8.47154344102934  -14.93491502487789  42.630546548763824  53.86803186162258  -45.86022786183184  21.097689198896738  120.000000
2.1482999999999994  0.000000  0.000000  0.000000  -16.160771714539838  -0.032639377508287916  11.682285688701068  64.80922470462467  8.49429252292674  -15.282538606757935  43.00763169555206  52.42302784069862  -44.89572267351763  21.060890107217027  120.000000
2.1761999999999992  0.000000  0.000000  0.000000  -15.78471747784027  -0.4624416782627652  10.519617372709863  64.0818544915546  8.4903068054813  -15.538021202480927  43.335822586507824  50.809131076837964  -43.88007676073628  21.095938409392073  120.000000
2.204099999999999  0.000000  0.000000  0.000000  -15.428276399997008  -0.844057077663865  9.400666239255228  63.35672617724525  8.464663371175355  -15.707466492482343  43.6065735299696  49.03698156547209  -42.811130196315034  21.19307849417319  120.000000
2.2319999999999993  0.000000  0.000000  0.000000  -15.094128897464207  -1.1807514357786835  8.328337492142955  62.642924087239095  8.42401936906696  -15.798205002435  43.81775594496576  47.1218184962052  -41.69090539451436  21.33756786690512  120.000000
2.259899999999999  0.000000  0.000000  0.000000  -14.785112374588  -1.4744156564084658  7.304515243572042  61.94717265767077  8.377327183639439  -15.818962053974387  43.97410277418456  45.08144374102233  -40.525946962586154  21.510962348006853  120.000000
2.2877999999999994  0.000000  0.000000  0.000000  -14.502539369485634  -1.7244905308504008  6.330488124356134  61.27391329212901  8.333412321975247  -15.77954367470372  44.08746786370221  42.93678213972431  -39.327761948891634  21.69281097415867  120.000000
2.315699999999999  0.000000  0.000000  0.000000  -14.246752655661199  -1.9294838331882296  5.407256698584812  60.62532179947652  8.300301391144382  -15.690400213139778  44.17297702026421  40.70950234499771  -38.10981511681113  21.86363451496047  120.000000
2.343599999999999  0.000000  0.000000  0.000000  -14.015621245421663  -2.0870268095327984  4.536238429130328  60.00206344135435  8.283145537401193  -15.56115505040782  44.24610501322527  38.422772741337575  -36.88526257275348  22.007922406127015  120.000000
2.3714999999999993  0.000000  0.000000  0.000000  -13.804347050978638  -2.1953246305699263  3.7182987493750477  59.40430116270295  8.284817341097087  -15.399390364559665  44.318005911514554  36.10043447630718  -35.663375601665535  22.117080237927226  120.000000
2.399399999999999  0.000000  0.000000  0.000000  -13.605146773803186  -2.2533170086819587  2.9541052066092632  58.832501828660696  8.304723649217928  -15.209841551139753  44.39309947012267  33.767509706293694  -34.44740303691117  22.190640385163178  120.000000
2.4272999999999993  0.000000  0.000000  0.000000  -13.408400326451112  -2.2620224457119438  2.242714358551269  58.28713146250266  8.340483763836895  -14.995110060770669  44.4667292952286  31.44910811641032  -33.23314438068889  22.234817194012756  120.000000
2.455199999999999  0.000000  0.000000  0.000000  -13.203880756220574  -2.2232849507358283  1.5824508489710396  57.768934729295275  8.387925352973014  -14.756934946498758  44.526826241289854  29.170924290931357  -32.010397467930275  22.25989631881105  120.000000
2.483099999999999  0.000000  0.000000  0.000000  -12.98271381441085  -2.14083328188532  0.970374337079354  57.277792283149594  8.443933508419992  -14.498001640849607  44.556700474285876  26.959059229590927  -30.766575213080003  22.276415795487996  120.000000
2.5109999999999992  0.000000  0.000000  0.000000  -12.738891520463852  -2.0187417546042004  0.4042691522540079  56.81242258981925  8.506937477329686  -14.22310768057233  44.54279369327932  24.840739156861446  -29.49405489756618  22.293076841451338  120.000000
2.538899999999999  0.000000  0.000000  0.000000  -12.471438089155532  -1.8627791598324537  -0.11768731497886949  56.36948058775687  8.577953655980064  -13.9415490927751  44.484216277804336  22.843667641981583  -28.200257441603412  22.314290097229744  120.000000
2.5667999999999993  0.000000  0.000000  0.000000  -12.184935226777629  -1.6787404657519773  -0.5939923714481129  55.94382590010048  8.659167245766607  -13.667616161209546  44.407494652896325  20.995673362360513  -26.921289319271057  22.34116053907095  120.000000
2.594699999999999  0.000000  0.000000  0.000000  -11.889719961118683  -1.4749845995199677  -1.0194837523279252  55.527592340989095  8.754069032814519  -13.420202311840317  44.37907154817002  19.32222634689866  -25.734331327755193  22.37165383386212  120.000000
2.622599999999999  0.000000  0.000000  0.000000  -11.601051735610653  -1.258920183024995  -1.3856252648668335  55.114563381717026  8.861772493295783  -13.222483350988272  44.52115736625942  17.844813559926493  -24.770962832558393  22.40461046935802  120.000000
2.650499999999999  0.000000  0.000000  0.000000  -11.331184615933443  -1.0367569686753277  -1.6872031051366112  54.712992994728495  8.970073329469692  -13.103638054423595  45.02840925038724  16.582385746553378  -24.23160635297695  22.443226783152653  120.000000
2.678399999999999  0.000000  0.000000  0.000000  -11.082703297210282  -0.8166641550007281  -1.9259178440907767  54.35294006867894  9.050130509964527  -13.08498480700138  46.17075547503685  15.553845796788249  -24.384488176522833  22.49997868801695  120.000000
2.7062999999999993  0.000000  0.000000  0.000000  -10.84770028155641  -0.6230817836185971  -2.1104719773552305  54.065204764105914  9.073927470470107  -13.15291554975903  48.20887036069416  14.771484698694868  -25.482781607994415  22.589735920219596  120.000000
2.734199999999999  0.000000  0.000000  0.000000  -10.619075807011475  -0.4883652109381252  -2.2464570380518576  53.85871521120114  9.027610710697441  -13.249608517072849  51.26608210930639  14.23586132220981  -27.636234499958828  22.728099074112734  120.000000
2.762099999999999  0.000000  0.000000  0.000000  -10.388653789578854  -0.44780321081597846  -2.3335337645566314  53.71869638838677  8.909473255542927  -13.299774712908272  55.254367659158625  13.928707549122107  -30.739515758566235  22.92346029734722  120.000000
2.789999999999999  0.000000  0.000000  0.000000  -10.142319441169693  -0.5235228736576483  -2.3705736626942513  53.63018833522053  8.721878473980208  -13.239048438159328  59.956927259321304  13.829402241055504  -34.55459564744678  23.184654040204787  120.000000
