Simulation
nRows=268
nColumns=15
endheader
time  TH_x TH_y TH_z SC_y  SC_z  SC_x  AC_y  AC_z  AC_x  GH_y  GH_z  GH_yy  EL_x  PS_y
0.0  0.000000  0.000000  0.000000  -22.05867625654463  6.170506972356531  -8.099336436765572  56.47735625561784  8.402268667739097  9.680746943594313  -156.57125623688347  3.432461064494494  -166.2315036623573  20.233112390374824  120.000000
0.04016479400749064  0.000000  0.000000  0.000000  -22.063279950196915  6.179876704004398  -8.097657444019442  56.44104208167309  8.441465394961313  9.662874828828372  -155.42885655575847  3.297389312282809  -167.476568343127  20.14743809820108  120.000000
0.08032958801498127  0.000000  0.000000  0.000000  -22.076845960878252  6.210020284838044  -8.088082887736123  56.32317281722636  8.560011500001982  9.606191232541523  -151.1399348528485  2.899318968377372  -172.08093799224386  19.897929660330735  120.000000
0.12049438202247191  0.000000  0.000000  0.000000  -22.108032287386  6.267481119099356  -8.071906150900809  56.111996793397076  8.748990513953652  9.509004201608048  -140.4727727412941  2.2956237370312227  176.70933714581577  19.50825430482658  120.000000
0.16065917602996255  0.000000  0.000000  0.000000  -22.17198418406751  6.3533982151330575  -8.061706169236775  55.803019912762856  8.989077164729252  9.37359788870213  -114.44446639806358  1.7204921771770016  149.90581322649726  19.009063052671685  120.000000
0.20082397003745317  0.000000  0.000000  0.000000  -22.287142992108155  6.463106652115356  -8.07024967467369  55.39820364655176  9.261759627007963  9.204335891019584  -70.46650205283032  1.8284343538575254  104.92399241260124  18.429176372596782  120.000000
0.24098876404494382  0.000000  0.000000  0.000000  -22.474043077568947  6.590704839328196  -8.104753385417432  54.90780597951224  9.550392847326304  9.011102335759366  -41.63774040309911  2.906116024725196  74.87681946299553  17.795750476098593  120.000000
0.28115355805243447  0.000000  0.000000  0.000000  -22.749589862285344  6.730053934601504  -8.16211987341808  54.34866922276349  9.844407218682358  8.803402338626803  -28.95522598757176  4.507172668418609  60.783648052071456  17.133006359180623  120.000000
0.3213183520599251  0.000000  0.000000  0.000000  -23.126172817361343  6.880822639070033  -8.231058960281317  53.74360631408395  10.140568665598254  8.58686728169003  -22.67221332567209  6.399945648825041  52.92358472848746  16.461507750219056  120.000000
0.3614831460674157  0.000000  0.000000  0.000000  -23.606692714242257  7.0436345571886525  -8.296519914483673  53.113271744771446  10.441753106041533  8.367355904783183  -19.10049530144692  8.505160732199702  47.638009254630326  15.796212160574052  120.000000
0.40164794007490634  0.000000  0.000000  0.000000  -24.18844305260825  7.218628112533621  -8.340265460054585  52.47616309209886  10.751445687791351  8.14774259453616  -16.891873203435882  10.78357720015757  43.60904598881694  15.147715093357194  120.000000
0.441812734082397  0.000000  0.000000  0.000000  -24.864663717706318  7.408138941779366  -8.340574892039223  51.84973601444676  11.068910493078805  7.926422004911207  -15.475409355641043  13.207188658921842  40.29726207130528  14.524100230581977  120.000000
0.48197752808988764  0.000000  0.000000  0.000000  -25.625096717215563  7.613379630287507  -8.276118555763084  51.2477938329585  11.391134855834753  7.700631548369072  -14.573061041265227  15.75056214723255  37.45526530615712  13.930404994063531  120.000000
0.5221423220973783  0.000000  0.000000  0.000000  -26.4572405873355  7.833778445186214  -8.128457270086907  50.68269182684387  11.713729438985387  7.4684919483346475  -14.02328242217186  18.388479960263428  34.95140522082659  13.369760881057402  120.000000
0.5623071161048689  0.000000  0.000000  0.000000  -27.346147266928437  8.067722476728612  -7.881751509199849  50.166182948391  12.029787701303144  7.228796866028638  -13.717673960728403  21.09465092854146  32.70525675185951  12.843995265038128  120.000000
0.6024719101123596  0.000000  0.000000  0.000000  -28.276595811041123  8.312063028069671  -7.5241811176721045  49.70943960210248  12.330855942630404  6.980994088248829  -13.575077001839002  23.84257600204532  30.66098817456899  12.35336996031247  120.000000
0.6426367041198502  0.000000  0.000000  0.000000  -29.233990684797362  8.563402704784712  -7.052046547880361  49.32194824330109  12.610311021978395  6.727512655725408  -13.531491229915316  26.606258139969295  28.775981137493194  11.896553183844356  120.000000
0.6828014981273408  0.000000  0.000000  0.000000  -30.20566445831251  8.818613128849025  -6.46815373914028  49.010940685465926  12.863342226046626  6.47287367228137  -13.53440253878984  29.362158377731472  27.014336700953628  11.470123804366727  120.000000
0.7229662921348314  0.000000  0.000000  0.000000  -31.181252329033065  9.075585520696439  -5.77741130806078  48.78128952398154  13.085165423011214  6.2209175057328014  -13.541152304234824  32.08994160534581  25.344498221171207  11.068604807237424  120.000000
0.7631310861423221  0.000000  0.000000  0.000000  -32.152774453415645  9.333040914359902  -4.9865698427704945  48.63463396105701  13.271918191733148  5.975050523394165  -13.51845608032867  34.772688710885106  23.73881294578534  10.684762927598623  120.000000
0.8032958801498127  0.000000  0.000000  0.000000  -33.11393684084904  9.590036438825196  -4.105717939932509  48.56867920328773  13.42238884313507  5.739317205090064  -13.442853142432263  37.396415746493766  22.17446639376295  10.31048128456615  120.000000
0.8434606741573034  0.000000  0.000000  0.000000  -34.058998811918975  9.845989017908657  -3.1482990212119644  48.577200768285344  13.537999104833174  5.518377701816019  -13.300397206732834  39.949628425018865  20.6343294475741  9.938064523744258  120.000000
0.883625468164794  0.000000  0.000000  0.000000  -34.98186547301867  10.1003294232755  -2.128887350059042  48.6502765134368  13.621197615837378  5.315678302389158  -13.086804773245003  42.422973385633426  19.108428822737995  9.56179793858993  120.000000
0.9237902621722847  0.000000  0.000000  0.000000  -35.875777968690095  10.35281464584069  -1.0630935660015943  48.77486025549604  13.674612345302151  5.132995981497043  -12.806502264837667  44.808377565518704  17.594461572569433  9.179302422862367  120.000000
0.9639550561797753  0.000000  0.000000  0.000000  -36.73315039767163  10.603263835106397  0.03208143486498371  48.9354190342568  13.700646921413504  4.97068233660208  -12.470484524927466  47.09830933235391  16.09743440927395  8.792883800220155  120.000000
1.004119850187266  0.000000  0.000000  0.000000  -37.545053062697036  10.850783633885856  1.1383839730985754  49.11558358801589  13.701091661794733  4.827672122385854  -12.094997826167734  49.28472297213267  14.629363951695609  8.409438145278546  120.000000
1.0442846441947566  0.000000  0.000000  0.000000  -38.30180990914192  11.093891617114272  2.2362091163487534  49.29940821909021  13.676549573817363  4.701802956073778  -11.699551622021046  51.3579440282998  13.207947931155845  8.03917301249013  120.000000
1.0844494382022472  0.000000  0.000000  0.000000  -38.99443535715905  11.330875986587506  3.30565877771384  49.472512766392114  13.626971986268513  4.589510443804675  -11.304452922427027  53.30725085035906  11.854098467458744  7.694321998603344  120.000000
1.1246142322097379  0.000000  0.000000  0.000000  -39.616496090753394  11.560636291374399  4.328172929518603  49.62336767175399  13.552074223865105  4.486259226048452  -10.92829273215144  55.12270763446334  10.589417629736456  7.3872424896347075  120.000000
1.1647790262172284  0.000000  0.000000  0.000000  -40.165332647155985  11.782309054011673  5.287374398680981  49.744302987434914  13.451104980379622  4.387100651008326  -10.585926628703385  56.79627609008284  9.43375299610141  7.129053045285647  120.000000
1.2049438202247191  0.000000  0.000000  0.000000  -40.64202087257734  11.994176880169718  6.169687453841638  49.83217157191208  13.32301408384292  4.286878542198122  -10.288238247183791  58.321485883746455  8.40408849022873  6.92834550224061  120.000000
1.2451086142322096  0.000000  0.000000  0.000000  -41.0506108261183  12.193738700186282  6.96456944288755  49.88824936639041  13.166558047085891  4.180197117123297  -10.042258455105893  59.69328683694562  7.513295337077713  6.790163948555047  120.000000
1.2852734082397004  0.000000  0.000000  0.000000  -41.39713947761287  12.377775334531513  7.665380034428051  49.91720760065138  12.981260851793024  4.062123267243062  -9.851313733783183  60.90832710636106  6.769458616653529  6.715505191850868  120.000000
1.325438202247191  0.000000  0.000000  0.000000  -41.688037789532366  12.542957726745206  8.270070523829393  49.92551195927346  12.76844143502057  3.9291666061019748  -9.715018268038655  61.965854032577944  6.174816737775347  6.7007633130406665  120.000000
1.3656029962546816  0.000000  0.000000  0.000000  -41.92913562672932  12.686575473520007  8.78139480359673  49.91968657915264  12.532282587047357  3.780264656728918  -9.629921599659655  62.86826934449528  5.725690414065887  6.737451082530117  120.000000
1.4057677902621724  0.000000  0.000000  0.000000  -42.12550431339038  12.806769109348098  9.206654122793706  49.90518566936081  12.280206883353731  3.616840785524817  -9.5905255268144  63.621120941765554  5.412575340873849  6.812251536975645  120.000000
1.4459325842696629  0.000000  0.000000  0.000000  -42.28158285993706  12.902627034003944  9.556837912949543  49.88579183725335  12.022464804229653  3.4424067123503748  -9.590231004252312  64.23235552937703  5.221121229503704  6.907945396050911  120.000000
1.4860973782771536  0.000000  0.000000  0.000000  -42.40124200674474  12.97414899780082  9.845114122853312  49.863659052463206  11.77103361116223  3.2616979817044993  -9.621916578288777  64.71102177516767  5.133283931500172  7.00544537485451  120.000000
1.5262621722846441  0.000000  0.000000  0.000000  -42.48769279915103  13.022014693813786  10.084973156478865  49.83969319955034  11.538034008128012  3.079805771966063  -9.678146598819806  65.06560230913736  5.129019248214764  7.086506525030763  120.000000
1.5664269662921348  0.000000  0.000000  0.000000  -42.54309742107955  13.047298660454057  10.28832408112799  49.814101275317775  11.334085375610078  2.9013510722861446  -9.75117262020611  65.3020752754663  5.187759349331766  7.136694665292708  120.000000
1.6065917602996254  0.000000  0.000000  0.000000  -42.56805359796602  13.051111846146158  10.46380598462261  49.78694077434308  11.166894151210391  2.729947401264385  -9.83290838023567  65.42216454265771  5.28993411054641  7.1479518901971  120.000000
1.646756554307116  0.000000  0.000000  0.000000  -42.56102742981057  13.034255113394533  10.615517219021564  49.75850306675371  11.04039157440248  2.5679444664992883  -9.915060121862565  65.42172534842092  5.417885004342189  7.120133302638546  120.000000
1.6869213483146068  0.000000  0.000000  0.000000  -42.51783299634946  12.9967906364632  10.742582368298002  49.729629993052754  10.95435613509055  2.416365516169176  -9.989525326979749  65.28964520166791  5.556476554811378  7.061086626446966  120.000000
1.7270861423220973  0.000000  0.000000  0.000000  -42.43129809133954  12.937903835658789  10.83917315989511  49.70195086355509  10.904608257788173  2.2750233228432455  -10.048795564365955  65.00736026585861  5.693061999351642  6.985458541061838  120.000000
1.767250936329588  0.000000  0.000000  0.000000  -42.2913638749439  12.855913906901078  10.89504923643473  49.677950577123006  10.883505980813789  2.142845890752495  -10.086402480209443  64.54925059926428  5.8175314679574885  6.912885884730773  120.000000
1.8074157303370786  0.000000  0.000000  0.000000  -42.08587013389586  12.748484536786073  10.896181370134332  49.66098580589616  10.88051008861072  2.0181343415149824  -10.0972395666714  63.883922562875966  5.922333222736104  6.865763583972524  120.000000
1.8475805243445693  0.000000  0.000000  0.000000  -41.801910142438885  12.612817035651435  10.82562255538779  49.65499159349659  10.882674146525915  1.8987958885266882  -10.077829550453837  62.97619575726813  6.003114281033085  6.866880694043882  120.000000
1.8877453183520598  0.000000  0.000000  0.000000  -41.42768816228717  12.445714862756027  10.664474762595141  49.66405075939295  10.875084802831038  1.7824938501139524  -10.026348331416004  61.79008061491046  6.059721847931355  6.93679582386181  120.000000
1.9279101123595506  0.000000  0.000000  0.000000  -40.95431567410804  12.2438090645824  10.393266069164188  49.691445956572295  10.84171844178292  1.66703668170947  -9.942341695414854  60.292429264764614  6.097814604101322  7.091041156186507  120.000000
1.9680749063670413  0.000000  0.000000  0.000000  -40.37679343194465  12.003611799001243  9.994053535827682  49.7390360927236  10.76680353610899  1.5507763364582188  -9.826214837224649  58.45738545095008  6.1305904517214715  7.33749271264453  120.000000
2.008239700374532  0.000000  0.000000  0.000000  -39.69359447421027  11.721861809658408  9.453001547651757  49.80694224414705  10.636673742564474  1.4344106002171866  -9.677489126495969  56.27080178164502  6.179679669775775  7.674112281217436  120.000000
2.0484044943820225  0.000000  0.000000  0.000000  -38.90488796745236  11.395462719342413  8.76295257078345  49.89437443344049  10.442216601218508  1.3226785101490302  -9.493283063115724  53.734118818060374  6.275146931790558  8.087913188778137  120.000000
2.0885692883895133  0.000000  0.000000  0.000000  -38.01186643642599  11.021644413646221  7.925471188242263  50.0007485732418  10.180730027151947  1.225486460904141  -9.268919072972807  50.86596180756585  6.4551216102755165  8.55530252781279  120.000000
2.1287340823970036  0.000000  0.000000  0.000000  -37.01759304370559  10.59856428188554  6.951710427182709  50.126413572342855  9.856681276451125  1.1571095541710692  -9.00043884927057  47.70138273495458  6.764383940983273  9.044552343582929  120.000000
2.1688988764044943  0.000000  0.000000  0.000000  -35.92848764496974  10.126170821016427  5.862098454390481  50.27349511769089  9.482309080055451  1.1337784928002288  -8.687624760738945  44.28919811293759  7.251714111981991  9.521250915200813  120.000000
2.209063670411985  0.000000  0.000000  0.000000  -34.75610526489783  9.607666123420536  4.685595393043563  50.446502357163745  9.077320865097755  1.1716345379543698  -8.337278400110181  40.68845022345439  7.967013579453376  9.955287262806486  120.000000
2.2492284644194758  0.000000  0.000000  0.000000  -33.51843803544411  9.05071563999208  3.458262837410194  50.652177628574975  8.667962543860202  1.2841954900426322  -7.965617518064724  36.96486310121753  8.95790863689559  10.328050586297845  120.000000
2.2893932584269665  0.000000  0.000000  0.000000  -32.239913726003316  8.468403861293515  2.219934875930282  50.89871282246205  8.28568594662033  1.4810403644522203  -7.599731817679938  33.18688589072924  10.266944721490143  10.63821519367497  120.000000
2.329558052434457  0.000000  0.000000  0.000000  -30.95016750821314  7.878873680981073  1.01154432774506  51.194718154231424  7.963274555593041  1.765838186730274  -7.276785493062828  29.42159905958651  11.928483784673142  10.903220416240368  120.000000
2.3697228464419475  0.000000  0.000000  0.000000  -29.68081534468407  7.3029413888132435  -0.13024077507733298  51.54828927332607  7.73282614561597  2.136969152959869  -7.0401406100799955  25.73089370818764  13.965273581115108  11.156589635058605  120.000000
2.4098876404494383  0.000000  0.000000  0.000000  -28.46164382045694  6.7619262393882815  -1.1743381563700117  51.96800544391196  7.620994091132114  2.5876480683630634  -6.927460987389852  22.168388616875212  16.379063232379078  11.440918978783467  120.000000
2.450052434456929  0.000000  0.000000  0.000000  -27.319382447915142  6.275633916690545  -2.0862796151974607  52.46129286906378  7.638361944300169  3.100438018579998  -6.95847058926977  18.77633590291669  19.140737195065615  11.79831588694103  120.000000
2.4902172284644193  0.000000  0.000000  0.000000  -26.280291153801993  5.860148548847521  -2.8334308577284024  53.02845698893201  7.780905973365739  3.649733216159536  -7.132296034304271  15.583223455606598  22.18979206415388  12.259791455874764  120.000000
2.53038202247191  0.000000  0.000000  0.000000  -25.37205564570677  5.527394950885222  -3.397000010893641  53.65943008959781  8.035645212903471  4.209267955125515  -7.4278775397127275  12.602416168144133  25.437978465261565  12.836902845368849  120.000000
2.5705468164794008  0.000000  0.000000  0.000000  -24.620750179961025  5.283438293507958  -3.772398555694965  54.33522668632702  8.379685567091856  4.753532024731223  -7.803397615924888  9.832452314576862  28.774007093158282  13.520327190295074  120.000000
2.6107116104868915  0.000000  0.000000  0.000000  -24.047819540290714  5.125549789277057  -3.969976999194705  55.02914356542272  8.783025680045947  5.263031583699724  -8.200880189447668  7.259268987424357  32.0735816555103  14.28312297575214  120.000000
2.650876404494382  0.000000  0.000000  0.000000  -23.665740127159452  5.042022247848591  -4.018363716404171  55.70780543416618  9.214717438015562  5.729407607066881  -8.594151327621267  4.860149842138779  35.25314231003542  15.086361372855604  120.000000
2.6910411985018725  0.000000  0.000000  0.000000  -23.472515267393206  5.016312563620133  -3.957385518848014  56.33949696594226  9.644432400387121  6.147655441072682  -9.187592067667616  2.610153723477457  38.47330602537951  15.886228152418774  120.000000
2.7312059925093632  0.000000  0.000000  0.000000  -23.448908462268378  5.033991456219776  -3.828141109689551  56.90303981533461  10.046010515564204  6.511145584854733  -14.98109478865898  0.49125931178800936  46.70638691073666  16.640296254932586  120.000000
2.771370786516854  0.000000  0.000000  0.000000  -23.55977789516806  5.0856037736850235  -3.6667594143420614  57.3862318105544  10.40286058493638  6.8151329937612966  175.74005540867006  1.520844344892639  -141.77339248988045  17.311832234408133  120.000000
2.8115355805243447  0.000000  0.000000  0.000000  -23.7639985955947  5.163989802777905  -3.4989891145129515  57.78158868354984  10.708861848581652  7.058304772301892  175.49397028402325  3.412093640234014  -139.4826051108786  17.87193398413915  120.000000
2.851700374531835  0.000000  0.000000  0.000000  -24.024956179446633  5.262612064065387  -3.3380126101696717  58.08845093666677  10.966702923221746  7.243201246393298  176.55135992482644  5.182897441267485  -138.6838322888056  18.302691275058336  120.000000
2.8918651685393257  0.000000  0.000000  0.000000  -24.314477795495353  5.374804611260455  -3.186897085521355  58.31325621478349  11.184957937806391  7.377666459071047  178.0098921857972  6.823308997083835  -138.4662976207344  18.6001480387607  120.000000
2.9320299625468165  0.000000  0.000000  0.000000  -24.612245719637105  5.493059340352029  -3.0430303159671963  58.46445557531972  11.373791470621203  7.474710957544659  179.6384794377117  8.324739516824922  -138.59251417534372  18.771383850469103  120.000000
2.972194756554307  0.000000  0.000000  0.000000  -24.903419068373083  5.611862416014467  -2.9024989003750608  58.55063454075462  11.541615638775854  7.545743801172231  -178.66218786055285  9.681316469982328  -138.9578277023579  18.831299394060707  120.000000
3.012359550561798  0.000000  0.000000  0.000000  -25.178125601542177  5.73041152318051  -2.76449325487641  58.58146999973531  11.694180222339526  7.596210680570382  -176.95213068112216  10.89129337252375  -139.49625788757487  18.800421986343938  120.000000
3.0525243445692882  0.000000  0.000000  0.000000  -25.43013122151599  5.849497918970309  -2.631859714812782  58.566418329078175  11.833771962628438  7.629066373244944  -175.27837594551755  11.957151482497993  -140.1534336601555  18.702423413016334  120.000000
3.092689138576779  0.000000  0.000000  0.000000  -25.65512119632909  5.967900097380596  -2.5092065732077704  58.51327237489307  11.959699951322746  7.6474166347970955  -173.6754106751359  12.883723878363272  -140.88659506626175  18.56172648810053  120.000000
3.1328539325842697  0.000000  0.000000  0.000000  -25.850514124905875  6.083463549481578  -2.4013791538039  58.428744795567106  12.069389232221624  7.654575520677356  -172.17091527223232  13.676526898989179  -141.65916753616736  18.400137075522775  120.000000
3.1730187265917604  0.000000  0.000000  0.000000  -26.014709876289032  6.194167383577705  -2.3128323424436865  58.31930340186913  12.159639651001045  7.653519337622805  -170.78931816356055  14.340439893594292  -142.43771625927522  18.234951542986554  120.000000
3.2131835205992507  0.000000  0.000000  0.000000  -26.14650872553652  6.298309936524563  -2.2474087472776825  58.19135792257304  12.2276027293037  7.6467974702050645  -169.5524617771891  14.879084781306311  -143.1913147511922  18.0775473614452  120.000000
3.2533483146067415  0.000000  0.000000  0.000000  -26.245209013678362  6.394600426807102  -2.2082728979122233  58.05072147621351  12.270980726645371  7.636936879967281  -168.47820084494194  15.294837640568293  -143.89315189545724  17.933486800701882  120.000000
3.293513108614232  0.000000  0.000000  0.000000  -26.310341664031704  6.4819226659787805  -2.197999488524532  57.902775133905045  12.288112563366703  7.62621917139303  -167.58038989002952  15.588894925912014  -144.5207252960008  17.80371729511823  120.000000
3.333677902621723  0.000000  0.000000  0.000000  -26.3417265020386  6.55939511823632  -2.2184853400140305  57.75225059284937  12.277764598571883  7.6167330309495185  -166.86839874014234  15.761540047575284  -145.0564035970594  17.68636629101103  120.000000
3.3738426966292137  0.000000  0.000000  0.000000  -26.339777997356194  6.626308813070662  -2.2709557786517154  57.603047188248254  12.239105122161858  7.610272361425226  -166.34725312493828  15.812376950723092  -145.48742006204088  17.57848460490837  120.000000
3.414007490636704  0.000000  0.000000  0.000000  -26.305444891154124  6.68214695616191  -2.355969825900544  57.45807696190397  12.171729506344345  7.608292825059065  -166.01745835568997  15.740510557017021  -145.80609002896574  17.477398971751178  120.000000
3.4541722846441947  0.000000  0.000000  0.000000  -26.240272724647994  6.726714979083821  -2.4734679387846663  57.31924772777815  12.075784940278652  7.611956041347948  -165.8757581127684  15.544631382020572  -146.00913922043202  17.38149181482062  120.000000
3.4943370786516854  0.000000  0.000000  0.000000  -26.1461997255683  6.760011842801019  -2.6226525233638256  57.18789727450954  11.952080311336818  7.6218998229225265  -165.9172399551818  15.222815633234598  -146.09591418839818  17.29017415732034  120.000000
3.534501872659176  0.000000  0.000000  0.000000  -26.025385468595577  6.78237172098357  -2.801400870199939  57.064861761300335  11.802000282832491  7.638482502056281  -166.1363637142406  14.772397064134108  -146.0674351608931  17.20337666430188  120.000000
3.574666666666667  0.000000  0.000000  0.000000  -25.880230250036252  6.794439544263924  -3.0064810824762227  56.95028587802372  11.628010262038789  7.662121526463149  -166.52823311000594  14.18993876967036  -145.92518909699848  17.12049928919026  120.000000
3.614831460674157  0.000000  0.000000  0.000000  -25.71347314804657  6.797100954532819  -3.233929597875071  56.84341864207515  11.433658959297063  7.693358034965799  -167.08791573624606  13.471503789292095  -145.6716763779405  17.039377938607956  120.000000
3.654996254681648  0.000000  0.000000  0.000000  -25.528082002172013  6.7915377534129355  -3.4797389991645855  56.74277062034072  11.223064476723629  7.732442467093563  -167.80924722378322  12.613284364231552  -145.31143048003264  16.95525707421262  120.000000
3.6951610486891386  0.000000  0.000000  0.000000  -25.3268256372234  6.778666365420098  -3.740905234541667  56.6463417476759  11.000246635942549  7.779017323845585  -168.68378361349934  11.612626925035153  -144.85162866550527  16.860924122698094  120.000000
3.7353258426966294  0.000000  0.000000  0.000000  -25.111245093392853  6.7585995647687485  -4.016309276263797  56.55288185971181  10.767898540301823  7.832360688526628  -169.70960479441644  10.46893072932232  -144.29333095418062  16.74744573899526  120.000000
3.7754906367041197  0.000000  0.000000  0.000000  -24.8805207713212  6.729370440674668  -4.307222060081185  56.46232955929244  10.526783549137052  7.892176780026486  -170.90142140781109  9.184354332795229  -143.62155423284844  16.605657176510963  120.000000
3.8156554307116104  0.000000  0.000000  0.000000  -24.631017670460903  6.6870767648240435  -4.617458170891415  56.37567727880839  10.275863817760827  7.95875033073063  -172.3037717330625  7.764043300663235  -142.7920945562499  16.426920778919136  120.000000
3.855820224719101  0.000000  0.000000  0.000000  -24.356936743017208  6.626868999699452  -4.9526170635158735  56.29345619961421  10.013177866251937  8.032288079117668  -174.0113057515093  6.215828518187847  -141.71133265104953  16.203405049559017  120.000000
3.895985018726592  0.000000  0.000000  0.000000  -24.051354681710524  6.54396124333151  -5.3193052635668705  56.21432628630527  9.737261528733313  8.112624095768517  -176.25207536911358  4.549805980052041  -140.15279317338118  15.928505286598455  120.000000
3.9361498127340826  0.000000  0.000000  0.000000  -23.706842915549444  6.435006774512407  -5.723490453892614  56.13558275857845  9.447792045177884  8.199101327276205  -179.8933126702274  2.7789073412900533  -137.2512534608015  15.597905100366994  120.000000
3.976314606741573  0.000000  0.000000  0.000000  -23.319138374881177  6.298106494969278  -6.168245857665528  56.05384050315017  9.147467148551188  8.290414450886043  166.6667520299739  0.9344828443791805  -124.6131503918322  15.211749066541415  120.000000
4.016479400749064  0.000000  0.000000  0.000000  -22.892818689884276  6.133724485002818  -6.651109755140844  55.96569778781181  8.844702907738597  8.385419152788167  18.919039669045826  1.121245694164403  22.260114715270177  14.776357124717101  120.000000
4.056644194756554  0.000000  0.000000  0.000000  -22.440536270630307  5.946562239406776  -7.1620290793837205  55.86858914077001  8.555797796700393  8.483076719557245  8.164912082175412  3.160618502219745  32.0525311725788  14.304608716066216  120.000000
4.096808988764045  0.000000  0.000000  0.000000  -21.977603749709118  5.747167968552381  -7.683611188866688  55.761194678174505  8.305358414224646  8.581634898071245  5.249879286726722  5.3202494123748645  33.9042176807127  13.814727683498822  120.000000
4.136973782771536  0.000000  0.000000  0.000000  -21.519809829890605  5.5512939839957225  -8.193034745436405  55.64309839983838  8.1239813725443  8.678002040831883  3.7236878813715015  7.591758752946478  34.25447357250349  13.328449167531767  120.000000
4.177138576779027  0.000000  0.000000  0.000000  -21.081524479405385  5.377198927450827  -8.664873024271586  55.51376666031737  8.043237769442477  8.768313113016433  2.7590286222903315  9.979771986399777  33.92475778817015  12.868446449784027  120.000000
4.217303370786517  0.000000  0.000000  0.000000  -20.676007196694137  5.242265893120387  -9.073458419374537  55.372194386389275  8.09015628918682  8.84819599892536  2.0999302405400435  12.484505026456757  33.17065067521832  12.455688269562973  120.000000
4.257468164794007  0.000000  0.000000  0.000000  -20.31663096377685  5.158886991480856  -9.395689052906883  55.216718571120225  8.283010509370905  8.913660147801417  1.629644668894077  15.098554509561657  32.11313890183622  12.10581093430695  120.000000
4.297632958801498  0.000000  0.000000  0.000000  -20.016173498687657  5.133044518738529  -9.613646356906564  55.0440425572832  8.62987851530962  8.963268341586135  1.2811397747288167  17.80544136226776  30.828070825557194  11.826408060117734  120.000000
4.337797752808989  0.000000  0.000000  0.000000  -19.787536506373176  5.166330250035882  -9.716496814568833  54.85266909680986  9.129723594080232  8.996286271129877  1.0187811078151023  20.5824740718528  29.36323094541144  11.615840867820202  120.000000
4.377962546816479  0.000000  0.000000  0.000000  -19.641921027225454  5.257210415222963  -9.699078167727802  54.64403797715261  9.773159474243595  9.010777969082827  0.8233043025501021  23.40434136979173  27.752181548125527  11.46311512906156  120.000000
4.41812734082397  0.000000  0.000000  0.000000  -19.588344759106832  5.399474522607369  -9.559881317198581  54.41887416971319  10.54302669300302  9.006589176163576  0.680430977562218  26.244951203556926  26.02581390343694  11.350802358242623  120.000000
4.458292134831461  0.000000  0.000000  0.000000  -19.633488500997732  5.582521141280883  -9.300485409156758  54.17888348169255  11.415119272482716  8.986733900034146  0.5841370016764579  29.078902532780052  24.209039035557893  11.259088206294543  120.000000
4.4984569288389515  0.000000  0.000000  0.000000  -19.77832347278764  5.792454114939329  -8.923672804600285  53.92896028400787  12.360445964389955  8.956129769949783  0.5371443570613125  31.88217686244929  22.321733437551316  11.171154611376073  120.000000
4.538621722846442  0.000000  0.000000  0.000000  -20.017797339869553  6.013389090764587  -8.432667718357413  53.676970872036605  13.347842194049413  8.920735566597669  0.5445431650254245  34.634023429675764  20.384455278748757  11.075962173996004  120.000000
4.578786516853933  0.000000  0.000000  0.000000  -20.344096385010424  6.231863392134132  -7.832215228411169  53.43223770316438  14.346133429226608  8.885408895220218  0.608162096397033  37.31722276277664  18.422636024377027  10.969060069109796  120.000000
4.618951310861423  0.000000  0.000000  0.000000  -20.74867956658573  6.438732481442943  -7.129650510189516  53.20230900042135  15.325911642981959  8.85233312565501  0.725170221514083  39.91864213006233  16.466077529489898  10.85228962152054  120.000000
4.659116104868914  0.000000  0.000000  0.000000  -21.222726513580778  6.628457263167188  -6.333587948077495  52.99228828941538  16.261033459345523  8.82133315519844  0.8896256191079163  42.42893213599666  14.545223652750654  10.731582535595594  120.000000
4.699280898876404  0.000000  0.000000  0.000000  -21.757685317217298  6.798748407477448  -5.453152657159559  52.805395063429124  17.129258983436113  8.790305800293948  1.0939539649293095  44.84205330763862  12.687849199422198  10.615955790166591  120.000000
4.739445692883895  0.000000  0.000000  0.000000  -22.345782936697756  6.949628585771532  -4.497753130599803  52.64312900526206  17.912535572683126  8.755710365088238  1.329145145639017  47.154155496632306  10.916950589714993  10.515830846329255  120.000000
4.779610486891386  0.000000  0.000000  0.000000  -22.979732364832167  7.082659227580734  -3.4771518677210698  52.50629380856587  18.59734941757844  8.713009264540716  1.58597027056847  49.362630844837554  9.248654824663785  10.441667683168351  120.000000
4.8197752808988765  0.000000  0.000000  0.000000  -23.651909263522587  7.2003068571069635  -2.4014695361870384  52.39568277455045  19.175384464245468  8.657291989976155  1.8558835814488914  51.465725842181094  7.691291309781846  10.403128817996548  120.000000
4.859940074906367  0.000000  0.000000  0.000000  -24.35416385608236  7.305153120458059  -1.281035713593825  52.31153904647426  19.643714901270126  8.584244065082482  2.1306495829604617  53.46230869697879  6.246310206611912  10.408367150670673  120.000000
4.900104868913858  0.000000  0.000000  0.000000  -25.077979454985623  7.399386044653095  -0.12646830889700608  52.25339617339259  20.004213485021854  8.490769163862709  2.4021717469631874  55.35160282041912  4.909650862921019  10.463548298515601  120.000000
4.940269662921349  0.000000  0.000000  0.000000  -25.81409676184584  7.484396001956435  1.050979207980551  52.220203827023994  20.262756315949446  8.375405720141723  2.662850965623207  57.132797477716885  3.67327713879124  10.572575977549429  120.000000
4.980434456928839  0.000000  0.000000  0.000000  -26.55211386225276  7.56056122650574  2.239014780947001  52.21066037714622  20.428190056594826  8.238253954751706  2.906046193767967  58.80477611243687  2.5268300717476846  10.736884590645795  120.000000
5.020599250936329  0.000000  0.000000  0.000000  -27.280395935996662  7.6272492467058886  3.4238960407501646  52.22335616126722  20.511219911188228  8.080686981853471  3.1264614981152006  60.36578699439484  1.4594204613915995  10.95510662317089  120.000000
5.06076404494382  0.000000  0.000000  0.000000  -27.9863007696197  7.6829842036100295  4.590195224592572  52.2567776275165  20.523317343074797  7.904763996375884  3.3204924158784386  61.813353273735665  0.4613464326786937  11.222754121752255  120.000000
5.100928838951311  0.000000  0.000000  0.000000  -28.6566178501883  7.725840552374085  5.720887764096645  52.30918283665432  20.475960750838677  7.712660003031631  3.486548221357881  63.14436289140344  -0.4743209181136345  11.531765810173669  120.000000
5.1410936329588015  0.000000  0.000000  0.000000  -29.278142497615455  7.7539520347206805  6.797639065147029  52.37844625603534  20.380055025622617  7.506075699200226  3.6252184295110492  64.35529881555478  -1.3504880876247753  11.87011314746727  120.000000
5.181258426966292  0.000000  0.000000  0.000000  -29.838407974664076  7.76587431347282  7.801211562490656  52.461980566307574  20.24536900907176  7.285800001698228  3.739340468414646  65.44227621776415  -2.1652358682280832  12.221603108969388  120.000000
5.221423220973783  0.000000  0.000000  0.000000  -30.32628529416364  7.76079711612399  8.711736556317003  52.556832321333104  20.08004024042141  7.0513626978193145  3.833860205624771  66.40086400613735  -2.911855259821861  12.566255133470783  120.000000
5.261588014981274  0.000000  0.000000  0.000000  -30.732363801782405  7.738590540231203  9.509075982096311  52.66000764142455  19.890200353541065  6.8009996255788545  3.915439658720976  67.22555973897185  -3.5797721521357277  12.881665997611629  120.000000
5.301752808988764  0.000000  0.000000  0.000000  -31.04910079236837  7.699655148110726  10.1732079007376  52.769098694802196  19.679746131997042  6.532008006794687  3.9918534246122057  67.90921955579131  -4.156512482365596  13.145469592913289  120.000000
5.341917602996254  0.000000  0.000000  0.000000  -31.270849199584028  7.64468428074878  10.684749559394453  52.88300098151596  19.450198782039877  6.241608224979514  4.071136266502755  68.44250553788147  -4.630080582910496  13.338512533764424  120.000000
5.382082397003745  0.000000  0.000000  0.000000  -31.39401497630643  7.574327371972164  11.025507080435194  53.00243391303571  19.200706802784705  5.928004004635368  4.1604914243187885  68.81362428115264  -4.99135809984889  13.448105090627374  120.000000
5.422247191011236  0.000000  0.000000  0.000000  -31.41743508161757  7.488813339322558  11.179196091240458  53.12996359356688  18.92821603895045  5.5914614787611185  4.2651328289825985  69.00829844958784  -5.235845909611481  13.470631761080162  120.000000
5.4624119850187265  0.000000  0.000000  0.000000  -31.34260640769751  7.387443080332655  11.132230308968845  53.269324342344866  18.627916918074977  5.235263962018464  4.387694674062678  69.01017868748008  -5.364375379963582  13.412652944229546  120.000000
5.502576779026217  0.000000  0.000000  0.000000  -31.173598422490368  7.268041606011726  10.874653501272837  53.42411469043551  18.293975839359575  4.866503851582175  4.528552947759652  68.80173510586269  -5.382462955529067  13.289960768219219  120.000000
5.542741573033708  0.000000  0.000000  0.000000  -30.9169570805791  7.126690577061118  10.401010405017802  53.596168630573565  17.920577053034187  4.496406127864841  4.686662343324833  68.36576081473612  -5.2984920086413085  13.124664806256234  120.000000
5.582906367041199  0.000000  0.000000  0.000000  -30.581789911966162  6.957926503600238  9.711328055388536  53.78411033785013  17.50326209514581  4.1399552639533725  4.86017122886093  67.68719154920005  -5.121225964297259  12.941176291706423  120.000000
5.623071161048689  0.000000  0.000000  0.000000  -30.17991470042975  6.755626836949638  8.8120368469533  53.98261785515861  17.040306717013824  3.814896197760354  5.046858279036283  66.75496249904015  -4.8573519634161935  12.761980929200428  120.000000
5.66323595505618  0.000000  0.000000  0.000000  -29.72553914941988  6.51429904013038  7.716642747446906  54.18284296962589  16.533846956284133  3.5401259649675794  5.2443123976721155  65.5634142713857  -4.509642461063429  12.604216151734908  120.000000
5.70340074906367  0.000000  0.000000  0.000000  -29.23430836645469  6.230560439918607  6.445828718076156  54.373716102645886  15.990343580195933  3.3337211094589856  5.450010243537609  64.11258025487321  -4.076194747618495  12.477776154110058  120.000000
5.743565543071161  0.000000  0.000000  0.000000  -28.72209095746007  5.904279725175811  5.026729604722135  54.543873724069414  15.420151922413341  3.2107718871661994  5.661110303776984  62.407475417751066  -3.5508121730755478  12.38522653900576  120.000000
5.7837303370786515  0.000000  0.000000  0.000000  -28.20337883015683  5.539151332269835  3.4918588403433337  54.68337943794844  14.836394717786156  3.1818916738708674  5.874394957911157  60.45671061092799  -2.9242911090935295  12.323131732555705  120.000000
5.823895131086142  0.000000  0.000000  0.000000  -27.689319254662045  5.1429511064519495  1.8775918944152548  54.7857328197425  14.253733294802117  3.2520489741644214  6.0865160598052315  58.271249611897744  -2.1861153576741907  12.284177647048443  120.000000
5.864059925093633  0.000000  0.000000  0.000000  -27.186492493984602  4.727367210540458  0.22247195391526703  54.84909975949086  13.687036330894776  3.4202043653585936  6.294372972527075  55.863381195851645  -1.3263992269388591  12.259382434080612  120.000000
5.904224719101124  0.000000  0.000000  0.000000  -26.69691308496261  4.3068630165920965  -1.434610264267789  54.87576793554183  13.150420748809474  3.6796783256819396  6.494481782008806  53.24616830187609  -0.33682584071393457  12.239902689014633  120.000000
5.944389513108614  0.000000  0.000000  0.000000  -26.219722391006904  3.897692264022374  -3.055751258634568  54.871015580044464  12.656166609707947  4.0189230335568356  6.682370612717154  50.433841819360396  0.7888210463932831  12.218263963844525  120.000000
5.984554307116105  0.000000  0.000000  0.000000  -25.753123750571703  3.5170479213667636  -4.605247164194935  54.841508189217976  12.21479893268814  4.4228614271828555  6.851816094186611  47.44328706245893  2.05501108630031  12.188911879404902  120.000000
6.024719101123596  0.000000  0.000000  0.000000  -25.2963545987618  3.182672575027527  -6.050185416567842  54.79391618840882  11.835436212872164  4.873922873936632  6.994096636033442  44.296353940931596  3.4651384315576963  12.148898465319077  120.000000
6.064883895131086  0.000000  0.000000  0.000000  -24.850913782743117  2.9122223565088063  -7.3610935820035746  54.735308677672734  11.525781596976273  5.353681308478749  7.09949980325361  41.02182414298438  5.021260909701856  12.098432209348005  120.000000
6.1050486891385765  0.000000  0.000000  0.000000  -24.419728877605  2.7207419619458477  -8.51228730621686  54.67384493221176  11.291599289584637  5.8443872718610494  7.160521253552369  37.65590540283889  6.722379382502323  12.042066934574681  120.000000
6.145213483146067  0.000000  0.000000  0.000000  -24.00938405470352  2.618871327053946  -9.483249123222759  54.617937147724746  11.136548229779436  6.332071166491313  7.172973421432524  34.24109724470426  8.564248578177695  11.988741766386923  120.000000
6.185378277153558  0.000000  0.000000  0.000000  -23.63071726335877  2.612447594529641  -10.26122200054434  54.5751038584217  11.062205586291771  6.805436220076577  7.134448379067972  30.82413027582827  10.540676674114481  11.949951236270048  120.000000
6.225543071161049  0.000000  0.000000  0.000000  -23.29673496757281  2.701816472834845  -10.840299585880661  54.55322461340449  11.065573872226924  7.253067576557018  7.043145191907984  27.450661153276904  12.644683358907516  11.938635166237574  120.000000
6.265707865168539  0.000000  0.000000  0.000000  -23.020046331614342  2.8807152309894093  -11.221933826420027  54.56099318544117  11.139017546518403  7.665206652539191  6.89833309548564  24.159844172923815  14.868487660769913  11.968474717562144  120.000000
6.30587265917603  0.000000  0.000000  0.000000  -22.809760195387124  3.1357437222397087  -11.413881833180849  54.60605979895362  11.272016685565491  8.034755055414184  6.698823341315915  20.981738295696694  17.20454397955128  12.052858153900587  120.000000
6.346037453183521  0.000000  0.000000  0.000000  -22.6707452521445  3.4483419762679084  -11.427473002962255  54.69407495323248  11.452341830486281  8.357789077347329  6.441041808723727  17.937872059341657  19.64682101169638  12.203558217250272  120.000000
6.386202247191012  0.000000  0.000000  0.000000  -22.602654466568975  3.79828315084481  -11.277016487045955  54.829234438932346  11.667931190710043  8.633032544623905  6.119389603074349  15.042881940962985  22.189579744591473  12.429880027860742  120.000000
6.426367041198501  0.000000  0.000000  0.000000  -22.601146147716367  4.16487730688938  -10.97902916910634  55.01407250600933  11.907441286791945  8.860547195576142  5.723341983483042  12.306041889783662  24.828942587751907  12.737108980739205  120.000000
6.466531835205992  0.000000  0.000000  0.000000  -22.659590476916158  4.528031786460147  -10.551550676819396  55.24486864242835  12.160184314893796  9.043032663198652  5.217521419434376  9.731551874274219  27.58144061011732  13.124299587318218  120.000000
6.506696629213483  0.000000  0.000000  0.000000  -22.770331957651738  4.871085793758216  -10.013989819534519  55.51169513988119  12.417119862194582  9.184170699579662  4.5020689291466836  7.320182284132355  30.522953627742922  13.583370902538482  120.000000
6.546861423220974  0.000000  0.000000  0.000000  -22.92422717308822  5.183047117655594  -9.388497325722161  55.80531472046684  12.670890934747105  9.283351750527272  3.3216519998356406  5.071643329092514  33.87889295396331  14.098445131068488  120.000000
6.587026217228464  0.000000  0.000000  0.000000  -23.11197046477204  5.457954944332346  -8.6995889115476  56.114962346882265  12.91355280934815  9.338329128461458  0.7462502896966844  2.98494203097291  38.54576291574617  14.646483739876318  120.000000
6.627191011235955  0.000000  0.000000  0.000000  -23.32816439530493  5.692823186695472  -7.971839792907073  56.42602711330915  13.135703415831  9.347756287587424  -10.487127451842444  1.0748517292647117  51.7516917020377  15.199363568334388  120.000000
6.667355805243446  0.000000  0.000000  0.000000  -23.569319946530538  5.887151768150708  -7.22892359553431  56.72472670700116  13.328292461773747  9.31034572231475  -150.38721406667892  0.836141385844927  -166.52808996399122  15.7270408953232  120.000000
6.707520599250937  0.000000  0.000000  0.000000  -23.83174406578589  6.042042270902919  -6.492176911163246  57.00058401239052  13.484164984349482  9.226222408486876  -165.48169205759447  2.452683543978677  -149.79427254421105  16.201965074732584  120.000000
6.747685393258427  0.000000  0.000000  0.000000  -24.10996975007185  6.158699855386576  -5.780117988820029  57.24717682064378  13.59906457062788  9.098558885388194  -168.37616966837652  3.9752088400404295  -145.46143077352156  16.602584008981978  120.000000
6.787850187265918  0.000000  0.000000  0.000000  -24.39612995754503  6.2390014126540985  -5.107484426035127  57.46175966025446  13.67114292191711  8.934510496272225  -169.59802188724015  5.381946271733315  -143.01117810695868  16.916503133807606  120.000000
6.828014981273408  0.000000  0.000000  0.000000  -24.680978283533168  6.285321582339974  -4.482900090928333  57.644462118454356  13.70082310784975  8.743147538087895  -170.27975359076598  6.6761826130088515  -141.3080744259797  17.142078162807586  120.000000
6.868179775280899  0.000000  0.000000  0.000000  -24.954129318668453  6.299340023347785  -3.908042038086127  57.798038451172246  13.692259968267926  8.53315187217031  -170.7061797626317  7.8595821376049475  -140.0529571342153  17.288045964197636  120.000000
6.908344569288389  0.000000  0.000000  0.000000  -25.207933691488552  6.285068661467086  -3.380025963398908  57.928199910302155  13.651852342763815  8.311400079605363  -170.9747645327532  8.931364806641916  -139.1273845322373  17.371437800041647  120.000000
6.94850936329588  0.000000  0.000000  0.000000  -25.438560836067442  6.249217989433767  -2.895729049174519  58.04073349775009  13.585794576204796  8.082483903698853  -171.13896782215397  9.89096402158069  -138.45531784307295  17.41235507129377  120.000000
6.988674157303371  0.000000  0.000000  0.000000  -25.643699326502695  6.197245913148192  -2.4532645613563258  58.1394403235623  13.499019105853947  7.850087521729999  -171.23151051297447  10.739432323698457  -137.98214386641106  17.429154100117348  120.000000
7.028838951310862  0.000000  0.000000  0.000000  -25.822547998364804  6.133074407659544  -2.0511858385155235  58.2266016607402  13.394824071837615  7.617902220762045  -171.273910677617  11.47906200892785  -137.66558870124524  17.436265377090315  120.000000
7.069003745318352  0.000000  0.000000  0.000000  -25.975144272668828  6.059806635433459  -1.6882123536378901  58.30367086290923  13.275383862052216  7.389188734429925  -171.28035823462832  12.112795882489884  -137.47179657508866  17.443351937452384  120.000000
7.109168539325843  0.000000  0.000000  0.000000  -26.10193970282105  5.979928195593973  -1.363160204753351  58.371620545912734  13.142148493813686  7.1666023353344315  -171.25763920913573  12.643842639181228  -137.37539722205761  17.455486845369975  120.000000
7.149333333333334  0.000000  0.000000  0.000000  -26.203828763645827  5.89571932993317  -1.0748489663152363  58.4311168829398  12.996039682775514  6.952218639140438  -171.2067376806096  13.075419260117572  -137.3579550703854  17.474236830211975  120.000000
7.189498127340824  0.000000  0.000000  0.000000  -26.281823046811947  5.809269388214815  -0.8219813155403592  58.48267933725292  12.837664748627745  6.747596683295741  -171.12272679286608  13.41048487382123  -137.40809637841664  17.498888978877282  120.000000
7.229662921348314  0.000000  0.000000  0.000000  -26.33706626895969  5.722629059702026  -0.6029880830272917  58.52673666123924  12.667513752912097  6.55389294108484  -170.9959883705042  13.651528602113398  -137.5203390642483  17.52765148687578  120.000000
7.269827715355805  0.000000  0.000000  0.000000  -26.370718697141722  5.637852705051637  -0.415884341825171  58.56370721019443  12.486159681720164  6.372096366866563  -170.81305363706323  13.800352451269585  -137.6943646311028  17.558604541005348  120.000000
7.309992509363296  0.000000  0.000000  0.000000  -26.383927600439335  5.556947611980851  -0.2581072989394849  58.59393202832656  12.29440138648341  6.203213318214402  -170.55764027089228  13.857955132411073  -137.9339872142351  17.59026910232346  120.000000
7.3501573033707865  0.000000  0.000000  0.000000  -26.37788532248285  5.481885378096689  -0.1264910506817959  58.617671351338544  12.093322607526316  6.048417106402813  -170.21115594979884  13.824516774008163  -138.24668617327623  17.62195384808529  120.000000
7.390322097378277  0.000000  0.000000  0.000000  -26.353762215136207  5.414575857785612  -0.017345272691591473  58.635107553792835  11.884289031375376  5.909035787383038  -169.75200534261722  13.699540982506509  -138.64429309433172  17.65378038286685  120.000000
7.430486891385768  0.000000  0.000000  0.000000  -26.312786888829656  5.356987765950966  0.07336822927310671  58.646336217536806  11.668927639055095  5.7864515298403365  -169.154209895961  13.482095543779705  -139.14453613579272  17.68660071675188  120.000000
7.470651685393259  0.000000  0.000000  0.000000  -26.256326861539964  5.311270523772021  0.14971786055203382  58.65128318045287  11.44898535109523  5.681994616329983  -168.38576933892674  13.171219929334175  -139.77270861354282  17.721667408201174  120.000000
7.5108164794007495  0.000000  0.000000  0.000000  -26.1856709054341  5.279472428182754  0.21527740952826963  58.65007260969388  11.225976599357136  5.596627151884608  -167.40671423376372  12.766578255987776  -140.56385279418743  17.76041960968694  120.000000
7.550981273408239  0.000000  0.000000  0.000000  -26.101989598255365  5.263652207823408  0.27240777601603117  58.6435814825008  11.000638288763753  5.530930268077179  -166.1701681585981  12.269243683657905  -141.5620447583167  17.804227201427537  120.000000
7.59114606741573  0.000000  0.000000  0.000000  -26.00630518543159  5.265526892272557  0.322001610290527  58.63318402925899  10.77290155469139  5.485498831951215  -164.62125127872397  11.68201070065237  -142.82170676603826  17.853897245374625  120.000000
7.631310861423221  0.000000  0.000000  0.000000  -25.89922972777343  5.285743218247192  0.36394883753571977  58.6204630540698  10.542312233580516  5.4611446888687745  -162.69106221195835  11.00935925660611  -144.4139215652915  17.908894161093027  120.000000
7.6714756554307115  0.000000  0.000000  0.000000  -25.78095012813884  5.3239405004253415  0.3971495148144326  58.607463444158455  10.308019041854443  5.458930398734279  -160.29179003575555  10.257830986122846  -146.4320081271061  17.96676540799751  120.000000
7.711640449438202  0.000000  0.000000  0.000000  -25.651226211959607  5.378462216756153  0.4188789695061608  58.59670743759333  10.068061908724207  5.480169870169372  -157.3078313711354  9.437066585800821  -149.00081108608057  18.02291339220884  120.000000
7.751805243445693  0.000000  0.000000  0.000000  -25.50907678870701  5.445888388163937  0.4241996799350205  58.59119748603064  9.818746539087948  5.5258874041512165  -153.5807462532009  8.561041356172343  -152.29216804954982  18.070621253797807  120.000000
7.791970037453184  0.000000  0.000000  0.000000  -25.35324228207877  5.521604069197038  0.4057911491699948  58.59405277759175  9.554556788773064  5.596445077584125  -148.89023776873327  7.6487988011671675  -156.54449698636262  18.101108082654097  120.000000
7.8321348314606745  0.000000  0.000000  0.000000  -25.181984414877586  5.599671225911051  0.35433486450584084  58.60797242033084  9.268685299990485  5.691300629861714  -142.9215228647639  6.725352910779578  -162.09606337712705  18.10352947689201  120.000000
7.872299625468165  0.000000  0.000000  0.000000  -24.994133728438552  5.672751225620608  0.259372594983878  58.63355454313793  8.953589163013818  5.809477899590227  -135.22027363557712  5.823677169374241  -169.43082651493722  18.06471365938165  120.000000
7.912464419475655  0.000000  0.000000  0.000000  -24.791288496175383  5.7328520165512815  0.11091470234649575  58.66673067647293  8.601746966436464  5.950345439515537  -125.14416835964974  4.988300847848005  -179.2277036732019  17.968419335189687  120.000000
7.952629213483146  0.000000  0.000000  0.000000  -24.575285925382857  5.772155967140047  -0.0987748583984925  58.702193129570844  8.20908721911468  6.112942756402455  -111.85804222825857  4.282815399635005  167.64045335203582  17.79851517153055  120.000000
7.9927940074906365  0.000000  0.000000  0.000000  -24.34543962492051  5.78681976976213  -0.373062011348919  58.74234487221077  7.777794472649708  6.296189747905792  -94.69861508969035  3.7984988387363483  150.4818240054373  17.544734909029486  120.000000
8.032958801498127  0.000000  0.000000  0.000000  -24.099306012135994  5.7769243074790095  -0.707208108392897  58.79484120851593  7.316482391651798  6.500931716789226  -74.39266000741799  3.646524704601437  130.00610558161182  17.204894003633843  120.000000
8.073123595505619  0.000000  0.000000  0.000000  -23.83511402696925  5.743164060727008  -1.086896220778458  58.86783012749632  6.8410822723630575  6.7309592343822295  -53.97262093819619  3.901608140619411  109.2355324625512  16.78313141023771  120.000000
8.113288389513109  0.000000  0.000000  0.000000  -23.554033267841604  5.690126623085477  -1.49006055513437  58.97078787590878  6.374350984995674  6.991559891339405  -36.610210740825615  4.5485583190678485  91.335589458861  16.28950412349339  120.000000
8.153453183520599  0.000000  0.000000  0.000000  -23.260080549247604  5.629101250128661  -1.889786062707644  59.11345844496301  5.94349426311043  7.286333087013787  -23.209481400191134  5.523549943023991  77.20723977516204  15.740266734510765  120.000000
8.19361797752809  0.000000  0.000000  0.000000  -22.95900076606611  5.575798953073264  -2.2574352255490577  59.30447587319225  5.577161200444229  7.615211252463916  -13.135146652161492  6.77587165367102  66.21507395864597  15.156004179467143  120.000000
8.23378277153558  0.000000  0.000000  0.000000  -22.658622501033097  5.5477913989823  -2.565274028188133  59.549686114700464  5.302415201293234  7.976105809887224  -5.505120872051074  8.280729704839471  57.47985313039982  14.559487025388693  120.000000
8.273947565543072  0.000000  0.000000  0.000000  -22.3689980438609  5.56203350793099  -2.788344401742647  59.8503327817246  5.141356831922868  8.366722020162172  0.3607912139703538  10.028748522083333  50.329034368950985  13.972682199235091  120.000000
8.314112359550561  0.000000  0.000000  0.000000  -22.099885274441736  5.63130225200233  -2.907345534645267  60.20202259951672  5.10885436805019  8.786073987460139  4.914029390152949  12.012344769559391  44.32603015485695  13.415576727181051  120.000000
8.354277153558053  0.000000  0.000000  0.000000  -21.858967359878044  5.762682361969008  -2.9129129490090473  60.60172936963887  5.210588125573145  9.232623189731152  8.47508723089453  14.21809909470188  39.17182666837427  12.903786878077417  120.000000
8.394441947565543  0.000000  0.000000  0.000000  -21.650755496947905  5.958361852054908  -2.803660421904014  61.04942944843086  5.441703780623159  9.702408974588504  11.283288510638965  16.625400183197822  34.65442947496839  12.447197182855684  120.000000
8.434606741573035  0.000000  0.000000  0.000000  -21.4781673316341  6.2158499564841545  -2.5815652523172217  61.540487952706  5.788346163671292  10.1919890253814  13.50351723058119  19.205925072243225  30.640553154908556  12.050566047815495  120.000000
8.474771535580524  0.000000  0.000000  0.000000  -21.344870514157567  6.529040295771313  -2.2507130848922463  62.06687274252809  6.23033193209452  10.697017998463101  15.256441968734617  21.927026192108862  27.041745322845916  11.712174028949669  120.000000
8.514936329588014  0.000000  0.000000  0.000000  -21.25259777507808  6.889252970207918  -1.816703589228791  62.61903186833566  6.744795633060874  11.211455487481297  16.63320321015272  24.753429391458397  23.797455342070712  11.42628578749176  120.000000
8.555101123595506  0.000000  0.000000  0.000000  -21.201874207280618  7.2867838817547925  -1.2857220124642492  63.18621705580469  7.307314862720887  11.730549341610146  17.70622113007814  27.648863482690953  20.86251991981178  11.185609939228826  120.000000
8.595265917602996  0.000000  0.000000  0.000000  -21.192837256071698  7.71203188712857  -0.6636313912386232  63.758011658604225  7.893484971387578  12.250597440762498  18.537657111866597  30.578872660971097  18.19729850024789  10.983163800226988  120.000000
8.635430711610487  0.000000  0.000000  0.000000  -21.223774957975895  8.15495694070111  0.043641960017701195  64.32351332525371  8.480940238452312  12.766844782009091  19.176471575730368  33.512329805911264  15.769632599053852  10.813299683659377  120.000000
8.675595505617977  0.000000  0.000000  0.000000  -21.29405190057048  8.606397779715547  0.829482582079372  64.87121575426958  9.049331715899532  13.273419653363131  19.658418056752378  36.420580472412205  13.55410208340834  10.670960557308103  120.000000
8.715760299625469  0.000000  0.000000  0.000000  -21.40412307265055  9.058718960323747  1.6859304773780266  65.38873342516855  9.580243806388571  13.763842735948568  20.010070722833426  39.27699467250507  11.52925967319319  10.552756811608553  120.000000
8.755925093632959  0.000000  0.000000  0.000000  -21.55331672935786  9.50530818078299  2.603873592545688  65.86526268580086  10.058441821312766  14.231725566180861  20.252549899711862  42.05718372465639  9.675066439753646  10.456373861847425  120.000000
8.79608988764045  0.000000  0.000000  0.000000  -21.73924428534736  9.940739724408118  3.573208963527349  66.29269361723098  10.472617729594015  14.671561725696666  20.40276428492855  44.73909937799314  7.972901388030659  10.380350699000749  120.000000
8.83625468164794  0.000000  0.000000  0.000000  -21.9581727193752  10.360693198264833  4.582554068469795  66.66501250154056  10.815326872137916  15.07873163201855  20.473423714517  47.3028354420269  6.406358617166489  10.323935306240308  120.000000
8.87641947565543  0.000000  0.000000  0.000000  -22.20536307175584  10.761760126776833  5.618993633171418  66.97853658314777  11.08283380070081  15.449581133783987  20.474300327661354  49.73060579616119  4.961196167766148  10.28628487625135  120.000000
8.916584269662922  0.000000  0.000000  0.000000  -22.47487350799836  11.14120355750737  6.668520899120638  67.2320468782438  11.275129397196386  15.781426880116792  20.41377835981014  52.007328593185555  3.6252549916998698  10.266363952882049  120.000000
8.956749063670411  0.000000  0.000000  0.000000  -22.759937169195556  11.49691943817882  7.716909023188672  67.42693507826203  11.396073570687491  16.072844142433024  20.3001567224878  54.12126392816658  2.3886045289451827  10.262457359029673  120.000000
8.996913857677903  0.000000  0.000000  0.000000  -23.053598880242248  11.827365041851305  8.750559208438084  67.56666330499462  11.453073436338101  16.323730856628597  20.142271094032157  56.06449858290555  1.244154450268432  10.272031041038716  120.000000
9.037078651685393  0.000000  0.000000  0.000000  -23.349466066069105  12.131410404417423  9.757074992820522  67.65623891709933  11.456387195943138  16.535155867194756  19.949735820511837  57.832837475946306  0.1880871469270613  10.291506915583097  120.000000
9.077243445692885  0.000000  0.000000  0.000000  -23.642260131745818  12.4081220758947  10.72551867253663  67.70148000744639  11.417960973551208  16.70914774547364  19.73293715884913  59.42545510684251  -0.780084660169483  10.316428480226062  120.000000
9.117408239700374  0.000000  0.000000  0.000000  -23.928086672879413  12.656711595179376  11.646667777649661  67.70857936443919  11.350384909884975  16.84825532273358  19.502763836669484  60.8442601783032  -1.658112175762842  10.341874831475838  120.000000
9.157573033707866  0.000000  0.000000  0.000000  -24.204184918526924  12.876470062349322  12.512920370801174  67.68388630458286  11.265751064532475  16.95522558245434  19.270369175044653  62.09308822303405  -2.4420578577651475  10.363147376451893  120.000000
9.197737827715356  0.000000  0.000000  0.000000  -24.46814848229392  13.066475602905959  13.317790401565649  67.634114873994  11.174518660974153  17.032750249141742  19.0470391362321  63.176346096251926  -3.1277104299259317  10.37657788732888  120.000000
9.237902621722846  0.000000  0.000000  0.000000  -24.717048719520797  13.225531713469753  14.055162392935022  67.56659309002224  11.08446061386218  17.083218992954546  18.844102663480474  64.09763536093674  -3.711820922735752  10.380193708668525  120.000000
9.278067415730337  0.000000  0.000000  0.000000  -24.946807474873797  13.35217553617709  14.718830206746416  67.48942508587204  11.000107330061232  17.108383343391715  18.67263208386138  64.85855594033087  -4.19298089290566  10.37398397575893  120.000000
9.318232209737827  0.000000  0.000000  0.000000  -25.151884812877565  13.444800137102133  15.30224944625485  67.41126065442756  10.922710930599111  17.109123391408477  18.54312529901687  65.45804891161741  -4.571789428027516  10.359562879241203  120.000000
9.358397003745319  0.000000  0.000000  0.000000  -25.325388898959083  13.501824941172996  15.798661393010962  67.34077055491075  10.850685848191741  17.085300363020856  18.46507724033492  65.8921216737156  -4.850483098863979  10.339408052014035  120.000000
9.398561797752809  0.000000  0.000000  0.000000  -25.45961596107751  13.52180794187301  16.201306389389984  67.2857853049277  10.780347207005013  17.035728785897856  18.44655134304151  66.15407326786938  -5.0320843935410915  10.315775946043136  120.000000
9.4387265917603  0.000000  0.000000  0.000000  -25.546662632183622  13.5035824147538  16.50372369019086  67.25239599305445  10.706535213905429  16.958259595452944  18.493798282319798  66.23473784124529  -5.119442585806025  10.28982661355241  120.000000
9.47889138576779  0.000000  0.000000  0.000000  -25.578890200481325  13.446298431977283  16.699625978430454  67.24442208052584  10.623204090613596  16.849862589904593  18.611212453823725  66.12281869729487  -5.114355883112637  10.26100837446726  120.000000
9.519056179775282  0.000000  0.000000  0.000000  -25.54950934897586  13.349496565505612  16.782511346630834  67.26274951721257  10.524406440601965  16.70712477302177  18.801158955998403  65.8052487978278  -5.017004893687148  10.22711562929267  120.000000
9.559220973782772  0.000000  0.000000  0.000000  -25.45327407273548  13.212979645964616  16.745854832364046  67.30464202339822  10.40487945374034  16.526771461167932  19.063621011342878  65.26793357728651  -4.825574845587594  10.184915793946635  120.000000
9.599385767790261  0.000000  0.000000  0.000000  -25.28712177957832  13.036699007789268  16.583503156388986  67.3636624863408  10.260422349424468  16.306012928822952  19.39598359193229  64.49639852537761  -4.536234646827545  10.131334545847665  120.000000
9.639550561797753  0.000000  0.000000  0.000000  -25.05050440348985  12.820706780559602  16.289814013811  67.42978805875336  10.08822279101253  16.042885934885597  19.79289735700422  63.476481090775124  -4.143273601454434  10.065025708201432  120.000000
9.679715355805243  0.000000  0.000000  0.000000  -24.74605847519034  12.565282954027374  15.860099692283711  67.4896337194181  9.88718812861378  15.736346958324846  20.24585179734065  62.19512092723208  -3.639146997105605  9.987734825676608  120.000000
9.719880149812735  0.000000  0.000000  0.000000  -24.380860075549734  12.271232412648018  15.291163098615064  67.52664911005908  9.658079032274369  15.386037280227331  20.742543362815542  60.641441082509154  -3.0144204906107506  9.905187212858982  120.000000
9.760044943820224  0.000000  0.000000  0.000000  -23.9669817613508  11.93972894992493  14.582077530824328  67.52160817403335  9.40341767648139  14.992554696322964  21.266725608523316  58.80797310247622  -2.2576555687401294  9.82716907545919  120.000000
9.800209737827716  0.000000  0.000000  0.000000  -23.520673470713138  11.572581040536683  13.735755076763379  67.45451823505681  9.127774610495948  14.55818327235505  21.7994966680899  56.692407079446156  -1.3559067935200535  9.767337816590631  120.000000
9.840374531835206  0.000000  0.000000  0.000000  -23.060740381655428  11.1727343278056  12.760615416412765  67.30768222354051  8.838760307574905  14.087525668819046  22.320799378620016  54.29950888003655  -0.295245283545435  9.742539998862851  120.000000
9.880539325842697  0.000000  0.000000  0.000000  -22.607194249699795  10.744472427046137  11.671060188786104  67.06783345876873  8.547408764284311  13.58762366852077  22.80945990673626  51.64219727794894  0.9390485225016129  9.771246071534648  120.000000
9.920704119850187  0.000000  0.000000  0.000000  -22.180515441428284  10.293342042499496  10.487114391852115  66.72716617109613  8.267259333680041  13.067232843588885  23.242116522051926  48.741850066832036  2.362718277828498  9.871682897491171  120.000000
9.960868913857677  0.000000  0.000000  0.000000  -21.800544554856828  9.826443768478713  9.233755571400051  66.28440611097915  8.013008162555447  12.53571711705214  23.592588701417533  45.62831227560016  3.99218984024123  10.06020888591589  120.000000
10.001033707865169  0.000000  0.000000  0.000000  -21.48460126517558  9.352584248386025  7.939398080914685  65.74612333328632  7.799309452589735  12.002394657352552  23.831889121574754  42.33937250612832  5.843711261454297  10.349861128376615  120.000000
10.041198501872659  0.000000  0.000000  0.000000  -21.245519809853203  8.881446277171285  6.633652271625141  65.12702862138153  7.639193522391312  11.47641213376114  23.928700898361136  38.9193247162842  7.932160419529458  10.74902113613112  120.000000
10.08136329588015  0.000000  0.000000  0.000000  -21.090143767344482  8.422157127096858  5.345180275789039  64.44916120690452  7.542674061681403  10.966978855113608  23.85026131142162  35.416914154674224  10.26977310973623  11.260402440873927  120.000000
10.12152808988764  0.000000  0.000000  0.000000  -21.01869517429994  7.98220613681965  4.10011561354008  63.740064990767536  7.515830128088713  10.483614824699544  23.563433250839545  31.883334185386865  12.86480358481394  11.87930319321486  120.000000
10.161692883895132  0.000000  0.000000  0.000000  -21.02607402685246  7.567081302049358  2.9206859985026172  63.02916244827537  7.56036183453915  10.035324375624702  23.033908082196735  28.369707011874475  15.722254759163654  12.592768998090273  120.000000
10.201857677902622  0.000000  0.000000  0.000000  -21.103940930373458  7.180540421955191  1.8238699889263539  62.34392535015703  7.673416544636616  9.628876006928058  22.224628589376096  24.925068178456392  18.846029129760986  13.379285383667916  120.000000
10.242022471910113  0.000000  0.000000  0.000000  -21.241867718120332  6.82446147697564  0.8216560990801323  61.70670530394562  7.8485154867261615  9.268092427311654  21.093557737496806  21.595006980167522  22.24211087218029  14.20911032948534  120.000000
10.282187265917603  0.000000  0.000000  0.000000  -21.42860983267839  6.499372234800443  -0.07791004938051756  61.13349447454128  8.077602064407579  8.95377315816771  19.58871907978054  18.421506984615228  25.92495990608896  15.046482561028162  120.000000
10.322352059925093  0.000000  0.000000  0.000000  -21.65400092835365  6.2055518564780225  -0.8702534886772614  60.633830207892814  8.352086235054028  8.684027988515197  17.640861146486348  15.442600458555505  29.926242194153286  15.851236651805998  120.000000
10.362516853932584  0.000000  0.000000  0.000000  -21.9096940430999  5.943119137349815  -1.554122524540685  60.21006044634167  8.663121578265923  8.454924843327085  15.148523586997866  12.691940212856725  34.3119133606273  16.581612410972763  120.000000
10.402681647940074  0.000000  0.000000  0.000000  -22.189511572173  5.712959156062015  -2.131177715093587  59.85868504127928  9.001795992952736  8.261318337172499  11.95859812951875  10.199224250426662  39.20416373164022  17.197582897242068  120.000000
10.442846441947566  0.000000  0.000000  0.000000  -22.48884798593075  5.515911439928058  -2.6054904666867973  59.571640071270686  9.358496305467325  8.09755026759364  7.8285501008265905  7.990826423625044  44.8204709264563  17.664528494940537  120.000000
10.483011235955056  0.000000  0.000000  0.000000  -22.80238657547429  5.352644139957652  -2.9838000577956216  59.338533900544746  9.722820760142557  7.958387340760716  2.359631103635694  6.090240438467503  51.54272221852149  17.958732562629105  120.000000
10.523176029962547  0.000000  0.000000  0.000000  -23.12412955191448  5.223840886141317  -3.2746973963340897  59.149864546799044  10.081493896628283  7.839107210457527  -5.071964097558506  4.51997814822869  59.98674886244749  18.07205437355594  120.000000
10.563340823970037  0.000000  0.000000  0.000000  -23.44370147637717  5.127640123476496  -3.48789934455747  58.997529296593086  10.41897759455195  7.736657446729098  -15.331229613067054  3.3022314987415657  71.02043266621818  18.018340672945296  120.000000
10.603505617977529  0.000000  0.000000  0.000000  -23.743237873163796  5.061017914162139  -3.6336301056479305  58.878419786652216  10.71780122896401  7.650565890308561  -28.96629897015662  2.453900527818793  85.20646552909794  17.83815169346162  120.000000
10.643670411985019  0.000000  0.000000  0.000000  -24.001448556389988  5.019107394091003  -3.7214187773893213  58.790166796516324  10.958260782364272  7.584541200177399  -44.392612122806284  1.960491775478121  100.98402159004166  17.597788172162993  120.000000
10.683835205992509  0.000000  0.000000  0.000000  -24.181359549332736  4.994272909031589  -3.7618979455947317  58.731103594307925  11.121247990688982  7.544186186921383  -56.8739820741287  1.745349442301685  113.65247383307228  17.387348352487194  120.000000
10.724  0.000000  0.000000  0.000000  -24.245221183373967  4.985144836361108  -3.7718505872798573  58.70919729655854  11.181037234517214  7.530932616546621  -61.5916135074683  1.6932368371440327  118.42795341379932  17.302311387168697  120.000000
