Simulation
nRows=268
nColumns=15
endheader
time  TH_x TH_y TH_z SC_y  SC_z  SC_x  AC_y  AC_z  AC_x  GH_y  GH_z  GH_yy  EL_x  PS_y
0.0  0.000000  0.000000  0.000000  -24.914777427600132  2.8587127472960985  -3.6108687526607683  56.95830215070275  3.6101043401479997  4.16609077144876  -84.06912322748387  1.1512127755170722  124.38309317087561  20.197396504325262  120.000000
0.04016479400749064  0.000000  0.000000  0.000000  -24.959805649763542  2.867380419589873  -3.632103573082709  56.94133849590365  3.6880081536919898  4.172383571370154  -76.20314386517316  1.1642622991031206  116.4263384926701  20.11167487487978  120.000000
0.08032958801498127  0.000000  0.000000  0.000000  -25.093892030343994  2.900474053805529  -3.687806944609254  56.88432035858972  3.9086136838346657  4.175249790101806  -55.729794085083455  1.3315620635615768  95.67591191285426  19.86276949492767  120.000000
0.12049438202247191  0.000000  0.000000  0.000000  -25.321997509417066  2.9690354082818016  -3.770188573053551  56.77148022749548  4.242309846384718  4.156811670788283  -35.401367319124255  1.860203527116881  74.8753607012687  19.475468190870245  120.000000
0.16065917602996255  0.000000  0.000000  0.000000  -25.652419547719724  3.0730081827378126  -3.878271543709661  56.58810723791939  4.656676050766482  4.116025904848685  -22.99733614156195  2.7649297462211413  61.79920501032188  18.980423282783157  120.000000
0.20082397003745317  0.000000  0.000000  0.000000  -26.09061811526277  3.2079207221849417  -4.007871293183666  56.32890702740096  5.123687328987309  4.057943079759968  -16.372435599649485  3.964356665685276  54.30226403941179  18.40703085188768  120.000000
0.24098876404494382  0.000000  0.000000  0.000000  -26.63994185528937  3.3744955603384494  -4.150018169456512  55.997597493466365  5.622031250618717  3.9911832101496425  -12.766260543670759  5.39479650338626  49.629348655104856  17.782656882803035  120.000000
0.28115355805243447  0.000000  0.000000  0.000000  -27.29821282481416  3.5758465219835585  -4.291875130039498  55.60706165543254  6.1368116996313855  3.922096883195913  -10.716049493990212  7.014520334817423  46.32804301379947  17.12937211203774  120.000000
0.3213183520599251  0.000000  0.000000  0.000000  -28.05909693555748  3.8169940140529635  -4.417352635264356  55.17624947581939  6.658063344920875  3.8552592752050576  -9.517396274683813  8.792958021456279  43.70869026348322  16.465295655751927  120.000000
0.3614831460674157  0.000000  0.000000  0.000000  -28.912593276643936  4.104035402553711  -4.505986886999452  54.72518322338569  7.179502832455686  3.7956752541102836  -8.828207707815746  10.705205757939654  41.44790255998931  15.804877618442854  120.000000
0.40164794007490634  0.000000  0.000000  0.000000  -29.845496892693724  4.442309135672651  -4.532605240470557  54.27274422762154  7.696581616667598  3.747567791273699  -8.477944389263  12.72947694649243  39.397111385253154  15.159595488534697  120.000000
0.441812734082397  0.000000  0.000000  0.000000  -30.84248554318506  4.835709407649572  -4.470944717175045  53.835743459670475  8.205361368668369  3.7134547348849285  -8.383358304884764  14.844546257216889  37.49765141154188  14.53796364452538  120.000000
0.48197752808988764  0.000000  0.000000  0.000000  -31.88776481439103  5.286091516482562  -4.296720191363852  53.42775453058176  8.701933973070517  3.6941393449720805  -8.505825317483389  17.02834310445158  35.73745471223265  13.945684562869992  120.000000
0.5221423220973783  0.000000  0.000000  0.000000  -32.96602015877913  5.792566637153207  -3.9921386264063097  53.05835446291472  9.185241033268706  3.6930698880031896  -8.823529971931952  19.257705128429095  34.12250128252892  13.386001932583172  120.000000
0.5623071161048689  0.000000  0.000000  0.000000  -34.0607905407346  6.351206826866819  -3.5509007413725984  52.73547279070806  9.660668752927482  3.7193003247037333  -9.31224205163718  21.50921632755194  32.65699291944783  12.860396841017849  120.000000
0.6024719101123596  0.000000  0.000000  0.000000  -35.154273419259795  6.954794360835802  -2.970847912363838  52.467288856961886  10.133353192729691  3.7826954544540436  -9.941364315993955  23.760087534829424  31.33851499263571  12.369442741919778  120.000000
0.6426367041198502  0.000000  0.000000  0.000000  -36.22858967530586  7.593083768140482  -2.2518948446896077  52.261482845039744  10.605683858513114  3.8916955674627984  -10.677201926974076  25.988575484874527  30.15985465196435  11.912242224009768  120.000000
0.6828014981273408  0.000000  0.000000  0.000000  -37.26748308879896  8.253800246928874  -1.3980026356488238  52.12363644275444  11.079149450953237  4.052938215859217  -11.487401785015392  28.175077848151098  29.111791737382262  11.485927858801569  120.000000
0.7229662921348314  0.000000  0.000000  0.000000  -38.258118503342956  8.923815295913032  -0.4156107112547551  52.056251351773476  11.553557046629757  4.270305663864299  -12.341824547850052  30.303403590995423  28.182862686954056  11.085194428256811  120.000000
0.7631310861423221  0.000000  0.000000  0.000000  -39.191558274926  9.589940873718861  0.6862443327616794  52.05843515577943  12.027377522189619  4.5457126577555265  -13.21249495570122  32.361094406707046  27.358991777499547  10.70275587430619  120.000000
0.8032958801498127  0.000000  0.000000  0.000000  -40.06232389409282  10.239510571209822  1.8959168017896733  52.126110261628305  12.498217140732768  4.87906108105167  -14.07423446621957  34.33936071195646  26.624462499571788  10.330412404986227  120.000000
0.8434606741573034  0.000000  0.000000  0.000000  -40.8680379777552  10.861188967661276  3.199121590371867  52.25224447339673  12.963209196082756  5.268481166471465  -14.905684478643394  36.2330111479263  25.963690771130015  9.960313553122914  120.000000
0.883625468164794  0.000000  0.000000  0.000000  -41.60883376935126  11.445391344633867  4.579276770371397  52.42702367905935  13.419158981206532  5.710612149945332  -15.69019846244961  38.04003664560757  25.36312094139488  9.586566801237442  120.000000
0.9237902621722847  0.000000  0.000000  0.000000  -42.28655105370279  11.98457760885007  6.01750761857775  52.63836247191687  13.86248011938387  6.200762974005588  -16.416356269774457  39.760992313751544  24.812872557353977  9.206719300697975  120.000000
0.9639550561797753  0.000000  0.000000  0.000000  -42.90415526745502  12.473423796377045  7.4927957061560075  52.872608655721876  14.288902900485688  6.732894439550365  -17.07805901638843  41.398091127476334  24.307760578833655  8.822777610808762  120.000000
1.004119850187266  0.000000  0.000000  0.000000  -43.46530611947994  12.908829510898599  8.982038793419965  53.11566784307641  14.693282569524747  7.299367651571141  -17.674047498239364  42.95426689012622  23.84737795276056  8.441204920518771  120.000000
1.0442846441947566  0.000000  0.000000  0.000000  -43.97405491706273  13.289882118974115  10.460489449411448  53.35433034320105  15.06953273938848  7.89069376283306  -18.206856147858918  44.43212230620749  23.435150100332187  8.072060338571223  120.000000
1.0844494382022472  0.000000  0.000000  0.000000  -44.43456504738103  13.617747985543831  11.90235494000676  53.57770151361416  15.410898065745048  8.495275651112584  -18.681456451665277  45.83306718823982  23.076762131337606  7.727520412804548  120.000000
1.1246142322097379  0.000000  0.000000  0.000000  -44.85084584195091  13.895561368530105  13.281784144255731  53.778245313311075  15.710493186851016  9.099359171553042  -19.103971171642556  47.156659756516866  22.778381192328435  7.420221748883646  120.000000
1.1647790262172284  0.000000  0.000000  0.000000  -45.226597184390585  14.128203839815042  14.574079366019012  53.95235186157258  15.962032541828423  9.687248938486922  -19.480542277422025  48.40039376668639  22.544972221271994  7.161609533045873  120.000000
1.2049438202247191  0.000000  0.000000  0.000000  -45.56507715215916  14.321915143901911  15.757078867833465  54.100144990967856  16.160603678913805  10.241957988975196  -19.81650934584844  49.55988619085222  22.37892229459961  6.960594577350363  120.000000
1.2451086142322096  0.000000  0.000000  0.000000  -45.86908268839641  14.483679264566524  16.812476755139034  54.224591678164934  16.303268472040884  10.746298220213712  -20.11586180326002  50.629536019821046  22.27912152465035  6.822573186775224  120.000000
1.2852734082397004  0.000000  0.000000  0.000000  -46.141014697540456  14.620436819720036  17.72702511108111  54.330088107657566  16.389486323796618  11.184345251275454  -20.380795582437134  51.60358491824737  22.240312102701502  6.748727132905735  120.000000
1.325438202247191  0.000000  0.000000  0.000000  -46.382995764237414  14.73820990299303  18.493530058735196  54.420856777311414  16.42136451840774  11.543099074752266  -20.61135416112239  52.47743439816079  22.252720357899  6.735467565442282  120.000000
1.3656029962546816  0.000000  0.000000  0.000000  -46.59701978024312  14.84134905460439  19.111354188245016  54.4996174970501  16.403642341876182  11.813906578199717  -20.80521548640105  53.24882094107676  22.30192478520442  6.774089454447212  120.000000
1.4057677902621724  0.000000  0.000000  0.000000  -46.78504597083209  14.932016780768594  19.586203587762768  54.56679978295297  16.34336001637676  11.993194976526848  -20.957832597774626  53.918392730739676  22.36928331669328  6.850949012350635  120.000000
1.4459325842696629  0.000000  0.000000  0.000000  -46.94897492488734  15.010189617232864  19.92896667743444  54.620563277519786  16.24917499413126  12.082155727926601  -21.06293722834237  54.48945436027362  22.432968396644505  6.948523881684463  120.000000
1.4860973782771536  0.000000  0.000000  0.000000  -47.09042864253096  15.074099710412797  20.153869290160507  54.65742787148443  16.130443383140936  12.085631248532083  -21.113278840068812  54.96691837413489  22.469617298894267  7.047482481423719  120.000000
1.5262621722846441  0.000000  0.000000  0.000000  -47.21030680965682  15.120974078769038  20.276228736617963  54.67338506188336  15.996233723044114  12.01049565264065  -21.101409619643  55.355666965990594  22.45618795675965  7.1294103134688935  120.000000
1.5664269662921348  0.000000  0.000000  0.000000  -47.30822983008416  15.147774708152392  20.31020582229376  54.665036083790184  15.854331409413268  11.864125262862705  -21.02040849412359  55.65868371550629  22.371795343350765  7.179754345237751  120.000000
1.6065917602996254  0.000000  0.000000  0.000000  -47.38202513157649  15.151750895014063  20.26687145302176  54.63054692518376  15.710407164661232  11.653129187821161  -20.864509617295123  55.87523949806832  22.199219338534988  7.190381140024882  120.000000
1.646756554307116  0.000000  0.000000  0.000000  -47.42739843124167  15.130701942072328  20.15287001777503  54.57022486932627  15.567438596936997  11.382630040763988  -20.62957174111785  55.999547248389646  21.92587809260632  7.161113209752367  120.000000
1.6869213483146068  0.000000  0.000000  0.000000  -47.43785075507824  15.082915455258036  19.969861494110923  54.48672257580336  15.425568607591524  11.056023990566064  -20.313345309262075  56.01994692721979  21.544117105700906  7.099795482143973  120.000000
1.7270861423220973  0.000000  0.000000  0.000000  -47.40487626751642  15.006904484840911  19.714584764216546  54.38492668244776  15.282211194641128  10.675163009113184  -19.91555169951078  55.91885960416349  21.05103025348792  7.021134864737338  120.000000
1.767250936329588  0.000000  0.000000  0.000000  -47.31848700360056  14.901037218728028  19.37938313797261  54.27160027022092  15.132328946497097  10.2407441736646  -19.437743731865165  55.673349477548925  20.448127495804965  6.9448162250521355  120.000000
1.8074157303370786  0.000000  0.000000  0.000000  -47.167944962561315  14.763171336469126  18.952941208048273  54.154843534749716  14.968611327278555  9.752844781872176  -18.88300931635645  55.256459272597205  19.741171995978377  6.893321674864476  120.000000
1.8475805243445693  0.000000  0.000000  0.000000  -46.94266271967307  14.590269762245786  18.421242985087726  54.04335958823548  14.781675485899049  9.211576440300318  -18.255398913533114  54.63908738105657  18.94035195961765  6.889557594298417  120.000000
1.8877453183520598  0.000000  0.000000  0.000000  -46.63301057441473  14.378063646995882  17.76869772065487  53.94553300832655  14.560200152662476  8.617913353937443  -17.559201251039834  53.79263722720274  18.060909212860164  6.954378659652442  120.000000
1.9279101123595506  0.000000  0.000000  0.000000  -46.23101291301002  14.120710644021932  16.979644542857933  53.86832652237693  14.291367915124757  7.974775252787436  -16.79803213038474  52.69206290137798  17.124122795404297  7.103941600753044  120.000000
1.9680749063670413  0.000000  0.000000  0.000000  -45.73067206309241  13.810607614242853  16.04025213143415  53.81615359313741  13.961643883197052  7.2883459339903585  -15.974133304861748  51.319311860342175  16.158415095730298  7.347006919958385  120.000000
2.008239700374532  0.000000  0.000000  0.000000  -45.12808078493622  13.438410256805449  14.940917496459141  53.79001600749134  13.558305239816171  6.569397833916182  -15.088100260543799  49.666398687066696  15.200267265222971  7.682418249839566  120.000000
2.0484044943820225  0.000000  0.000000  0.000000  -44.42124480378828  12.993516235119806  13.678861385538735  53.78732331604087  13.071517757528522  5.834167692103913  -14.139594826031548  47.737746647555745  14.294641311793187  8.097396043774848  120.000000
2.0885692883895133  0.000000  0.000000  0.000000  -43.60999055486295  12.465127846406045  12.260574128849706  53.8027270561414  12.496865819442322  5.104232784021831  -13.129170565308145  45.550863813654516  13.494569739090297  8.567679189745538  120.000000
2.1287340823970036  0.000000  0.000000  0.000000  -42.69609055613273  11.843930468829045  10.703575642927225  53.82988332021432  11.837682616516398  4.405148702081075  -12.061231647719111  43.13520464163592  12.859582332027164  9.060483406369654  120.000000
2.1688988764044943  0.000000  0.000000  0.000000  -41.68376604477045  11.124353070985201  9.036960785316273  53.863775634551175  11.106628403450669  3.7638388066071946  -10.947615440067066  40.52937652252365  12.453194723005556  9.540130571989762  120.000000
2.209063670411985  0.000000  0.000000  0.000000  -40.58050526508265  10.30695673676238  7.300506253441256  53.90279293336979  10.325969903504694  3.2053902342053697  -9.810941538752102  37.777736326688476  12.339629487633198  9.975387299449832  120.000000
2.2492284644194758  0.000000  0.000000  0.000000  -39.39750447620583  9.400551069563925  5.542204261107898  53.950099322907825  9.526435342127098  2.7501336998508457  -8.68647162593864  34.92717389151657  12.579924851210627  10.346891215133635  120.000000
2.2893932584269665  0.000000  0.000000  0.000000  -38.149030510817994  8.423147518862908  3.8145025693512236  54.01466809787578  8.744644834198235  2.411854491313953  -7.619953703540818  32.02461012042772  13.22616044831942  10.653579565321342  120.000000
2.329558052434457  0.000000  0.000000  0.000000  -36.850890795992164  7.401721942012125  2.169336470261683  54.111952533828486  8.019505436546547  2.1972174663210358  -6.660773004176686  29.115305097696353  14.31364421159167  10.914644337541056  120.000000
2.3697228464419475  0.000000  0.000000  0.000000  -35.521331934455155  6.370312251913631  0.6529934334620532  54.261176759620795  7.388647220586474  2.106024670559117  -5.8542887665647285  26.24253857597226  15.853967659262848  11.165866338374043  120.000000
2.4098876404494383  0.000000  0.000000  0.000000  -34.183883707877456  5.367359591271921  -0.6981565189667515  54.48005453877566  6.884808344307905  2.131440831982297  -5.236791975623752  23.447658446630324  17.83213311719936  11.45077905395907  120.000000
2.450052434456929  0.000000  0.000000  0.000000  -32.86882183748514  4.431895529509832  -1.8599772293006052  54.78063553894329  6.531296944356801  2.260428442233321  -4.828314841453564  20.768541036102924  20.20283836882144  11.809780681547188  120.000000
2.4902172284644193  0.000000  0.000000  0.000000  -31.61097604237265  3.5980381602467713  -2.824108603586407  55.16791667113238  6.341057550961288  2.4773588365156867  -4.617982598692872  18.2363067205795  22.881084724112426  12.27161777536416  120.000000
2.53038202247191  0.000000  0.000000  0.000000  -30.445639831955578  2.891155669304168  -3.5960425081532326  55.64093923580308  6.314219699896415  2.765812090970875  -4.541074028980631  15.871902253192708  25.724584771150145  12.847300147565257  120.000000
2.5705468164794008  0.000000  0.000000  0.000000  -29.40567334082411  2.3261852858883385  -4.18386876957175  56.19326380418788  6.4316351020729705  3.103545075042499  -4.461163702838402  13.683342688488754  28.521099126257653  13.528914962922288  120.000000
2.6107116104868915  0.000000  0.000000  0.000000  -28.51959298258942  1.9065980307812147  -4.598674446030337  56.8099803067459  6.661569705779894  3.4661173655850632  -4.169166085033268  11.66574146303423  30.99192227534759  14.290922225331709  120.000000
2.650876404494382  0.000000  0.000000  0.000000  -27.8116320779319  1.6239148669714707  -4.859172919376287  57.46340401556092  6.970353712868312  3.835635563665937  -3.393515132080499  9.804937646939878  32.80604122188725  15.093883171076584  120.000000
2.6910411985018725  0.000000  0.000000  0.000000  -27.29764752718778  1.4588812151260038  -4.98947952265422  58.112929003949596  7.323789404829433  4.203026690337354  -1.8221317014766  8.081748118385285  33.60756702657672  15.892070924524711  120.000000
2.7312059925093632  0.000000  0.000000  0.000000  -26.97951315332351  1.3871481442873088  -5.018856546031062  58.71978712985407  7.6901099937284085  4.562759620051534  0.9705098862452808  6.478943518908385  32.94541463661568  16.640966933089828  120.000000
2.771370786516854  0.000000  0.000000  0.000000  -26.83937117328396  1.3891531834703128  -4.98008756500975  59.26613776740486  8.045051170135313  4.904119916716668  5.794027914977952  4.9923472202892  30.002511648256853  17.304290727151017  120.000000
2.8115355805243447  0.000000  0.000000  0.000000  -26.84356244164928  1.4520548527055321  -4.900882648235379  59.74910879273688  8.373404724734982  5.214094522301052  14.400205697444713  3.644680389216366  23.035839430846966  17.857037067493632  120.000000
2.851700374531835  0.000000  0.000000  0.000000  -26.956976149720745  1.5642136568259966  -4.797728913622617  60.169135575715245  8.669393172551063  5.484375054485811  30.93153386339306  2.5226995007000133  7.920421686395932  18.284303318302467  120.000000
2.8918651685393257  0.000000  0.000000  0.000000  -27.147932859142124  1.7139378816315425  -4.6767553438508545  60.528124156068365  8.935198887604432  5.713316381718402  62.278976866274945  1.8760833565224906  -22.21490382531687  18.58163178395732  120.000000
2.9320299625468165  0.000000  0.000000  0.000000  -27.38916150634649  1.8896956311373136  -4.537610614549755  60.828313758373646  9.17607366217523  5.904040592520556  99.56406751076743  2.0194493475312805  -58.47209306257715  18.75461539608167  120.000000
2.972194756554307  0.000000  0.000000  0.000000  -27.65799939860687  2.0809943899602312  -4.379200217080931  61.07348141313441  9.396382318827731  6.060640356427385  122.44145375172694  2.709582770523493  -80.48755494502294  18.816903907815856  120.000000
3.012359550561798  0.000000  0.000000  0.000000  -27.93583827073828  2.2791928272155673  -4.202485402840054  61.26929969634614  9.598005372682344  6.186382307417793  134.19321173612067  3.5532309257258388  -91.52560124046408  18.788593226591054  120.000000
3.0525243445692882  0.000000  0.000000  0.000000  -28.208374365892805  2.476767651963795  -4.010718597422761  61.422438303231544  9.780333581999098  6.2836362172490094  140.79925974180577  4.3926115987699585  -97.54909346342298  18.69350381140801  120.000000
3.092689138576779  0.000000  0.000000  0.000000  -28.465132372506073  2.6673419694039593  -3.8083457536440415  61.53914438270649  9.941353107101632  6.3549628916733125  144.9187204599562  5.175502625119663  -101.20069031444366  18.556056716500983  120.000000
3.1328539325842697  0.000000  0.000000  0.000000  -28.699222228576495  2.845942313984137  -3.6001314502129587  61.62443706866537  10.078757034415267  6.403010733282754  147.70074709893353  5.8822143436788235  -103.61400119400685  18.39804684072751  120.000000
3.1730187265917604  0.000000  0.000000  0.000000  -28.906780270693087  3.0091249656153676  -3.390799767205385  61.682149673549304  10.190361837869037  6.430315264393007  149.69982245754073  6.504508656649158  -105.3290360860525  18.236323156945488  120.000000
3.2131835205992507  0.000000  0.000000  0.000000  -29.08630932712433  3.1545321801434034  -3.1851484129938497  61.715470214073484  10.27382871963729  6.439356704134877  151.2136943428249  7.039201345868914  -106.6300925036326  18.08200551579194  120.000000
3.2533483146067415  0.000000  0.000000  0.000000  -29.23793496297443  3.2804420464019266  -2.9880267686520283  61.72708552809541  10.326670830426114  6.432495592877363  152.4175656806247  7.485831450295332  -107.68004665551064  17.940488957552322  120.000000
3.293513108614232  0.000000  0.000000  0.000000  -29.362764946525587  3.385987994674307  -2.803835156578203  61.719283441649274  10.34687506371647  6.411886408964337  153.42174646947507  7.84506661836461  -108.57807083941243  17.812667521398787  120.000000
3.333677902621723  0.000000  0.000000  0.000000  -29.462317156725632  3.471448431407438  -2.6360048327134735  61.69380917742438  10.33354551210922  6.379392022955965  154.2976569557706  8.117765078582742  -109.3858555945053  17.69660658652643  120.000000
3.3738426966292137  0.000000  0.000000  0.000000  -29.537901172095435  3.538060349123587  -2.4869818719369743  61.65200794100498  10.286980652284123  6.33657170620718  155.09225927886774  8.304610958679762  -110.14223083009276  17.589255664418065  120.000000
3.414007490636704  0.000000  0.000000  0.000000  -29.590335105259026  3.587724339571768  -2.3584063848565657  61.59496229240502  10.20847857173838  6.2846170612177135  155.83810256460657  8.406200768280064  -110.8731692498393  17.487912698966504  120.000000
3.4541722846441947  0.000000  0.000000  0.000000  -29.619968818757787  3.6227894395333564  -2.2512160687107414  61.523316654846916  10.100120621320942  6.224506952485611  156.5598904637256  8.423010553101879  -111.59832759417179  17.390941377972833  120.000000
3.4943370786516854  0.000000  0.000000  0.000000  -29.626624593444912  3.6458750977383536  -2.1656101702815014  61.43724909014187  9.964784206781422  6.157097958826235  157.27709609770955  8.35542437600939  -112.33367409106819  17.29773275327283  120.000000
3.534501872659176  0.000000  0.000000  0.000000  -29.609570583043908  3.659761049461039  -2.101059546206716  61.33654241741196  9.806059549535494  6.083208751345366  158.00529312674476  8.203770391553546  -113.09282770507436  17.208108827312266  120.000000
3.574666666666667  0.000000  0.000000  0.000000  -29.567620672948035  3.6673819086508423  -2.0564883240236504  61.22091211917476  9.628111443380728  6.003471798876196  158.75593504979614  7.9684921017023616  -113.88688884879609  17.12144472534821  120.000000
3.614831460674157  0.000000  0.000000  0.000000  -29.499068779004325  3.6719158953082585  -2.0303496208647163  61.09025487802513  9.435662357358119  5.918327785667386  159.53541765673302  7.65019164382486  -114.72348543547317  17.035765336671556  120.000000
3.654996254681648  0.000000  0.000000  0.000000  -29.401752550860152  3.6764810578844944  -2.0204504886687813  60.944778740095266  9.234085332241543  5.828200598105251  160.3417648568542  7.24959325306653  -115.60354881589186  16.94705226727494  120.000000
3.6951610486891386  0.000000  0.000000  0.000000  -29.272997084589395  3.683523163186719  -2.02385245241226  60.7846921225848  9.029190784791961  5.734141776842854  161.16307922949372  6.7677492516968485  -116.51970198703007  16.849203815137344  120.000000
3.7353258426966294  0.000000  0.000000  0.000000  -29.10984248696037  3.694297251150258  -2.03704799257754  60.60962521200489  8.826868391091386  5.638308965348937  161.97951300673876  6.2061905732964755  -117.45822740176712  16.734356931624987  120.000000
3.7754906367041197  0.000000  0.000000  0.000000  -28.90941284367742  3.7088979978887697  -2.056141428028073  60.4181723799575  8.632979719647311  5.543847471918792  162.76613345986706  5.566750589131383  -118.40185540665722  16.593352934868573  120.000000
3.8156554307116104  0.000000  0.000000  0.000000  -28.668639005039676  3.7269709427985007  -2.0771819428563236  60.20837202390975  8.453355198639079  5.454056953584768  163.4881477623993  4.851578057152314  -119.32501753075734  16.41670295308021  120.000000
3.855820224719101  0.000000  0.000000  0.000000  -28.38427022051908  3.748153796269511  -2.0970611654385283  59.97887441933173  8.293313207234966  5.371288980294404  164.08458234221686  4.063557110343328  -120.17748415493529  16.195671781274264  120.000000
3.895985018726592  0.000000  0.000000  0.000000  -28.052566241898  3.7722729620468143  -2.115149895448385  59.730540998539276  8.1565778852994  5.295889797616653  164.41956744357637  3.207355057790026  -120.8359436576332  15.923403629688831  120.000000
3.9361498127340826  0.000000  0.000000  0.000000  -27.669925643974913  3.800005238104662  -2.1336429937442447  59.46688915417099  8.045216397673915  5.226617907756999  164.0971849246963  2.2895822131672134  -120.91895963720314  15.596247796165859  120.000000
3.976314606741573  0.000000  0.000000  0.000000  -27.234957163296386  3.8324551610374553  -2.1544836141983468  59.191039593007986  7.962928017578162  5.162715646064306  161.4329562757687  1.3169862381327087  -118.75949483010531  15.21445878953833  120.000000
4.016479400749064  0.000000  0.000000  0.000000  -26.751759875209316  3.871316131005625  -2.1745215561734614  58.902477483438474  7.9186958624149675  5.1054054676882865  132.85083255672413  0.33189262978652917  -90.80040612753054  14.783387361204792  120.000000
4.056644194756554  0.000000  0.000000  0.000000  -26.229124026819274  3.92211312539254  -2.1847994280100598  58.59912912013965  7.927451291585568  5.057292737217184  6.684332077030152  0.8829384255688352  34.608102496385705  14.314899119137209  120.000000
4.096808988764045  0.000000  0.000000  0.000000  -25.67682584477086  3.995143633838579  -2.1729536085506944  58.28183053986999  8.007970043517497  5.018952373379691  -0.02755247375395613  2.076169024568408  40.41512374516411  13.826437590196901  120.000000
4.136973782771536  0.000000  0.000000  0.000000  -25.106872314160583  4.102888070831681  -2.126042157224209  57.95389317254444  8.179867455995133  4.989510146173993  -1.1905002798482585  3.392215792019318  40.520848184697584  13.3393765457953  120.000000
4.177138576779027  0.000000  0.000000  0.000000  -24.533948840260383  4.2557886280098325  -2.0312699059809325  57.61623473044664  8.45862576347514  4.971449521071083  -1.3573671477988265  4.841590983660452  39.48049209608814  12.876693876932077  120.000000
4.217303370786517  0.000000  0.000000  0.000000  -23.975589765887094  4.45914389160712  -1.8751945091855524  57.26814789104597  8.851418164043709  4.970217538112318  -1.2970486331212538  6.436282136733357  38.07257279949316  12.459753862134079  120.000000
4.257468164794007  0.000000  0.000000  0.000000  -23.4523803921782  4.715127039944461  -1.6448910727278339  56.91067542391419  9.356134673605789  4.992289489295834  -1.215661782579614  8.182517103540146  36.51806795149937  12.105555814398453  120.000000
4.297632958801498  0.000000  0.000000  0.000000  -22.986097704990794  5.022681252702907  -1.3288758346259597  56.544757908209974  9.96107393960397  5.044970000327445  -1.1804004234009426  10.078976312986804  34.9032578419625  11.823042476855715  120.000000
4.337797752808989  0.000000  0.000000  0.000000  -22.599450678257245  5.376661701784908  -0.918592207653226  56.17164092743263  10.647417875593476  5.135067254952649  -1.2084345246924046  12.117091222397482  33.266365147026036  11.610687340950152  120.000000
4.377962546816479  0.000000  0.000000  0.000000  -22.314170334294165  5.771515231403812  -0.4104333476743799  55.79428154249942  11.393369740248906  5.269825273906132  -1.290424371992479  14.28280467736378  31.61972578489307  11.457758241723411  120.000000
4.41812734082397  0.000000  0.000000  0.000000  -22.14812207283725  6.201096045231838  0.19466921068088486  55.41655772735508  12.176539626102208  5.457645410692243  -1.4081288688999272  16.558377392646836  29.966862414204357  11.347114248350232  120.000000
4.458292134831461  0.000000  0.000000  0.000000  -22.113168690948598  6.656610582572056  0.8925568182762321  55.04413171719507  12.974410610254623  5.705942622378807  -1.5406010251354278  18.923486451311557  28.308331893238336  11.259164168985594  120.000000
4.4984569288389515  0.000000  0.000000  0.000000  -22.213846759838543  7.127689497889702  1.6755681545317964  54.685438672643  13.765389947804962  6.020352230203792  -1.6668622431409317  21.355872543018577  26.644778195671577  11.176508320111036  120.000000
4.538621722846442  0.000000  0.000000  0.000000  -22.447682191671728  7.603499357683953  2.5334589810673918  54.35113818238683  14.529380803555362  6.403399160663924  -1.7691490882796954  23.832757388544156  24.980157440072706  11.087086357604834  120.000000
4.578786516853933  0.000000  0.000000  0.000000  -22.80662577930879  8.073930059736824  3.4544440087586255  54.052446791419534  15.248312555990598  6.853156791250863  -1.8364424612313046  26.332143770774564  23.324715156354  10.985586314315963  120.000000
4.618951310861423  0.000000  0.000000  0.000000  -23.27934176373641  8.530799349652202  4.425588975124143  53.79952517556517  15.907038106282604  7.3633434428842115  -1.864542853454161  28.833631056677774  21.69408501314516  10.87308904341551  120.000000
4.659116104868914  0.000000  0.000000  0.000000  -23.852950797785187  8.968320698765464  5.433457685533647  53.60045769860342  16.494023300669728  7.923760715165477  -1.8542938584758295  31.318809906194108  20.10622248422062  10.755665761008718  120.000000
4.699280898876404  0.000000  0.000000  0.000000  -24.514345645211762  9.383086709795812  6.464825666880547  53.46043970975572  17.001936703495637  8.521205249670837  -1.810015176295803  33.771301761868315  18.578560514147558  10.642581511736369  120.000000
4.739445692883895  0.000000  0.000000  0.000000  -25.251257228743704  9.773865254179487  7.50754408808877  53.38140823455572  17.427909636232368  9.140417212161653  -1.7383390941354253  36.17658634711355  17.125609244032045  10.544395577408235  120.000000
4.779610486891386  0.000000  0.000000  0.000000  -26.052448903801494  10.140908111464146  8.551067080615235  53.362041476620874  17.773328584049363  9.765231266436851  -1.647011040603009  38.521546113873036  15.757215810689644  10.471501806942337  120.000000
4.8197752808988765  0.000000  0.000000  0.000000  -26.906688431731254  10.484622459464767  9.58672963604629  53.39829406285846  18.042978503496087  10.380258701918478  -1.5430426562247506  40.79393770587478  14.477182344490956  10.433419217462982  120.000000
4.859940074906367  0.000000  0.000000  0.000000  -27.80157917320525  10.80462737754368  10.607663760996509  53.48422595541849  18.244255123921867  10.972457019783771  -1.4321179295296487  42.9821391997012  13.283820454207088  10.43842826832456  120.000000
4.900104868913858  0.000000  0.000000  0.000000  -28.723601128134966  11.099776055264794  11.608453419874818  53.61223921908836  18.386453954102766  11.53170695874365  -1.319239083252202  45.07527455112941  12.171767651380582  10.492998985635648  120.000000
4.940269662921349  0.000000  0.000000  0.000000  -29.658590507715125  11.368307356683859  12.584719317627945  53.77316405917947  18.479996407690383  12.050758698395985  -1.2091344963098134  47.06333382911373  11.133671215186975  10.601298405751095  120.000000
4.980434456928839  0.000000  0.000000  0.000000  -30.591762283707624  11.607897733446109  13.532482573232285  53.95683563737699  18.53550213256465  12.52504362090357  -1.1058951701379462  48.93707590872888  10.161430441053456  10.764879569637284  120.000000
5.020599250936329  0.000000  0.000000  0.000000  -31.507555011822895  11.815877681617243  14.447406970200511  54.1529131860367  18.562940664130185  12.952151351569233  -1.0123443058689554  50.68773880816897  9.247261961582664  10.982430014712913  120.000000
5.06076404494382  0.000000  0.000000  0.000000  -32.389722187541366  11.989633961507634  15.32413129890005  54.35164921843812  18.57102294882239  13.331023562615252  -0.9296182995914313  52.30681577416285  8.384868401600174  11.24946910228059  120.000000
5.100928838951311  0.000000  0.000000  0.000000  -33.22172872476277  12.127123730003527  16.15579537842146  54.54435584569885  18.566752664343003  13.661089513784177  -0.8569362148020517  53.785918361188884  7.570530886283831  11.557968125734318  120.000000
5.1410936329588015  0.000000  0.000000  0.000000  -33.98735315929263  12.227343912888813  16.933771277744327  54.723709663643426  18.555169260509107  13.941376858496804  -0.7915933193158462  55.11666251007189  6.804037872856442  11.895932595005736  120.000000
5.181258426966292  0.000000  0.000000  0.000000  -34.671364578879924  12.290720672822337  17.647599595795086  54.88383404128053  18.539217687300837  14.169793003619803  -0.7290889253739573  56.29048530565641  6.089165536957004  12.247172953093289  120.000000
5.221423220973783  0.000000  0.000000  0.000000  -35.2601158378198  12.319249716735364  18.285180474574304  55.02030973508341  18.519861020418535  14.342613570200818  -0.6634841687970959  57.29831830553075  5.433505973356554  12.5916439282309  120.000000
5.261588014981274  0.000000  0.000000  0.000000  -35.74189755839475  12.316319794884583  18.83326911016284  55.130037645446535  18.496420182572077  14.454404506194747  -0.5879634308920453  58.13005612511249  4.8473781588855624  12.906801977204392  120.000000
5.301752808988764  0.000000  0.000000  0.000000  -36.10697891448152  12.286173368143833  19.278229870447763  55.21111009426985  18.467129849985128  14.498374600365697  -0.49560931890416743  58.773909383945906  4.341891256905073  13.170066769521505  120.000000
5.341917602996254  0.000000  0.000000  0.000000  -36.3473889447946  12.233144631591852  19.606920793950156  55.26270017299475  18.42970361423158  14.467176267069664  -0.3802465867217905  59.215848119351534  3.9265375711614583  13.362060056257981  120.000000
5.382082397003745  0.000000  0.000000  0.000000  -36.45664749344761  12.160860140674535  19.807524550566455  55.285098239340975  18.3817953029261  14.353921594810064  -0.23726512844915357  59.43936935193592  3.606835779257604  13.469994368174145  120.000000
5.422247191011236  0.000000  0.000000  0.000000  -36.42969988739647  12.07158062224667  19.870224935691077  55.27981614069839  18.321215882855366  14.153185144012  -0.06429890318420392  59.42583056435461  3.382585200810657  13.490438704710066  120.000000
5.4624119850187265  0.000000  0.000000  0.000000  -36.26330497208758  11.965876753921085  19.78764258462479  55.249720700166954  18.245927384605142  13.861707223252942  0.13838910036801952  59.15549560499231  3.2472871305746907  13.430410192827958  120.000000
5.502576779026217  0.000000  0.000000  0.000000  -35.95685520281432  11.842653953229581  19.555068754167117  55.19902316854558  18.153808773863815  13.47867557657579  0.368052537915917  58.6093677376322  3.1890432309327346  13.306178058163594  120.000000
5.542741573033708  0.000000  0.000000  0.000000  -35.51340689122078  11.699404688280747  19.170602738485243  55.1330014364549  18.0423860216001  13.005782619103368  0.620251962513412  57.77149915278296  3.1926618252687464  13.14009118024788  120.000000
5.582906367041199  0.000000  0.000000  0.000000  -34.94051862557044  11.532464690170354  18.63535169179093  55.05740268124555  17.90863401437086  12.447224732553602  0.8901513485964087  56.631477285913434  3.242393981709019  12.956486606617176  120.000000
5.623071161048689  0.000000  0.000000  0.000000  -34.250718537519774  11.337293884527444  17.95371275304191  54.97767151283255  17.74903260943447  11.809843170416777  1.1740237334519723  55.18659701058991  3.3246433938415496  12.777565179305524  120.000000
5.66323595505618  0.000000  0.000000  0.000000  -33.461407690601504  11.108838927498693  17.13370871432369  54.89831868283301  17.559799943733278  11.103237298318954  1.4705113679304636  53.443461961459406  3.4301625042931407  12.620087591936247  120.000000
5.70340074906367  0.000000  0.000000  0.000000  -32.59422795718527  10.842018871107173  16.18728494798171  54.822514636244996  17.337336507783473  10.33996984933113  1.781380688629123  51.418539019553215  3.5551965811811366  12.493618580962817  120.000000
5.743565543071161  0.000000  0.000000  0.000000  -31.674025778928808  10.53240343818553  15.130467427734965  54.75200412002394  17.07878579662962  9.535555552788681  2.1115120288014846  49.13763495379879  3.7015381986460367  12.400510573069303  120.000000
5.7837303370786515  0.000000  0.000000  0.000000  -30.727453889258708  10.177110007769944  13.983109557888053  54.68739054554713  16.78270485064604  8.707914518928149  2.468200064341727  46.634198187352126  3.8757602496549666  12.337236076198874  120.000000
5.823895131086142  0.000000  0.000000  0.000000  -29.7811082811573  9.775596054548888  12.767992873879221  54.629044029829736  16.44930878318986  7.876553722634107  2.8605208359674195  43.94669185589727  4.087731477224336  12.296374129964885  120.000000
5.864059925093633  0.000000  0.000000  0.000000  -28.859470409895113  9.329772930268874  11.509446322776688  54.57803411638794  16.08033313540984  7.061717282464632  3.2987165176960653  41.115605728771314  4.3488664813644835  12.268988250859925  120.000000
5.904224719101124  0.000000  0.000000  0.000000  -27.984034409823582  8.844256833194574  10.232002453466098  54.53659622673984  15.678958843440164  6.28340087200752  3.792539578959735  38.180886114173965  4.671168547544734  12.246380596478481  120.000000
5.944389513108614  0.000000  0.000000  0.000000  -27.17339687453375  8.326913050885432  8.959556182755554  54.507925984212285  15.250059857026175  5.559889053963267  4.349428694260072  35.18051626636677  5.066678465510105  12.221137866424165  120.000000
5.984554307116105  0.000000  0.000000  0.000000  -26.44323680840379  7.788819576385541  7.7148813988275755  54.495573716310375  14.800522360072232  4.906819325984003  4.972990099044558  32.14984432309841  5.547183257855945  12.188093458660134  120.000000
6.024719101123596  0.000000  0.000000  0.000000  -25.806156150888675  7.243735303284213  6.519194564283218  54.50307487700474  14.339056725115658  4.336644578541923  5.662030517032909  29.12126001979976  6.124020104909502  12.144926346896735  120.000000
6.064883895131086  0.000000  0.000000  0.000000  -25.27139496603614  6.707335569457326  5.39166045079095  54.5338280605614  13.875943901756592  3.8581580943939286  6.409962659490425  26.123951488249496  6.807946138605648  12.092599516509935  120.000000
6.1050486891385765  0.000000  0.000000  0.000000  -24.84482157136073  6.196198928911592  4.348994565385252  54.59093418928312  13.422476965191233  3.4763114166354154  7.204498146038185  23.18393478487649  7.60920294469382  12.035630719875623  120.000000
6.145213483146067  0.000000  0.000000  0.000000  -24.528785170598308  5.726603890714526  3.4049753968416234  54.677084499335585  12.990325754939477  3.192171534374161  8.027148347741436  20.324029397342954  8.538172841752308  11.981879101669785  120.000000
6.185378277153558  0.000000  0.000000  0.000000  -24.32183766537167  5.313087278362306  2.5701396227885396  54.794789216820895  12.59072107064584  3.003360728507903  8.853663193386037  17.563887469913514  9.605665661119103  11.94214047544344  120.000000
6.225543071161049  0.000000  0.000000  0.000000  -24.218074619897408  4.967357832531823  1.8520737384463597  54.947156033001654  12.233012016063546  2.9046048619468983  9.656838464885901  14.919804540013336  10.821250759068612  11.929508755259208  120.000000
6.265707865168539  0.000000  0.000000  0.000000  -24.206882284320788  4.696706634010205  1.2555801916352054  55.13809654907377  11.923570702477624  2.888234401785977  10.409355407008471  12.404443561723832  12.191515469210843  11.958356150664674  120.000000
6.30587265917603  0.000000  0.000000  0.000000  -24.273773911713644  4.503339889534219  0.7824391181459167  55.37179031520315  11.66490849019841  2.9450576956226935  11.086473270092851  10.02636967977906  13.718264980711416  12.043184406226073  120.000000
6.346037453183521  0.000000  0.000000  0.000000  -24.40150311454627  4.384111861958117  0.43222258178205036  55.65169303225505  11.454788475081441  3.0647217857238975  11.666479856624935  7.7897183600350575  15.398643228875317  12.196845642212791  120.000000
6.386202247191012  0.000000  0.000000  0.000000  -24.572105252602626  4.330023742214468  0.2026304151500219  55.978031230800504  11.288590148844062  3.237127441457285  12.120584858396983  5.695277995458399  17.234952497089747  12.428397914419142  120.000000
6.426367041198501  0.000000  0.000000  0.000000  -24.768246225864896  4.330727201567427  0.09102407121984889  56.34646969769012  11.161501943221012  3.453499540100181  12.375618589443622  3.7422185128251053  19.271995725786013  12.741620069246444  120.000000
6.466531835205992  0.000000  0.000000  0.000000  -24.97443093440033  4.3779086859461644  0.09491755688098306  56.751079814914604  11.069471657538172  3.702691759663907  12.15500585287117  1.9298595943694516  21.755549563475686  13.134146394666674  120.000000
6.506696629213483  0.000000  0.000000  0.000000  -25.178040975657343  4.464110403706289  0.20839021529550522  57.18611080841354  11.00891707440891  3.9706660301879464  4.948641688610763  0.2585834136872349  31.162410442244582  13.596592782968612  120.000000
6.546861423220974  0.000000  0.000000  0.000000  -25.371695948184616  4.581357497017077  0.42025040048516143  57.642343430923056  10.97425614001354  4.245430509071424  -164.79965582827683  1.2853920199059254  -156.98587221434846  14.112318408122047  120.000000
6.587026217228464  0.000000  0.000000  0.000000  -25.55545476861651  4.720840708702757  0.715128500315642  58.10702769683941  10.958162178664704  4.517274891685198  -165.89803371858815  2.70107167580083  -153.916864137269  14.658230852104932  120.000000
6.627191011235955  0.000000  0.000000  0.000000  -25.734625638903815  4.875906771490632  1.0759718068524227  58.566986119519264  10.95326640899718  4.777806952438229  -166.62120769004162  4.002465124591396  -151.39083133509126  15.206959307396437  120.000000
6.667355805243446  0.000000  0.000000  0.000000  -25.917155797747238  5.042485274072785  1.4867079421399358  59.00933972265109  10.95328351424958  5.020276880314572  -167.5003215402281  5.1996410111718045  -148.9082931244687  15.729705592091257  120.000000
6.707520599250937  0.000000  0.000000  0.000000  -26.11103249475667  5.216887102691654  1.9330736118582024  59.42345331536056  10.953425030436447  5.238731730439979  -168.65092453534038  6.30304821501757  -146.3785631565036  16.199429311583888  120.000000
6.747685393258427  0.000000  0.000000  0.000000  -26.321583030495795  5.395723513022745  2.401799960119993  59.80245018098384  10.949112705308707  5.428984845530357  -170.1117650403992  7.325166772893963  -143.77675659012272  16.59529596512594  120.000000
6.787850187265918  0.000000  0.000000  0.000000  -26.549752706455045  5.574575450711238  2.8807793859984523  60.142981463519774  10.935376642633523  5.589522483650758  -171.87532048341123  8.280372214797174  -141.11138333373827  16.905646906020856  120.000000
6.828014981273408  0.000000  0.000000  0.000000  -26.79121365555054  5.748137150425188  3.3605927124535873  60.44480029668099  10.908387538585854  5.72147945076332  -173.88804050761587  9.182550210942546  -138.42347327010975  17.129070638061755  120.000000
6.868179775280899  0.000000  0.000000  0.000000  -27.03713921679626  5.9128889063482815  3.8354884141352867  60.71084706397452  10.867126211818686  5.827512295816441  -176.05528608478178  10.041709010285894  -135.78239863064996  17.2747608368689  120.000000
6.908344569288389  0.000000  0.000000  0.000000  -27.277030652214016  6.067641124341648  4.302843108579406  60.94606142539687  10.81352678769841  5.910194839781151  -178.26578784375718  10.861780744798276  -133.26621487237665  17.359869790464327  120.000000
6.94850936329588  0.000000  0.000000  0.000000  -27.50253755809833  6.212289245301605  4.761877441567306  61.1541510047577  10.750818196990561  5.972066055441269  179.57673130097663  11.641625418462938  -130.9374412124806  17.403884784171993  120.000000
6.988674157303371  0.000000  0.000000  0.000000  -27.708578347247958  6.346544965218629  5.2125413035408  61.33684069829922  10.682011927501243  6.01572546279119  177.54099625520047  12.37701648701176  -128.83422680853528  17.42427462342628  120.000000
7.028838951310862  0.000000  0.000000  0.000000  -27.89206244464098  6.469827105234683  5.654784437711947  61.495335801673505  10.609451460398901  6.043373110118242  175.67324550648922  13.062114078372916  -126.97523018879956  17.43478294691598  120.000000
7.069003745318352  0.000000  0.000000  0.000000  -28.051201264105014  6.581614632928511  6.088296565573418  61.63080414974059  10.534592956842722  6.056627495512812  174.00488016680436  13.690499863183392  -125.36694415892376  17.44465448796336  120.000000
7.109168539325843  0.000000  0.000000  0.000000  -28.18514514334375  6.68147915578376  6.512495987304032  61.74476065985104  10.458233075405083  6.056374444671408  172.55644811291913  14.255614731548048  -124.00771054151218  17.458822617781003  120.000000
7.149333333333334  0.000000  0.000000  0.000000  -28.29349051115787  6.769298402546532  6.926627935712504  61.839027796685805  10.380787064948821  6.042983113590423  171.34155966709986  14.751107134126583  -122.8914866162391  17.478912074228052  120.000000
7.189498127340824  0.000000  0.000000  0.000000  -28.37625485920534  6.845172664255626  7.3298089863000575  61.91529228552708  10.30228424772198  6.016654132207489  170.3709946738339  15.171048971226806  -122.01177303668942  17.504340327473155  120.000000
7.229662921348314  0.000000  0.000000  0.000000  -28.433909992354398  6.909268678132573  7.721049910455195  61.97494604323788  10.222349126466167  5.977569456608148  169.65461965022786  15.510198965044534  -121.36339737116376  17.533425032481254  120.000000
7.269827715355805  0.000000  0.000000  0.000000  -28.467265545126526  6.961856796424234  8.099215937128683  62.01909136873964  10.14020050170957  5.926012210030204  169.2022330724375  15.764253658342403  -120.94324404502053  17.5643331293088  120.000000
7.309992509363296  0.000000  0.000000  0.000000  -28.477430978726435  7.0033435354413225  8.463000047857069  62.048621194707465  10.05469099917558  5.862350461570242  169.02406337570588  15.930091285851343  -120.75067783248228  17.59566023086692  120.000000
7.3501573033707865  0.000000  0.000000  0.000000  -28.46571390686109  7.034347482969447  8.810879524234172  62.064253723678576  9.964357091808486  5.787053114338496  169.13138081078938  16.005934639169446  -120.78806714167708  17.626754650730195  120.000000
7.390322097378277  0.000000  0.000000  0.000000  -28.433589599340568  7.055760250311846  9.14110307098118  62.06656149244659  9.8674913139771  5.700658381023036  169.53682076281055  15.991513961293318  -121.06108500460788  17.657772434727026  120.000000
7.430486891385768  0.000000  0.000000  0.000000  -28.382648559840575  7.068772773141872  9.45167358904013  62.055970924122875  9.76221315302595  5.603795383008245  170.25459702908114  15.888173121748176  -121.57891200587093  17.68963629764738  120.000000
7.470651685393259  0.000000  0.000000  0.000000  -28.31444453814108  7.074835322275237  9.740360887994084  62.03281069226226  9.646544911877534  5.497230305642194  171.30006112871158  15.699040174085788  -122.35384502545516  17.723858168995818  120.000000
7.5108164794007495  0.000000  0.000000  0.000000  -28.23058269830026  7.075389009906698  10.004691046385457  61.9971713683594  9.518374835581286  5.3819530297074945  172.68964180157877  15.429099078692646  -123.40132165881865  17.762109612648842  120.000000
7.550981273408239  0.000000  0.000000  0.000000  -28.132708774016184  7.071764750863046  10.241963132076215  61.948577345647166  9.37538505781616  5.259289589139128  174.44185331023152  15.0852222124065  -124.7409137238721  17.805704168699915  120.000000
7.59114606741573  0.000000  0.000000  0.000000  -28.022245187537155  7.065331202603661  10.44918455248905  61.88638334748736  9.215276510906754  5.130637295663162  176.574830624279  14.676151143230273  -126.3940879440923  17.855034036092757  120.000000
7.631310861423221  0.000000  0.000000  0.000000  -27.899962537745317  7.057537634176713  10.62306460513249  61.81065696729802  9.036121385168984  4.997144283995541  179.09990061640517  14.212448219212018  -128.37827230918668  17.909109347770688  120.000000
7.6714756554307115  0.000000  0.000000  0.000000  -27.765693885118576  7.049677855242355  10.760080807797712  61.722186957468224  8.836308322097162  4.860241043165984  -177.98376966700877  13.706137619021085  -130.70170411373041  17.965221763737823  120.000000
7.711640449438202  0.000000  0.000000  0.000000  -27.618592703309464  7.0423997255710455  10.856683297658233  61.62215930276431  8.614206629486429  4.721799891652139  -174.69492985961625  13.169788664060267  -133.3579877134553  18.018645644118006  120.000000
7.751805243445693  0.000000  0.000000  0.000000  -27.457481984919607  7.035454355493327  10.909553994383243  61.51204774725318  8.367941224833205  4.583462142631065  -171.0760981885213  12.615051979545237  -136.32067392280612  18.062388698785394  120.000000
7.791970037453184  0.000000  0.000000  0.000000  -27.281363189927955  7.027819934631475  10.915530314936133  61.39332634184289  8.095540592204244  4.446223709666151  -167.19851820244003  12.05087291591977  -139.53871311375195  18.087257707615557  120.000000
7.8321348314606745  0.000000  0.000000  0.000000  -27.08938781905893  7.018134143463556  10.871560855181064  61.267886632833296  7.795115819613085  4.310256723651714  -163.1727650905002  11.481522703279671  -142.92644618428187  18.08247291284513  120.000000
7.872299625468165  0.000000  0.000000  0.000000  -26.88129274303491  7.004298301767121  10.775192248596523  61.13803422309081  7.465104987528835  4.175182279780432  -159.16148110260562  10.904013428506744  -146.35188896845386  18.036091271433794  120.000000
7.912464419475655  0.000000  0.000000  0.000000  -26.659281418889833  6.982792857821266  10.626036937586292  61.00360425110936  7.105267260003821  4.041289950651493  -155.37492839013262  10.305491039644034  -149.6418742946305  17.93449105274639  120.000000
7.952629213483146  0.000000  0.000000  0.000000  -26.426536862906644  6.95031208172687  10.428248806917479  60.86217819755755  6.719355445632965  3.9104543839255985  -152.02965534315666  9.662314653173386  -152.61762765372896  17.764109334132744  120.000000
7.9927940074906365  0.000000  0.000000  0.000000  -26.182773712132267  6.907150572896821  10.19218535298665  60.713776911291774  6.317677284999231  3.7865218009113506  -149.28737733303834  8.94332797739812  -155.14536225871342  17.515427960595776  120.000000
8.032958801498127  0.000000  0.000000  0.000000  -25.9245982273765  6.857698351951014  9.933712710939666  60.5608511028109  5.916155728887612  3.674741374420894  -147.2271653527179  8.117334661300132  -157.16185174010806  17.184328279875622  120.000000
8.073123595505619  0.000000  0.000000  0.000000  -25.64975178614664  6.808944902194348  9.670400793650504  60.40574358514516  5.533399155609015  3.58076549378539  -145.87123922937047  7.15970618377901  -158.65361584452475  16.772038376483366  120.000000
8.113288389513109  0.000000  0.000000  0.000000  -25.358539183149954  6.770526965560578  9.418578818546754  60.251252472326414  5.188461471735421  3.510517664532796  -145.2470276209619  6.053371701565532  -159.598839531571  16.2862360523681  120.000000
8.153453183520599  0.000000  0.000000  0.000000  -25.05287272014504  6.753026940647215  9.195040456379637  60.10152570982133  4.9007578778412  3.470703747835447  -145.49855662153396  4.784966768539921  -159.85845883986616  15.741645454927179  120.000000
8.19361797752809  0.000000  0.000000  0.000000  -24.736477649652276  6.767365667389788  9.018353050318131  59.96290436335068  4.690097763630472  3.4701441697051956  -147.26181953954452  3.3419499414030813  -158.8009976239334  15.15842325234418  120.000000
8.23378277153558  0.000000  0.000000  0.000000  -24.415823641101127  6.824705804254034  8.90732763928136  59.84343263786331  4.574171452399641  3.518620881855504  -154.18567885978362  1.7238356594251425  -152.77897188837073  14.560030517445183  120.000000
8.273947565543072  0.000000  0.000000  0.000000  -24.100391659693795  6.934643443312511  8.877388280242165  59.750918588048144  4.565749600473681  3.6250166601140443  107.8065210460994  0.46986812780608067  -55.86500624541858  13.970105638267121  120.000000
8.314112359550561  0.000000  0.000000  0.000000  -23.803048908763472  7.104484555269117  8.937669972457549  59.691896158169115  4.669765757916124  3.7979782702275715  51.09489769983256  2.274708792943892  -0.42879994583944503  13.40944531786586  120.000000
8.354277153558053  0.000000  0.000000  0.000000  -23.537367163369712  7.336415510121808  9.091004838925308  59.67101230324295  4.881526215897565  4.046366424681166  45.22674872341764  4.502814571772646  4.000628714334681  12.894384255210392  120.000000
8.394441947565543  0.000000  0.000000  0.000000  -23.314632883048755  7.627393346742184  9.335207988035098  59.69214091463346  5.18822912106182  4.37763411639605  42.78149581293231  6.9237700138075695  4.869049349680503  12.43512911467098  120.000000
8.434606741573035  0.000000  0.000000  0.000000  -23.144105742532027  7.972225984256722  9.664959537592235  59.75878414066082  5.572359705897101  4.7968010284422755  41.21993500768173  9.505099191327293  4.745719578318565  12.035650011398987  120.000000
8.474771535580524  0.000000  0.000000  0.000000  -23.03196268760799  8.363835614961925  10.073414433747608  59.87187906656227  6.014524538710397  5.306350986955706  39.99200009812458  12.216430469554789  4.213707137684968  11.694476187276525  120.000000
8.514936329588014  0.000000  0.000000  0.000000  -22.981583880193888  8.793627978660387  10.552899992443667  60.031099814166694  6.495486279349354  5.905070483494856  38.918808185432425  15.026290133706501  3.48437682913993  11.406413539992618  120.000000
8.555101123595506  0.000000  0.000000  0.000000  -22.994002344765693  9.252691346325637  11.095310740440144  60.23557956445973  6.997498021339914  6.588394204417357  37.93243150277866  17.903541368877427  2.655319102032443  11.164885848474192  120.000000
8.595265917602996  0.000000  0.000000  0.000000  -23.06850518644332  9.731913655239449  11.692327905978285  60.482166427057535  7.504915009710446  7.348678885749286  37.00344995543525  20.817556099298596  1.7808379749643988  10.96325972335225  120.000000
8.635430711610487  0.000000  0.000000  0.000000  -23.204953596347874  10.222511755545332  12.335412085417351  60.76563021988723  8.00460305763516  8.17459303736544  36.117139852474516  23.73886650959018  0.8945207309415572  10.795516365415025  120.000000
8.675595505617977  0.000000  0.000000  0.000000  -23.40401631374647  10.716828946315523  13.015896373320723  61.078290495891615  8.485983058146164  9.051371078821917  35.26453504461918  26.63939581815338  0.01820284404068935  10.656646148279911  120.000000
8.715760299625469  0.000000  0.000000  0.000000  -23.66646009298807  11.208143012306465  13.725168550400145  61.41080950828404  8.94111287983999  9.961669813844532  34.440040807651435  29.49312160376072  -0.8351839982736982  10.54263098022043  120.000000
8.755925093632959  0.000000  0.000000  0.000000  -23.992140621870202  11.690694754883268  14.454765941606272  61.75319866292696  9.36456015056052  10.886988618382208  33.64025111890544  32.276315969911394  -1.659276594045653  10.450510839755141  120.000000
8.79608988764045  0.000000  0.000000  0.000000  -24.379400297648118  12.15956354728384  15.196220447151646  62.09541177364933  9.753087884409798  11.80874785889658  32.86319938663695  34.96753445253681  -2.452427487161121  10.378249267498648  120.000000
8.83625468164794  0.000000  0.000000  0.000000  -24.82461276225404  12.610574720739766  15.940879263957967  62.42814675294819  10.10514764060141  12.709377564885534  32.10849738569957  37.5475776671535  -3.2163840154728005  10.324493340094161  120.000000
8.87641947565543  0.000000  0.000000  0.000000  -25.32130001708658  13.040004918687293  16.679679207973034  62.74358238946658  10.420415997766893  13.57342676705401  31.378022841087812  39.99942738106649  -3.9554476092079476  10.288461439447966  120.000000
8.916584269662922  0.000000  0.000000  0.000000  -25.86029176415977  13.444230661139198  17.40305974693163  63.03589469175494  10.699677089374742  14.388399825707962  30.675429437305713  42.30819366885983  -4.674555621055628  10.269463636585744  120.000000
8.956749063670411  0.000000  0.000000  0.000000  -26.430972323881345  13.820302718978757  18.101654104894344  63.30068149523862  10.944980307493909  15.144710025424795  30.005259962670525  44.4614559212419  -5.377330657282587  10.266333353724686  120.000000
8.996913857677903  0.000000  0.000000  0.000000  -27.022316154038073  14.166050119592523  18.76731168459096  63.53440197660116  11.160087846628334  15.835455563975616  29.3722630767865  46.44997104152167  -6.064634112465927  10.27681410965588  120.000000
9.037078651685393  0.000000  0.000000  0.000000  -27.62330411999752  14.479701369727778  19.393770324495964  63.73395394148811  11.350303545701593  16.456647446561114  28.78159631115733  48.267994603266736  -6.734114054495529  10.297378423445375  120.000000
9.077243445692885  0.000000  0.000000  0.000000  -28.223245705549502  14.759617627304545  19.976840013108493  63.8965090569542  11.521872495187607  17.007042299206752  28.239055509041652  49.91310755573226  -7.380367564603915  10.32350950113851  120.000000
9.117408239700374  0.000000  0.000000  0.000000  -28.81201741785794  15.00430010243436  20.514188022321317  64.01943739364768  11.681317738029003  17.487503733468273  27.750925480475335  51.385504962398194  -7.995521605226863  10.350175642227349  120.000000
9.157573033707866  0.000000  0.000000  0.000000  -29.379961907327164  15.212460102151063  21.004732968050433  64.10055073322327  11.834684102356356  17.90013792367411  27.323846265041084  52.6868962971268  -8.570390777132388  10.372545699494248  120.000000
9.197737827715356  0.000000  0.000000  0.000000  -29.917364644913  15.382940873468728  21.447749867737944  64.13853065959024  11.986675807763477  18.24766145041027  26.964901172968972  53.81918931263955  -9.09596692749979  10.386825276285581  120.000000
9.237902621722846  0.000000  0.000000  0.000000  -30.413893807719734  15.514828487869442  21.84203895177435  64.13343138108952  12.139982410667324  18.53282870383218  26.68170942307257  54.78323849046795  -9.5648966354422  10.390947314529207  120.000000
9.278067415730337  0.000000  0.000000  0.000000  -30.85828131600589  15.607592564177674  22.18536030249847  64.08700256788934  12.295026043856247  18.75794350663319  26.482303674776475  55.57792191339472  -9.972445683895941  10.384853991590807  120.000000
9.318232209737827  0.000000  0.000000  0.000000  -31.238374041943036  15.66118316546273  22.474229368623167  64.00270361934406  12.450082298509544  18.924531810477518  26.37484639420296  56.19969703218671  -10.316835514032737  10.370179454153954  120.000000
9.358397003745319  0.000000  0.000000  0.000000  -31.541595695618355  15.676074243338608  22.704026613155033  63.88542629433171  12.601750169149176  19.033133301753384  26.36718725086889  56.64262740593905  -10.598893856660583  10.349462142487537  120.000000
9.398561797752809  0.000000  0.000000  0.000000  -31.75574907819723  15.653235463528068  22.869289048479576  63.7409535364925  12.74557758763988  19.08322603202348  26.466369188359618  56.8987796610959  -10.8212853394785  10.325097266806289  120.000000
9.4387265917603  0.000000  0.000000  0.000000  -31.869962941088886  15.594042442261788  22.964038340351248  63.5753301926221  12.876730713231481  19.073209675126314  26.678098902681967  56.9588053498995  -10.987517256161105  10.298355597824138  120.000000
9.47889138576779  0.000000  0.000000  0.000000  -31.875641079217  15.500175764370024  22.982009019647172  63.394268738360054  12.990537999760159  19.00049722731568  27.006382871528313  56.812570853577526  -11.100999336372926  10.268731276386287  120.000000
9.519056179775282  0.000000  0.000000  0.000000  -31.76716190976005  15.373479047731571  22.916742375230967  63.20276563975283  13.082866170479427  18.86164263104212  27.453288862599827  56.44971844749251  -11.164324796239399  10.23392447709052  120.000000
9.559220973782772  0.000000  0.000000  0.000000  -31.542373885285684  15.215838254618072  22.761542912465043  63.00489912856383  13.150253458966967  18.652614013267737  28.018962583662436  55.86011716760903  -11.178894728490057  10.19054648707235  120.000000
9.599385767790261  0.000000  0.000000  0.000000  -31.20285982604599  15.029017008179935  22.50943206143645  62.80379098879659  13.189891023268189  18.369076034735276  28.701633343131473  55.03428691176895  -11.144745605449613  10.135396654846119  120.000000
9.639550561797753  0.000000  0.000000  0.000000  -30.75418610871938  14.814583936924084  22.153291031099148  62.60152089023156  13.19957067390912  18.00672449772776  29.49757674031328  53.9638248109328  -11.06044335624448  10.067022235183279  120.000000
9.679715355805243  0.000000  0.000000  0.000000  -30.20624009587166  14.573769555791976  21.68629672266159  62.398970104346276  13.177610055384468  17.561736871778077  30.400838665544537  52.64209568266275  -10.922888112748417  9.987161075086876  120.000000
9.719880149812735  0.000000  0.000000  0.000000  -29.57363968056419  14.307172253338727  21.10271758976066  62.195224555982996  13.122918477633078  17.0314002110743  31.40259113795558  51.065069272308286  -10.726893118051544  9.901700659768183  120.000000
9.760044943820224  0.000000  0.000000  0.000000  -28.875850129317886  14.01477677538381  20.39893957168173  61.9873470535264  13.035110611622493  16.414907942129457  32.49066896921196  49.23241117001596  -10.46477797942617  9.820728151234743  120.000000
9.800209737827716  0.000000  0.000000  0.000000  -28.13594177911438  13.695597951586718  19.574505274084906  61.77082783691796  12.914585517393105  15.71464986945505  33.65030402957687  47.14859017058623  -10.126607713963585  9.758286538669813  120.000000
9.840374531835206  0.000000  0.000000  0.000000  -27.378868435183254  13.34734703451628  18.632876304691376  61.540616910349804  12.76274921940209  14.93765246396718  34.864722619455904  44.82383562278811  -9.70057263980512  9.731376328487743  120.000000
9.880539325842697  0.000000  0.000000  0.000000  -26.630256556129282  12.966821193037946  17.58222588486261  61.29181839086668  12.582700134877168  14.096038717703795  36.11455740333876  42.27473619868099  -9.172939837190631  9.758233319087058  120.000000
9.920704119850187  0.000000  0.000000  0.000000  -25.915353746363216  12.550738679515677  16.436039761868642  61.020516055308576  12.380129570330219  13.20633710957415  37.376914151777186  39.52484726836555  -8.52811082277439  9.85671099168321  120.000000
9.960868913857677  0.000000  0.000000  0.000000  -25.257672401269847  12.096672922456655  15.213029527181014  60.7249463219021  12.163545059501937  12.288553112288204  38.62519784271414  36.60487714663388  -7.7494382485122975  10.042806139999705  120.000000
10.001033707865169  0.000000  0.000000  0.000000  -24.677258395640266  11.603952193755962  13.935923907011516  60.40681113116472  11.943724059030101  11.364690983489966  39.82976069604719  33.55221100107921  -6.820898455548648  10.329350491419202  120.000000
10.041198501872659  0.000000  0.000000  0.000000  -24.189270003294062  11.074211273137143  12.629454943612924  60.072309063133176  11.732438135368907  10.456974313584182  40.95916072019506  30.40971920907334  -5.729163894764387  10.724817233746512  120.000000
10.08136329588015  0.000000  0.000000  0.000000  -23.803212731388548  10.511576109316055  11.318073876911017  59.732394955483706  11.540804665604677  9.586087502777756  41.9822473055221  27.22410036990013  -4.466192446746182  11.231972838826026  120.000000
10.12152808988764  0.000000  0.000000  0.000000  -23.52296042625542  9.922152618558362  10.023970872621218  59.40189589265969  11.377775506365584  8.769598476686049  42.87053037506727  24.04402446770344  -3.0317989589770535  11.846356746945764  120.000000
10.161692883895132  0.000000  0.000000  0.000000  -23.347444330066992  9.313175445659814  8.76586847747143  59.09760693519778  11.24918245697726  8.021168432126444  43.60095569797432  20.91804869686283  -1.4360020010960135  12.555249384008164  120.000000
10.201857677902622  0.000000  0.000000  0.000000  -23.271775064205432  8.692340877295628  7.5584828072302095  58.8364456570603  11.157524140092494  7.350083253982196  44.160217019292304  17.89288728589289  0.29776058800161687  13.337470129593157  120.000000
10.242022471910113  0.000000  0.000000  0.000000  -23.288672457523496  8.066643291046576  6.412960618880617  58.63236425757595  11.102382255849648  6.761319910928398  44.54805005312286  15.01131707871017  2.1306033731436176  14.163940823243317  120.000000
10.282187265917603  0.000000  0.000000  0.000000  -23.389822061312653  7.442806499411871  5.338290268518037  58.49359609848519  11.081826778180153  6.255956453334337  44.7796648180019  12.310902765645945  4.007568613658547  14.999180246158456  120.000000
10.322352059925093  0.000000  0.000000  0.000000  -23.56628567252674  6.828325193498744  4.342424103913926  58.4231132536871  11.094375059390611  5.830897423689528  44.894471646411226  9.824215737725915  5.850599449670497  15.803128964072299  120.000000
10.362516853932584  0.000000  0.000000  0.000000  -23.80765710391877  6.231748790793433  3.432122815280762  58.41865798107756  11.139240523620243  5.479845320579203  44.97380040254123  7.5778998255341214  7.543453624686906  16.534017183799016  120.000000
10.402681647940074  0.000000  0.000000  0.000000  -24.102698642393108  5.662327366667502  2.6123725417136945  58.47266028494512  11.215108751311618  5.194263879855684  45.18503139900907  5.591334025595095  8.889887020032734  17.15186922891378  120.000000
10.442846441947566  0.000000  0.000000  0.000000  -24.44040321983572  5.129165546280139  1.8859222831444358  58.5725725353748  11.318690646573558  4.963934195035295  45.889638966949114  3.8756080249395297  9.507619342484624  17.622077173484275  120.000000
10.483011235955056  0.000000  0.000000  0.000000  -24.809511925923054  4.642039073071556  1.2533255111493151  58.70194585154968  11.444324833524648  4.777947580811216  48.006830018996396  2.434415946671309  8.466527623711604  17.920634599639715  120.000000
10.523176029962547  0.000000  0.000000  0.000000  -25.197652028158902  4.211242580019426  0.7140586035910744  58.84253167417598  11.584095912148857  4.626383819273424  54.82991440783642  1.2725755820895033  2.4733632100390506  18.03888115824166  120.000000
10.563340823970037  0.000000  0.000000  0.000000  -25.58778860433639  3.8460527862232645  0.26812582094214077  58.97612008618861  11.728611601045685  4.50241076633826  88.80226310621237  0.46102276442447954  -30.902618072629156  17.98973486011844  120.000000
10.603505617977529  0.000000  0.000000  0.000000  -25.95608489071171  3.55425471797119  -0.0833782902446283  59.08779110420385  11.866425223981595  4.402795701637884  174.7134624183788  0.5450847427481107  -116.42446841127513  17.812272384268454  120.000000
10.643670411985019  0.000000  0.000000  0.000000  -26.271495308748136  3.3425491091130013  -0.3387250871551568  59.16696825130562  11.983879593118175  4.3270684911179  -166.8107920712342  0.9527848876343172  -134.67997710262284  17.573093744008396  120.000000
10.683835205992509  0.000000  0.000000  0.000000  -26.490565813938733  3.215890828466069  -0.49504110088436737  59.212432413780604  12.066252869201707  4.276243656881838  -162.3260821832482  1.2085601145698959  -139.0654403044642  17.363125003423672  120.000000
10.724  0.000000  0.000000  0.000000  -26.569560935643402  3.174263047638045  -0.547969335474484  59.22751918704727  12.096749978161984  4.2572599364247266  -161.27333948721034  1.292563766331197  -140.09200363179156  17.278046877283987  120.000000
