Simulation
nRows=268
nColumns=15
endheader
time  TH_x TH_y TH_z SC_y  SC_z  SC_x  AC_y  AC_z  AC_x  GH_y  GH_z  GH_yy  EL_x  PS_y
0.0  0.000000  0.000000  0.000000  -29.2314633897116  2.0169230452930873  1.0529184438365837  52.83574569813674  4.500091564752226  -2.8675511189166447  146.3287150331518  5.118853004558213  -97.70652751372589  20.19924504168174  120.000000
0.04016479400749064  0.000000  0.000000  0.000000  -29.235881827198266  2.029060970500936  1.045450004341816  52.82634954730013  4.561006607819042  -2.8513509436653433  144.92885232621234  4.994865839192642  -96.44837411745372  20.113755965290757  120.000000
0.08032958801498127  0.000000  0.000000  0.000000  -29.24946112058587  2.0698102456810967  1.0240952038190578  52.792740470759135  4.733360337224878  -2.8162004697921263  140.50774362051575  4.6342108211383035  -92.45195741665648  19.8659605216514  120.000000
0.12049438202247191  0.000000  0.000000  0.000000  -29.280003360522397  2.1450567116774852  0.9877588813438833  52.71533590148583  4.992543997397323  -2.7774773207288934  132.16671336284443  4.0879110780393475  -84.81658345827006  19.480326421185175  120.000000
0.16065917602996255  0.000000  0.000000  0.000000  -29.339116983398068  2.253430085039244  0.9290296646811831  52.580000635958726  5.313077479097922  -2.740432648689062  117.69280634916433  3.4863478472713503  -71.32436107483929  18.98631598028421  120.000000
0.20082397003745317  0.000000  0.000000  0.000000  -29.438025024368606  2.392237326200318  0.8401603115387531  52.3849915888425  5.675208616802943  -2.705262141259935  94.28557441633882  3.1080100970728437  -49.16432057327812  18.41328801550347  120.000000
0.24098876404494382  0.000000  0.000000  0.000000  -29.59216440677423  2.5603371828824733  0.7181992592145494  52.13244193666819  6.064480588500515  -2.6653669743655506  65.46580367199972  3.3577896600489696  -21.840248068595734  17.78802396057465  120.000000
0.28115355805243447  0.000000  0.000000  0.000000  -29.816672347796764  2.755853184312896  0.5657258813197363  51.831929148416414  6.4697788485901055  -2.6136576395250946  42.32348749077229  4.3783758394667025  -0.4194141200840172  17.132570668269857  120.000000
0.3213183520599251  0.000000  0.000000  0.000000  -30.12345833503856  2.9773379254340893  0.39144136716815986  51.49675126591438  6.881717188030747  -2.544010362144842  27.76351507416427  5.961407560039369  12.220617915160807  16.465798289661407  120.000000
0.3614831460674157  0.000000  0.000000  0.000000  -30.518685032423846  3.2244565365367106  0.20793540646537048  51.14439667723545  7.293245028889874  -2.4537586504753346  18.73812521074792  7.9071014747788855  19.158269476688638  15.802482284535179  120.000000
0.40164794007490634  0.000000  0.000000  0.000000  -31.001520168094107  3.4977069652741  0.03275559148421411  50.79179344461833  7.698422942822  -2.3421411130286787  12.773345530978636  10.106418815560096  22.9009194345373  15.154585257292965  120.000000
0.441812734082397  0.000000  0.000000  0.000000  -31.566152836136844  3.7964638838337987  -0.1131254725796768  50.45463747403811  8.091545887753865  -2.211105453450883  8.541291574424573  12.49904723224524  24.810965921665208  14.530651421295858  120.000000
0.48197752808988764  0.000000  0.000000  0.000000  -32.20337930027464  4.120300314967054  -0.20993080185645405  50.14667521844372  8.466893765980611  -2.0641132606807497  5.347302694015058  15.044817648996792  25.618199737923565  13.936941342720127  120.000000
0.5221423220973783  0.000000  0.000000  0.000000  -32.90281460905443  4.468381298761745  -0.24084750247297418  49.87766125904965  8.818177353602028  -1.9049646000057379  2.810077628261977  17.71140606215071  25.73791167313956  13.376871379919923  120.000000
0.5623071161048689  0.000000  0.000000  0.000000  -33.653777394328245  4.83898630987031  -0.19286580337774326  49.65486511963037  9.13863064697429  -1.737729259023258  0.7153821609980943  20.469864413334747  25.416584204436838  12.85168218016479  120.000000
0.6024719101123596  0.000000  0.000000  0.000000  -34.44435616067027  5.229572309135489  -0.06081019441930726  49.48370683090322  9.4241838594228  -1.5623090350144  -1.0554157188469462  23.292254167733194  24.802299030219306  12.36137679000312  120.000000
0.6426367041198502  0.000000  0.000000  0.000000  -35.261163364144295  5.636667586308288  0.15319247087497367  49.36898133970792  9.674196975866609  -1.3752486658307845  -2.564520560231163  26.15159450148259  23.98310869895298  11.904632365891883  120.000000
0.6828014981273408  0.000000  0.000000  0.000000  -36.09044400268732  6.056755578060749  0.4446743680730238  49.313976715926216  9.888852472093033  -1.1733804776324872  -3.8453374982908506  29.022167219252633  23.0132609699681  11.478789000037908  120.000000
0.7229662921348314  0.000000  0.000000  0.000000  -36.919820171182536  6.486582200499074  0.8077072808257272  49.319359268463955  10.06973781217009  -0.9542072702873772  -4.917237022175972  31.88011438549685  21.92720607136335  11.078806905657741  120.000000
0.7631310861423221  0.000000  0.000000  0.000000  -37.738722979993824  6.923398233875368  1.2359945916502122  49.38273564115789  10.21991057411792  -0.7165384907562335  -5.793990817767371  34.70378122943808  20.747732128162628  10.69777081660123  120.000000
0.8032958801498127  0.000000  0.000000  0.000000  -38.53859309141547  7.36485085952297  1.7234513555481479  49.49872329879458  10.343917780999474  -0.46044935781321206  -6.4881197079695445  37.47402272683015  19.49113970895564  10.327536726118296  120.000000
0.8434606741573034  0.000000  0.000000  0.000000  -39.31252312337749  7.8089394904921585  2.263848384358644  49.659267574517344  10.447602902827489  -0.1870289693491634  -7.0135031382828  40.17409641013123  18.17090592704269  9.96013939967721  120.000000
0.883625468164794  0.000000  0.000000  0.000000  -40.05481421446076  8.253641521224457  2.850690766007607  49.85405173554643  10.537231182339703  0.10149149928675166  -7.38673648429248  42.78944514119046  16.800720147914692  9.589473561736252  120.000000
0.9237902621722847  0.000000  0.000000  0.000000  -40.760704505570594  8.696755390780627  3.4764584891809363  50.07116166843239  10.61855860689316  0.4016285287069795  -7.627622172391074  45.30708891211288  15.396452550441941  9.21275299019897  120.000000
0.9639550561797753  0.000000  0.000000  0.000000  -41.42625482433865  9.135542684110066  4.132207914694281  50.29763134666412  10.695803504095055  0.7084965873499403  -7.7587949765406625  47.715133040473034  13.977324063089698  8.831672257628826  120.000000
1.004119850187266  0.000000  0.000000  0.000000  -42.04843034474576  9.566648066745246  4.807153560898306  50.520457977058456  10.770856655708563  1.0158288258987425  -7.804511690671421  50.00228749038131  12.565692428070923  8.452295044510626  120.000000
1.0442846441947566  0.000000  0.000000  0.000000  -42.62528231850207  9.985894740577635  5.489081614346321  50.72764483489292  10.843010937754945  1.3165599466609383  -7.788606214273585  52.15789744985276  11.18585571286512  8.084480121931852  120.000000
1.0844494382022472  0.000000  0.000000  0.000000  -43.15598649995081  10.388727351301027  6.164950747530612  50.90960268337099  10.909241055106039  1.6031075661309695  -7.733354212826603  54.172288994813776  9.862932783025375  7.740316103350882  120.000000
1.1246142322097379  0.000000  0.000000  0.000000  -43.64106911640653  10.770877077099849  6.821423360007063  51.060023411857365  10.964574525094019  1.8675249767709232  -7.65814845457198  56.03691462151614  8.621178315230868  7.432319059533942  120.000000
1.1647790262172284  0.000000  0.000000  0.000000  -44.082401350122275  11.128209857940979  7.445457771520392  51.17590252183012  11.002630648266614  2.102175633859492  -7.578617763584359  57.7445152599362  7.482518858519687  7.171993337745955  120.000000
1.2049438202247191  0.000000  0.000000  0.000000  -44.48241117806761  11.456996556553252  8.024947448917546  51.257304294932354  11.016457790952344  2.3002280566400626  -7.506146833172039  59.28918779317827  6.465111112417741  6.968399215084657  120.000000
1.2451086142322096  0.000000  0.000000  0.000000  -44.84353108832131  11.754207051633362  8.54977905411985  51.30681942601407  10.999815320290095  2.45622762833488  -7.447982664166425  60.66692505501971  5.582502155036288  6.8272221561602064  120.000000
1.2852734082397004  0.000000  0.000000  0.000000  -45.16771917137804  12.017814207136635  9.012825794034793  51.328774824031534  10.948473881689564  2.566668900166868  -7.407608762641124  61.876213537353955  4.842754130629915  6.75002231738921  120.000000
1.325438202247191  0.000000  0.000000  0.000000  -45.45630600650682  12.24685946961333  9.410834467985435  51.32813657512909  10.861321785255376  2.6305374010699643  -7.385598320097357  62.91839588574465  4.248245661018728  6.733646367675877  120.000000
1.3656029962546816  0.000000  0.000000  0.000000  -45.71016563502652  12.441400090417156  9.74482461085966  51.30974981479704  10.741067255684657  2.6492967442207855  -7.380453536350131  63.797807624665104  3.7953408454872806  6.76976571867097  120.000000
1.4057677902621724  0.000000  0.000000  0.000000  -45.930060166732964  12.602320835892726  10.020191407756736  51.27763876159209  10.594415087212395  2.6268483616294542  -7.389427477794774  64.52143665746581  3.4748442529603407  6.844967345478269  120.000000
1.4459325842696629  0.000000  0.000000  0.000000  -46.116942284401155  12.731188507295546  10.245984658709888  51.23484545788647  10.431569496953315  2.5687894318805733  -7.409051730349042  65.09817279493733  3.272579772401342  6.941774230267971  120.000000
1.4860973782771536  0.000000  0.000000  0.000000  -46.27209154786923  12.830017529458546  10.433714289871837  51.18338745140721  10.265006228597738  2.481829176065208  -7.4353156251866634  65.53758006640916  3.170899640091634  7.04074995478047  120.000000
1.5262621722846441  0.000000  0.000000  0.000000  -46.39680800281174  12.90100710530963  10.595549904723029  51.12465065007762  10.107883038911279  2.3728122583813898  -7.4635008356299135  65.84822518260737  3.1500272958916202  7.123296647788138  120.000000
1.5664269662921348  0.000000  0.000000  0.000000  -46.49189636538358  12.94620409508576  10.74238434216463  51.059664622084746  9.972187844259567  2.2481562769733063  -7.487873158781385  66.0359563176102  3.189883540207564  7.174674826916365  120.000000
1.6065917602996254  0.000000  0.000000  0.000000  -46.55711403385135  12.967104695212013  10.882066962502089  50.98950183458224  9.867265649776597  2.113104651826278  -7.501536287906946  66.10208706622929  3.2712802011471163  7.186584588230535  120.000000
1.646756554307116  0.000000  0.000000  0.000000  -46.590626414619834  12.964304152373511  11.01811862637006  50.915385822545446  9.798611973221579  1.9714559976015749  -7.496469350578249  66.04211091166155  3.377126971379328  7.158722179340493  120.000000
1.6869213483146068  0.000000  0.000000  0.000000  -46.58853459818985  12.937194202767316  11.149103195899468  50.839005696893096  9.767454629533088  1.8252300135673794  -7.463721158956561  65.84470329842554  3.4925591664254028  7.098850739267898  120.000000
1.7270861423220973  0.000000  0.000000  0.000000  -46.54460798079716  12.883842799469347  11.268497856017241  50.76249276040414  9.770768275997073  1.6747481961407809  -7.3938086422672376  65.491564213473  3.605102588852747  7.0216367644098066  120.000000
1.767250936329588  0.000000  0.000000  0.000000  -46.45054533764286  12.80106469368055  11.365030742564558  50.68846375234559  9.801742679755714  1.5185317863776788  -7.27726335998426  64.95784265528548  3.70428108843478  6.946768692901404  120.000000
1.8074157303370786  0.000000  0.000000  0.000000  -46.29659390274093  12.684661756029184  11.42337973725268  50.61977410790096  9.850303847785185  1.3535547746143441  -7.105091615106564  64.2134638578359  3.78182892388986  6.8967460475838225  120.000000
1.8475805243445693  0.000000  0.000000  0.000000  -46.072440017067194  12.529806073509299  11.425066803623494  50.5592798878291  9.903771594161668  1.1754594333225978  -6.869009423053224  63.22525768711981  3.8317937822907555  6.894509522778872  120.000000
1.8877453183520598  0.000000  0.000000  0.000000  -45.76831521136313  12.331453438055362  11.349761646786721  50.50926772680399  9.94756369659237  0.9791540618658229  -6.561456688530852  61.95994579572318  3.851627060291037  6.960945262694568  120.000000
1.9279101123595506  0.000000  0.000000  0.000000  -45.376070443637964  12.084771661866759  11.176672157135883  50.4708705370819  9.966075808618259  0.759367990617558  -6.1754499372188985  60.387820476798304  3.843285456878552  7.112097385573249  120.000000
1.9680749063670413  0.000000  0.000000  0.000000  -44.89009070727546  11.785394995335542  10.886510812106783  50.443315851657275  9.943785749396515  0.5117267441506607  -5.70430556426001  58.48668728279107  3.815005094777854  7.356441171004391  120.000000
2.008239700374532  0.000000  0.000000  0.000000  -44.307413987393964  11.429710987091928  10.463596958213266  50.423703119941976  9.866737516315997  0.2339444119715547  -5.1410050987241265  56.24590651296644  3.782275632778122  7.692308374224102  120.000000
2.0484044943820225  0.000000  0.000000  0.000000  -43.62715503406234  11.014974930099187  9.898432967585913  50.40748111909937  9.724488701668294  -0.07241506335284793  -4.4774204998530465  53.66964007233196  3.768310387080553  8.106419096793351  120.000000
2.0885692883895133  0.000000  0.000000  0.000000  -42.849681259191584  10.539404919499832  9.189651777748294  50.38990916567297  9.511957291966727  -0.4007475036447425  -3.704157887528533  50.77867066571884  3.8030896558567684  8.574390182887022  120.000000
2.1287340823970036  0.000000  0.000000  0.000000  -41.97681558234184  10.00246995610555  8.345397530458419  50.367692758770815  9.230565544501747  -0.7390853943088009  -2.8115168124068792  47.60984456085776  3.921296858085148  9.063670781662509  120.000000
2.1688988764044943  0.000000  0.000000  0.000000  -41.01281085860095  9.405574203945056  7.383621240093169  50.34040407141523  8.888866970017707  -1.0713329521661323  -1.7911629538330984  44.21396134878388  4.158869474045671  9.53915674365851  120.000000
2.209063670411985  0.000000  0.000000  0.000000  -39.96620858334103  8.753185797503368  6.331862326938604  50.311081018789125  8.50251078733865  -1.3790385926663  -0.6380713075731527  40.65271322322049  4.548935836979732  9.970286832140951  120.000000
2.2492284644194758  0.000000  0.000000  0.000000  -38.851240389108526  8.054094723673494  5.225498725371399  50.286407559801745  8.09334522686648  -1.6438511648370422  0.6483123404261315  36.994946353496736  5.117207329787321  10.338383220159836  120.000000
2.2893932584269665  0.000000  0.000000  0.000000  -37.68717929472801  7.321969124106509  4.104281215236966  50.27743831808649  7.6870914821144005  -1.8501503626370182  2.0661670719893976  33.31187503056009  5.87589813221646  10.642723427712921  120.000000
2.329558052434457  0.000000  0.000000  0.000000  -36.496574301305614  6.5743426184535  3.0083496618982726  50.29973507340893  7.310517100604913  -1.986153621259881  3.6184613463757764  29.672388139225365  6.814556344609302  10.902519633103136  120.000000
2.3697228464419475  0.000000  0.000000  0.000000  -35.304755081865544  5.8313966020466355  1.973956331609416  50.37047504023825  6.9893877581743675  -2.044419831054897  5.32159947740377  26.140093997360268  7.89073218563192  11.15330801865433  120.000000
2.4098876404494383  0.000000  0.000000  0.000000  -34.14093996278442  5.114822205561974  1.030967466490381  50.504244009080104  6.745916731965341  -2.0229036372674787  7.215532275892874  22.771492529883428  9.020348391073401  11.438283326883944  120.000000
2.450052434456929  0.000000  0.000000  0.000000  -33.03719512172999  4.445879165350335  0.19876547252163118  50.710523660828066  6.597934737058261  -1.9236726081146291  9.381166760398639  19.614678022228453  10.062593385186336  11.798457348518296  120.000000
2.4902172284644193  0.000000  0.000000  0.000000  -32.02613419326542  3.843112861127157  -0.5109022687632764  50.993284093323034  6.553856143982637  -1.7539328306706667  11.97145568390709  16.708717362095083  10.792244459046175  12.263462370258305  120.000000
2.53038202247191  0.000000  0.000000  0.000000  -31.138807605603134  3.320401165570793  -1.0866694063920377  51.349586105801826  6.606392633283724  -1.5301411145201589  15.2474416183331  14.083702779003259  10.867342971076773  12.844906343961856  120.000000
2.5705468164794008  0.000000  0.000000  0.000000  -30.404419390212283  2.8863281893836983  -1.5223384894273737  51.766996864364764  6.738087445382386  -1.273363815058314  19.61524327021258  11.764030911315928  9.796516418331816  13.534056549310082  120.000000
2.6107116104868915  0.000000  0.000000  0.000000  -29.847291680172443  2.5438540299093204  -1.8206060122652463  52.22161253594875  6.9282899868829615  -1.00404194487678  25.642459964830827  9.775532438230346  6.927328660358559  14.302307331593386  120.000000
2.650876404494382  0.000000  0.000000  0.000000  -29.480541649986375  2.290811346185438  -1.9939739748300032  52.680081400651524  7.158459221703406  -0.7393259992433666  33.99883114688362  8.153626412887679  1.5120647584216498  15.107912892167848  120.000000
2.6910411985018725  0.000000  0.000000  0.000000  -29.30100231862084  2.12235991552376  -2.0667212522386906  53.112455504144556  7.414207685886042  -0.49213002461123956  45.24143805117384  6.951584545306168  -7.071274027320544  15.904780475458729  120.000000
2.7312059925093632  0.000000  0.000000  0.000000  -29.285628425095418  2.0297880459319524  -2.0670713598879122  53.49906147341302  7.680549074736188  -0.27373614101137717  59.214744698134254  6.231251741207272  -18.71253354892204  16.650179918840696  120.000000
2.771370786516854  0.000000  0.000000  0.000000  -29.399967030158873  1.9997384688584299  -2.019513269831721  53.82633946357027  7.942613980704996  -0.09186829431407832  74.38875985540523  6.015790803934492  -31.90394606065072  17.30970682498517  120.000000
2.8115355805243447  0.000000  0.000000  0.000000  -29.606651561150596  2.018094140151314  -1.9427125892368187  54.08901721596147  8.190942396565159  0.05124003090281208  88.45548867517577  6.24197128784115  -44.337431982140934  17.85828280054436  120.000000
2.851700374531835  0.000000  0.000000  0.000000  -29.86670623965671  2.07138781370121  -1.8464303351235931  54.29148955091381  8.42336795135513  0.15915253395855983  99.92642791867027  6.776222092327374  -54.50253995483486  18.281589399943723  120.000000
2.8918651685393257  0.000000  0.000000  0.000000  -30.14586065509122  2.1473371835275135  -1.7328602709689718  54.44567138696657  8.642502519996272  0.2390560527695302  108.61927334943097  7.480994344687757  -62.180069770355466  18.5757431712524  120.000000
2.9320299625468165  0.000000  0.000000  0.000000  -30.419258131125634  2.236331495299916  -1.601725161022234  54.56504305512111  8.851597425714756  0.2984864885253717  115.0097182491523  8.254188110523334  -67.80572231910855  18.746842684954643  120.000000
2.972194756554307  0.000000  0.000000  0.000000  -30.671753954589768  2.331267742661121  -1.4538402597239735  54.660964262192635  9.052291639514102  0.3430639523325427  119.66600930121263  9.030778692836922  -71.9104175819492  18.80931212002134  120.000000
3.012359550561798  0.000000  0.000000  0.000000  -30.89663878157657  2.42629534836817  -1.2916899311411347  54.741318713184604  9.244074960987414  0.3765636393651935  123.05370806076006  9.771008685971523  -74.92492253000943  18.783107695781787  120.000000
3.0525243445692882  0.000000  0.000000  0.000000  -31.092888002305333  2.5170742871382776  -1.1188257829091395  54.809245522182124  9.424909910910863  0.401371130534949  125.52328888237905  10.44932122511283  -77.16701923488937  18.691066189473965  120.000000
3.092689138576779  0.000000  0.000000  0.000000  -31.262553863163777  2.6017994345259607  -0.9396497638296694  54.866578412741816  9.592476759771836  0.416961336170295  127.32591735193247  11.050448266742462  -78.85774744701202  18.556159401038848  120.000000
3.1328539325842697  0.000000  0.000000  0.000000  -31.408077556471582  2.679260381397789  -0.7586836104738459  54.91451639371185  9.743926140364655  0.42198533220035295  128.641018177066  11.567140668800986  -80.14868639336288  18.399501203514834  120.000000
3.1730187265917604  0.000000  0.000000  0.000000  -31.53090720115123  2.747069443823645  -0.5804793149975591  54.953840166214434  9.875558179364184  0.4163715204102542  129.59996122213013  11.997590381006079  -81.14594891547195  18.23816399142698  120.000000
3.2131835205992507  0.000000  0.000000  0.000000  -31.631866323931337  2.8028430777398614  -0.40957491056981105  54.98581667943876  9.983734485726353  0.4002081854566111  130.29886746833202  12.343196259734572  -81.92307455086036  18.083739606275234  120.000000
3.2533483146067415  0.000000  0.000000  0.000000  -31.711555066589714  2.844953891565308  -0.25009034222406545  55.01158978353791  10.065409648153679  0.3733426764535053  130.81006623789318  12.606549664456798  -82.53244653157833  17.94193689698623  120.000000
3.293513108614232  0.000000  0.000000  0.000000  -31.770511045555793  2.8722056232997506  -0.10551696640681113  55.03171054209569  10.118095885534316  0.3358153700192744  131.189511127994  12.790458111578692  -83.01261043229327  17.81375577726028  120.000000
3.333677902621723  0.000000  0.000000  0.000000  -31.809271629535267  2.8839069017513133  0.021301890819154467  55.046538370978595  10.13996550841511  0.287696070058259  131.47966247891435  12.89793892350895  -83.39116914765027  17.697330183082425  120.000000
3.3738426966292137  0.000000  0.000000  0.000000  -31.828398086697984  2.8799164671149367  0.1282845107873483  55.05595730054862  10.129853105086646  0.22932782500915877  131.7128541984073  12.931651792180594  -83.6879907032417  17.58974805103981  120.000000
3.414007490636704  0.000000  0.000000  0.000000  -31.828565927972665  2.860651456747588  0.21416554568938095  55.05964189076228  10.087423590551609  0.16116035660935987  131.91189561219358  12.893957688594382  -83.91587986073897  17.488426993323063  120.000000
3.4541722846441947  0.000000  0.000000  0.000000  -31.81065422469949  2.827039941404498  0.27860718509378474  55.056661052599146  10.01312625897225  0.08399525146342907  132.09190895421673  12.786492559211704  -84.08233746294609  17.391778159854958  120.000000
3.4943370786516854  0.000000  0.000000  0.000000  -31.775881118099054  2.7809354064943976  0.32221954194687435  55.04557441605922  9.90851900972278  -0.0013960973363531125  132.26066252403393  12.609928296814735  -84.18996048087658  17.29906035164419  120.000000
3.534501872659176  0.000000  0.000000  0.000000  -31.72563961894059  2.725377623870849  0.3464599170364926  55.02504712330977  9.77632102107727  -0.09459387219944707  132.41628809709064  12.364374963063836  -84.23428970687553  17.209836947210295  120.000000
3.574666666666667  0.000000  0.000000  0.000000  -31.661347784264002  2.663477679789413  0.35374799168305254  54.993678316219096  9.619858861442314  -0.19474761695416967  132.54731264297385  12.050334710034155  -84.20372546765056  17.1233102494505  120.000000
3.614831460674157  0.000000  0.000000  0.000000  -31.584408494657655  2.5978997330656606  0.34711001979774453  54.95043043429502  9.442669083483732  -0.3000136655984598  132.63096840640603  11.669222902216877  -84.0780514851948  17.037614403519466  120.000000
3.654996254681648  0.000000  0.000000  0.000000  -31.49604198703639  2.5313154712952137  0.33009913769751364  54.894641188755664  9.24863770421339  -0.4079937252995416  132.6315580107148  11.223496086352457  -83.82699912626218  16.948973449068053  120.000000
3.6951610486891386  0.000000  0.000000  0.000000  -31.397374928625577  2.466736803728704  0.3065872561793319  54.8258020744275  9.042211390830007  -0.5159366883799678  132.49819127728293  10.716293027986604  -83.40809640590108  16.851347724754262  120.000000
3.7353258426966294  0.000000  0.000000  0.000000  -31.289061597089937  2.4082570973074  0.279934986956187  54.74443334364543  8.828497657940703  -0.6217534010108781  132.15766054906345  10.152192263107889  -82.76022672772584  16.73683003864081  120.000000
3.7754906367041197  0.000000  0.000000  0.000000  -31.171695568039876  2.3605367120221032  0.25312632515502537  54.65106944939097  8.612895667844553  -0.7236555379932691  131.5118888050533  9.537556604619315  -81.80081605183064  16.596294460599623  120.000000
3.8156554307116104  0.000000  0.000000  0.000000  -31.04610245561968  2.32790285344862  0.2289765505574882  54.545471241015875  8.400972998460912  -0.8194190432578281  130.42743791226923  8.881182998986047  -80.41589436414526  16.420285003810445  120.000000
3.855820224719101  0.000000  0.000000  0.000000  -30.913133247296848  2.3146126807271217  0.21002968349024775  54.42754888167311  8.198635899750132  -0.9068496958776441  128.7157505908798  8.19657541322162  -78.44086760344858  16.20020991080753  120.000000
3.895985018726592  0.000000  0.000000  0.000000  -30.77360221826966  2.324952147197075  0.19842590586203268  54.29767665985018  8.011862932287677  -0.983710954407739  126.11292527152393  7.504566767930425  -75.64058965051387  15.929490638518386  120.000000
3.9361498127340826  0.000000  0.000000  0.000000  -30.628800264684813  2.363608565928428  0.1967366299571835  54.156540777030784  7.84715919489411  -1.0475835154212412  122.2591625290631  6.837106894078523  -71.68960351811081  15.604219843658216  120.000000
3.976314606741573  0.000000  0.000000  0.000000  -30.480240610817216  2.4354947422620774  0.2096565920545446  54.00458320406871  7.71354557249126  -1.094863459472298  116.71262457641092  6.238633234895127  -66.18310739197584  15.224059834200856  120.000000
4.016479400749064  0.000000  0.000000  0.000000  -30.326998235219317  2.546087640342459  0.2448153933670685  53.84241221762693  7.62346661387754  -1.120035475638847  109.07120348015893  5.765212377798988  -58.75151269409219  14.794093086618838  120.000000
4.056644194756554  0.000000  0.000000  0.000000  -30.16573731178906  2.702583565362876  0.311106823513195  53.67261282326039  7.591309603406144  -1.1171441728382565  99.22604877883558  5.484356755827188  -49.31062543322859  14.325829851416191  120.000000
4.096808988764045  0.000000  0.000000  0.000000  -29.992572538953652  2.913060967061911  0.41847839883241866  53.49806241008911  7.632476944148204  -1.0793128869300135  87.68117087538343  5.4664986781050695  -38.38199708631996  13.83651302633667  120.000000
4.136973782771536  0.000000  0.000000  0.000000  -29.804698531303554  3.1849953952074355  0.5778396248714109  53.32117937473962  7.7617517792683755  -0.9983722867439416  75.60501583272055  5.765753639772629  -27.143488862250592  13.347576955801104  120.000000
4.177138576779027  0.000000  0.000000  0.000000  -29.60268372567761  3.5232156248242035  0.7984774597404342  53.145435554318745  7.989920560757575  -0.8660918174429606  64.32434446431378  6.4001992464563  -16.922106603923023  12.882651301542749  120.000000
4.217303370786517  0.000000  0.000000  0.000000  -29.391984233879455  3.9290412139045188  1.0866430619374372  52.97300290430509  8.320625824104003  -0.6748079086546616  54.65094336344025  7.350698813012186  -8.522133094459196  12.464261293230663  120.000000
4.257468164794007  0.000000  0.000000  0.000000  -29.18324600171872  4.401043177358438  1.4458108309262478  52.80434135974809  8.750343152454247  -0.41837831786060814  46.726311081925516  8.580078186505933  -2.0717670875424363  12.10953202497443  120.000000
4.297632958801498  0.000000  0.000000  0.000000  -28.990785410452645  4.9341390721657294  1.87730772756549  52.63855180022026  9.269731297236957  -0.0922018585802868  40.31037343367816  10.049989353058425  2.686661542406493  11.826778167757045  120.000000
4.337797752808989  0.000000  0.000000  0.000000  -28.83060195807728  5.519612218341977  2.3804033905990982  52.474372581814514  9.864270760399103  0.3069342731688598  35.073669612579074  11.727800579743416  6.103158051918733  11.613960858783672  120.000000
4.377962546816479  0.000000  0.000000  0.000000  -28.718099026434636  6.145808502692608  2.952541504944946  52.31189483492007  10.515844472365727  0.7806207457488071  30.728664417999255  13.585636839237711  8.488314529372111  11.460150157183818  120.000000
4.41812734082397  0.000000  0.000000  0.000000  -28.66631159764725  6.79861700713128  3.5889959599789245  52.153096880269466  11.204345659410084  1.328712419573226  27.05914985244837  15.598226046539658  10.0831383232616  11.34836387888083  120.000000
4.458292134831461  0.000000  0.000000  0.000000  -28.684421684243326  7.462817423728032  4.283693056201219  52.00228501385215  11.908580638881913  1.949272986785725  23.910943132448374  17.74079249563333  11.068541558938172  11.259561007122144  120.000000
4.4984569288389515  0.000000  0.000000  0.000000  -28.776825282812645  8.12314112841083  5.0297999935075834  51.866259382721346  12.608191745978424  2.6377494830252823  21.17471158834078  19.988751019007765  11.582400081084195  11.17673639568648  120.000000
4.538621722846442  0.000000  0.000000  0.000000  -28.942891416343834  8.766019946569157  5.819767037086857  51.75376299216193  13.285138937228243  3.386996631019222  18.77136150771037  22.31823169795235  11.733729837601132  11.087704085861306  120.000000
4.578786516853933  0.000000  0.000000  0.000000  -29.177549784839822  9.380829570812299  6.645460554272333  51.673439448366956  13.92404040853165  4.187939002014599  16.64113064765855  24.70612477756854  11.613148639152595  10.986855649362305  120.000000
4.618951310861423  0.000000  0.000000  0.000000  -29.473394428955878  9.959846402190419  7.49820605526161  51.63283388974896  14.512590656014584  5.029535701429884  14.738020226668082  27.13053972762218  11.297094751394667  10.874957626290069  120.000000
4.659116104868914  0.000000  0.000000  0.000000  -29.8221358077522  10.498235821561314  8.369064653692984  51.637334601054974  15.041768911044107  5.899056598720523  13.02603341749461  29.570930027436965  10.850083228831686  10.757862543934744  120.000000
4.699280898876404  0.000000  0.000000  0.000000  -30.21605814840825  10.993849739313172  9.249406210779005  51.68977257975717  15.506038561095409  6.782638976338052  11.477438679872915  32.008335676445256  10.32464563439323  10.644720951908207  120.000000
4.739445692883895  0.000000  0.000000  0.000000  -30.648798571765226  11.446926592715949  10.131547035179237  51.79018432678769  15.903507680452567  7.665854979719701  10.07096779797245  34.425327374615385  9.761625667833588  10.54620155882864  120.000000
4.779610486891386  0.000000  0.000000  0.000000  -31.115418899642485  11.859213769829411  11.009091709362131  51.9357118598943  16.23563142479085  8.534451815520052  8.79027231019175  36.805718981935975  9.19060887730708  10.472882763632828  120.000000
4.8197752808988765  0.000000  0.000000  0.000000  -31.61186477227006  12.232963746777777  11.877125629388791  52.12118067885355  16.5063934253903  9.37541561832221  7.6233887021685485  39.133976540505124  8.630448243653694  10.434450757623633  120.000000
4.859940074906367  0.000000  0.000000  0.000000  -32.13382172500789  12.570124769528649  12.731976921449201  52.33982859019796  16.72170247403193  10.178037799258323  6.561479001215592  41.39487648032854  8.091172161216509  10.439266128251964  120.000000
4.900104868913858  0.000000  0.000000  0.000000  -32.67648688612394  12.872242890534464  13.571082020584262  52.58365954367285  16.888863435759756  10.934473109636986  5.597318410977129  43.57342647669481  7.576541527132211  10.493707918142793  120.000000
4.940269662921349  0.000000  0.000000  0.000000  -33.23447764787794  13.140652434267015  14.392687382706796  52.843648287300496  17.016109850746975  11.639588560107487  4.724419296361209  45.65498256763513  7.086152541336259  10.601896411865352  120.000000
4.980434456928839  0.000000  0.000000  0.000000  -33.80145768194848  13.376265515793092  15.195410105733913  53.11019914753207  17.11183504952855  12.290945238096112  3.9369657270164007  47.625279672820376  6.617205404933944  10.765343839764903  120.000000
5.020599250936329  0.000000  0.000000  0.000000  -34.36973078481172  13.579709788720297  15.977518723537225  53.37386809010484  17.183836401448843  12.888345445184799  3.2301553376541117  49.4702984507642  6.165911620063263  10.982735187347657  120.000000
5.06076404494382  0.000000  0.000000  0.000000  -34.930199409629225  13.751572816171041  16.736292812630683  53.6259371169655  17.23875989807969  13.433119235929697  2.600428779839285  51.176232667237834  5.729098560185731  11.249631128268225  120.000000
5.100928838951311  0.000000  0.000000  0.000000  -35.47266787412747  13.892802037127627  17.467521524564855  53.85881419401968  17.281703240583077  13.92723256699603  2.0455937326773013  52.72950847932106  5.30556773897574  11.558043338197068  120.000000
5.1410936329588015  0.000000  0.000000  0.000000  -35.98637582741752  14.0050813600214  18.16515594417293  54.066214829225956  17.315960451563097  14.37239578012045  1.5649153563855824  54.116819175406505  4.897271734648988  11.896029372691013  120.000000
5.181258426966292  0.000000  0.000000  0.000000  -36.46062995039181  14.091176012254857  18.821157716239494  54.24326652072618  17.342924428260414  14.769207266321368  1.159086187364102  55.325040714379284  4.509939150354403  12.24742570739155  120.000000
5.221423220973783  0.000000  0.000000  0.000000  -36.885334295115904  14.155094666778858  19.425568167256866  54.38647026509845  17.362217051412465  15.116506094426128  0.8300664985240126  56.34093291010958  4.153027413374017  12.592189882089741  120.000000
5.261588014981274  0.000000  0.000000  0.000000  -37.25130580423447  14.201900750492886  19.966930005380565  54.49358035314368  17.372046686538763  15.411104151072522  0.5807289227817432  57.15060702271286  3.8386977379295826  12.907743305505877  120.000000
5.301752808988764  0.000000  0.000000  0.000000  -37.55029144246288  14.237209596112624  20.4330137934096  54.563362508642065  17.369820059423468  15.64797164849958  0.41428655356649247  57.738791658358025  3.5799181300200553  13.171445662984981  120.000000
5.341917602996254  0.000000  0.000000  0.000000  -37.77475453279225  14.266389646845505  20.811785527508174  54.59528272019522  17.352821789467498  15.820860076848252  0.3335998952608954  58.08816868264545  3.3880976219771033  13.363825725207478  120.000000
5.382082397003745  0.000000  0.000000  0.000000  -37.91759588108771  14.29367724227357  21.092409077819084  54.58922432202938  17.318824777874422  15.923211815565592  0.34047222075018785  58.17899382727621  3.270694260786657  13.471987950435478  120.000000
5.422247191011236  0.000000  0.000000  0.000000  -37.97206175829626  14.32137106933794  21.26614853947455  54.54523223278397  17.266466430450027  15.94912992099048  0.4351301984539988  57.98929533772583  3.2293983434498306  13.492404808502824  120.000000
5.4624119850187265  0.000000  0.000000  0.000000  -37.93206460758345  14.34942150371873  21.32698114312121  54.463451864471274  17.19537450473573  15.894069692237272  0.6159608125717543  57.495853115544804  3.2593613069455696  13.432067319262272  120.000000
5.502576779026217  0.000000  0.000000  0.000000  -37.79301332936899  14.375536000863764  21.271896098941372  54.34419396310486  17.105964584467547  15.755125455180552  0.8798010837997012  56.6760834832449  3.3498422069961173  13.307307305444247  120.000000
5.542741573033708  0.000000  0.000000  0.000000  -37.55300735245691  14.395721321043974  21.100948853923587  54.188176401488136  16.99909229151109  15.530955112603127  1.2226834399741258  55.510612991352  3.485987586495252  13.140632343268114  120.000000
5.582906367041199  0.000000  0.000000  0.000000  -37.21406748027053  14.405088311468548  20.817256610601238  53.996694101241864  16.87565029037189  15.221624655158175  1.6410672830799018  53.98615103303348  3.651191247436795  12.956539462736464  120.000000
5.623071161048689  0.000000  0.000000  0.000000  -36.78301292172285  14.398623769401452  20.427060108337255  53.771785381590526  16.7363533527536  14.828581779616647  2.1332565777693224  52.09817776969046  3.8293832347844123  12.777348134696215  120.000000
5.66323595505618  0.000000  0.000000  0.000000  -36.2717779297656  14.371897667730314  19.939832434371112  53.51627439646254  16.58163478307308  14.354893230218009  2.700900687946564  49.85297969566121  4.006644217142608  12.61983070897218  120.000000
5.70340074906367  0.000000  0.000000  0.000000  -35.69704466884722  14.321561151649393  19.368318347053638  53.23379693821346  16.41177038504156  13.805524656215377  3.350023329948889  47.26846745417433  4.171822809176056  12.49341576772663  120.000000
5.743565543071161  0.000000  0.000000  0.000000  -35.079165278920655  14.24567179205184  18.728295296499198  52.92889458773467  16.226952083235943  13.187615802922567  4.0919410127929545  44.373557300512864  4.315732740558667  12.40023598293923  120.000000
5.7837303370786515  0.000000  0.000000  0.000000  -34.44006865574487  14.143802067128368  18.03794333679053  52.607564354485405  16.02723450755448  12.510787862689892  4.944686568373423  41.206333681719215  4.4287629526154  12.336620964263071  120.000000
5.823895131086142  0.000000  0.000000  0.000000  -33.800819992773505  14.01675235691618  17.316889124357157  52.277809878778044  15.812452329119301  11.787436333939844  5.934890761745504  37.811546975717015  4.497222574937032  12.295369680504336  120.000000
5.864059925093633  0.000000  0.000000  0.000000  -33.180545129630886  13.866486963359451  16.585318392597927  51.949570032178215  15.582239688796697  11.032514220130736  7.099688596660235  34.23802432819354  4.499065699645536  12.267706017429878  120.000000
5.904224719101124  0.000000  0.000000  0.000000  -32.59640266771392  13.696407086867241  15.863304784686825  51.63372283715083  15.336484783011386  10.262424947730398  8.490209299759428  30.53663652406354  4.397940331977731  12.244808322814553  120.000000
5.944389513108614  0.000000  0.000000  0.000000  -32.06357900769337  13.511352091512531  15.170446527254473  51.34103128082031  15.075732107793336  9.49404164872563  10.179209890403767  26.758933050681566  4.13355912412573  12.219161416171714  120.000000
5.984554307116105  0.000000  0.000000  0.000000  -31.595122794784334  13.317450921520186  14.525368860856062  51.0815541661065  14.801278522384207  8.74412725298777  12.277897861579829  22.956318002856232  3.6035364493180952  12.185478512991699  120.000000
6.024719101123596  0.000000  0.000000  0.000000  -31.201685719326743  13.12181814039041  13.945233741655446  50.8642654659189  14.515238212134921  8.028612897213037  14.971321030168323  19.180105112965858  2.6270849089470403  12.141432118213364  120.000000
6.064883895131086  0.000000  0.000000  0.000000  -30.891510627143234  12.932183481297004  13.445284616149532  50.69671800490795  14.220555999298915  7.361956436567002  18.59826035640127  15.483492576709054  0.8645128042374464  12.088149186190668  120.000000
6.1050486891385765  0.000000  0.000000  0.000000  -30.670433568897426  12.756512963530914  13.038443097823505  50.58495583093668  13.920814900599895  6.756620420966748  23.85317271423733  11.928077779351247  -2.385031469217184  12.030435669150826  120.000000
6.145213483146067  0.000000  0.000000  0.000000  -30.54170602627428  12.602402320717287  12.734723843779532  50.53356935911687  13.619839068014812  6.222710453513717  32.36952748615988  8.605238967663684  -8.766805689012378  11.976602129269557  120.000000
6.185378277153558  0.000000  0.000000  0.000000  -30.50587047623113  12.476671520715321  12.540739982355248  50.54568753835219  13.320957712990518  5.7679557692367  48.58551297270303  5.71805745130505  -22.735748431983197  11.937862989447197  120.000000
6.225543071161049  0.000000  0.000000  0.000000  -30.560344864012247  12.384984373063059  12.459406898130686  50.6232512464109  13.026723717634928  5.397681798458766  82.96317313966604  3.901086196626541  -54.77481864421989  11.927374426578352  120.000000
6.265707865168539  0.000000  0.000000  0.000000  -30.698488999596886  12.331533448558679  12.489757497216255  50.767346914893245  12.738647526038921  5.115230626255054  127.9570844093507  4.270142172980744  -97.36285316676353  11.959171405074162  120.000000
6.30587265917603  0.000000  0.000000  0.000000  -30.909284982948552  12.318446769676694  12.627080045811976  50.978045410119286  12.456823426687254  4.9228323068406015  153.19984463223608  6.182075007549451  -120.15896239805852  12.046817381217476  120.000000
6.346037453183521  0.000000  0.000000  0.000000  -31.178060946442354  12.345576816233716  12.863624878562819  51.25431840057362  12.180350700211747  4.821679769072456  165.29069278519916  8.468649262938694  -129.79057563605917  12.202098356885056  120.000000
6.386202247191012  0.000000  0.000000  0.000000  -31.48739482964841  12.411197773349494  13.189137411472739  51.59424542556184  11.90822403352464  4.81173703794362  172.11021997090654  10.748335150396485  -134.1675432190916  12.433840368107093  120.000000
6.426367041198501  0.000000  0.000000  0.000000  -31.819003607847932  12.5123116972689  13.59150957409442  51.99432388887045  11.63986946919359  4.891357394794008  176.5216288758258  12.915247789226783  -136.18319644147797  12.746469812182365  120.000000
6.466531835205992  0.000000  0.000000  0.000000  -32.15673892132772  12.645325068061023  14.058028851285373  52.44781331279082  11.37609676130796  5.056956586476995  179.63074997724385  14.93763630587505  -136.97452197977992  13.138664837320656  120.000000
6.506696629213483  0.000000  0.000000  0.000000  -32.488907412732246  12.806749111130376  14.577363098868148  52.94367302575681  11.120574006891879  5.302855808794503  -178.0731253867245  16.807690078119542  -137.0632168234251  13.601855134420534  120.000000
6.546861423220974  0.000000  0.000000  0.000000  -32.81010218089125  12.993533605506466  15.140949929987187  53.46586449765181  10.880640006147464  5.621378874384918  -176.35282369038543  18.526415139958026  -136.71999475158904  14.119283290027338  120.000000
6.587026217228464  0.000000  0.000000  0.000000  -33.12133782319254  13.203038486886685  15.74260328875075  53.99452730286123  10.666227639773695  6.002679528433494  -175.08843057637213  20.099090561313368  -136.0974253157749  14.667009499822813  120.000000
6.627191011235955  0.000000  0.000000  0.000000  -33.42820998441988  13.43230015154898  16.377795538123767  54.508347219910284  10.487083635817763  6.434198963281786  -174.21820262396608  21.534276097454438  -135.28754550233018  15.216454815681518  120.000000
6.667355805243446  0.000000  0.000000  0.000000  -33.7389861211364  13.677685698296544  17.04256146141562  54.98678277276088  10.351265716922965  6.902109076493995  -173.71140306283536  22.843480682408416  -134.34738539180032  15.737915356780727  120.000000
6.707520599250937  0.000000  0.000000  0.000000  -34.061545960777174  13.93428408479611  17.73301971071755  55.41285589757389  10.264702137524734  7.393416197336396  -173.55467849645106  24.040359014259025  -133.3101097165435  16.204698109384267  120.000000
6.747685393258427  0.000000  0.000000  0.000000  -34.40040716353434  14.19545289861195  18.44540957951528  55.77478350816713  10.23082273933011  7.898201904405069  -173.74150962222126  25.139583573027977  -132.19269080517924  16.59700574925186  120.000000
6.787850187265918  0.000000  0.000000  0.000000  -34.755523623758585  14.453534493591356  19.175919929033352  56.06678998304143  10.250382061192255  8.410797270727295  -174.2606410366293  26.155321910601  -131.00473459298323  16.904545102525525  120.000000
6.828014981273408  0.000000  0.000000  0.000000  -35.122281408925524  14.701381190736214  19.919887733637466  56.28881673672864  10.320785503932072  8.929034280815788  -175.08148626234282  27.099281384223357  -129.76081195241383  17.127001529243376  120.000000
6.868179775280899  0.000000  0.000000  0.000000  -35.49240915343208  14.934067335338714  20.670759535047896  56.44561855740599  10.435442537179803  9.453211918455477  -176.14372247506722  27.97855284857303  -128.489985833468  17.273490293665606  120.000000
6.908344569288389  0.000000  0.000000  0.000000  -35.85644096750625  15.149337385369709  21.41989906621788  56.5449193366491  10.584472766241229  9.984159429669168  -177.36602614231666  28.795351402836868  -127.23224518379261  17.360162579614478  120.000000
6.94850936329588  0.000000  0.000000  0.000000  -36.207096146057104  15.346387662243437  22.15754104345858  56.594903376339055  10.756619480651402  10.520961850338145  -178.66837120158598  29.549698149770986  -126.02580001811675  17.405626245067417  120.000000
6.988674157303371  0.000000  0.000000  0.000000  -36.540126321295624  15.52452143391606  22.87418752347467  56.60358086248959  10.940868724295267  11.060330357971887  -179.9852958605299  30.241498419840408  -124.89906127583862  17.427210818943227  120.000000
7.028838951310862  0.000000  0.000000  0.000000  -36.85320241928959  15.683392076720544  23.561186340006365  56.578974871255035  11.1271201654813  11.597184036248464  178.7361963505978  30.870314161586048  -123.87249617960784  17.438708774058522  120.000000
7.069003745318352  0.000000  0.000000  0.000000  -37.14540201898569  15.823843806773326  24.210939451517934  56.52946494376259  11.306787956839175  12.1242644420093  177.54053284748463  31.43519902914344  -122.96195191657843  17.44925388933264  120.000000
7.109168539325843  0.000000  0.000000  0.000000  -37.416417341609616  15.947510582663584  24.817130470363537  56.4638013626521  11.47307199610029  12.632826247059889  176.46338751208756  31.935023692966997  -122.17845900140608  17.463568157991517  120.000000
7.149333333333334  0.000000  0.000000  0.000000  -37.66558731966476  16.05597142670898  25.374840800029975  56.390430468247864  11.620709367705913  13.114554912438983  175.5315913021598  32.36879607695787  -121.52802147552548  17.483175412163224  120.000000
7.189498127340824  0.000000  0.000000  0.000000  -37.89180942651571  16.150798019880366  25.880462690473554  56.317443766499714  11.74594749929585  13.561836886962721  174.76480125551305  32.735849108883365  -121.01263009309196  17.50774537645635  120.000000
7.229662921348314  0.000000  0.000000  0.000000  -38.09392754900305  16.233845992200024  26.331297502840556  56.2524528264362  11.846154073864465  13.967563516820823  174.1785981110159  33.035530673361286  -120.63262122440076  17.535938627143654  120.000000
7.269827715355805  0.000000  0.000000  0.000000  -38.271062117929034  16.307202949185875  26.72524004371639  56.20235012767178  11.919379609116094  14.325170294205373  173.7859319787592  33.26717922053924  -120.38794308372992  17.56609250311169  120.000000
7.309992509363296  0.000000  0.000000  0.000000  -38.422568446226386  16.373155802990176  27.060627119495354  56.173275125416815  11.964095355508901  14.628817695411223  173.59738679234852  33.43028233965127  -120.2782352992343  17.596901026051658  120.000000
7.3501573033707865  0.000000  0.000000  0.000000  -38.54805178888654  16.434114423177576  27.336060804569534  56.17046483407004  11.97891547252006  14.873581560505514  173.62152045545227  33.524577652170144  -120.30313425867097  17.62769315516179  120.000000
7.390322097378277  0.000000  0.000000  0.000000  -38.64742365730574  16.492569471099074  27.550303706079387  56.198185151097825  11.962420160124362  15.055522832967627  173.86495555486826  33.55009597965511  -120.4622766346331  17.658545564109996  120.000000
7.430486891385768  0.000000  0.000000  0.000000  -38.72089159853092  16.550998634782186  27.70220074727291  56.25955319089895  11.912982019563946  15.171826719905642  174.33254528408827  33.50715987562232  -120.75546339550245  17.690168637354024  120.000000
7.470651685393259  0.000000  0.000000  0.000000  -38.76879205132437  16.61176006330156  27.79072103658767  56.35647318541205  11.828825902109584  15.220971859065385  175.02678779334502  33.39653226772603  -121.18218303434048  17.723799434132626  120.000000
7.5108164794007495  0.000000  0.000000  0.000000  -38.791013754978195  16.67660919711565  27.81536380544873  56.48944904977748  11.70818262452981  15.20332164551657  175.9460196709296  33.219768923840704  -121.74008703638438  17.761267169078785  120.000000
7.550981273408239  0.000000  0.000000  0.000000  -38.78704687478706  16.7457233979154  27.77623176952121  56.656904555216805  11.549037830844737  15.121794577387284  177.08308551216038  32.9790672265291  -122.42398540978532  17.804249191850097  120.000000
7.59114606741573  0.000000  0.000000  0.000000  -38.75648089215667  16.817929807853947  27.673694454754205  56.855293367913305  11.349495589091646  14.981286146135101  178.4264054626569  32.676576866154015  -123.22661177286534  17.85355171620624  120.000000
7.631310861423221  0.000000  0.000000  0.000000  -38.69879287938332  16.892017140326097  27.508307264379564  57.07992913104325  11.108815577551374  14.7871910437611  179.9600131950305  32.3144511697694  -124.13882773739508  17.908494231417453  120.000000
7.6714756554307115  0.000000  0.000000  0.000000  -38.613434441135155  16.966487184486805  27.281008710039764  57.32498458736962  10.827531069011728  14.545146231215984  -178.3378724112474  31.89498772362793  -125.14873099420879  17.966174009415905  120.000000
7.711640449438202  0.000000  0.000000  0.000000  -38.50009542694108  17.038620526360024  26.993271787801262  57.58325342175769  10.507390648784808  14.26123955179729  -176.49744234571128  31.42060446962605  -126.23973108455834  18.0213656449781  120.000000
7.751805243445693  0.000000  0.000000  0.000000  -38.358518136528744  17.104544800297493  26.647528692853243  57.84619686309549  10.151731517733564  13.942001744388023  -174.56070727223747  30.89370909486331  -127.38776122241408  18.066725509453576  120.000000
7.791970037453184  0.000000  0.000000  0.000000  -38.18881342723346  17.159320647260195  26.247780940676435  58.1040605003426  9.766075873831612  13.593777708467126  -172.58485776078732  30.316070272996555  -128.5587718294749  18.093012888376403  120.000000
7.8321348314606745  0.000000  0.000000  0.000000  -37.99152556743887  17.1973511326166  25.799982447152487  58.346042225378966  9.358584212854854  13.222165396481145  -170.64600940291479  29.68826672117673  -129.7057593507172  18.089620253471317  120.000000
7.872299625468165  0.000000  0.000000  0.000000  -37.76786853722769  17.212326818940394  25.312014193130505  58.560538369716085  8.940050543154298  12.831577497860472  -168.844356018966  29.00952494608898  -130.7646203828484  18.04503906143175  120.000000
7.912464419475655  0.000000  0.000000  0.000000  -37.521566073802845  17.196798722221104  24.79309877934235  58.73431222373909  8.522993590426832  12.424339529177033  -167.3036193206181  28.27722971071164  -131.65506521134802  17.94619712183015  120.000000
7.952629213483146  0.000000  0.000000  0.000000  -37.25814571809551  17.145026926422478  24.253297972287648  58.85437282782012  8.12039783945712  12.00208896603516  -166.15042573040418  27.4846357527981  -132.29341461944213  17.779710453272877  120.000000
7.9927940074906365  0.000000  0.000000  0.000000  -36.981344713739034  17.05739224256269  23.703510143975652  58.913339044218674  7.745087778459305  11.569045517429883  -165.48343611541713  26.618941738569575  -132.61071570733498  17.535556836164755  120.000000
8.032958801498127  0.000000  0.000000  0.000000  -36.69326684960703  16.940383939033886  23.155661155695668  58.91008038025781  7.409403684667926  11.132961533811423  -165.3629101688253  25.663328036389593  -132.56087010327153  17.20857609102172  120.000000
8.073123595505619  0.000000  0.000000  0.000000  -36.39697016787996  16.80336657933534  22.622976379836167  58.84673479078842  7.1248821475291795  10.704638347125071  -165.82555096447996  24.60116713608271  -132.11241976981177  16.79861379718209  120.000000
8.113288389513109  0.000000  0.000000  0.000000  -36.09712178125106  16.65675667187735  22.119543583717086  58.72787599856968  6.9024485550431  10.297562919676052  -166.90885261971465  23.419697111315845  -131.23022479262852  16.312221448874755  120.000000
8.153453183520599  0.000000  0.000000  0.000000  -35.79951814136424  16.510993732375397  21.65899820221322  58.560936743511064  6.752042189105029  9.926859755559503  -168.6741529042985  22.113096478677  -129.85575073306308  15.76364521716848  120.000000
8.19361797752809  0.000000  0.000000  0.000000  -35.510680717898126  16.375643906538954  21.253160612336405  58.356384240150525  6.681011905094424  9.607622396060274  -171.2242636924938  20.685974515345176  -127.8903223861087  15.173594016014086  120.000000
8.23378277153558  0.000000  0.000000  0.000000  -35.23793267960925  16.259396910837857  20.911247004919097  58.12702659491239  6.693359948625865  9.354637475947655  -174.72132822080857  19.156769472906475  -125.17634456834074  14.566957375044916  120.000000
8.273947565543072  0.000000  0.000000  0.000000  -34.98822416567807  16.169036663903274  20.641032499713617  57.88711028432047  6.790253845429705  9.183319509407577  -179.41268555977388  17.561702641258343  -121.46982347270847  13.969215748404093  120.000000
8.314112359550561  0.000000  0.000000  0.000000  -34.76723709725622  16.108583550697748  20.448936466996816  57.651698516013774  6.970043327681754  9.109119946383041  174.34614237497232  15.96322993841052  -116.41437711701563  13.403143811770496  120.000000
8.354277153558053  0.000000  0.000000  0.000000  -34.5803726412148  16.08083274956312  20.337345731064826  57.435974198519965  7.226074446793246  9.14503875619609  166.11145474406322  14.46330935363333  -109.55780318783575  12.885848296549248  120.000000
8.394441947565543  0.000000  0.000000  0.000000  -34.43350231018463  16.087715763657968  20.303037571550284  57.25344213561392  7.5456440936583045  9.298361769075083  155.47610223896916  13.213967945363544  -100.4758571417162  12.426973320286933  120.000000
8.434606741573035  0.000000  0.000000  0.000000  -34.3321181076107  16.129704145850795  20.33902540675629  57.115031327796835  7.912271847085638  9.570846212715018  142.3904294494981  12.412014515778615  -89.09456636258291  12.02928414650864  120.000000
8.474771535580524  0.000000  0.000000  0.000000  -34.27934163535666  16.206040198828177  20.43711820234424  57.03016908688408  8.309128370831944  9.96030179446735  127.62752491440477  12.254384481231755  -76.15843378879335  11.690418738691637  120.000000
8.514936329588014  0.000000  0.000000  0.000000  -34.27633695184373  16.31456738154534  20.589254317146736  57.0063240582456  8.721291030760035  10.460528741035652  112.81822170061005  12.848456678978376  -63.267651472005305  11.40502409875464  120.000000
8.555101123595506  0.000000  0.000000  0.000000  -34.32372806754387  16.45214626660012  20.788173483436715  57.04706608811187  9.136232639318422  11.061552708283907  99.57303107139852  14.152303305963432  -52.00258607253518  11.166088326549824  120.000000
8.595265917602996  0.000000  0.000000  0.000000  -34.42182631155477  16.614946015246417  21.02765634015142  57.152338387131145  9.544771188015416  11.74954015343183  88.62139452883955  16.017666387885118  -43.06579798304261  10.966320590251389  120.000000
8.635430711610487  0.000000  0.000000  0.000000  -34.56984587941457  16.798825216523056  21.302146677713385  57.31905266130751  9.940811406663046  12.508286504826104  79.87857920985137  18.274685148891308  -36.35002293236505  10.79930133123666  120.000000
8.675595505617977  0.000000  0.000000  0.000000  -34.76535827716827  16.99928268229344  21.606095370836776  57.54113170506378  10.320450520121458  13.32047168086859  72.92767427685345  20.77965433486867  -31.420577293882733  10.65999956693893  120.000000
8.715760299625469  0.000000  0.000000  0.000000  -35.004495545569526  17.21107805174087  21.933807467456873  57.810394608260154  10.681753756084778  14.168052712584466  67.33266306452329  23.423500829052852  -27.827973174507157  10.544931007152623  120.000000
8.755925093632959  0.000000  0.000000  0.000000  -35.28204541770542  17.428740987009864  22.279172716135054  58.11693850362892  11.024174876133701  15.03299698184637  62.742129640413374  26.124865977063028  -25.211068716471008  10.451692920134855  120.000000
8.79608988764045  0.000000  0.000000  0.000000  -35.59240673237323  17.646974350956803  22.63528507391551  58.44978814199423  11.347867732418987  15.897490923019715  58.896904933731136  28.821549038394604  -23.303721235932986  10.378705215098165  120.000000
8.83625468164794  0.000000  0.000000  0.000000  -35.92993888931617  17.861138739180078  22.994523453921953  58.79718685892239  11.65301081879366  16.744313060341863  55.61223483972105  31.464717395978226  -21.91581966831073  10.324834490256647  120.000000
8.87641947565543  0.000000  0.000000  0.000000  -36.288507507524194  18.06723736996308  23.34916631115273  59.147432759126225  11.939847365748264  17.557952610834807  52.75858455076429  34.0158891445848  -20.912980061386428  10.289065925030327  120.000000
8.916584269662922  0.000000  0.000000  0.000000  -36.66139400293021  18.26197056824282  23.69205477850829  59.48983714127761  12.208835047578525  18.32569825542253  50.24621848462271  36.4450443674582  -20.199937504998015  10.270353983407409  120.000000
8.956749063670411  0.000000  0.000000  0.000000  -37.04172640569877  18.44280054642245  24.017297974018362  59.81502066097764  12.460545265936464  19.038024616870892  48.01386059066839  38.72930438298077  -19.708201395116546  10.267196940319103  120.000000
8.996913857677903  0.000000  0.000000  0.000000  -37.423093881473655  18.60768207399825  24.320891054958622  60.11502875067568  12.695838034995447  19.688813486949208  46.0203156399963  40.85208664292519  -19.38689909830527  10.27728417192405  120.000000
9.037078651685393  0.000000  0.000000  0.000000  -37.800040707824586  18.754998398478957  24.601065232777515  60.38329181816804  12.916095760439868  20.275362979433037  44.23856708130867  42.802342102467904  -19.196471407893284  10.297278895334445  120.000000
9.077243445692885  0.000000  0.000000  0.000000  -38.16853831588568  18.883457735486978  24.858206843071304  60.61435134108287  13.123117797259022  20.79787692541855  42.65149994343733  44.57356528478388  -19.104544722642057  10.322875211040355  120.000000
9.117408239700374  0.000000  0.000000  0.000000  -38.526034495376024  18.992051290096075  25.094458700051685  60.80352267678462  13.318868558925388  21.258570817289645  41.24897964050379  46.162727030780374  -19.08390666298553  10.3491890088035  120.000000
9.157573033707866  0.000000  0.000000  0.000000  -38.870928838307115  19.08016512794049  25.31308380585869  60.94696864423944  13.505339295728373  21.660786918909437  40.025806791168066  47.56899584386507  -19.11166071284853  10.371418047730005  120.000000
9.197737827715356  0.000000  0.000000  0.000000  -39.20149677386279  19.147516630734795  25.517407713362374  61.04206459334301  13.684118959530073  22.008247555910042  38.98063898168042  48.79242917570778  -19.169468105954675  10.385717240653083  120.000000
9.237902621722846  0.000000  0.000000  0.000000  -39.51473401522575  19.19406129218927  25.70966278705808  61.08790894562003  13.855788874454516  22.30458733694701  38.11538047715674  49.83259142527381  -19.243985924270017  10.389928691206455  120.000000
9.278067415730337  0.000000  0.000000  0.000000  -39.80565715993659  19.2201956466164  25.890185674686414  61.08564153064393  14.019633595991456  22.552845381706465  37.43460421362849  50.68751971663096  -19.32712426913797  10.383943595722762  120.000000
9.318232209737827  0.000000  0.000000  0.000000  -40.0671288469471  19.226785291564134  26.05709311550519  61.03842564056609  14.173698331607017  22.75513131177257  36.94469299728637  51.35317989055527  -19.415527868352033  10.369368916169508  120.000000
9.358397003745319  0.000000  0.000000  0.000000  -40.290254035458545  19.215186729890114  26.206381981655984  60.951046373753435  14.315122315483316  22.91241275747201  36.653045026540866  51.82345355583095  -19.509756956708866  10.348741117541737  120.000000
9.398561797752809  0.000000  0.000000  0.000000  -40.465161007700814  19.187183762952127  26.33228777328881  60.82934972937215  14.440577557295214  23.024459452743013  36.56719702771643  52.09056741038297  -19.612960919285165  10.324452963209039  120.000000
9.4387265917603  0.000000  0.000000  0.000000  -40.58199923203977  19.144859351628185  26.42774509426624  60.67952206440066  14.546761847320457  23.08984861004135  36.694242997697835  52.145706077960966  -19.72980676764712  10.297768730290931  120.000000
9.47889138576779  0.000000  0.000000  0.000000  -40.63193559873765  19.09052694048178  26.484777973185405  60.50754455554365  14.63074652782568  23.106059062996678  37.04032330991605  51.979766444136246  -19.865306746564375  10.268176238269483  120.000000
9.519056179775282  0.000000  0.000000  0.000000  -40.60791513454396  19.026574162269903  26.494777919583186  60.31877908030172  14.690273789979342  23.06957826582713  37.61059209686612  51.58397099125615  -20.024386989701387  10.23335034273  120.000000
9.559220973782772  0.000000  0.000000  0.000000  -40.50520152374531  18.955443666877255  26.44861112224227  60.117864501161804  14.72379426038302  22.976105178957063  38.40927949246972  50.95041730425689  -20.211566774065204  10.189899018248347  120.000000
9.599385767790261  0.000000  0.000000  0.000000  -40.32168641552118  18.879486044644207  26.33667827485922  59.90870879427681  14.730492721387032  22.820666897340356  39.44006117941035  50.07246435060579  -20.431357759103307  10.134569439794356  120.000000
9.639550561797753  0.000000  0.000000  0.000000  -40.05835203340304  18.800854367294974  26.149085612101942  59.69440540292206  14.710139605658977  22.597920864163147  40.7061849797892  48.94513131485217  -20.688441757612797  10.06584975757358  120.000000
9.679715355805243  0.000000  0.000000  0.000000  -39.71964637884134  18.721328517508724  25.876051469479243  59.477128705771484  14.66311459255445  22.302384047073385  42.21075397616577  47.56571569890081  -20.98830235415355  9.985333727028928  120.000000
9.719880149812735  0.000000  0.000000  0.000000  -39.313456658272024  18.641882913337845  25.50856696531753  59.25802184504624  14.590254724369009  21.929410906352516  43.95732435371206  45.93450702088393  -21.337889292933806  9.898893085263088  120.000000
9.760044943820224  0.000000  0.000000  0.000000  -38.85074771498464  18.562509573142638  25.03925646448899  59.037654097558246  14.493082692916765  21.475976220968914  45.95100373505712  44.05593218343038  -21.746761680945745  9.817029349248621  120.000000
9.800209737827716  0.000000  0.000000  0.000000  -38.34506139800548  18.481599061775334  24.46325297012531  58.81603632852535  14.373850722190745  20.942134822689642  48.19951706122988  41.93926548697813  -22.22832075513024  9.754155714216228  120.000000
9.840374531835206  0.000000  0.000000  0.000000  -37.81230487200016  18.395689485222302  23.779025580346477  58.59261687652311  14.235743285399971  20.331766158420105  50.714114962014555  39.59991411036145  -22.801243772902627  9.727261445390145  120.000000
9.880539325842697  0.000000  0.000000  0.000000  -37.2703258342994  18.29957671702928  22.989632923401537  58.36607341984419  14.083399996921127  19.653188776910874  53.511421875329056  37.06013561022468  -23.49197593636414  9.754433024641973  120.000000
9.920704119850187  0.000000  0.000000  0.000000  -36.737583188345845  18.186662800795897  22.103184538368655  58.13505478966026  13.923286134740746  18.91911874084223  56.616688893562106  34.35028269418301  -24.338707734340684  9.853326717260575  120.000000
9.960868913857677  0.000000  0.000000  0.000000  -36.231488665313144  18.04936256720997  21.13268781208605  57.899140918690904  13.76365347558389  18.146239386968116  60.069154492345184  31.50895609282871  -25.397540558381255  10.039865298172838  120.000000
10.001033707865169  0.000000  0.000000  0.000000  -35.7668337693118  17.880154571548466  20.094838227960533  57.65995435382451  13.614271255077647  17.353619823979336  63.929661691384666  28.583127996798858  -26.750956356031093  10.326841316950876  120.000000
10.041198501872659  0.000000  0.000000  0.000000  -35.354612492656976  17.672760222705183  19.008274038418914  57.42223396903303  13.485719320887686  16.560599785077116  68.29179696521005  25.628006854673277  -28.519654010281922  10.722805698980004  120.000000
10.08136329588015  0.000000  0.000000  0.000000  -35.00114290500557  17.42231686966212  17.89135373480327  57.193972878908596  13.38786488449909  15.785317790019695  73.2978702389936  22.70751715343777  -30.87878532828398  11.230473659283552  120.000000
10.12152808988764  0.000000  0.000000  0.000000  -34.70787616121639  17.125651055923036  16.760339808067837  56.98560744986837  13.328379509788048  15.043416140084219  79.15580464739004  19.895655952660093  -34.074810138069914  11.845368036925281  120.000000
10.161692883895132  0.000000  0.000000  0.000000  -34.47238593412946  16.781517154618907  15.628873681006626  56.80876819206132  13.312342128623905  14.347093753461472  86.15159211060976  17.278898163075418  -38.437144914116956  12.554482235230463  120.000000
10.201857677902622  0.000000  0.000000  0.000000  -34.28853306849388  16.390696199313595  14.50757422770861  56.67509728106327  13.342147814413421  13.705169249887849  94.63022768938546  14.959284169334559  -44.357641380283  13.336461151437122  120.000000
10.242022471910113  0.000000  0.000000  0.000000  -34.14774242242125  15.955140285887756  13.404880288580834  56.59507110990959  13.417836774068325  13.123794418499381  104.88859420349262  13.054252118758479  -52.18087671284275  14.162283378704432  120.000000
10.282187265917603  0.000000  0.000000  0.000000  -34.0412213333449  15.478060780957424  12.328015148882209  56.57623539977222  13.537658898145466  12.606494800449978  116.89720789666224  11.681894054271684  -61.923366542368306  14.997227448859368  120.000000
10.322352059925093  0.000000  0.000000  0.000000  -33.96305283630897  14.964760214215065  11.284470435364586  56.62163834396658  13.699048897444223  12.153575188044215  129.94256414837855  10.918977658147453  -72.91302305555405  15.80245389732181  120.000000
10.362516853932584  0.000000  0.000000  0.000000  -33.912711133450934  14.423327030535031  10.282824015473896  56.72762176861457  13.898594348656724  11.762438552801841  142.6478765384543  10.74635429176923  -83.80767543110353  16.536616732346047  120.000000
10.402681647940074  0.000000  0.000000  0.000000  -33.89433552871459  13.865294071590437  9.334556791940498  56.88405642508556  14.133763626837089  11.428558033728768  153.66515050330543  11.037400086105901  -93.28427104114174  17.159720455987237  120.000000
10.442846441947566  0.000000  0.000000  0.000000  -33.91514709525403  13.305431568888777  8.453872507741188  57.07607878599157  14.402179847714491  11.146169588864552  162.33672325515985  11.61194600212229  -100.69908736695808  17.63567324937784  120.000000
10.483011235955056  0.000000  0.000000  0.000000  -33.98234727343846  12.761147191378427  7.656003307595258  57.28500212651788  14.69939482032451  10.909136824970112  168.70496407873426  12.3017690545803  -106.09406967614255  17.939433068088288  120.000000
10.523176029962547  0.000000  0.000000  0.000000  -34.09987151714577  12.251746662223695  6.9536541029236645  57.49206337095621  15.015273733202548  10.710046129829102  173.1490253719641  12.983747835279877  -109.83381004431055  18.06099233311186  120.000000
10.563340823970037  0.000000  0.000000  0.000000  -34.2656566801667  11.796446437265773  6.35594749354977  57.67872466562599  15.331831307938305  10.542679747500301  176.1169356501823  13.581503466549297  -112.33783908301325  18.01319024156006  120.000000
10.603505617977529  0.000000  0.000000  0.000000  -34.46511850766181  11.414146982973493  5.869714000098115  57.83013463603498  15.624575277237897  10.403272168258665  178.00863213536377  14.054892245391624  -113.96384253149243  17.83526156838567  120.000000
10.643670411985019  0.000000  0.000000  0.000000  -34.67336075250727  11.122542604531994  5.502650434045651  57.934198083999675  15.864825021182444  10.291620074923332  179.15365693534042  14.387078423352465  -114.98969984730873  17.59283732225472  120.000000
10.683835205992509  0.000000  0.000000  0.000000  -34.842843871134455  10.940448544747001  5.267125305278038  57.98990972108081  16.025918235070108  10.213300527356651  179.78506938357694  14.577418095779084  -115.58789599154785  17.37854338824975  120.000000
10.724  0.000000  0.000000  0.000000  -34.90931547558396  10.879471654436088  5.184019688988375  58.007124175387176  16.08360043765884  10.18351548358835  179.99239094973584  14.637794827539341  -115.79195528045899  17.29136804906886  120.000000
