Simulation
nRows=268
nColumns=15
endheader
time  TH_x TH_y TH_z SC_y  SC_z  SC_x  AC_y  AC_z  AC_x  GH_y  GH_z  GH_yy  EL_x  PS_y
0.0  0.000000  0.000000  0.000000  -23.12337638698344  3.6758127344347424  -5.157701235243936  62.4347033301578  7.754770031055599  9.835079477135109  -115.86886439245211  6.607431376666038  148.3450294433216  20.17408674048585  120.000000
0.04016479400749064  0.000000  0.000000  0.000000  -23.13094302559687  3.700074648665918  -5.109617107768712  62.40595903544406  7.80678785079217  9.80401955505432  -114.84704323226732  6.5740175226723725  147.2149839046301  20.08700676546695  120.000000
0.08032958801498127  0.000000  0.000000  0.000000  -23.15605607656999  3.770648565322997  -4.973626183228205  62.314026156236096  7.957086729021405  9.708685802914141  -111.75260764303263  6.496057391874705  143.79248996588592  19.83579688159808  120.000000
0.12049438202247191  0.000000  0.000000  0.000000  -23.2074924474938  3.8835723523839003  -4.769132541953847  62.14604097630727  8.188896307548022  9.549953825891516  -106.61480746008887  6.432994817972862  138.10134730666047  19.44738209562209  120.000000
0.16065917602996255  0.000000  0.000000  0.000000  -23.293979361315685  4.033675456849546  -4.517215370184722  61.89290129885066  8.481821351368122  9.333864381537621  -99.6864286359751  6.463163900352417  130.39424312885626  18.953566109231915  120.000000
0.20082397003745317  0.000000  0.000000  0.000000  -23.421351613956244  4.216693532394929  -4.2326416332525705  61.5535009789724  8.821734183182025  9.068899463104483  -91.5233687738333  6.663580369802736  121.23448826441933  18.383965800692557  120.000000
0.24098876404494382  0.000000  0.000000  0.000000  -23.597089059349038  4.431527030299031  -3.919698502880191  61.129933019681914  9.203742061930717  8.768613175640196  -82.92892831579269  7.094407293126318  111.44006605542754  17.7638876092511  120.000000
0.28115355805243447  0.000000  0.000000  0.000000  -23.830374156346263  4.679683605340234  -3.574638903021012  60.62500224380102  9.62875487895261  8.451540309211913  -74.7317032869598  7.789156661475919  101.86138236143874  17.11339436117778  120.000000
0.3213183520599251  0.000000  0.000000  0.000000  -24.129712424797756  4.961887629118885  -3.1910193373427926  60.04764074464199  10.09767722739277  8.1361262645672  -67.52836394634096  8.750179154480843  93.12331576265483  16.44928059891948  120.000000
0.3614831460674157  0.000000  0.000000  0.000000  -24.50003655945204  5.278533362977873  -2.764507937359338  59.417458367896316  10.609273804224747  7.836142748668354  -61.5569187172558  9.954229561822128  85.49682121449646  15.786071243123947  120.000000
0.40164794007490634  0.000000  0.000000  0.000000  -24.94413085775549  5.633640261074775  -2.2910611245593535  58.75647474051943  11.159775667817021  7.563824570861857  -56.77737542230196  11.369727151819077  78.97770282483621  15.136925005436071  120.000000
0.441812734082397  0.000000  0.000000  0.000000  -25.463391276603602  6.028972826854643  -1.764430178578256  58.08240885908012  11.743687393067958  7.331483622492421  -53.02402736209372  12.969452695557868  73.43718505533725  14.510977607233748  120.000000
0.48197752808988764  0.000000  0.000000  0.000000  -26.056636636597833  6.462441906563173  -1.178341730342848  57.41054720367774  12.353439439141079  7.151220559220367  -50.10202739705685  14.730317667648558  68.71693022740465  13.914293654791491  120.000000
0.5221423220973783  0.000000  0.000000  0.000000  -26.719665002593484  6.929528998574566  -0.528131221024236  56.7555701721221  12.978606294683086  7.034209444490998  -47.83009390965536  16.631142176957194  64.67078952089759  13.351325288380876  120.000000
0.5623071161048689  0.000000  0.000000  0.000000  -27.445459435622162  7.423215992795097  0.1881161930744313  56.13168347159617  13.606897945920833  6.989222857727426  -46.05289721180948  18.651553988725652  61.17535969951852  12.824399775786164  120.000000
0.6024719101123596  0.000000  0.000000  0.000000  -28.22485625590896  7.935564360816544  0.9698996817604478  55.55217828865447  14.224807621761641  7.022240843636565  -44.64237588203353  20.771038012272964  58.12987544771842  12.3339607913133  120.000000
0.6426367041198502  0.000000  0.000000  0.000000  -29.046875079836234  8.458053352025756  1.815076793960479  55.02904245849092  14.819156949284002  7.136006030823375  -43.49405886185065  22.968450017048326  55.451268657648775  11.87847544630256  120.000000
0.6828014981273408  0.000000  0.000000  0.000000  -29.898735759511244  8.982540351992142  2.7198906745876537  54.572821406998116  15.37892036891065  7.330515770101943  -42.523192193393626  25.221528307033125  53.06947300418641  11.454468342618368  120.000000
0.7229662921348314  0.000000  0.000000  0.000000  -30.7667615273323  9.501681219656941  3.6795677265947107  54.19162381238525  15.896321084768285  7.603338908772064  -41.662530559706916  27.507491898179353  50.92495557702993  11.056594299513181  120.000000
0.7631310861423221  0.000000  0.000000  0.000000  -31.637688035711967  10.008918103548321  4.689064175847406  53.88973664719781  16.367106312258876  7.950041885780915  -40.86141207984067  29.80436542505584  48.967944791224966  10.67765523232363  120.000000
0.8032958801498127  0.000000  0.000000  0.000000  -32.499571370982416  10.498608674936564  5.743092885162923  53.66706364885203  16.7902988942844  8.36482906671226  -40.08410208296313  32.0918970618984  47.157886640067005  10.309289162598095  120.000000
0.8434606741573034  0.000000  0.000000  0.000000  -33.3421241711038  10.965844911680207  6.835806007959211  53.51923127278334  17.167413515260655  8.840985702140594  -39.30787289412837  34.3521248599191  45.46303036200395  9.94338078476713  120.000000
0.883625468164794  0.000000  0.000000  0.000000  -34.1567889900721  11.406362568003793  7.9601573501438585  53.4381766152875  17.50121851152833  9.371095883503916  -38.52085326276775  36.56961508022088  43.86018510533597  9.573674515835732  120.000000
0.9237902621722847  0.000000  0.000000  0.000000  -34.93658310080293  11.816618133795833  9.107085994484725  53.41303236999036  17.79451656444567  9.946844718849142  -37.72011766221367  38.73135388079316  42.33451243411608  9.197437651124522  120.000000
0.9639550561797753  0.000000  0.000000  0.000000  -35.67598081224736  12.194015592520767  10.264819855058775  53.43125086570931  18.049136971936868  10.558578712991004  -36.90964945110894  40.82639057291633  40.879006391481575  8.816472224508619  120.000000
1.004119850187266  0.000000  0.000000  0.000000  -36.370822788038424  12.537211813549465  11.418573837916838  53.479852355509536  18.265512242726114  11.194752746061528  -36.09843509888239  42.84511571335675  39.49341002442478  8.437203481086396  120.000000
1.0442846441947566  0.000000  0.000000  0.000000  -37.018347578034835  12.846348069658513  12.55086070168012  53.54660450207869  18.442784251031657  11.841593665878545  -35.298423399176464  44.778501904092884  38.182521009058625  8.06970988855595  120.000000
1.0844494382022472  0.000000  0.000000  0.000000  -37.61726323573879  13.12316730749338  13.642402610040076  53.62102095765784  18.579431707857978  12.482976123484717  -34.52279823084189  46.617403979073785  36.95422707593112  7.72621174540392  120.000000
1.1246142322097379  0.000000  0.000000  0.000000  -38.16766837698245  13.370887570997702  14.673321807095919  53.6951626106301  18.674000438827804  13.100636092115023  -33.78444219472111  48.3519683246763  35.81752523866658  7.419279887208413  120.000000
1.1647790262172284  0.000000  0.000000  0.000000  -38.670681841404324  13.59360338880989  15.624550243837279  53.76403382694342  18.72567037646529  13.675084451095076  -33.0944623047171  49.971356171568736  34.78054160097613  7.160294066628147  120.000000
1.2049438202247191  0.000000  0.000000  0.000000  -39.12788353807861  13.795580693587388  16.479290732940946  53.82548582700099  18.73466625645546  14.187135620720268  -32.46098100261438  51.46419154136964  33.84892249450833  6.958192833822359  120.000000
1.2451086142322096  0.000000  0.000000  0.000000  -39.540943212605455  13.980816947459328  17.224370932894224  53.879425755979334  18.702521813614577  14.619714090973133  -31.88828586310825  52.81966181313863  33.02462006477008  6.818517936919385  120.000000
1.2852734082397004  0.000000  0.000000  0.000000  -39.911488761485295  14.152598806713867  17.851190312240735  53.92655202261171  18.632178154194104  14.959618833310703  -31.37626073332585  54.029017260522224  32.30503145036194  6.742745501243012  120.000000
1.325438202247191  0.000000  0.000000  0.000000  -40.241282577954706  14.313015631830938  18.356234058319142  53.96711998637139  18.527851365564803  15.198880895708688  -30.920436624435993  55.086985789433676  31.68264209569124  6.727665232827288  120.000000
1.3656029962546816  0.000000  0.000000  0.000000  -40.532620470586295  14.462586757054765  18.74111142252708  54.00014410123117  18.394871652427106  15.33525091282176  -30.512695376007827  55.99267058893643  31.145124185876742  6.764903331209319  120.000000
1.4057677902621724  0.000000  0.000000  0.000000  -40.788567780706906  14.600184072222834  19.01224859160321  54.02322176552276  18.239476491779428  15.371867568603772  -30.14226027814905  56.74966156724882  30.675860123859486  6.840979396904425  120.000000
1.4459325842696629  0.000000  0.000000  0.000000  -41.01273536045356  14.72334979931361  19.180014477632785  54.03291008871751  18.068551736660154  15.316285227677836  -29.796715151372176  57.36522615207349  30.254888430744256  6.938375155692052  120.000000
1.4860973782771536  0.000000  0.000000  0.000000  -41.20871995830614  14.828861092950286  19.257259479678332  54.02541317172585  17.889225960355084  15.178977824321079  -29.46306947167111  57.848720389905296  29.8603848622165  7.037663285975273  120.000000
1.5262621722846441  0.000000  0.000000  0.000000  -41.379418368196674  14.913360519661715  19.257509303059564  53.99737873301495  17.708320771951062  14.971573638728293  -29.128914085372568  58.209409123439954  29.47045419704867  7.120297436077437  120.000000
1.5664269662921348  0.000000  0.000000  0.000000  -41.52629845419294  14.97391882883408  19.193051527205952  53.94668358533561  17.53168909745886  14.705182601203811  -28.78345430054405  58.45409960666349  29.064914505201934  7.171557843269072  120.000000
1.6065917602996254  0.000000  0.000000  0.000000  -41.648722205476254  15.008402912883653  19.07327718718749  53.87301589541387  17.36355131846166  14.389201597016926  -28.418236063929516  58.58499588326388  28.626750979468323  7.183151328792372  120.000000
1.646756554307116  0.000000  0.000000  0.000000  -41.743499969966784  15.015581986796636  18.903495338666215  53.778127608310186  17.206027830721514  14.030734488976593  -28.02754396831733  58.59813156997693  28.142983765174257  7.154768745016308  120.000000
1.6869213483146068  0.000000  0.000000  0.000000  -41.804817920219755  14.994945865563443  18.684426274802284  53.66574235562944  17.05901284016591  13.634503605034437  -27.60858909215653  58.48253293750348  27.60493467428504  7.094154238752211  120.000000
1.7270861423220973  0.000000  0.000000  0.000000  -41.824509009114415  14.94634265865063  18.412335788572328  53.54125148620675  16.920292049840743  13.203141246341149  -27.16142426224274  58.22021334902451  27.008006396403225  7.015950534529126  120.000000
1.767250936329588  0.000000  0.000000  0.000000  -41.79255859880711  14.869623778106831  18.079531324088602  53.4114006316504  16.78576863386175  12.737669713167975  -26.688525029453  57.78692104319931  26.351322966329274  6.939822784388978  120.000000
1.8074157303370786  0.000000  0.000000  0.000000  -41.69785436449549  14.7643120644528  17.67499995514748  53.28391907796342  16.649606070630558  12.238025825201502  -26.19415754007  57.15369401407585  25.637541726500782  6.888293550103989  120.000000
1.8475805243445693  0.000000  0.000000  0.000000  -41.529214465019436  14.629279358284256  17.18511664140247  53.167140857042696  16.50424067280563  11.703519278248162  -25.68360495007737  56.28917223351072  24.873158069437235  6.884360980983513  120.000000
1.8877453183520598  0.000000  0.000000  0.000000  -41.276414050138975  14.4624826245222  16.59450419478029  53.069550596078614  16.34017782003955  11.133395271024849  -25.162155454021757  55.162709910047255  24.06925334538738  6.948952124041964  120.000000
1.9279101123595506  0.000000  0.000000  0.000000  -40.930993580137965  14.26068096226681  15.887112943620451  52.99918902969663  16.14591910662159  10.527722928940973  -24.63386909993096  53.74809540971401  23.242681992683096  7.09827760286158  120.000000
1.9680749063670413  0.000000  0.000000  0.000000  -40.486694003431055  14.019211428102778  15.047743023449847  52.9628972054527  15.908087277614301  9.88868041093787  -24.10039512502187  52.027676235789805  22.41730627326445  7.341082388592817  120.000000
2.008239700374532  0.000000  0.000000  0.000000  -39.93963562869516  13.731774949218146  14.064154851602938  52.965450384989204  15.612301217331794  9.222215869757322  -23.560306660524827  49.9962464951287  21.625106052979593  7.676161550411807  120.000000
2.0484044943820225  0.000000  0.000000  0.000000  -39.288240987438094  13.390501100910885  12.929617012155417  53.00896879553859  15.244734673572982  8.53949109964857  -23.00948102852712  47.664033795334106  20.906747976523402  8.090616574619297  120.000000
2.0885692883895133  0.000000  0.000000  0.000000  -38.533267457972215  12.986321148755625  11.64566958898664  53.09280142154208  14.79446075750438  7.857689309393766  -22.443038814411224  45.05772216545214  20.311502341239056  8.55998673199476  120.000000
2.1287340823970036  0.000000  0.000000  0.000000  -37.678195046477256  12.509944352927606  10.224489089342713  53.214035453492514  14.256090963288571  7.199410610877959  -21.85912694636254  42.219180357616175  19.896457851664128  9.051187046236215  120.000000
2.1688988764044943  0.000000  0.000000  0.000000  -36.72984938654875  11.953766352761516  8.690364277776068  53.36855440281326  13.632194970404255  6.59059614654163  -21.264076227296737  39.20190420508837  19.725226567211834  9.527978840936113  120.000000
2.209063670411985  0.000000  0.000000  0.000000  -35.69791008108378  11.314295910322732  7.079526063590437  53.55301523745526  12.934992396698519  6.05756255828591  -20.676517924022466  36.065952051760505  19.865573126021978  9.95878659332507  120.000000
2.2492284644194758  0.000000  0.000000  0.000000  -34.59294404530616  10.594786779397971  5.4379207044118845  53.768002145224656  12.186382824972156  5.623533560890832  -20.128264357082134  32.87196369215764  20.38475685269376  10.32483019952022  120.000000
2.2893932584269665  0.000000  0.000000  0.000000  -33.425877758277224  9.806752861255879  3.816957410501442  54.019163353551626  11.416867893721022  5.305829459506102  -19.66374555735763  29.676540289840354  21.344511939175273  10.626341538278242  120.000000
2.329558052434457  0.000000  0.000000  0.000000  -32.21023034247542  8.970445726662813  2.2689191301284044  54.315405387694014  10.662629625756178  5.113631537525215  -19.339175318861198  26.530446986993788  22.79734354760988  10.88390128224555  120.000000
2.3697228464419475  0.000000  0.000000  0.000000  -30.964579306870426  8.114140025553077  0.8424264532939939  54.66633329765542  9.961610117887501  5.047085822697801  -19.219661478321466  23.47833323847982  24.783424679583057  11.1337800782728  120.000000
2.4098876404494383  0.000000  0.000000  0.000000  -29.71335786675779  7.2722361415115575  -0.4216321634207837  55.07968486939629  9.34881707359447  5.097779873421661  -19.373215240069797  20.558666327235  27.326900602280137  11.41966256778525  120.000000
2.450052434456929  0.000000  0.000000  0.000000  -28.486824877724082  6.481305040079189  -1.4928190147826246  55.55884950005265  8.85186961813904  5.249769044681034  -19.863301545597203  17.80306997302984  30.43200490626429  11.782562811017684  120.000000
2.4902172284644193  0.000000  0.000000  0.000000  -27.319965324345517  5.775750710093316  -2.3536414882711676  56.1005024791034  8.48800947836839  5.482261458012142  -20.74139953822288  15.234565448141959  34.07992676181465  12.251167621398675  120.000000
2.53038202247191  0.000000  0.000000  0.000000  -26.24985363345192  5.183579169428327  -3.000267652071224  56.693855262816825  8.262876247190745  5.7723515713861335  -22.040107438135845  12.865541611187174  38.22695999611062  12.835473444912862  120.000000
2.5705468164794008  0.000000  0.000000  0.000000  -25.311459704905808  4.7224875406865  -3.4409993893057766  57.32096461253154  8.17172660365242  6.097611311358476  -23.771445315829823  10.696855916289389  42.80815914379694  13.52494229065334  120.000000
2.6107116104868915  0.000000  0.000000  0.000000  -24.53440666276115  4.400051965975415  -3.6927448692063587  57.95789154244967  8.198963529974165  6.437752052036284  -25.944865994503637  8.717855616224218  47.761181580633355  14.291842770231579  120.000000
2.650876404494382  0.000000  0.000000  0.000000  -23.939235861790213  4.212215439469045  -3.7802883466040003  58.5775184359245  8.319290546390185  6.772985611110091  -28.642545255673312  6.908521825806346  53.10676955191272  15.096704568317502  120.000000
2.6910411985018725  0.000000  0.000000  0.000000  -23.534040721258265  4.142313138512834  -3.73559675832394  59.14943899737855  8.501354648783458  7.087987924335926  -32.23526275382933  5.246252232223425  59.16925387155564  15.893656878850491  120.000000
2.7312059925093632  0.000000  0.000000  0.000000  -23.31297424846697  4.16713757919112  -3.592654067294143  59.645492900165934  8.712363092912584  7.373722440453352  -37.89610197177092  3.717782903571307  67.09333471223744  16.638996252490735  120.000000
2.771370786516854  0.000000  0.000000  0.000000  -23.25112232579305  4.2643880241443215  -3.384304489773344  60.05359995949718  8.924935327099782  7.621892079206678  -49.40797888000876  2.3446522313934466  80.65172802654706  17.297600666029883  120.000000
2.8115355805243447  0.000000  0.000000  0.000000  -23.3103833900753  4.414876538083764  -3.1369052928581227  60.37565408306715  9.120132621459339  7.826916941526475  -81.5100520017049  1.3165893211912711  114.58919882047219  17.84527422011531  120.000000
2.851700374531835  0.000000  0.000000  0.000000  -23.453682365430797  4.60129444920491  -2.8667565626662057  60.619065555177386  9.28804846102306  7.988168194743158  -141.2159965584036  1.3711297723270626  175.93307193475948  18.268669036991042  120.000000
2.8918651685393257  0.000000  0.000000  0.000000  -23.649687287206593  4.808901701282733  -2.582080036821463  60.793979018364894  9.426583575853838  8.108294187921548  -168.64922274905044  2.3097961074458966  -155.17833150531158  18.56415443619062  120.000000
2.9320299625468165  0.000000  0.000000  0.000000  -23.873691106574835  5.025989970326354  -2.286407836828074  60.91010016712655  9.537663046537395  8.191881765925176  -178.48336178845244  3.3907654012141024  -144.05743931140415  18.73745183373779  120.000000
2.972194756554307  0.000000  0.000000  0.000000  -24.106843028752326  5.243700981481195  -1.982325846249485  60.97700772330953  9.62436410775475  8.243178884780672  176.94014209798405  4.445607982790918  -138.35016541568666  18.801930664419846  120.000000
3.012359550561798  0.000000  0.000000  0.000000  -24.33527084273326  5.455565650022073  -1.6728408140186748  61.0037204103742  9.689210799365828  8.265706173386324  174.42233617276892  5.435776491935758  -134.8454182406929  18.77704680703686  120.000000
3.0525243445692882  0.000000  0.000000  0.000000  -24.54979212875821  5.6566643569709285  -1.3615546648449006  60.99846106803191  9.733907625259398  8.262282523963009  172.89683822944642  6.347952334000882  -132.46537334307672  18.68576932922119  120.000000
3.092689138576779  0.000000  0.000000  0.000000  -24.74477399748984  5.843408321454335  -1.0523073242727272  60.968247457365415  9.759332659496536  8.23540940028738  171.92291804353127  7.176308538217412  -130.7583080713606  18.55168167675577  120.000000
3.1328539325842697  0.000000  0.000000  0.000000  -24.91736338367284  6.013162882111867  -0.7490243836253958  60.918891077500284  9.765780300218553  8.187481493607713  171.28922667757854  7.917996146187949  -129.50251491933864  18.396281331935285  120.000000
3.1730187265917604  0.000000  0.000000  0.000000  -25.066574909969066  6.163879657557628  -0.455460831848985  60.85508829035507  9.753097782500276  8.120995499158493  170.88260467099948  8.5716610782498  -128.5750858094956  18.236609062617244  120.000000
3.2131835205992507  0.000000  0.000000  0.000000  -25.19274378552751  6.2941914335986  -0.1750155860071104  60.78040773552545  9.721073487185732  8.038520658834276  170.638965797385  9.136614650545964  -127.90287190256883  18.08393770809203  120.000000
3.2533483146067415  0.000000  0.000000  0.000000  -25.296985356395478  6.403838071069302  0.0894550091082109  60.69746580651821  9.669839051909655  7.942228489804886  170.52175652472346  9.612223593642574  -127.44096068028226  17.94363162888118  120.000000
3.293513108614232  0.000000  0.000000  0.000000  -25.38070867676932  6.493424697951089  0.3355690395620357  60.60822859486942  9.599880163989615  7.833873827907021  170.50858291247692  9.99798953036812  -127.1592827630164  17.81646905316064  120.000000
3.333677902621723  0.000000  0.000000  0.000000  -25.445241305954454  6.563687175627135  0.5611881969001838  60.514308755900565  9.51164766997976  7.715317122127382  170.5840232739048  10.293931821949329  -127.03544272213006  17.700520169744507  120.000000
3.3738426966292137  0.000000  0.000000  0.000000  -25.491667295883587  6.615299326973663  0.7643742615395394  60.41711628099036  9.405537329045547  7.588581722527014  170.7382603169978  10.500494819609628  -127.05338679382118  17.59293252197336  120.000000
3.414007490636704  0.000000  0.000000  0.000000  -25.520976662895475  6.649160169163526  0.9434854073723995  60.3179114902796  9.282183763719013  7.455463194579791  170.96657106145278  10.618198168171187  -127.2029404141084  17.491139473691263  120.000000
3.4541722846441947  0.000000  0.000000  0.000000  -25.5341263887881  6.666441706312462  1.097266587463877  60.21763686966263  9.142530415851175  7.317572872442803  171.26960671400465  10.647435490978562  -127.48011009689893  17.393491935940027  120.000000
3.4943370786516854  0.000000  0.000000  0.000000  -25.532092481031974  6.668320048395602  1.2248732731439862  60.1170260908995  8.987743847597345  7.176494751068594  171.6510632730187  10.588634653888155  -127.88479537641311  17.299334716583267  120.000000
3.534501872659176  0.000000  0.000000  0.000000  -25.515721736058108  6.655651608117238  1.3258401017809638  60.016727748210315  8.819047616889556  7.034159786029167  172.11624774535844  10.442421663402794  -128.41934596626905  17.208575199118368  120.000000
3.574666666666667  0.000000  0.000000  0.000000  -25.48566676803411  6.628992602311587  1.4000090753121648  59.91752164713042  8.637726908556584  6.892717197785731  172.67148921600372  10.20967969615648  -129.08804654320366  17.120757458103157  120.000000
3.614831460674157  0.000000  0.000000  0.000000  -25.442313824415113  6.589092346701258  1.4474927433395837  59.820400174692814  8.44532091424167  6.7541918178155385  173.32627017010273  9.891347989688732  -129.89924774377775  17.034063083311292  120.000000
3.654996254681648  0.000000  0.000000  0.000000  -25.385649793893947  6.537170384132894  1.468803943121273  59.72649306206274  8.243961781541506  6.620186776182897  174.0949685898516  9.488250583312196  -130.86716767869902  16.94447496802616  120.000000
3.6951610486891386  0.000000  0.000000  0.000000  -25.315202569095515  6.474663034946702  1.4650757750378793  59.63662661331268  8.036450215701521  6.4922622985576455  174.9997626453738  9.001128162716748  -132.0147361403404  16.84561822775908  120.000000
3.7353258426966294  0.000000  0.000000  0.000000  -25.22980515343141  6.40288121696329  1.4380391092059466  59.551288952605034  7.826087280903379  6.3721372606233055  176.07420702128942  8.430992041612825  -133.377154136513  16.729210793051045  120.000000
3.7754906367041197  0.000000  0.000000  0.000000  -25.12747162962786  6.3229963906758115  1.3896038297717537  59.470734710158226  7.616335459250728  6.261524557010434  177.37106671037648  7.779604669892206  -135.00964396687192  16.586008871667232  120.000000
3.8156554307116104  0.000000  0.000000  0.000000  -25.005157391576194  6.2362290576164705  1.3214748364016027  59.39531121159781  7.410636000219488  6.161680743915452  178.97690435037308  7.049957113324771  -137.00194935655452  16.406745099121498  120.000000
3.855820224719101  0.000000  0.000000  0.000000  -24.858514930871614  6.1440195358427765  1.235182622484734  59.32520710755543  7.212641989214715  6.073302452892022  -178.95897102846064  6.246588561241248  -139.5073296614987  16.183175845748917  120.000000
3.895985018726592  0.000000  0.000000  0.000000  -24.681724872760476  6.048278961581899  1.132884167289316  59.260523930345904  7.026936129270467  5.996714223572701  -176.17066865875992  5.375903919763631  -142.79642730655976  15.909115955899722  120.000000
3.9361498127340826  0.000000  0.000000  0.000000  -24.46709548485613  5.9515249663406875  1.018556718285314  59.20026423281846  6.860105327260054  5.932896388515409  -172.1384001913003  4.447400092316512  -147.39489519345275  15.581090119372766  120.000000
3.976314606741573  0.000000  0.000000  0.000000  -24.208894322791362  5.856777090129857  0.8993324711342988  59.14026674729534  6.721692276271929  5.8836196344139156  -165.71029857494244  3.4779546734645663  -154.46329359062318  15.199249940089349  120.000000
4.016479400749064  0.000000  0.000000  0.000000  -23.90744859972648  5.768877483616059  0.7861391751917479  59.07297140066321  6.625054260054048  5.8500832703884225  -153.87762454534658  2.510244914628111  -167.0236697112324  14.768936885702361  120.000000
4.056644194756554  0.000000  0.000000  0.000000  -23.567406931439365  5.697021680310375  0.6930078089980427  58.99026884405949  6.587771171735252  5.831845729787963  -127.91293497178468  1.703964434173286  166.18118422412272  14.301758700203234  120.000000
4.096808988764045  0.000000  0.000000  0.000000  -23.195878065017496  5.654673207264739  0.6352018113854447  58.88724784726858  6.629923326832517  5.825889084180015  -80.5033422312717  1.5943802567132404  117.82535686294369  13.814906122450157  120.000000
4.136973782771536  0.000000  0.000000  0.000000  -22.8021846792085  5.6564817902432525  0.6274368896503689  58.76074343633416  6.77062787240952  5.829064308462805  -46.65016754540091  2.462486517955765  82.90242855820495  13.32951502266339  120.000000
4.177138576779027  0.000000  0.000000  0.000000  -22.39839563909379  5.713891240134066  0.6835297357240814  58.60653956603376  7.0243276502901235  5.841481478275504  -31.6972698304989  3.816304623749906  66.75567410788959  12.868252153002452  120.000000
4.217303370786517  0.000000  0.000000  0.000000  -21.99943440420761  5.833383696119445  0.8152031900881491  58.42116762810172  7.398713289533846  5.866648746419412  -24.23411073033895  5.419276885219361  57.98044573619083  12.452170833677727  120.000000
4.257468164794007  0.000000  0.000000  0.000000  -21.62257987888881  6.017769330048483  1.0312535987228386  58.20301520585582  7.89309994417672  5.910937255975005  -19.91608987614853  7.209037393545407  52.24367719512671  12.097807234749078  120.000000
4.297632958801498  0.000000  0.000000  0.000000  -21.287220646625975  6.26461877453413  1.3370675096470077  57.951094838091414  8.497940624792815  5.9827477043815875  -17.174956423939076  9.161566266431308  47.99283246314228  11.81374854331984  120.000000
4.337797752808989  0.000000  0.000000  0.000000  -21.01323293064226  6.566290788606265  1.734044576924058  57.66592320437695  9.196636667827846  6.091835705596894  -15.330713924550405  11.259059020663877  44.56607295884647  11.598589238493686  120.000000
4.377962546816479  0.000000  0.000000  0.000000  -20.818751149713677  6.913603814834227  2.220595792925425  57.350993249403544  9.967858112766459  6.248149878116462  -14.031769715724094  13.482963048540709  41.63126951028127  11.442356466523734  120.000000
4.41812734082397  0.000000  0.000000  0.000000  -20.717995483492988  7.296327820000291  2.7929794069030494  57.011955738316175  10.788041327648143  6.46070251561649  -13.074746902476933  15.813647171857635  39.0049543888502  11.328930060465032  120.000000
4.458292134831461  0.000000  0.000000  0.000000  -20.719766328446823  7.702456548601697  3.4455420266578662  56.6557870872223  11.632775745698627  6.737116850528273  -12.334422197288028  18.230555396066833  36.58201377210338  11.23944582882676  120.000000
4.4984569288389515  0.000000  0.000000  0.000000  -20.827334091747733  8.119711825737909  4.170924390573168  56.29136902483251  12.47785174463979  7.082070955767954  -11.729207811268418  20.71262144146535  34.30116318177346  11.156704024381167  120.000000
4.538621722846442  0.000000  0.000000  0.000000  -21.03889892198121  8.537057658724107  4.960090442000733  55.92899746616806  13.300714872682812  7.496280829407157  -11.20612786421184  23.23940161816548  32.12981183480021  11.06830479017138  120.000000
4.578786516853933  0.000000  0.000000  0.000000  -21.348556668336528  8.94511191494684  5.802555275046906  55.579246186259205  14.081277377700088  7.976408101067318  -10.731686055195171  25.791709458751743  30.05448287839161  10.968116139266309  120.000000
4.618951310861423  0.000000  0.000000  0.000000  -21.747397009829484  9.336508791268859  6.686489266763571  55.25247410174182  14.802423263608143  8.515226155654062  -10.284840811279196  28.351547249715573  28.073035400796332  10.856623264858055  120.000000
4.659116104868914  0.000000  0.000000  0.000000  -22.22473181106168  9.706285545454449  7.599194353653688  54.958395821514685  15.450604178251105  9.102056011648214  -9.852955150862392  30.902037813328015  26.18943930082243  10.739757038541823  120.000000
4.699280898876404  0.000000  0.000000  0.000000  -22.769425170980007  10.052052136925505  8.527888778006394  54.70535536118693  16.016675590959927  9.72320948184751  -9.42948292801101  33.42752008876977  24.409994779513873  10.626892989696891  120.000000
4.739445692883895  0.000000  0.000000  0.000000  -23.370917410406832  10.373672532006863  9.460706190371788  54.49939929814705  16.496304806355177  10.36297206737214  -9.012403549945683  35.91348561559275  22.740450488168534  10.52895970193673  120.000000
4.779610486891386  0.000000  0.000000  0.000000  -24.019662509100634  10.672409145113958  10.387488497628638  54.343773257463326  16.889836158131562  11.005017382372312  -8.602681333375028  38.346304483655885  21.183750433687806  10.456803404300937  120.000000
4.8197752808988765  0.000000  0.000000  0.000000  -24.706861432529905  10.949905673571845  11.300213236348911  54.23862088037961  17.20179127226887  11.633754013595011  -8.203185999940349  40.71308911092987  19.739060639216014  10.420188962652126  120.000000
4.859940074906367  0.000000  0.000000  0.000000  -25.424026405980122  11.20735053355871  12.193097483977233  54.18107229859126  17.440010948222238  12.235579129696529  -7.817842765758797  43.00168778266015  18.40177358765562  10.427162554386546  120.000000
4.900104868913858  0.000000  0.000000  0.000000  -26.162376730270456  11.444936253746866  13.062259502861153  54.16565521460769  17.61451345343528  12.799759878553838  -7.450842017229576  45.2006474318306  17.164112692056005  10.483775349898217  120.000000
4.940269662921349  0.000000  0.000000  0.000000  -26.91224070155163  11.661579291334252  13.90502110022539  54.185036512454516  17.736343404583188  13.318713892159431  -7.106016922954515  47.299078278989235  16.0161579205644  10.59388618842044  120.000000
4.980434456928839  0.000000  0.000000  0.000000  -27.662670490179497  11.855040673255333  14.719059861571687  54.23088707320342  17.816540522024468  13.78776892431061  -6.786325424546042  49.28646287350864  14.947013500528115  10.758907526106835  120.000000
5.020599250936329  0.000000  0.000000  0.000000  -28.401328699339334  12.022296114156225  15.501590712779198  54.29469938944293  17.865379906494006  14.204517271062121  -6.493503289262467  51.1525176246985  13.946084997583428  10.977506945190836  120.000000
5.06076404494382  0.000000  0.000000  0.000000  -29.114700898349955  12.160099300637187  16.248686512481758  54.36847017725223  17.891803962001234  14.567953553111048  -6.227830526903821  52.887134777267924  13.004323905840543  11.245237920020287  120.000000
5.100928838951311  0.000000  0.000000  0.000000  -29.788561523912822  12.265612298957283  16.954751267642603  54.44517120144761  17.903058455978275  14.877510940180589  -5.988029082706776  54.48034460437262  12.115381871008173  11.554135007307412  120.000000
5.1410936329588015  0.000000  0.000000  0.000000  -30.408621845490067  12.33701478852349  17.612176605027912  54.519063469027245  17.904448391062587  15.132112121582185  -5.771291520708703  55.922276432377465  11.276540888766217  11.892275981630126  120.000000
5.181258426966292  0.000000  0.000000  0.000000  -30.96123293917955  12.37400016621281  18.21119381336521  54.58584945777804  17.899265628193415  15.329362739575119  -5.573453422944583  57.20300514727102  10.489232407145975  12.2435430302341  120.000000
5.221423220973783  0.000000  0.000000  0.000000  -31.433993652445285  12.378016900398345  18.740003848211146  54.64270567374136  17.888889383572998  15.465045445573931  -5.389332408257152  58.31225417678394  9.758907374600666  12.587957862292228  120.000000
5.261588014981274  0.000000  0.000000  0.000000  -31.816106179711202  12.352127807132671  19.185254326544605  54.68818360052713  17.87312502656434  15.53312540261291  -5.213267540688177  59.23889358134  9.094015425199357  12.903034111879869  120.000000
5.301752808988764  0.000000  0.000000  0.000000  -32.09842088832947  12.300472313152888  19.532825968709606  54.72208636465962  17.850688835195314  15.526319298342084  -5.039809170987188  59.97038131073646  8.504154568439034  13.166250386847462  120.000000
5.341917602996254  0.000000  0.000000  0.000000  -32.27327451421225  12.22749360645836  19.76876942255909  54.74540693624925  17.819661808385092  15.437164476894795  -4.864443569897623  60.492335229441586  7.99774659546341  13.358291563937321  120.000000
5.382082397003745  0.000000  0.000000  0.000000  -32.33433938781106  12.137115120811009  19.880179513499417  54.76037848766721  17.777796821864168  15.259282040551966  -4.6842957155515546  60.788483729920145  7.579782404227642  13.466420878870414  120.000000
5.422247191011236  0.000000  0.000000  0.000000  -32.27677273427677  12.032056319476517  19.85595023932933  54.77050066117135  17.72262771036993  14.98848746221754  -4.498758043843334  60.841108567034546  7.25021503026524  13.487191486959027  120.000000
5.4624119850187265  0.000000  0.000000  0.000000  -32.09776565302633  11.91342863227617  19.687295324352693  54.7804623400653  17.651436265995738  14.623443358011182  -4.309807909669447  60.63211048034517  7.003515693559499  13.427488570094072  120.000000
5.502576779026217  0.000000  0.000000  0.000000  -31.79730180778078  11.780583851695585  19.36813224663284  54.79579011936227  17.561028516133867  14.165940680855385  -4.121573472060284  60.14469580492683  6.829625770806371  13.303370346417381  120.000000
5.542741573033708  0.000000  0.000000  0.000000  -31.378916187869418  11.631104622434814  18.895267893718056  54.82219542124685  17.447551418423707  13.62105378522731  -3.9390537623436948  59.365529343825024  6.715994185981171  13.137019719980486  120.000000
5.582906367041199  0.000000  0.000000  0.000000  -30.85034351372122  11.460959879798716  18.268603100324817  54.86467383487541  17.306405240000185  12.997141184268322  -3.766538141526016  58.2870678798867  6.650244748138563  12.95272870135282  120.000000
5.623071161048689  0.000000  0.000000  0.000000  -30.224012524400866  11.264862214219223  17.491292253736166  54.926651556867824  17.132505118496205  12.305711869960067  -3.6062625138307225  56.90969073842151  6.6228862880708865  12.772752514978135  120.000000
5.66323595505618  0.000000  0.000000  0.000000  -29.517086978543258  11.036867341775947  16.570052474689522  55.009428155194215  16.920601340583282  11.56119616977418  -3.4575540475020707  55.24324852289542  6.629499909994114  12.613933762854103  120.000000
5.70340074906367  0.000000  0.000000  0.000000  -28.750820534456125  10.771057204133095  15.515344974285135  55.112078093644314  16.66585074947962  10.780779305206565  -3.3165492756539927  53.307493292426926  6.671856342338734  12.485903733839821  120.000000
5.743565543071161  0.000000  0.000000  0.000000  -27.94920607280635  10.462267458564519  14.341484243980522  55.23177853236334  16.364366474156725  9.984109394821289  -3.1765622178035002  51.1311736803859  6.757877607798819  12.39113341683747  120.000000
5.7837303370786515  0.000000  0.000000  0.000000  -27.137238834262217  10.106818827678298  13.066372935111474  55.364486224252076  16.01388470522834  9.192695863399791  -3.0290329311207587  48.750001505880576  6.900708830828822  12.326295747422849  120.000000
5.823895131086142  0.000000  0.000000  0.000000  -26.339234671282984  9.703281177946977  11.710952739487734  55.505782161712936  15.614327649285643  8.428885955757352  -2.8649746728794483  46.203996946127816  7.11743209923359  12.284249342529618  120.000000
5.864059925093633  0.000000  0.000000  0.000000  -25.577455096942597  9.253159539290552  10.298322507642123  55.651658799079314  15.168187976159789  7.714377953908055  -2.6767775859564438  43.53468916008366  7.427821306622109  12.256085686018457  120.000000
5.904224719101124  0.000000  0.000000  0.000000  -24.8712759043684  8.76128985419825  8.852621894074282  55.79905518642452  14.680572587136476  7.068740484474009  -2.460219163600598  40.78256901122529  7.853451663597965  12.232907909986105  120.000000
5.944389513108614  0.000000  0.000000  0.000000  -24.236735109910878  8.235880689678744  7.3980171767570315  55.946048440638414  14.158918886043912  6.508085286515388  -2.216344703947989  37.98522156258246  8.417239908998397  12.20718093046522  120.000000
5.984554307116105  0.000000  0.000000  0.000000  -23.68631112516208  7.688280868955166  5.957890835806798  56.091831857358564  13.61276242542268  6.0442307735702405  -1.9530194414448538  35.17627703593483  9.143268245346382  12.173636571998003  120.000000
6.024719101123596  0.000000  0.000000  0.000000  -23.228753193463767  7.132485601625053  4.554467669599098  56.23653192550053  13.053397412540544  5.684243745338996  -1.6861241669281277  32.38509337517026  10.056880650538178  12.129891039518368  120.000000
6.064883895131086  0.000000  0.000000  0.000000  -22.869051108510074  6.584446031702666  3.208426888284049  56.3810744781502  12.493521663943316  5.430331719764263  -1.4404042173002842  29.63683141542545  11.184935130042248  12.076897247572836  120.000000
6.1050486891385765  0.000000  0.000000  0.000000  -22.608327521249443  6.06104011595493  1.93871251492957  56.527032440181  11.946543045136753  5.280090351089042  -1.2498418760155443  26.952738108339737  12.556189158133517  12.01919128279514  120.000000
6.145213483146067  0.000000  0.000000  0.000000  -22.443501948245846  5.578776834952487  0.7621612658227054  56.676855323678566  11.42591194063895  5.227034421112044  -1.157292403062304  24.350502372147048  14.201540968557438  11.964900218414654  120.000000
6.185378277153558  0.000000  0.000000  0.000000  -22.367237800610752  5.152465719259714  -0.30693984746577435  56.83402777595633  10.944191366728052  5.2616293124236435  -1.2134098089805863  21.84457579187633  16.154076234898827  11.92529896848822  120.000000
6.225543071161049  0.000000  0.000000  0.000000  -22.368031312778378  4.793714872343902  -1.2564222054981384  57.00309434965247  10.511614493379357  5.371780849000344  -1.4765161226398007  19.446485738350304  18.45035733642174  11.913915409395877  120.000000
6.265707865168539  0.000000  0.000000  0.000000  -22.43108483922537  4.509860906179657  -2.0766132165724787  57.18923510338334  10.135566626566463  5.544098784360565  -2.0134629757494924  17.165226559711176  21.13269376671829  11.9453684238215  120.000000
6.30587265917603  0.000000  0.000000  0.000000  -22.539510298316607  4.3033198621988875  -2.7606446393041884  57.397180433753306  9.820777119467229  5.765233464215816  -2.904026581036645  15.007991040004285  24.254565722333332  12.033697908740312  120.000000
6.346037453183521  0.000000  0.000000  0.000000  -22.67606794202594  4.172204410738876  -3.3040074785364966  57.6296389406582  9.570073325514775  6.022297622980193  -4.252149373361617  12.98154383909075  27.89243400492158  12.190475842324252  120.000000
6.386202247191012  0.000000  0.000000  0.000000  -22.825451146921274  4.112789104188547  -3.7050038606416544  57.88704262474688  9.384871285227712  6.302548016652274  -6.20130270076857  11.0935532693775  32.161412496182884  12.423369648822687  120.000000
6.426367041198501  0.000000  0.000000  0.000000  -22.9746900457376  4.119557461825983  -3.966209002391009  58.16899198465318  9.263948445737647  6.592987139148859  -8.951207923107935  9.352102866381275  37.232471856424404  12.735702388708193  120.000000
6.466531835205992  0.000000  0.000000  0.000000  -23.1138350614889  4.1821601006298925  -4.0952257682191435  58.47417901076692  9.201700375979037  6.882637234055404  -12.785059684365123  7.764209637499484  43.35996043474079  13.12553491765219  120.000000
6.506696629213483  0.000000  0.000000  0.000000  -23.23768546833698  4.28691440620157  -4.103656883165465  58.79779295494532  9.18863169571941  7.164045171360591  -18.131524063167713  6.337042631999017  50.94286497266199  13.584784841669775  120.000000
6.546861423220974  0.000000  0.000000  0.000000  -23.346563912503086  4.421893330051612  -4.005256040779994  59.130991447970494  9.214037330371703  7.430833834082892  -25.675997531220215  5.0838523019232085  60.63551795820626  14.098436495364284  120.000000
6.587026217228464  0.000000  0.000000  0.000000  -23.445181798377558  4.578890656695066  -3.8150178823961314  59.46258756737564  9.267828140715105  7.675648596042065  -36.48153111593023  4.032318322723662  73.46858614444109  14.643847659070378  120.000000
6.627191011235955  0.000000  0.000000  0.000000  -23.54111978833396  4.752569312612982  -3.5486143997147725  59.77986603955183  9.34031571762914  7.890947428579935  -51.91137037061617  3.234112581743139  90.77389456062893  15.192964561797696  120.000000
6.667355805243446  0.000000  0.000000  0.000000  -23.64375811910466  4.93870308669884  -3.222050441625932  60.069774229883585  9.421508930956747  8.07015405233197  -72.51032809907045  2.7663204785757163  113.06887705430013  15.716125216304357  120.000000
6.707520599250937  0.000000  0.000000  0.000000  -23.761521415216485  5.132824396707472  -2.851470507273961  60.321247487143374  9.500954321513511  8.208411365554067  -95.53760125454254  2.682776417670416  137.59174943716687  16.1860166546665  120.000000
6.747685393258427  0.000000  0.000000  0.000000  -23.898841069120035  5.329443805381684  -2.452311703548867  60.52772373380398  9.568340549781562  8.303561432963079  -116.00647612199297  2.933236244522089  159.344149056455  16.581899908919052  120.000000
6.787850187265918  0.000000  0.000000  0.000000  -24.05473015829639  5.521923938254176  -2.0382388468013266  60.68789660527443  9.614504031073665  8.356476418688896  -131.73146748646033  3.395512241402165  176.13994366812832  16.8925500030912  120.000000
6.828014981273408  0.000000  0.000000  0.000000  -24.223050056823965  5.703853948955222  -1.6200147268286842  60.805127646983465  9.632985786306154  8.370518301895293  -143.43028040529535  3.969852021495165  -171.29257897931626  17.117156219007498  120.000000
6.868179775280899  0.000000  0.000000  0.000000  -24.394271303259995  5.87088011052395  -1.2044414947809527  60.885868480157555  9.621601116922388  8.35032600205995  -152.30616648572436  4.6002654805124585  -161.72962562641166  17.264935038805802  120.000000
6.908344569288389  0.000000  0.000000  0.000000  -24.558824572922227  6.0212989582755325  -0.7945212842034767  60.93749001084676  9.582244200519385  8.300652970691896  -159.205583691893  5.255382228736281  -154.2983731805367  17.3523931924593  120.000000
6.94850936329588  0.000000  0.000000  0.000000  -24.71010127496296  6.155270601780962  -0.39103732640351135  60.96625369743677  9.518788698998858  8.226020257414758  -164.66056198897945  5.913758029054591  -148.44012607008662  17.398392847160352  120.000000
6.988674157303371  0.000000  0.000000  0.000000  -24.84473745257271  6.273648364081421  0.006034435766593664  60.977203564441766  9.43536258844332  8.1306237686805  -169.01878695655122  6.558550740304835  -143.78273133478217  17.420303138004467  120.000000
7.028838951310862  0.000000  0.000000  0.000000  -24.961499190417754  6.377503893495291  0.3969528917908193  60.974807504484495  9.335812005803914  8.018298396120404  -172.51454741165546  7.175817954434345  -140.06944911501049  17.431992689532397  120.000000
7.069003745318352  0.000000  0.000000  0.000000  -25.06058084941018  6.46803629862406  0.7820496011291325  60.96284479698822  9.223588069828203  7.89257921723623  -175.3077632683897  7.753777071946798  -137.11989930915178  17.4427858198798  120.000000
7.109168539325843  0.000000  0.000000  0.000000  -25.14304894309135  6.546500533968535  1.161667015056348  60.94450894701719  9.101813875178673  7.756655551851724  -177.50890266176572  8.282360492314963  -134.80508005005876  17.457651006617112  120.000000
7.149333333333334  0.000000  0.000000  0.000000  -25.210373543770082  6.614251293568968  1.5361433125553499  60.92244379161766  8.973330861740969  7.613424731496614  -179.19482502311476  8.753032657295867  -133.0314713543581  17.478201572898776  120.000000
7.189498127340824  0.000000  0.000000  0.000000  -25.264174197005214  6.67266910398443  1.905743806552636  60.89883822152227  8.840713523972287  7.465484281304047  179.58127673716336  9.158733837482833  -131.73106635918822  17.50384525065677  120.000000
7.229662921348314  0.000000  0.000000  0.000000  -25.3060179788313  6.72308268309163  2.270591285043241  60.875403274910504  8.706210965022429  7.315206855979041  178.78438124533477  9.493946775933063  -130.8557818417275  17.532950307979075  120.000000
7.269827715355805  0.000000  0.000000  0.000000  -25.33735368681021  6.766730579358317  2.630606951171169  60.85346215260047  8.571702382740598  7.164759683561747  178.39320036998873  9.754753208948008  -130.37299568413115  17.563726808975865  120.000000
7.309992509363296  0.000000  0.000000  0.000000  -25.359428262694422  6.8047417493359745  2.9854520446824884  60.83404052366461  8.438687355934173  7.016115367114268  178.3973571237211  9.938893365128687  -130.2626973051481  17.59481617769288  120.000000
7.3501573033707865  0.000000  0.000000  0.000000  -25.37324809400904  6.838130600757724  3.3344602740527605  60.817925912419206  8.308251890031034  6.871061683573273  178.79570748460102  10.045866192438456  -130.51579861787667  17.625576007783486  120.000000
7.390322097378277  0.000000  0.000000  0.000000  -25.379597688214297  6.867763491348882  3.676593135396603  60.8057012299591  8.18101400279109  6.731201828586848  179.5951253231875  10.077027464161446  -131.13290333055366  17.65616811914293  120.000000
7.430486891385768  0.000000  0.000000  0.000000  -25.37902537068628  6.894336229466672  4.010404488568906  60.797768285233275  8.05708478656267  6.597950842538388  -179.19058993781107  10.035686563101555  -132.12324814193906  17.687503903782  120.000000
7.470651685393259  0.000000  0.000000  0.000000  -25.371835116817607  6.918366962647251  4.334009346017138  60.794342948344415  7.936054415968286  6.47255148137407  -177.54179841237763  9.92718288468546  -133.50363555025214  17.72104669085619  120.000000
7.5108164794007495  0.000000  0.000000  0.000000  -25.35807126256019  6.940198714557696  4.645057940774255  60.795444010083386  7.817004181371929  6.356055783409474  -175.43473666941168  9.758906286287074  -135.29680362087217  17.758475592220027  120.000000
7.550981273408239  0.000000  0.000000  0.000000  -25.33745549209407  6.960028673539715  4.940745733208655  60.80091573727422  7.698539873653838  6.249307633925126  -172.8442465172786  9.540243367993662  -137.52876401798557  17.801209265161642  120.000000
7.59114606741573  0.000000  0.000000  0.000000  -25.309316566558838  6.977928151783021  5.217821840732519  60.81042320655728  7.578824970307827  6.152930505707412  -169.74812651240197  9.282366439128769  -140.2245809587924  17.84985838009854  120.000000
7.631310861423221  0.000000  0.000000  0.000000  -25.272576023086117  6.993815236501958  5.472557533040638  60.82344184185794  7.4555947718390945  6.0673094104315135  -166.13308288291137  8.997799847405918  -143.40256363701744  17.903604878545927  120.000000
7.6714756554307115  0.000000  0.000000  0.000000  -25.225710085622726  7.007421004314425  5.700684965351973  60.8391956516697  7.326122842918248  5.992600625077092  -162.00250329831314  8.699687357275948  -147.06667445986727  17.959660076825052  120.000000
7.711640449438202  0.000000  0.000000  0.000000  -25.166860738631478  7.018196302949584  5.89738049190994  60.856657016266325  7.187220267740023  5.928709152308301  -157.38648840038869  8.400553022628031  -151.19671551085406  18.012968350547915  120.000000
7.751805243445693  0.000000  0.000000  0.000000  -25.093868543544918  7.025256575508164  6.05730455560749  60.87443102951261  7.035277066215217  5.875292855962996  -152.35066751996885  8.110564935585959  -155.73976515186428  18.056222523855876  120.000000
7.791970037453184  0.000000  0.000000  0.000000  -25.004556626155054  7.027377347462725  6.1746499725869635  60.89064801672368  6.866352174455046  5.831638131329194  -147.00169855536276  7.8353464083047495  -160.60501810456915  18.08005611215011  120.000000
7.8321348314606745  0.000000  0.000000  0.000000  -24.896841344213247  7.023022968917374  6.243192077992376  60.90308300355233  6.676309069467181  5.796564755922646  -141.48702558957132  7.57359240525319  -165.6644046470693  18.073557664857045  120.000000
7.872299625468165  0.000000  0.000000  0.000000  -24.76904699487715  7.010174328036352  6.256746863845482  60.90906125337275  6.461167857065529  5.7686949005319  -135.98625105710377  7.314655804755754  -170.76173960679992  18.024725854007382  120.000000
7.912464419475655  0.000000  0.000000  0.000000  -24.621104102670692  6.986380023053959  6.21076159742104  60.90412954135038  6.218496018403166  5.74695476737359  -130.68214318341725  7.0369571668945055  -175.74230683508532  17.920382701252336  120.000000
7.952629213483146  0.000000  0.000000  0.000000  -24.453741270649804  6.950594538658267  6.105231725755594  60.88269660204073  5.950751257922501  5.730839157957612  -125.6902506582249  6.70978031870091  179.48090891006683  17.74771122391529  120.000000
7.9927940074906365  0.000000  0.000000  0.000000  -24.265653795288678  6.9053833949749235  5.947578770844026  60.84106679577747  5.668599256634431  5.720635366756373  -120.96871041819574  6.300167510907206  174.84514177568965  17.497538240312597  120.000000
8.032958801498127  0.000000  0.000000  0.000000  -24.05356583580463  6.8570572786958595  5.7527557418800095  60.77783272590371  5.390524466580734  5.71719914461532  -116.26785001875785  5.780599232356704  170.0887683465559  17.165803689811113  120.000000
8.073123595505619  0.000000  0.000000  0.000000  -23.815505108231203  6.814316200140705  5.540278678973736  60.69234608236973  5.1392029653735385  5.7216032162215615  -111.07295332062212  5.13432466874017  164.68994208756803  16.753784101786305  120.000000
8.113288389513109  0.000000  0.000000  0.000000  -23.551755643863494  6.787429329825365  5.330929113608374  60.58382360408567  4.9380282906484565  5.7345469213935845  -104.38793825888814  4.362274050064274  157.64760513643634  16.26895876545471  120.000000
8.153453183520599  0.000000  0.000000  0.000000  -23.264721731004194  6.787767881877417  5.145285244883837  60.45245725476019  4.809461711110126  5.75623450872504  -94.07721873436586  3.499556737721735  146.82215238370293  15.725787738964302  120.000000
8.19361797752809  0.000000  0.000000  0.000000  -22.9591427927849  6.825853941366379  5.00381301050922  60.30006855494247  4.774167657568558  5.788280037882483  -75.20667131764814  2.6775333301275293  127.27548988947427  15.144273089880675  120.000000
8.23378277153558  0.000000  0.000000  0.000000  -22.642419579964468  6.9104196639756035  4.926194014609072  60.12971341884974  4.849371049312471  5.834100613121662  -41.19359115574339  2.309284317080532  92.42315177488395  14.547231760943726  120.000000
8.273947565543072  0.000000  0.000000  0.000000  -22.325558750323257  7.04895867871898  4.928215203390845  59.94477456070029  5.04606775624368  5.897290619320657  -5.690736105952694  2.9491424362491743  55.92124866344121  13.95790019391028  120.000000
8.314112359550561  0.000000  0.000000  0.000000  -22.02160359817347  7.245240023578381  5.019472099220298  59.747090184942124  5.36558443669929  5.982366912398884  14.195085542650597  4.423948085148486  34.886386234804995  13.396739984143613  120.000000
8.354277153558053  0.000000  0.000000  0.000000  -21.742691249786535  7.496163217602314  5.203755292447998  59.5390580698804  5.798793180382058  6.096400748632863  24.09193888328527  6.360018155094284  23.707496951586645  12.879988600236388  120.000000
8.394441947565543  0.000000  0.000000  0.000000  -21.497610139962024  7.793320413163277  5.479765926207524  59.32576328594607  6.328410232891174  6.24872967971572  29.448391282478564  8.593302045054573  16.959570979184644  12.418626769813367  120.000000
8.434606741573035  0.000000  0.000000  0.000000  -21.291633542380247  8.126725894794175  5.842508384185082  59.11285971416917  6.932183908477549  6.448718254136917  32.58297613104556  11.049006688332438  12.352674628840534  12.017280488262095  120.000000
8.474771535580524  0.000000  0.000000  0.000000  -21.128057440423955  8.486373055793784  6.284877369822977  58.90530695689542  7.58610737467913  6.70313637852619  34.50419877601365  13.67827505530153  8.908867575617363  11.675042831306108  120.000000
8.514936329588014  0.000000  0.000000  0.000000  -21.008551219564858  8.862674741612434  6.798359441633412  58.70695639706243  8.266424425192486  7.015341749501061  35.70315180839427  16.4404652695168  6.1666944837996995  11.386894794662993  120.000000
8.555101123595506  0.000000  0.000000  0.000000  -20.93430605033124  9.246820750003335  7.373507484398374  58.519786496826406  8.950535893679717  7.385358259588159  36.44503338048783  19.297808795714268  3.8874148000384707  11.146032581377607  120.000000
8.595265917602996  0.000000  0.000000  0.000000  -20.90727116039378  9.631122392751204  8.000405611306551  58.344196365167164  9.618098055302054  7.80935474467589  36.88598147165506  22.214653629741218  1.9362607157265572  10.945377284221806  120.000000
8.635430711610487  0.000000  0.000000  0.000000  -20.930122061810415  10.009516595524879  8.669353387775992  58.179453574211394  10.25225533545192  8.279775810460507  37.123498824459865  25.157797130328948  0.23107167999756448  10.7784801146764  120.000000
8.675595505617977  0.000000  0.000000  0.000000  -21.00605558068372  10.377494362744384  9.37137258686769  58.023977625887255  10.840191648327675  8.786084590260767  37.220759519228835  28.096730548148212  -1.282104949414587  10.64009484462777  120.000000
8.715760299625469  0.000000  0.000000  0.000000  -21.138112810331126  10.731799603178693  10.09820720994072  57.875569961324636  11.373042603229088  9.315721391120181  37.21965682194829  31.003478756799183  -2.6414774901256517  10.526186216762923  120.000000
8.755925093632959  0.000000  0.000000  0.000000  -21.328429578178753  11.0702335557516  10.842116124535698  57.73182556402118  11.845591679287818  9.854983950477083  37.14840833391047  33.85234327679665  -3.8760933234305703  10.43392568224696  120.000000
8.79608988764045  0.000000  0.000000  0.000000  -21.577442497586187  11.391360432193126  11.595486701998471  57.59055242990828  12.255680419034528  10.389968966460128  37.02645912985437  36.61964029803948  -5.009420043421541  10.361479029507274  120.000000
8.83625468164794  0.000000  0.000000  0.000000  -21.88331912125161  11.694040587662503  12.350401827007067  57.45006579064428  12.603414219702636  10.907547503465315  36.867818532281134  39.28339498474227  -6.061197684051141  10.307792452013114  120.000000
8.87641947565543  0.000000  0.000000  0.000000  -22.241844595019348  11.977270324537633  13.098572143225423  57.30939176790625  12.890660501049037  11.396040635336414  36.683173849670595  41.82351995348373  -7.048057210794517  10.272204031334477  120.000000
8.916584269662922  0.000000  0.000000  0.000000  -22.6466900634309  12.240381362911284  13.831851154046872  57.1681692859062  13.121124361296719  11.84575866466768  36.480917268993494  44.222336869487485  -7.983218777834428  10.253920197423817  120.000000
8.956749063670411  0.000000  0.000000  0.000000  -23.089924895044838  12.482964193414011  14.542929366377292  57.026434848381676  13.30035868280013  12.249544543507568  36.267944709009164  46.46529479391271  -8.875990670472587  10.251526155865944  120.000000
8.996913857677903  0.000000  0.000000  0.000000  -23.56248573972167  12.704502281606935  15.225821825274357  56.884266601187875  13.435429278686584  12.60335849606535  36.05039076522419  48.541419923071835  -9.731351794369475  10.262629525640355  120.000000
9.037078651685393  0.000000  0.000000  0.000000  -24.05479873290957  12.904309522915076  15.876189601964938  56.74156938915064  13.534558277357654  12.906248612060331  35.83408637406949  50.44351053749271  -10.549696684857263  10.283695507424866  120.000000
9.077243445692885  0.000000  0.000000  0.000000  -24.55737416634775  13.081610384459516  16.49139853080311  56.59787481179243  13.606721579265258  13.159913786961901  35.62467592527744  52.167886617218166  -11.326990347302232  10.310194066598442  120.000000
9.117408239700374  0.000000  0.000000  0.000000  -25.061002660292623  13.23547413360757  17.07018090373436  56.45239385744404  13.660995889650637  13.368024820870305  35.42785549827039  53.713681949084766  -12.055750921971647  10.337057702882312  120.000000
9.157573033707866  0.000000  0.000000  0.000000  -25.556562689888292  13.364805248691662  17.61192187259031  56.304330056419154  13.70569335051445  13.535541775289182  35.24968490780053  55.081710133454564  -12.72656058525794  10.359482936548623  120.000000
9.197737827715356  0.000000  0.000000  0.000000  -26.03462619742032  13.468479043189106  18.11585361979696  56.153419144768165  13.74765533120177  13.6678260356041  35.09684645729727  56.273156988614105  -13.329849499084991  10.3737442751539  120.000000
9.237902621722846  0.000000  0.000000  0.000000  -26.48503893161495  13.54552704368762  18.580304856493054  56.00042151039187  13.791719065015121  13.769897021694549  34.97670825198065  57.288316999251656  -13.857486185354643  10.377852836299803  120.000000
9.278067415730337  0.000000  0.000000  0.000000  -26.89666896607577  13.595301998484876  19.002179332568726  55.84749096913119  13.840486261611003  13.845816517275765  34.89725139403946  58.12559574332096  -14.30398147852358  10.371791729239046  120.000000
9.318232209737827  0.000000  0.000000  0.000000  -27.257489033742544  13.617596700014984  19.37676091243752  55.69825270768355  13.894399482517379  13.89833738895584  34.86677407269678  58.7810076052064  -14.666941828163262  10.35721814006888  120.000000
9.358397003745319  0.000000  0.000000  0.000000  -27.55506820875748  13.612724168273806  19.697912802176262  55.55755071293276  13.952193384955393  13.928740575281477  34.89343781518447  59.24817850555509  -14.946874587568482  10.336663235734449  120.000000
9.398561797752809  0.000000  0.000000  0.000000  -27.77738571864536  13.581534206913073  19.958480250768268  55.430935223423425  14.011487175686169  13.936906205930732  34.98464655486807  59.51876731418504  -15.146439812277197  10.312499445925035  120.000000
9.4387265917603  0.000000  0.000000  0.000000  -27.913810224050675  13.525354917988553  20.150737214854274  55.32402646558301  14.069403373286109  13.921453267329298  35.146471466614976  59.583065837096996  -15.26951896996911  10.285963323347154  120.000000
9.47889138576779  0.000000  0.000000  0.000000  -27.95601462998135  13.445905422507098  20.266713615714583  55.241941046298116  14.12304672154608  13.879926454271793  35.38317468787591  59.430631740494306  -15.320226276137957  10.256512362338396  120.000000
9.519056179775282  0.000000  0.000000  0.000000  -27.898653781506514  13.34519099379381  20.29831333624066  55.188917376340534  14.16977464255208  13.808952166772217  35.69694976245225  59.05082429688613  -15.302156064840633  10.221801541722494  120.000000
9.559220973782772  0.000000  0.000000  0.000000  -27.739779820357423  13.225379611155967  20.23726659164971  55.16816216817908  14.207183021847746  13.704448888079982  36.08789898173807  58.43320631590755  -15.217892412679294  10.178383563831147  120.000000
9.599385767790261  0.000000  0.000000  0.000000  -27.481051329919076  13.088611932218837  20.075089315151175  55.181793632374706  14.232955004129694  13.561897424532251  36.55409556178738  57.56801583041323  -15.06873195584527  10.122983363363224  120.000000
9.639550561797753  0.000000  0.000000  0.000000  -27.12788151726859  12.936985072379432  19.803252293768796  55.23075374701916  14.24478656432798  13.376625009674168  37.091538326960006  56.446680785492866  -14.85437997190349  10.05406053527153  120.000000
9.679715355805243  0.000000  0.000000  0.000000  -26.689500921682715  12.772328100013535  19.41348078823347  55.31469551480343  14.240205764842392  13.144256072522788  37.69404248482942  55.062503545066015  -14.572665663417046  9.973305096804824  120.000000
9.719880149812735  0.000000  0.000000  0.000000  -26.178936610868043  12.595791903863173  18.898282991837792  55.43169830131355  14.216251985589897  12.861504824331819  38.35304734438646  53.41148633539053  -14.21908459564555  9.886743685987543  120.000000
9.760044943820224  0.000000  0.000000  0.000000  -25.61283836097526  12.407659424443917  18.25180117332644  55.57801870234592  14.16950989844172  12.526949991687822  39.0572368824964  51.49343929910497  -13.786309314404225  9.804879465856704  120.000000
9.800209737827716  0.000000  0.000000  0.000000  -25.01101862991535  12.20702431463722  17.471071120301357  55.74782541782027  14.096405631074756  12.142049029020093  39.79200838087035  49.31321101884436  -13.26353192471655  9.74200195176159  120.000000
9.840374531835206  0.000000  0.000000  0.000000  -24.395636174188105  11.99169664727601  16.55726076905742  55.933249472650566  13.993783119738355  11.712053664990956  40.5388062975838  46.88202330622563  -12.63589515805894  9.714992258306705  120.000000
9.880539325842697  0.000000  0.000000  0.000000  -23.789944889193716  11.758313907973704  15.516817090342926  56.12482733538391  13.859728307912142  11.246535778587296  41.27438143268744  44.21841372526121  -11.884143329424331  9.741834473722003  120.000000
9.920704119850187  0.000000  0.000000  0.000000  -23.216679439780055  11.502892465762173  14.361975420926887  56.31258045474571  13.694479778168704  10.75912256850589  41.969987401483415  41.348845231869305  -10.984483890294989  9.840130420310821  120.000000
9.960868913857677  0.000000  0.000000  0.000000  -22.696393724392383  11.221670534292699  13.110561745471609  56.48759215293598  13.500995225592815  10.266471958668317  42.590777239792146  38.30761485776916  -9.908907216558674  10.025705148721892  120.000000
10.001033707865169  0.000000  0.000000  0.000000  -22.24579972038836  10.912035324177529  11.784787354321383  56.64368440895531  13.284961984209376  9.786651716797175  43.095333421554436  35.136203646050596  -8.625705435578995  10.311335131515191  120.000000
10.041198501872659  0.000000  0.000000  0.000000  -21.87659194924733  10.573296915920041  10.409414873111078  56.778856801113754  13.054138662031995  9.337166615931498  43.43536322748652  31.882013686599347  -7.100147489994727  10.705499239747923  120.000000
10.08136329588015  0.000000  0.000000  0.000000  -21.594913006505646  10.206876399023527  9.009520235290069  56.895890316909885  12.817102855738936  8.933252109618872  43.55548173925432  28.59664256998752  -5.294932785205353  11.210999975196291  120.000000
10.12152808988764  0.000000  0.000000  0.000000  -21.40144740660134  9.815999002405466  7.608416770026241  57.002079006006596  12.581789220339793  8.586572624658485  43.392954676715405  25.33384642395459  -3.1701519213748606  11.823639074884412  120.000000
10.161692883895132  0.000000  0.000000  0.000000  -21.29243665047388  9.404646446385117  6.226325361204431  57.107700056063614  12.354251166959923  8.304815433616948  42.87678367666944  22.1473564871387  -0.6821792134393005  12.531075556259108  120.000000
10.201857677902622  0.000000  0.000000  0.000000  -21.26097943069447  8.977047780208308  4.880141469811854  57.22373666318153  12.138480820759117  8.091615386885593  41.924544881050274  19.08878535331128  2.2201969373997295  13.312557576459657  120.000000
10.242022471910113  0.000000  0.000000  0.000000  -21.298850586442367  8.537738221103893  3.584096247102749  57.3598029194886  11.937250648510336  7.946517210410267  40.43642485096737  16.20608022805536  5.602793059845241  14.139534103446348  120.000000
10.282187265917603  0.000000  0.000000  0.000000  -21.398098125012012  8.091668375906117  2.3510148201946737  57.52099348035141  11.753303002680672  7.865507638189633  38.28092827740207  13.54181277151412  9.56166173941382  14.976564346022174  120.000000
10.322352059925093  0.000000  0.000000  0.000000  -21.55199974329533  7.645378597833589  1.1936151833693793  57.706234198924044  11.590776099778035  7.840952062843943  35.27151025355129  11.132821534905343  14.248247432880468  15.78299369795804  120.000000
10.362516853932584  0.000000  0.000000  0.000000  -21.75413411650896  7.208130925541017  0.12437787102954254  57.91053233299714  11.455354255611336  7.861871356489222  31.15126287492716  9.011475112629103  19.887008574691432  16.5162084718902  120.000000
10.402681647940074  0.000000  0.000000  0.000000  -21.996280870052214  6.7899930696590145  -0.8459158166892236  58.126874650889945  11.352487976683669  7.915803511734609  25.595948584761974  7.204785126991388  26.77515348432053  17.135535198178115  120.000000
10.442846441947566  0.000000  0.000000  0.000000  -22.2695751803382  6.400016486559146  -1.7089334826595142  58.34616207490111  11.285510556316396  7.990111648991026  18.25724518089094  5.732520321494226  35.24149976555204  17.606165469748724  120.000000
10.483011235955056  0.000000  0.000000  0.000000  -22.56522389705472  6.04740198067795  -2.4585304147734552  58.55769043893913  11.25525115597825  8.072595142692355  8.931324955002061  4.604075220055448  45.47955564146436  17.904050648736636  120.000000
10.523176029962547  0.000000  0.000000  0.000000  -22.874370024950682  5.740847104950834  -3.0908537962013423  58.750701514542264  11.259254284292192  8.152037232321295  -2.0699296259692175  3.810736060862704  57.17807322868788  18.020541281717854  120.000000
10.563340823970037  0.000000  0.000000  0.000000  -23.18547473656746  5.486823818570462  -3.604618531325653  58.914370016327396  11.290990521477655  8.219951583353305  -13.596613140350193  3.313020977204334  69.19973381958503  17.968922609748862  120.000000
10.603505617977529  0.000000  0.000000  0.000000  -23.480516246539374  5.289466347904125  -4.000650584868223  59.04107780535492  11.339775814486451  8.271009885137067  -23.947861373366756  3.0397323106467726  79.86891572660498  17.789176930915993  120.000000
10.643670411985019  0.000000  0.000000  0.000000  -23.735095630592046  5.1504525920141  -4.281542554819086  59.127705348195065  11.391886066989063  8.303366203558118  -31.732912707237496  2.9087657254053396  87.82945151636633  17.548688000572522  120.000000
10.683835205992509  0.000000  0.000000  0.000000  -23.9130275361503  5.0689808355798815  -4.449530610148724  59.17632097994801  11.433039214550073  8.318757683144  -36.39780169889055  2.8551748299702684  92.57056834163338  17.33843568975198  120.000000
10.724  0.000000  0.000000  0.000000  -23.977211741444687  5.042383469074732  -4.505411178015691  59.191912565181475  11.449126696062374  8.322589439458264  -37.93406593198895  2.841492251513655  94.12627462827611  17.25344743937841  120.000000
