Simulation
nRows=268
nColumns=15
endheader
time  TH_x TH_y TH_z SC_y  SC_z  SC_x  AC_y  AC_z  AC_x  GH_y  GH_z  GH_yy  EL_x  PS_y
0.0  0.000000  0.000000  0.000000  -21.457279845726973  6.429958688027372  -8.94869311407844  55.75527589104181  8.44512756681089  9.965461826767164  -158.17453171471738  2.7484746443581307  -164.49345026173566  20.969746276282258  120.000000
0.04016479400749064  0.000000  0.000000  0.000000  -21.467009197856168  6.432705922975914  -8.95067396808242  55.72185442483327  8.48919369640044  9.946437145520383  -156.61319252311026  2.612494869469667  -166.1606652636567  20.388742721730974  120.000000
0.08032958801498127  0.000000  0.000000  0.000000  -21.494587835540393  6.4422607953117454  -8.951554030369175  55.615000741476095  8.621525798334387  9.887228126323274  -150.63523191940828  2.2154836214373246  -172.46484325316854  19.84090448129556  120.000000
0.12049438202247191  0.000000  0.000000  0.000000  -21.544240729044997  6.4640124557385965  -8.95097377757428  55.427610900003025  8.832086665704304  9.78707255885356  -134.46437306791034  1.6448496203727265  170.80367919637422  19.30322874817781  120.000000
0.16065917602996255  0.000000  0.000000  0.000000  -21.62724717374998  6.498442632151386  -8.958690820720248  55.15782802872167  9.100398415895528  9.648109474250106  -93.60055348994187  1.3087745636293535  129.1406592649455  18.758748714159765  120.000000
0.20082397003745317  0.000000  0.000000  0.000000  -21.760548259531667  6.541790643568358  -8.98422602747972  54.807336749222195  9.406229324645913  9.474280128159178  -49.97736964372915  1.9473411322046503  84.48419890003865  18.19474651130385  120.000000
0.24098876404494382  0.000000  0.000000  0.000000  -21.96557482947805  6.5916544444521685  -9.032013067167394  54.38360379025729  9.731863331567434  9.27340265716531  -31.535938573454768  3.312839073066324  64.78970509526604  17.60658473065443  120.000000
0.28115355805243447  0.000000  0.000000  0.000000  -22.26103384173325  6.646367441378199  -9.097280407498173  53.89896190200422  10.065686838694585  9.053396717005205  -23.790703831363242  5.032958271203171  55.594069495545725  16.99632556124785  120.000000
0.3213183520599251  0.000000  0.000000  0.000000  -22.660974873961873  6.708660495385262  -9.168372336444039  53.37268121218995  10.404175667253755  8.820611383696189  -19.888595031388707  6.991560131489489  50.07077295476871  16.371254765877733  120.000000
0.3614831460674157  0.000000  0.000000  0.000000  -23.16922123351522  6.782381251101076  -9.229075225765888  52.82472211094133  10.749607770251233  8.581292096173929  -17.67094301025321  9.140742864909953  46.091360175989244  15.74129333190135  120.000000
0.40164794007490634  0.000000  0.000000  0.000000  -23.782009598963196  6.870971879095536  -9.260342805016577  52.27313716575368  11.105272516037774  8.34030730377793  -16.332519070643052  11.449574809452209  42.88216057658647  15.116429923169258  120.000000
0.441812734082397  0.000000  0.000000  0.000000  -24.49137164108912  6.978480109164078  -9.242488036873041  51.7340883145071  11.472415345908535  8.100418721080153  -15.52079021404449  13.892129327595116  40.12317003845952  14.50642712447089  120.000000
0.48197752808988764  0.000000  0.000000  0.000000  -25.28537947187195  7.1082085042051375  -9.157885398803208  51.22061956410143  11.849839765243374  7.862997877682961  -15.058244057492159  16.443443254819098  37.6688151117633  13.919127529376414  120.000000
0.5221423220973783  0.000000  0.000000  0.000000  -26.15043096562282  7.261604286562567  -8.993342886767103  50.74381018063561  12.234798547623688  7.630263756394653  -14.837031553339742  19.079011281218634  35.44237108509417  13.3604592243915  120.000000
0.5623071161048689  0.000000  0.000000  0.000000  -27.07109706866148  7.438270594205804  -8.739678753804258  50.31340474129061  12.62193884340467  7.405283450521712  -14.780093335880386  21.774182984620865  33.395816323809996  12.83434737411053  120.000000
0.6024719101123596  0.000000  0.000000  0.000000  -28.031828725180535  7.636072856010478  -8.390862493964613  49.93857727838398  13.002734939878259  7.190333509550162  -14.826148772745592  24.504898219780486  31.494115638727788  12.34260375509157  120.000000
0.6426367041198502  0.000000  0.000000  0.000000  -29.01823690725839  7.852228223226785  -7.944199659591648  49.626931667094176  13.366552409178475  6.9866609572752685  -14.925527193306243  27.248004013414405  29.709388007003838  11.88455034736436  120.000000
0.6828014981273408  0.000000  0.000000  0.000000  -30.01811681950761  8.083751793984414  -7.4001318028154035  49.38359184451713  13.702530594185019  6.794508762350452  -15.03811750714757  29.982280405427428  28.018047567016293  11.45681092693227  120.000000
0.7229662921348314  0.000000  0.000000  0.000000  -31.02125717900133  8.32829122320145  -6.762016754749645  49.211498396085425  14.001559024534933  6.613817458642529  -15.13043145222752  32.6885806673187  26.39726283607531  11.053572507125011  120.000000
0.7631310861423221  0.000000  0.000000  0.000000  -32.01810938296568  8.583790502138868  -6.035457100150086  49.111581662178516  14.257660970067265  6.445310545009345  -15.17365903132875  35.350358574715564  24.823704921828984  10.667792077482677  120.000000
0.8032958801498127  0.000000  0.000000  0.000000  -32.99910749600247  8.848127621320872  -5.227609791979976  49.08267437029596  14.468539674550557  6.290699870767874  -15.145902544518163  37.953990542923904  23.276280261162416  10.29209648256543  120.000000
0.8434606741573034  0.000000  0.000000  0.000000  -33.95510458847879  9.119645010763186  -4.34656826447547  49.12052291115367  14.634504990985281  6.151700695819056  -15.034959050939573  40.488602180605405  21.739815500545706  9.919308539090606  120.000000
0.883625468164794  0.000000  0.000000  0.000000  -34.8780217629568  9.397154439786586  -3.4019143833523007  49.21668223594363  14.757805941376018  6.029370599248163  -14.83934941432398  42.94550640645838  20.207005335618355  9.544087994867871  120.000000
0.9237902621722847  0.000000  0.000000  0.000000  -35.76065127303253  9.679781165338056  -2.4054218452301823  49.35866973748209  14.841787121877845  5.92398236168078  -14.56696849436849  45.3170225180708  18.678819580244223  9.164100441112005  120.000000
0.9639550561797753  0.000000  0.000000  0.000000  -36.59580073976868  9.966054623883172  -1.371522208780266  49.53123584608087  14.889780757801942  5.834604974554368  -14.233245872099875  47.595091820641436  17.164107463366758  8.781199937157323  120.000000
1.004119850187266  0.000000  0.000000  0.000000  -37.375900091051165  10.25336746434733  -0.31728844437618703  49.71793351999364  14.904300726827074  5.759234342617771  -13.858190752835633  49.77004535547961  15.678119913810741  8.401585788926317  120.000000
1.0442846441947566  0.000000  0.000000  0.000000  -38.09356720289873  10.538744736157408  0.738685868738427  49.90279322957812  14.88730732365984  5.694738642233856  -13.463730939156912  51.83111428753379  14.24052100224692  8.035000713205209  120.000000
1.0844494382022472  0.000000  0.000000  0.000000  -38.74328377964956  10.819698378678249  1.77761399508369  50.07193477902776  14.840384963416383  5.636936442788001  -13.070587596345026  53.76826821410355  12.872643626369365  7.693253566983837  120.000000
1.1246142322097379  0.000000  0.000000  0.000000  -39.322624132717415  11.093732657659649  2.781389706631003  50.21474466886335  14.764295461054138  5.581082628041222  -12.696634849900327  55.572744068442475  11.595722495929236  7.388587112317771  120.000000
1.1647790262172284  0.000000  0.000000  0.000000  -39.8324649142657  11.35755510976097  3.7328646390465297  50.32505282577695  14.658790538532733  5.521604225976258  -12.35641196722053  57.236531396213124  10.42935424673925  7.132044328310566  120.000000
1.2049438202247191  0.000000  0.000000  0.000000  -40.27678061102256  11.60717164785909  4.6167290657868785  50.40137080572369  14.522724463773322  5.4522129504339345  -12.060618306065107  58.75235662650996  9.390244423426614  6.932142714032255  120.000000
1.2451086142322096  0.000000  0.000000  0.000000  -40.661362487523135  11.838295339309736  5.420649644086672  50.44644990484942  14.354976765127327  5.366504865411604  -11.815571145683075  60.1144213735546  8.490678314290202  6.794036377078815  120.000000
1.2852734082397004  0.000000  0.000000  0.000000  -40.99229421809094  12.046932088184619  6.1363108232041865  50.4657876416072  14.155544182458618  5.2594846539185  -11.623018645871678  61.3194439586968  7.737678495842266  6.718938037083686  120.000000
1.325438202247191  0.000000  0.000000  0.000000  -41.27488880976396  12.229938607733102  6.7598859656596995  50.465848672388226  13.92662022036521  5.128474906547223  -11.481069413155458  62.367187523867074  7.132543971353036  6.7036068242320725  120.000000
1.3656029962546816  0.000000  0.000000  0.000000  -41.51358568813474  12.38513889400085  7.2924442588597405  50.452615701218136  13.673325302486521  4.973510917215694  -11.385395767847225  63.26068666226418  6.670950267933866  6.739784634840891  120.000000
1.4057677902621724  0.000000  0.000000  0.000000  -41.71205427704387  12.51143416601372  7.739707921434538  50.43077035444679  13.403918861532857  4.7971888283900705  -11.330306860363878  64.00599875865963  6.343074238292845  6.814224645062494  120.000000
1.4459325842696629  0.000000  0.000000  0.000000  -41.8733460152608  12.608729176447257  8.111265878945135  50.40334575609196  13.129300488143704  4.604184622157833  -11.309503552294997  64.61150055205405  6.134499659819814  6.909726500562204  120.000000
1.4860973782771536  0.000000  0.000000  0.000000  -42.00001062241422  12.677798724000567  8.419213114037095  50.37196127431663  12.862009873052427  4.400376157837431  -11.31646599541819  65.08642618814932  6.027303191106518  7.007188246523238  120.000000
1.5262621722846441  0.000000  0.000000  0.000000  -42.09399654986912  12.719964597568971  8.676275219710968  50.337258164412  12.61466602914805  4.191958013371456  -11.344518623762955  65.43930739026578  6.00172270568913  7.088349410201258  120.000000
1.5664269662921348  0.000000  0.000000  0.000000  -42.15634791102615  12.736793804976703  8.893820904749479  50.29956983722669  12.398282370031843  3.984600556299224  -11.386873998577245  65.67609600632998  6.0376045176838185  7.1387400179427365  120.000000
1.6065917602996254  0.000000  0.000000  0.000000  -42.18676384447005  12.72973877923305  9.080174899878378  50.25931772494789  12.220851465761172  3.7829215760415753  -11.43656002839732  65.79826742117447  6.115962283060393  7.150256851488272  120.000000
1.646756554307116  0.000000  0.000000  0.000000  -42.1830974815977  12.69977405826453  9.239352006520539  50.217418307033526  12.08638479869066  3.59009970460393  -11.486470254860572  65.80135150453141  6.219777695541122  7.122682240236571  120.000000
1.6869213483146068  0.000000  0.000000  0.000000  -42.140954191814004  12.64714796208188  9.37051610543017  50.175549810727205  11.994579899570896  3.4079582789935623  -11.52968860958024  65.67391088077505  6.334635542996643  7.063762688292885  120.000000
1.7270861423220973  0.000000  0.000000  0.000000  -42.05341062264305  12.57124465183428  9.46787949799183  50.13620897652405  11.941047906738591  3.23699379152494  -11.559824979748702  65.39722792775176  6.448586976292307  6.988057452958542  120.000000
1.767250936329588  0.000000  0.000000  0.000000  -41.91125061741286  12.470659705820985  9.521186249027993  50.10258255686041  11.91784319158261  3.0766913857753044  -11.571344239042697  64.94562042054572  6.552179152615186  6.9150768442011525  120.000000
1.8074157303370786  0.000000  0.000000  0.000000  -41.703677307465775  12.343366533421309  9.51644643976987  50.07846995003022  11.914177311155234  2.925807168608409  -11.559944049670232  64.28766829012275  6.638533917543511  6.867123172062336  120.000000
1.8475805243445693  0.000000  0.000000  0.000000  -41.41932064398917  12.186994517624035  9.436820906724964  50.06786498024167  11.917005338191402  2.7826790049678727  -11.522526520550379  63.388506272857065  6.703808756789306  6.86689832807892  120.000000
1.8877453183520598  0.000000  0.000000  0.000000  -41.04752954362097  11.998976576457348  9.263847867213428  50.074614929450696  11.911857795109212  2.645601930656082  -11.457088112797315  62.212719129990866  6.74823890959115  6.935069620887732  120.000000
1.9279101123595506  0.000000  0.000000  0.000000  -40.579493304893255  11.776727516991325  8.978847570893668  50.10170846357855  11.883554144247144  2.5133038874093794  -11.362164401741278  60.72781899402632  6.77756875125163  7.087558424978094  120.000000
1.9680749063670413  0.000000  0.000000  0.000000  -40.00910595631593  11.51742741723024  8.564557694726792  50.15081695898373  11.817072161020178  2.3855519150255944  -11.23634308862368  58.9084447885774  6.804723012215964  7.332822330229237  120.000000
2.008239700374532  0.000000  0.000000  0.000000  -39.33338927288291  11.218121569635505  8.007224797706671  50.22177812465297  11.698989207822327  2.263982487243336  -11.077615165160628  56.74015647612036  6.851191172505284  7.669358315691777  120.000000
2.0484044943820225  0.000000  0.000000  0.000000  -38.552370480617064  10.875900498293138  7.299030050012847  50.312857662280486  11.519240875020909  2.1530132242047606  -10.88324697224537  54.22321859407315  6.947679251140844  8.083961490267683  120.000000
2.0885692883895133  0.000000  0.000000  0.000000  -37.66882115202195  10.488241050217324  6.440709581584241  50.42150380290472  11.273249906521205  2.060439508531272  -10.650142087262035  51.374656625177714  7.133627699028008  8.552134798225756  120.000000
2.1287340823970036  0.000000  0.000000  0.000000  -36.68783185988669  10.054072912443505  5.44303655008138  50.54587986776697  10.963329219349905  1.9977412206184548  -10.375948576349193  48.228373982190725  7.455106505754796  9.041145580171282  120.000000
2.1688988764044943  0.000000  0.000000  0.000000  -35.616944719376  9.573955736463368  4.327704128592402  50.686501446431784  10.599557740269328  1.9793566749827454  -10.060523189127137  44.83311748706424  7.961303835199771  9.516083071646042  120.000000
2.209063670411985  0.000000  0.000000  0.000000  -34.467354335761016  9.051573755990002  3.1261218722197857  50.847381500793176  10.19942124655091  2.0209176864782186  -9.708616771125698  41.24839875474518  8.70115204038822  9.94718795540636  120.000000
2.2492284644194758  0.000000  0.000000  0.000000  -33.25594600946331  8.495588585009546  1.8772116226362294  51.03609092012226  9.786923335145186  2.135582156301869  -9.333270043119242  37.54028598971536  9.720231315203362  10.31646911051653  120.000000
2.2893932584269665  0.000000  0.000000  0.000000  -32.006480556767364  7.920485011602591  0.624336064382055  51.261520860973555  9.391584867979107  2.331775315256303  -8.958383029945644  33.777471308014015  11.058423376603155  10.623124692659546  120.000000
2.329558052434457  0.000000  0.000000  0.000000  -30.74808038258586  7.345950859114075  -0.5883724654228325  51.532882255904504  9.045363203724897  2.6120916445260502  -8.617903138773736  30.026752912455404  12.746904827946887  10.88520716307725  120.000000
2.3697228464419475  0.000000  0.000000  0.000000  -29.510474240740567  6.794098902692821  -1.718424934728545  51.85992228791633  8.778220479882904  2.972578754854646  -8.349688243200069  26.348077910722814  14.802757981773379  11.13685605035686  120.000000
2.4098876404494383  0.000000  0.000000  0.000000  -28.32094137225201  6.286930346738362  -2.7310018874638935  52.252247912549926  8.617467579688821  3.4058605607920667  -8.18460686814617  22.791605964732742  17.22051402548314  11.421381455242203  120.000000
2.450052434456929  0.000000  0.000000  0.000000  -27.204744395972487  5.844545613639639  -3.5965237794996088  52.7164252875776  8.581821163242298  3.898341510642262  -8.138974258238523  19.39626290128756  19.96640790464482  11.781040316296291  120.000000
2.4902172284644193  0.000000  0.000000  0.000000  -26.188683446605708  5.483771622070461  -4.288821027791113  53.25074287180019  8.675452409568095  4.427905264614321  -8.215014916138573  16.188361006517948  22.981469421605574  12.246045311736665  120.000000
2.53038202247191  0.000000  0.000000  0.000000  -25.302481876979957  5.216172612635248  -4.793059444038105  53.84253942840718  8.890134596465735  4.968750972562431  -8.408002782269673  13.180287041725467  26.19194518478792  12.826726287053996  120.000000
2.5705468164794008  0.000000  0.000000  0.000000  -24.57376507793004  5.04593222069993  -5.109133855005531  54.47056217474468  9.206344272078223  5.495781893278307  -8.711381413051532  10.37032245126726  29.520564782414894  13.512553232953366  120.000000
2.6107116104868915  0.000000  0.000000  0.000000  -24.024171331375328  4.967233806071755  -5.253231839555876  55.109639708711555  9.597205111075011  5.990701031448869  -9.121555447157633  7.744964486423459  32.89714062370065  14.276798279994608  120.000000
2.650876404494382  0.000000  0.000000  0.000000  -23.66393157095338  4.964107586450076  -5.254610238682914  55.7295412934948  10.030998774609833  6.443928930085645  -9.738186936999908  5.283120407152902  36.363750876836185  15.080681372399962  120.000000
2.6910411985018725  0.000000  0.000000  0.000000  -23.490976079524174  5.01616248699622  -5.149053199992111  56.296274280529516  10.47232069771373  6.849444208718823  -11.305510374453798  2.963115085114165  40.62048505105448  15.879507781252999  120.000000
2.7312059925093632  0.000000  0.000000  0.000000  -23.487963992589346  5.105581389064238  -4.976786452773921  56.78645800483451  10.888601723733887  7.199299165304016  -23.587220891634416  0.7852969916302276  55.4019975902707  16.630302291571116  120.000000
2.771370786516854  0.000000  0.000000  0.000000  -23.616585903935874  5.219179377709379  -4.7776145818052695  57.19286660787566  11.25578518395584  7.486280401942033  -174.88171594984635  1.3730781889372548  -151.00520329004448  17.29699445254681  120.000000
2.8115355805243447  0.000000  0.000000  0.000000  -23.83201309971621  5.3467690812503  -4.580746251210217  57.51549784987899  11.561631009120713  7.70985159478415  -179.42179345851082  3.3621538380305327  -144.36664106781893  17.85345772922468  120.000000
2.851700374531835  0.000000  0.000000  0.000000  -24.096607294115426  5.480603309177471  -4.400481637794773  57.759324822355104  11.806675828581676  7.874953701075363  -179.28055387919076  5.255727232992936  -142.60232422021156  18.283680008585662  120.000000
2.8918651685393257  0.000000  0.000000  0.000000  -24.38219598046397  5.6141762647181155  -4.239701083897074  57.93328726310904  12.000691936513466  7.9920560170289034  -178.2127883406472  7.03430218959759  -141.95023013154653  18.583400200684235  120.000000
2.9320299625468165  0.000000  0.000000  0.000000  -24.67024208348001  5.742342010163586  -4.09511752759458  58.04633199705841  12.15571609166254  8.075738153158502  -176.82077903595973  8.684670932011734  -141.80278523977267  18.758755441795078  120.000000
2.972194756554307  0.000000  0.000000  0.000000  -24.948473221679834  5.8635418545712525  -3.9623548791036423  58.10580449637315  12.282682050432102  8.137438248046026  -175.29601553370833  10.196136950109334  -141.96388609636625  18.82347053103325  120.000000
3.012359550561798  0.000000  0.000000  0.000000  -25.209293495416244  5.980572308052946  -3.8395745968455683  58.11857865249312  12.390884665990615  8.182146278365119  -173.72821188456095  11.562011536377847  -142.33792908650545  18.796821367322625  120.000000
3.0525243445692882  0.000000  0.000000  0.000000  -25.448054308792194  6.096621687008066  -3.7281152293549638  58.0912920218911  12.485446968799195  8.213167735566945  -172.1779687634696  12.780452773120446  -142.85711764181283  18.701698477016915  120.000000
3.092689138576779  0.000000  0.000000  0.000000  -25.661116602711132  6.211591406682301  -3.6312104429297625  58.02957353813154  12.567553853694774  8.23414388347402  -170.68774493958048  13.85292937139083  -143.47072882620105  18.562526053524817  120.000000
3.1328539325842697  0.000000  0.000000  0.000000  -25.845772068329577  6.324308430472737  -3.5524871413165484  57.9395706524146  12.636073116643205  8.248107982065106  -169.29274596497902  14.78193983101672  -144.13479814460368  18.40152539649059  120.000000
3.1730187265917604  0.000000  0.000000  0.000000  -25.999923474806778  6.43366754305223  -3.4954601237611893  57.82741644283739  12.689228919937625  8.25770417386291  -168.02037850997996  15.569611801022303  -144.81286419199537  18.236487113259393  120.000000
3.2131835205992507  0.000000  0.000000  0.000000  -26.122059630099937  6.538408584415701  -3.463169663699621  57.698680904707004  12.725442431998804  8.265180796499045  -166.89111359867294  16.217357432819018  -145.4751544440832  18.079029525597935  120.000000
3.2533483146067415  0.000000  0.000000  0.000000  -26.21119768480616  6.637404787871448  -3.4580109283734948  57.558258771159316  12.743405726657276  8.272817859170697  -165.91982499254507  16.725801925897702  -146.0973657187185  17.93482924365237  120.000000
3.293513108614232  0.000000  0.000000  0.000000  -26.26671105621695  6.729635277663495  -3.481795456359052  57.41071501502407  12.742295660028445  8.282543927154991  -165.11791584437862  17.094763050767696  -146.65886257994325  17.804954722341947  120.000000
3.333677902621723  0.000000  0.000000  0.000000  -26.288384775150277  6.814249943926176  -3.5357430577714517  57.26002868625757  12.721682601979968  8.2961260242059  -164.49239328043788  17.323427348516834  -147.1435701580599  17.68755014914733  120.000000
3.3738426966292137  0.000000  0.000000  0.000000  -26.276590991346858  6.890625020712133  -3.620419632660493  57.10947148665529  12.681642080585307  8.314918124485288  -164.04693097198643  17.41058510365819  -147.5391647541803  17.579702030818094  120.000000
3.414007490636704  0.000000  0.000000  0.000000  -26.232314608296843  6.958384407918493  -3.735735584585234  56.96148941635429  12.622739962187053  8.340077253815833  -163.78179103386353  17.35463508404451  -147.83711294751458  17.478758613565084  120.000000
3.4541722846441947  0.000000  0.000000  0.000000  -26.157044157484087  7.017362011316069  -3.880883672418112  56.81770476776386  12.546140036429964  8.372380557547535  -163.69501615168002  17.153673445432172  -148.0317695090704  17.383100432913558  120.000000
3.4943370786516854  0.000000  0.000000  0.000000  -26.052821125965433  7.067711239314537  -4.054328578112495  56.67907156242833  12.453569454685852  8.412385491599526  -163.7831774539528  16.805564150230765  -148.11965364287263  17.292166457247696  120.000000
3.534501872659176  0.000000  0.000000  0.000000  -25.92187512577562  7.109772565359525  -4.25374084360345  56.54632583103638  12.347373929468674  8.460016874601683  -164.04403223753295  16.30768781533622  -148.09708236841493  17.205884289208406  120.000000
3.574666666666667  0.000000  0.000000  0.000000  -25.766713870976147  7.14409641245298  -4.47554024076735  56.419563042518554  12.23057318736288  8.515067731597613  -164.47601988156217  15.65716802313678  -147.96054993825092  17.123559493995316  120.000000
3.614831460674157  0.000000  0.000000  0.000000  -25.590308133104696  7.171347344352033  -4.715747946836285  56.297409312538605  12.106886260785819  8.577494952868841  -165.07597480636508  14.85140784508187  -147.7088388971016  17.04262428100088  120.000000
3.654996254681648  0.000000  0.000000  0.000000  -25.39557016273217  7.192050723629429  -4.9715083413363  56.17764615198119  11.980222409988448  8.646635583947612  -165.83896354834627  13.88914989271118  -147.34277393310333  16.95789049892813  120.000000
3.6951610486891386  0.000000  0.000000  0.000000  -25.184503705185705  7.205718749904314  -5.242334736917717  56.05796649197525  11.853588634423915  8.721095337003286  -166.7613162232173  12.771539383775036  -146.86191863325502  16.861814091092388  120.000000
3.7353258426966294  0.000000  0.000000  0.000000  -24.95736836724914  7.209626445619486  -5.530888393771313  55.93689562846647  11.72780602669897  8.799483601470312  -167.8484198567208  11.502796538369664  -146.25708538078527  16.74542524810232  120.000000
3.7754906367041197  0.000000  0.000000  0.000000  -24.711727556564515  7.198500814914507  -5.843508051127447  55.81478321378112  11.600870623516874  8.8808011207641  -169.12826649499843  10.090561754856738  -145.4971380763801  16.599779010580324  120.000000
3.8156554307116104  0.000000  0.000000  0.000000  -24.442529436163348  7.164640104963299  -6.1892621174029125  55.69289028113885  11.46828656089741  8.964266838445267  -170.66654084094606  8.545517884763177  -144.5138529381191  16.416691341442146  120.000000
3.855820224719101  0.000000  0.000000  0.000000  -24.143509946604762  7.099390216577855  -6.5782478474314505  55.57223947137198  11.32510130591432  9.048899085707072  -172.60127626036626  6.880002249423986  -143.16758130039682  16.188933239896617  120.000000
3.895985018726592  0.000000  0.000000  0.000000  -23.808970938929154  6.995022314122292  -7.0199976265657265  55.45242592933179  11.168073271679168  9.133458191033927  -175.27524776118577  5.1073972582997325  -141.1146266879532  15.910813447636366  120.000000
3.9361498127340826  0.000000  0.000000  0.000000  -23.43509652843504  6.845984935501664  -7.521713061922574  55.3310082338167  10.996802918388033  9.217166496098741  -179.8802749893759  3.2438175339568383  -137.1630153577492  15.579011594855277  120.000000
3.976314606741573  0.000000  0.000000  0.000000  -23.02451208790299  6.650374744614114  -8.08597751012041  55.204237057501444  10.815875521577896  9.299190566314245  165.03875050163663  1.335981324496466  -122.77009839819371  15.194240730980335  120.000000
4.016479400749064  0.000000  0.000000  0.000000  -22.59195292834594  6.410900259233578  -8.70797717025532  55.067258315404466  10.636680111635528  9.378689183390795  39.53853991259098  0.9963912263621258  2.00103712263751  14.762332258600562  120.000000
4.056644194756554  0.000000  0.000000  0.000000  -22.163997207063833  6.13481581082015  -9.374672576724725  54.91548996688034  10.477265415999996  9.45489040217259  16.538363363264416  3.0668137093165013  24.221568541173415  14.29453842432141  120.000000
4.096808988764045  0.000000  0.000000  0.000000  -21.773479295815882  5.83354074570656  -10.06680955321352  54.745392826613994  10.360127585779473  9.527133829692524  11.658845730491096  5.345679952506677  28.261634734098546  13.807772623838948  120.000000
4.136973782771536  0.000000  0.000000  0.000000  -21.4526594545434  5.521929539250393  -10.761863246744147  54.55504389685192  10.30796788252874  9.594690024845729  9.468812538981018  7.773005562214643  29.546119246418574  13.3232749648871  120.000000
4.177138576779027  0.000000  0.000000  0.000000  -21.22993953671142  5.216493391913841  -11.436847047726731  54.34572337626433  10.341021321178102  9.654583695179857  8.286828286987069  10.353031739931835  29.752877651208486  12.864276842672778  120.000000
4.217303370786517  0.000000  0.000000  0.000000  -21.126671510009157  4.933782353189211  -12.070839265285395  54.120117491836496  10.474675129834724  9.702470019632988  7.645259072460716  13.089346876959983  29.34759207626953  12.452066690672227  120.000000
4.257468164794007  0.000000  0.000000  0.000000  -21.1559429942744  4.688440641966366  -12.64599147109598  53.879587382707236  10.71706793677061  9.734866319644212  7.339785613146644  15.978561406876867  28.533660170165444  12.101962376684181  120.000000
4.297632958801498  0.000000  0.000000  0.000000  -21.324448694189012  4.492094156696014  -13.147887631570287  53.625090100629194  11.068435381557588  9.749393257625943  7.261113494496485  19.010432575832922  27.419347878597655  11.820763433721563  120.000000
4.337797752808989  0.000000  0.000000  0.000000  -21.63162095045875  4.352908918010607  -13.564775952048873  53.35998625606157  11.521012157354821  9.74485503940789  7.349296764897432  22.169092487032867  26.063676511456514  11.605962748596053  120.000000
4.377962546816479  0.000000  0.000000  0.000000  -22.06961975780233  4.273474377693018  -13.886255133101537  53.09077028593176  12.059950889758836  9.723034517531623  7.572077044445231  25.434495768006087  24.49873346673597  11.447660673754958  120.000000
4.41812734082397  0.000000  0.000000  0.000000  -22.62501683772776  4.250761592126081  -14.103849168808097  52.826338478892644  12.664644343732688  9.688508614948756  7.906877151993778  28.783096839119477  22.74816302393209  11.330644702175928  120.000000
4.458292134831461  0.000000  0.000000  0.000000  -23.281021144590255  4.279566792107532  -14.212807645787999  52.576694204069774  13.310161397345015  9.644953024101005  8.33045402485558  32.18811854414458  20.837867774447748  11.237518800560927  120.000000
4.4984569288389515  0.000000  0.000000  0.000000  -24.019701712360753  4.354282134296136  -14.211724592581405  52.34945471070315  13.969504943099171  9.594423132708517  8.817573603871478  35.620371325887135  18.798144098790193  11.152067205687043  120.000000
4.538621722846442  0.000000  0.000000  0.000000  -24.821933589890254  4.469021310286191  -14.101259718727375  52.1491288925844  14.61648896558446  9.536854049617233  9.342213015125292  39.0499051853699  16.66277643439419  11.061736034951247  120.000000
4.578786516853933  0.000000  0.000000  0.000000  -25.668059176777113  4.6191434873579205  -13.883150253885928  51.97810932727816  15.227057026992757  9.470073346218438  9.88028513713352  42.446943771622024  14.466858409103027  10.960242775947902  120.000000
4.618951310861423  0.000000  0.000000  0.000000  -26.539042819473753  4.801363640019213  -13.559376783025703  51.836881570310915  15.779939823488055  9.391050768252839  10.411979780739316  45.78284394618273  12.24440203354314  10.848072140163799  120.000000
4.659116104868914  0.000000  0.000000  0.000000  -27.416838908468165  5.013095281030539  -13.13205253836648  51.72389296916569  16.258292253560445  9.295653101787963  10.921539289065748  49.03114852482219  10.027259229161578  10.731098263102659  120.000000
4.699280898876404  0.000000  0.000000  0.000000  -28.286005661538166  5.252583934928934  -12.603251738945454  51.63529442948349  16.650627488825226  9.179219253250494  11.396308093412848  52.16833376354166  7.8442613686985405  10.618632571176914  120.000000
4.739445692883895  0.000000  0.000000  0.000000  -29.134887804132706  5.51838632689889  -11.974973983246118  51.5654729504252  16.950869788654618  9.037435918490512  11.826312822236195  55.17419642916505  5.719711125508491  10.52133257454187  120.000000
4.779610486891386  0.000000  0.000000  0.000000  -29.955829075557286  5.808719658626945  -11.250003792180165  51.508130734534916  17.157751694959106  8.866837103420313  12.203993452146914  58.03170096338769  3.6724187526544494  10.449820426703441  120.000000
4.8197752808988765  0.000000  0.000000  0.000000  -30.744945300150217  6.120779944097298  -10.432796710714298  51.4574558872936  17.274070878487795  8.665124846544213  12.523999478292444  60.72686981458659  1.715321805052619  10.41367322726381  120.000000
4.859940074906367  0.000000  0.000000  0.000000  -31.500899176334737  6.450399943507786  -9.529631074861918  51.40897844932428  17.305940186941687  8.431192596538288  12.783017581958086  63.24883110637952  -0.14404347560002295  10.420811399093242  120.000000
4.900104868913858  0.000000  0.000000  0.000000  -32.22363747628689  6.792096000144656  -8.548895667869003  51.36010819294355  17.262466822225225  8.16563175251647  12.979718214918318  65.58978128987434  -1.902587640368229  10.477275400236614  120.000000
4.940269662921349  0.000000  0.000000  0.000000  -32.913135273914335  7.139278132188581  -7.501160118707412  51.31036755728854  17.15511004551343  7.870620074422928  13.114550156195042  67.7447821090157  -3.5602853402785795  10.586968955738811  120.000000
4.980434456928839  0.000000  0.000000  0.000000  -33.5686926828296  7.484471610785281  -6.398759695286124  51.26130663975293  16.996001030414345  7.549391589392369  13.189614424162158  69.71117731231082  -5.11866258472407  10.751372510629913  120.000000
5.020599250936329  0.000000  0.000000  0.000000  -34.188519187457196  7.819363419187124  -5.255929393013109  51.215832134754166  16.796946880725624  7.206164422550572  13.20866438280969  71.48791282906265  -6.579218190166089  10.969181766517513  120.000000
5.06076404494382  0.000000  0.000000  0.000000  -34.7690503448451  8.13533170803497  -4.088848168686524  51.17750326951848  16.569200564325396  6.845897914870134  13.177142043182501  73.07503093749644  -7.941890422696379  11.235937270524788  120.000000
5.100928838951311  0.000000  0.000000  0.000000  -35.30466366676509  8.42416632969179  -2.9154454606232325  51.15008500908398  16.323237207906068  6.47412697903022  13.102499207422646  74.47338860513428  -9.203826873022429  11.543645920749167  120.000000
5.1410936329588015  0.000000  0.000000  0.000000  -35.78788373252693  8.67861621216137  -1.7551213344981853  51.13676861497479  16.06832378214711  6.096527826548518  12.994194243038953  75.68434892290611  -10.358288896960284  11.880508820883865  120.000000
5.181258426966292  0.000000  0.000000  0.000000  -36.210194480334955  8.8928044846996  -0.6283134796033476  51.13930594752714  15.811981881085329  5.718586110552244  12.863313598038793  76.70935520466536  -11.394221517287628  12.230678541245027  120.000000
5.221423220973783  0.000000  0.000000  0.000000  -36.5629314766011  9.062480030233697  0.44378774609038135  51.157749127294665  15.559720879142276  5.345116899778982  12.722072034089344  77.54952750415248  -12.296742722556061  12.574353559793273  120.000000
5.261588014981274  0.000000  0.000000  0.000000  -36.83791322905079  9.18512664378287  1.4396106722927067  51.1905012141677  15.314807814846084  4.980020030457505  12.583280978731079  78.20495562516969  -13.048298784757637  12.889200893764901  120.000000
5.301752808988764  0.000000  0.000000  0.000000  -37.02786192065494  9.259673863361385  2.3375469436254073  51.23495827585782  15.078201623871095  4.626206631846739  12.459564559286274  78.67391666216005  -13.631116368263564  13.152765228728038  120.000000
5.341917602996254  0.000000  0.000000  0.000000  -37.126598576591135  9.286120717342964  3.116364018205201  51.28828477636278  14.848657673630106  4.285791231847578  12.362492036000765  78.95196648106341  -14.029992591408162  13.345670770867136  120.000000
5.382082397003745  0.000000  0.000000  0.000000  -37.129039668764364  9.265034667969955  3.7556793430531057  51.34821883256302  14.623056640865375  3.9604920179886727  12.301583399532783  79.03122294825498  -14.235141161119415  13.4550116192483  120.000000
5.422247191011236  0.000000  0.000000  0.000000  -37.0312740377637  9.197078568519713  4.236564682135152  51.41359571473299  14.396970572959711  3.6522170933603717  12.283408949528994  78.89999388925192  -14.244371981985688  13.477100283137469  120.000000
5.4624119850187265  0.000000  0.000000  0.000000  -36.83083194605764  9.082721067374482  4.542328773039928  51.4842756807322  14.165354236085514  3.3636303106708443  12.31079700608297  78.54302134437646  -14.063945746670624  13.418664921861229  120.000000
5.502576779026217  0.000000  0.000000  0.000000  -36.527003335262684  8.921978257165353  4.659266670853247  51.56065413104897  13.92352075454188  3.0987298620947583  12.382454847757996  77.94246217804107  -13.707964206082357  13.295638701142982  120.000000
5.542741573033708  0.000000  0.000000  0.000000  -36.121156113374795  8.714581572148347  4.5775360764478386  51.64288621220805  13.667971029641711  2.8631183099162785  12.493304325573423  77.0795830034238  -13.196032749236133  13.130236218832064  120.000000
5.582906367041199  0.000000  0.000000  0.000000  -35.617126833359606  8.460348083676482  4.2926426634871175  51.730016623323365  13.397160476458785  2.6637122556244677  12.635059914787503  75.93704872870026  -12.550502109071326  12.946944592134344  120.000000
5.623071161048689  0.000000  0.000000  0.000000  -35.02165629428322  8.159769397911695  3.8067782465193165  51.81916547853082  13.112532116342125  2.508537565375943  12.796845326430043  74.50144100982618  -11.793537730383665  12.768168160570745  120.000000
5.66323595505618  0.000000  0.000000  0.000000  -34.34443854316339  7.814826219457958  3.129411867370039  51.9054434437468  12.819271121166782  2.406033844246845  12.9661182290955  72.76532535742655  -10.944195569543702  12.610736923632269  120.000000
5.70340074906367  0.000000  0.000000  0.000000  -33.59753069819533  7.429528515029674  2.2773652286932022  51.98273149729042  12.525825283530368  2.3641236184242174  13.129961639742751  70.728393510797  -10.01667274050468  12.484173635774628  120.000000
5.743565543071161  0.000000  0.000000  0.000000  -32.794258856244454  7.010210975264125  1.2741747997534028  52.0451339498494  12.242721196606714  2.389128876008866  13.276444347283105  68.39777769296377  -9.01966532817213  12.390709677555485  120.000000
5.7837303370786515  0.000000  0.000000  0.000000  -31.94806807411251  6.565641366563178  0.14892797332568383  52.08851981890586  11.98102750726779  2.4848793191050573  13.395848257981628  65.78770070221341  -7.956849223194235  12.326784688522766  120.000000
5.823895131086142  0.000000  0.000000  0.000000  -31.07185861583849  6.106723361545163  -1.0655777633230306  52.111686487873456  11.750744416841837  2.6523201500379  13.481437688140756  62.91874401931624  -6.827906262520705  12.285060195919538  120.000000
5.864059925093633  0.000000  0.000000  0.000000  -30.177878156474925  5.645806813999854  -2.334900428837813  52.116745404525815  11.559461511401535  2.8894079264547017  13.5297238557644  59.81682097023546  -5.629780983537448  12.256577890199537  120.000000
5.904224719101124  0.000000  0.000000  0.000000  -29.27827799516548  5.196013433574594  -3.6249873510181994  52.108795994625744  11.411593651322933  3.1917068105062714  13.540404020263551  56.51250534162742  -4.357938694096149  12.23261750112794  120.000000
5.944389513108614  0.000000  0.000000  0.000000  -28.385710153767548  4.770734097966649  -4.903830204564356  52.09518516328221  11.30869736332874  3.552796158537622  13.515618722085886  53.04065429057493  -3.0072817278726727  12.205997629777682  120.000000
5.984554307116105  0.000000  0.000000  0.000000  -27.513952482343665  4.383204022961749  -6.142040297010815  52.08428125845666  11.249604317891444  3.9646218640698128  13.458989812400192  49.439825101250094  -1.5727410824878103  12.171969351801582  120.000000
6.024719101123596  0.000000  0.000000  0.000000  -26.67825949070873  4.045575126834645  -7.313634939251259  52.08403978470203  11.231176692031283  4.418243966768849  13.374599033421926  45.75139431610425  -0.04966336926158641  12.128564929384552  120.000000
6.064883895131086  0.000000  0.000000  0.000000  -25.89413257535347  3.768340798898172  -8.395307736829855  52.10124648500341  11.249100171237185  4.9035377259024235  13.265943114394203  42.01799912250222  1.566071730118045  12.07706631885773  120.000000
6.1050486891385765  0.000000  0.000000  0.000000  -25.175695476855825  3.560219622467978  -9.365804684088738  52.14209284057963  11.299068940920028  5.4090900700499915  13.13615878856226  38.28203832270878  3.277255586490919  12.02214829442957  120.000000
6.145213483146067  0.000000  0.000000  0.000000  -24.534779319813833  3.427333591862022  -10.207085988177868  52.211416513893106  11.378163154764009  5.92256792492273  12.986999590723936  34.58336001714832  5.085547118078761  11.971590476119966  120.000000
6.185378277153558  0.000000  0.000000  0.000000  -23.980930247349367  3.372807726869471  -10.905103815046294  52.312359925425085  11.484479770473994  6.430515364678994  12.817254255242343  30.957245786351052  6.992724888641817  11.935674119235154  120.000000
6.225543071161049  0.000000  0.000000  0.000000  -23.52075958239966  3.396378664151249  -11.449282192485251  52.44690427722903  11.616949713960562  6.920194292115603  12.625166653644332  27.433865673092974  8.998905528157435  11.9267937364708  120.000000
6.265707865168539  0.000000  0.000000  0.000000  -23.156828700870925  3.493864631853963  -11.8319174930827  52.61688802209581  11.775587505408037  7.381536336689998  12.410613312317814  24.038595786681558  11.100833260556646  11.958572439531256  120.000000
6.30587265917603  0.000000  0.000000  0.000000  -22.887696121989656  3.6579625468168464  -12.04920260959421  52.82451645047489  11.961285573708482  7.80683098025935  12.175973008202549  20.791906514779267  13.290941337591239  12.04444561196468  120.000000
6.346037453183521  0.000000  0.000000  0.000000  -22.70878494465967  3.8785445117398907  -12.10179759033479  53.07145440171357  12.174520621697  8.1905130290018  11.926643752987431  17.70881444420062  15.556440290043323  12.19632688964238  120.000000
6.386202247191012  0.000000  0.000000  0.000000  -22.61316775569609  4.142815996031938  -11.994746578522383  53.35852978005335  12.41382629440944  8.528560605378033  11.67270581753078  14.798768452256025  17.877134093383425  12.423161981980172  120.000000
6.426367041198501  0.000000  0.000000  0.000000  -22.592321789113747  4.436104419117539  -11.737859230497937  53.6850612980623  12.67514373221358  8.81829697769417  11.4314824445528  12.065643771647164  20.22223614261357  12.729882795181089  120.000000
6.466531835205992  0.000000  0.000000  0.000000  -22.63813835133987  4.741801487578412  -11.34533559928864  54.047576317641216  12.951695066038612  9.058549583547238  11.232071964417315  9.508588039195033  22.544773810519416  13.115759999996431  120.000000
6.506696629213483  0.000000  0.000000  0.000000  -22.74315990318184  5.042346116231258  -10.834674706919392  54.43598323659748  13.23396289132585  9.251269896366805  11.11312241816066  7.122064273578209  24.78332364544174  13.57283708480764  120.000000
6.546861423220974  0.000000  0.000000  0.000000  -22.900431381377757  5.322241079566895  -10.226167228334505  54.835845751180685  13.511124779726806  9.398577812813928  11.137189804861592  4.8976287537201255  26.847464929246147  14.085415711190914  120.000000
6.587026217228464  0.000000  0.000000  0.000000  -23.102064354396923  5.57150853486612  -9.544595628976172  55.23621288493454  13.772995421463285  9.497331097745612  11.533790461994094  2.826609458441875  28.474606193463714  14.630988364772332  120.000000
6.627191011235955  0.000000  0.000000  0.000000  -23.33852729533001  5.784909578421245  -8.818159542826727  55.62699478767871  14.008509550066904  9.5433542934016  14.247829549520477  0.8994490304867989  27.685011739104898  15.182237033588638  120.000000
6.667355805243446  0.000000  0.000000  0.000000  -23.60220576608297  5.959526803522543  -8.075349058781912  55.99654149340813  14.20557540635548  9.534788631464457  -173.90562709404185  0.903167274893776  -142.37019597203738  15.709981420610683  120.000000
6.707520599250937  0.000000  0.000000  0.000000  -23.886603171280083  6.094836687094821  -7.341765628161913  56.335611285941404  14.354186477567353  9.471003224351195  -171.19817940904412  2.5794081711149985  -143.44933953522005  16.186696886487233  120.000000
6.747685393258427  0.000000  0.000000  0.000000  -24.182481157286652  6.191148003526569  -6.637545062991875  56.638982006144396  14.449752757978683  9.3544712043233  -170.54315851909362  4.1440741320228565  -142.66101091571508  16.590458342543574  120.000000
6.787850187265918  0.000000  0.000000  0.000000  -24.479515683058356  6.24944581446203  -5.976594724906869  56.90504683200488  14.492798796258006  9.194107248078552  -170.15840444973568  5.601503679856061  -141.79916314010697  16.908283502374466  120.000000
6.828014981273408  0.000000  0.000000  0.000000  -24.768215930957847  6.2721516862142686  -5.365449167926328  57.133822002438656  14.486131132459755  9.003020700996867  -169.8492760295734  6.954735709944602  -141.0580817723906  17.1376358011379  120.000000
6.868179775280899  0.000000  0.000000  0.000000  -25.039942130625455  6.2634098304301835  -4.804619320137312  57.32773445631088  14.43611894606893  8.791611392311518  -169.54702507860293  8.20328985284768  -140.49535392788823  17.28689824039679  120.000000
6.908344569288389  0.000000  0.000000  0.000000  -25.290027039598865  6.230536327592826  -4.29135159844184  57.491536950859974  14.351899596970522  8.566324084880373  -169.2249515494096  9.344154443768625  -140.11972757865098  17.372570970830086  120.000000
6.94850936329588  0.000000  0.000000  0.000000  -25.51702606658196  6.181463197378668  -3.8223773148504523  57.629595878414165  14.242080897432915  8.33257015764591  -168.8878543154528  10.374488436417598  -139.90657064808195  17.414425312819432  120.000000
6.988674157303371  0.000000  0.000000  0.000000  -25.719579445545016  6.121665570295446  -3.394944697503914  57.745172624041246  14.113500516322459  8.095696861612279  -168.55040937511237  11.292816648713874  -139.8217685983872  17.431196436918633  120.000000
7.028838951310862  0.000000  0.000000  0.000000  -25.896802107240465  6.05491692089064  -3.006833075694547  57.84086310290441  13.971130145722865  7.860595708893201  -168.2266883844235  12.098910423482172  -139.8323178225835  17.437740427546352  120.000000
7.069003745318352  0.000000  0.000000  0.000000  -26.048352697974302  5.98414601046263  -2.65648332164891  57.91886686675112  13.818240051787795  7.631251261369638  -167.92484806718852  12.793608336670204  -139.9117516306549  17.44409512078437  120.000000
7.109168539325843  0.000000  0.000000  0.000000  -26.17428071719287  5.911682403142554  -2.3428731114613055  57.98106263197374  13.65673258779574  7.410609321720255  -167.64631560477775  13.37859698865922  -140.0408698784007  17.455597247253255  120.000000
7.149333333333334  0.000000  0.000000  0.000000  -26.27512185236759  5.839478699267898  -2.065216574318677  58.02898844191924  13.487581579838947  7.200890930400703  -167.38612172854766  13.855928177102005  -140.20768197652458  17.473946594187257  120.000000
7.189498127340824  0.000000  0.000000  0.000000  -26.351683357162557  5.769363742666464  -1.8226029397841066  58.063909281732876  13.311266827842708  7.003692208189376  -167.1340375503844  14.227666631446528  -140.40637983639579  17.498432509944085  120.000000
7.229662921348314  0.000000  0.000000  0.000000  -26.404918932802822  5.703159851539679  -1.6138144089988802  58.087030011593114  13.128104353723577  6.820208550324523  -166.87566282141583  14.495570738569192  -140.63643498927325  17.527245120658627  120.000000
7.269827715355805  0.000000  0.000000  0.000000  -26.43606800819406  5.642565571004919  -1.4371477857557227  58.09932340377018  12.938326633619669  6.651613391871866  -166.5937431326673  14.660888866287966  -140.90155139631653  17.558360882392584  120.000000
7.309992509363296  0.000000  0.000000  0.000000  -26.446674620040778  5.589193338877785  -1.2903479701053953  58.10166504472451  12.742311964512059  6.499148491340303  -166.26970666175376  14.72421651508573  -141.20797184267857  17.59021976791141  120.000000
7.3501573033707865  0.000000  0.000000  0.000000  -26.438170272719816  5.544780014341023  -1.1706614328765836  58.09533207801188  12.540762046070062  6.363805485731161  -165.88442690860163  14.685363651880346  -141.563626216375  17.622155715765018  120.000000
7.390322097378277  0.000000  0.000000  0.000000  -26.412067127626162  5.511155807779551  -1.0748623318407255  58.081632949428304  12.334694051854141  6.2465070911531795  -165.4155997944839  14.543628579879456  -141.98090948205578  17.654257086297875  120.000000
7.430486891385768  0.000000  0.000000  0.000000  -26.36987876688525  5.490310788636455  -0.9993822558147435  58.061719995427715  12.125395174152535  6.148197677082998  -164.83549372717135  14.298004674207755  -142.47910519879267  17.687265494937208  120.000000
7.470651685393259  0.000000  0.000000  0.000000  -26.31284495194552  5.48429880406769  -0.9406142268120672  58.03682490151568  11.914445124073907  6.069784177454478  -164.11139184819956  13.947465326762934  -143.08420358420355  17.722332368712486  120.000000
7.5108164794007495  0.000000  0.000000  0.000000  -26.242001398226503  5.494417332912787  -0.8952392201555759  58.00811549067854  11.703237564693882  6.012532284953133  -163.20385134488072  13.49159315724512  -143.83064208881336  17.760849499302346  120.000000
7.550981273408239  0.000000  0.000000  0.000000  -26.15795790588123  5.521420789768707  -0.8608936653219639  57.97741875399896  11.492347794355044  5.9779399546526655  -162.06848696344647  12.931230920637947  -144.7600724702188  17.80426237360512  120.000000
7.59114606741573  0.000000  0.000000  0.000000  -26.06086926030812  5.565583508301071  -0.836616752377359  57.947287767703955  11.281693628437738  5.967328892254114  -160.6538944485027  12.268655587893083  -145.923448134276  17.853490991855967  120.000000
7.631310861423221  0.000000  0.000000  0.000000  -25.95029908136836  5.626145193876533  -0.8226692927748072  57.92024272187434  11.07088420712401  5.982080260215501  -158.89103629636676  11.507923109988456  -147.3918738809428  17.90806433901374  120.000000
7.6714756554307115  0.000000  0.000000  0.000000  -25.825218292097322  5.70137024292042  -0.8208034456700244  57.899058441016926  10.858857795306584  6.023429762270524  -156.68492076663586  10.655632032155514  -149.2655464796897  17.965427692125427  120.000000
7.711640449438202  0.000000  0.000000  0.000000  -25.683997929480036  5.788287474045946  -0.8350568752513389  57.88681133937474  10.643064561339125  6.092193267458672  -153.9004627937484  9.722336384561947  -151.68836342493998  18.020855930275626  120.000000
7.751805243445693  0.000000  0.000000  0.000000  -25.52447015727487  5.882483985159944  -0.8721816309895807  57.88656282058312  10.419072328107726  6.188696285982218  -150.33976294698155  8.72387339933442  -154.8710732366076  18.06742603764942  120.000000
7.791970037453184  0.000000  0.000000  0.000000  -25.344186165120096  5.9779404711665025  -0.9413537514722337  57.90069071320753  10.180776110465613  6.312712860180357  -145.70285684951068  7.6828572165122875  -159.1310914415192  18.096002232718437  120.000000
7.8321348314606745  0.000000  0.000000  0.000000  -25.140475060897323  6.06740681930773  -1.053653768803686  57.93025392950734  9.920782128275556  6.463293081542216  -139.52383862715175  6.631393381787669  -164.95672089343728  18.095495506665955  120.000000
7.872299625468165  0.000000  0.000000  0.000000  -24.911807566520093  6.14271636133776  -1.221353703433424  57.97401332805266  9.631000401130422  6.638757042633982  -131.07696649113822  5.616185261047148  -173.1016825243464  18.052570923996363  120.000000
7.912464419475655  0.000000  0.000000  0.000000  -24.65880451581393  6.195243328219971  -1.4566666975304134  58.02675615423519  9.303658017253902  6.836950753353095  -119.29675120859692  4.7082599805997845  175.3344163420881  17.95171380372969  120.000000
7.952629213483146  0.000000  0.000000  0.000000  -24.383022056549592  6.217530005084289  -1.769318176323087  58.08328587531407  8.933698247594263  7.055486017773459  -102.99091692793665  4.01596530764114  159.12490679272295  17.778202688567468  120.000000
7.9927940074906365  0.000000  0.000000  0.000000  -24.084503415046708  6.204602103251143  -2.162669629504442  58.14358046643977  8.522544297470846  7.292686115432163  -82.1475373380165  3.6856124383152715  138.2334239081713  17.522763805036607  120.000000
8.032958801498127  0.000000  0.000000  0.000000  -23.762124227119592  6.154955062229138  -2.6301885484152634  58.21205665598826  8.080551431069674  7.549045675886488  -60.00521135648315  3.834041203473032  115.88553398252239  17.18362104763254  120.000000
8.073123595505619  0.000000  0.000000  0.000000  -23.417506162802688  6.07115429867561  -3.154574185139386  58.29482865079756  7.6268074997156035  7.827707974719376  -41.091910609444014  4.44403336123342  96.60074652254518  16.764650687894232  120.000000
8.113288389513109  0.000000  0.000000  0.000000  -23.056881052855626  5.960677966114227  -3.7097855973423077  58.39865127887771  7.187515382046778  8.132426322578008  -26.883458694655417  5.407093790992605  81.84937666365067  16.275005670924095  120.000000
8.153453183520599  0.000000  0.000000  0.000000  -22.69157401806125  5.836726584620584  -4.264852771205994  58.53133373341049  6.79310785106265  8.464199533557203  -16.458700181884236  6.635873141841515  70.70889961247073  15.72940714629816  120.000000
8.19361797752809  0.000000  0.000000  0.000000  -22.336496089326094  5.717497242000509  -4.788543298270512  58.699947005490515  6.474088937432968  8.820445127602095  -8.618779200887046  8.091395377266075  61.98185490249714  15.147016138488835  120.000000
8.23378277153558  0.000000  0.000000  0.000000  -22.00798871152237  5.623823971249801  -5.252587410155164  58.90975010819311  6.256938342796594  9.196530029160957  -2.5247383797198206  9.76328949329034  54.83381111462693  14.550206271632925  120.000000
8.273947565543072  0.000000  0.000000  0.000000  -21.72178531762168  5.57329257936922  -5.633253207095236  59.1625896639489  6.160170037063395  9.587740710267127  2.3364543942037423  11.649956286732701  48.759694640479175  13.961686516630422  120.000000
8.314112359550561  0.000000  0.000000  0.000000  -21.48912406932394  5.577654246801311  -5.912076195495747  59.45602108934787  6.192510568513125  9.989665159480047  6.274497425556297  13.745932224435858  43.4623942353928  13.402162810246521  120.000000
8.354277153558053  0.000000  0.000000  0.000000  -21.312992714831033  5.645508683037488  -6.075844864903201  59.79020250458913  6.354527339009513  10.395095566684432  9.503978598151978  16.039006558392217  38.74466441015772  12.887748142737848  120.000000
8.394441947565543  0.000000  0.000000  0.000000  -21.187712951920858  5.780425653074421  -6.114145530870457  60.164987226282115  6.640839564116807  10.798993753844929  12.179775310425237  18.510674434906896  34.47357065266128  12.429064231908585  120.000000
8.434606741573035  0.000000  0.000000  0.000000  -21.103981187774323  5.979336894195179  -6.018829406929794  60.57525766892637  7.040411591044153  11.202074673210255  14.408337559452162  21.13599582491806  30.568238845541284  12.030720968944522  120.000000
8.474771535580524  0.000000  0.000000  0.000000  -21.05101723101322  6.236101706650134  -5.787503005151527  61.015368672280715  7.53737567380691  11.602772191838078  16.26554831517807  23.885083162994523  26.97886699056129  11.69082890376873  120.000000
8.514936329588014  0.000000  0.000000  0.000000  -21.01977237037469  6.544117681038868  -5.4225016496905125  61.47958180027121  8.11175071977261  11.997537228029902  17.808038938138186  26.72327872490277  23.67436312299305  11.403966244512198  120.000000
8.555101123595506  0.000000  0.000000  0.000000  -21.005817296550145  6.895215097493597  -4.928547371299602  61.959998809349585  8.739589901712872  12.384314063139456  19.08291080550983  29.613927987781338  20.630699523561507  11.163306689297743  120.000000
8.595265917602996  0.000000  0.000000  0.000000  -21.007860013289015  7.278916194584134  -4.312718780533896  62.44587636206498  9.394978909698459  12.761020864855713  20.128593811070676  32.52055757906814  17.828472514480225  10.96208812308562  120.000000
8.635430711610487  0.000000  0.000000  0.000000  -21.028308863776708  7.684546800575745  -3.5837707107145573  62.92482594014802  10.051872487534002  13.125271750741291  20.977194876508026  35.408764840014854  15.250390612016128  10.794336473499257  120.000000
8.675595505617977  0.000000  0.000000  0.000000  -21.07161854626169  8.102662564699779  -2.75087687066252  63.384437629647714  10.686551272527812  13.47419779523042  21.656005375162504  38.24826227611653  12.87931450067239  10.654999186781582  120.000000
8.715760299625469  0.000000  0.000000  0.000000  -21.142943864985863  8.52531458562762  -1.8231787000201745  63.81324042384777  11.278830065510926  13.804819928982571  22.187082629358887  41.01299998502479  10.69925197937957  10.540162314603302  120.000000
8.755925093632959  0.000000  0.000000  0.000000  -21.24747697470627  8.945924072936291  -0.8105722812089576  64.2010048190766  11.811888741170147  14.114413757183163  22.588131044053632  43.6804538912056  8.695005785947643  10.446992189846906  120.000000
8.79608988764045  0.000000  0.000000  0.000000  -21.388781585786347  9.358777161837123  0.27549536171673034  64.53965633213583  12.272446919172022  14.400527404847612  22.873673497547408  46.230815742632245  6.852167434893245  10.373627523521098  120.000000
8.83625468164794  0.000000  0.000000  0.000000  -21.5678444512068  9.759015790323204  1.421797418473855  64.82425277571639  12.65093219188667  14.661065648903698  23.05690232576277  48.64699535029533  5.1564472343981755  10.318929266721751  120.000000
8.87641947565543  0.000000  0.000000  0.000000  -21.78278251608375  10.14267067633399  2.613591055149309  65.0529321829792  12.941951932935758  14.89440411727102  23.15007068506497  50.91463029919294  3.5943059347808846  10.282231726750792  120.000000
8.916584269662922  0.000000  0.000000  0.000000  -22.02952563007514  10.506749881938449  3.8351208321775565  65.22651346733373  13.144484090088868  15.099479796286145  23.164858428240446  53.02240407343496  2.1536102663223504  10.26271374458549  120.000000
8.956749063670411  0.000000  0.000000  0.000000  -22.30240044178992  10.849163211153774  5.070209157297714  65.3480970580198  13.261868159791037  15.275824163553123  23.112572507725556  54.96219129073684  0.8243738600282053  10.258929451435007  120.000000
8.996913857677903  0.000000  0.000000  0.000000  -22.594947144638194  11.168518631634074  6.302827017249635  65.42240718763391  13.301299571237399  15.423640269662647  23.00463968204143  56.72910493287133  -0.40061039825701  10.268492638965748  120.000000
9.037078651685393  0.000000  0.000000  0.000000  -22.900661957792945  11.463896473297813  7.517755549332238  65.45520339261911  13.273132413322482  15.543905168976229  22.85274868198042  58.32145231941769  -1.5253660010989096  10.28792880670411  120.000000
9.077243445692885  0.000000  0.000000  0.000000  -23.213523799297448  11.734765653314822  8.701216036396819  65.45253628783297  13.190151764349611  15.638313750485745  22.668906402160662  59.74071918998796  -2.5507493093269162  10.312779532891879  120.000000
9.117408239700374  0.000000  0.000000  0.000000  -23.528346633668438  11.980911274617723  9.841211884543135  65.42043517189441  13.066553635806216  15.709224437630574  22.465189305339415  60.991082673503776  -3.475081136436434  10.338130033576586  120.000000
9.157573033707866  0.000000  0.000000  0.000000  -23.840499557989677  12.2020503434962  10.927295613946237  65.36477203494495  12.916530293806007  15.759435645378781  22.253673589707233  62.078339898512446  -4.295226655514405  10.359303974890159  120.000000
9.197737827715356  0.000000  0.000000  0.000000  -24.145398433527994  12.397637706391883  11.950012877021742  65.2915684002357  12.75278812944264  15.791805916634349  22.046250872730493  63.008520428493  -5.007943350293814  10.372663829643374  120.000000
9.237902621722846  0.000000  0.000000  0.000000  -24.43793683816191  12.566892396081393  12.90031528498239  65.20730977078574  12.585463101400437  15.808734015642184  21.854425540875376  63.786531773126434  -5.61100847576156  10.376248014935662  120.000000
9.278067415730337  0.000000  0.000000  0.000000  -24.711900972158  12.708827921051535  13.769166845179432  65.11922577684636  12.421393858480224  15.811827176203785  21.68914052193858  64.41507492762796  -6.104089381463296  10.369999660439575  120.000000
9.318232209737827  0.000000  0.000000  0.000000  -24.959746284417086  12.822301240890779  14.547464351706719  65.03529037774203  12.263910254499528  15.80164193915862  21.560703604162615  64.89393644033228  -6.488978108999309  10.355510373843948  120.000000
9.358397003745319  0.000000  0.000000  0.000000  -25.172822206047172  12.906182493939394  15.226202165734213  64.96388525923277  12.113133462394822  15.777533294351498  21.47844760484563  65.2197837360917  -6.76909192915648  10.33525477727939  120.000000
9.398561797752809  0.000000  0.000000  0.000000  -25.341948570202213  12.959483217440079  15.796714272265522  64.91305000203627  11.966653399124082  15.737625968669713  21.450309330580037  65.38638251784093  -6.9485794018794556  10.311561915689287  120.000000
9.4387265917603  0.000000  0.000000  0.000000  -25.458281638721523  12.981411254782582  16.250953094978666  64.88970127757679  11.820312308166296  15.67891862385176  21.48240093892191  65.38503656893164  -7.03128071327247  10.285623983933004  120.000000
9.47889138576779  0.000000  0.000000  0.000000  -25.514051706290804  12.971359352184724  16.581591365553518  64.89876034465014  11.668964309880947  15.597595774840254  21.578679643552764  65.2050887308937  -7.01966655437959  10.256853281347757  120.000000
9.519056179775282  0.000000  0.000000  0.000000  -25.503162765812743  12.928825719503646  16.782018836284212  64.94252294216606  11.507064798755076  15.489437168396252  21.740715243774407  64.83440321825546  -6.914085089539734  10.222931587451194  120.000000
9.559220973782772  0.000000  0.000000  0.000000  -25.421741847851465  12.853256039052535  16.846144816232066  65.02024331541007  11.329199614933795  15.350326141526663  21.967646494384873  64.25994460267071  -6.712456638657556  10.180434318971907  120.000000
9.599385767790261  0.000000  0.000000  0.000000  -25.268387850494065  12.743940533685649  16.76846237011968  65.12781344534532  11.130357905511547  15.176850678364989  22.25594311502239  63.46826402749885  -6.410115436046405  10.126121631648298  120.000000
9.639550561797753  0.000000  0.000000  0.000000  -25.04438110484907  12.600108189968457  16.54408641355054  65.25788651674269  10.90619205634589  14.96661391722994  22.599336281789785  62.446065267026036  -5.999867460946113  10.058512724259957  120.000000
9.679715355805243  0.000000  0.000000  0.000000  -24.753939030103965  12.420881339482662  16.168592863223193  65.39988770607161  10.653710437701594  14.71870695167491  22.988699297424247  61.18082800460186  -5.472246545278117  9.979399328937065  120.000000
9.719880149812735  0.000000  0.000000  0.000000  -24.40470307497055  12.205321649809685  15.638565556490535  65.53993153765023  10.371584328546593  14.43412805719442  23.41139745831164  59.662041702819465  -4.8154128264090135  9.894791830553457  120.000000
9.760044943820224  0.000000  0.000000  0.000000  -24.008402226368094  11.952750452417378  14.952862740243575  65.6611892806117  10.060593757836717  14.115745320747749  23.850798247147086  57.88237748489359  -4.015088433909843  9.815065081157076  120.000000
9.800209737827716  0.000000  0.000000  0.000000  -23.580680466749126  11.662988157482982  14.113700677664767  65.74477040646917  9.723851839050095  13.768163039310444  24.286166990928262  55.839372457827885  -3.0545170709435796  9.754262483932132  120.000000
9.840374531835206  0.000000  0.000000  0.000000  -23.140467257508085  11.336739696527003  13.128085658492772  65.77126585026271  9.36703545753375  13.397615606211073  24.692659587715205  53.53694557459651  -1.914553862299921  9.729004703390567  120.000000
9.880539325842697  0.000000  0.000000  0.000000  -22.70879255482809  10.976267045362324  12.00895975525325  65.7227078947029  8.998649491597288  13.011664243247338  25.04171179655096  50.98707657947489  -0.5740092468606236  9.757109703787208  120.000000
9.920704119850187  0.000000  0.000000  0.000000  -22.30658326955079  10.585688208132318  10.775780804128974  65.58503686454695  8.629998743834381  12.618738880425264  25.301332127555128  48.21088956931523  0.9898424557507524  9.856191463503203  120.000000
9.960868913857677  0.000000  0.000000  0.000000  -21.95245431578456  10.171179134295903  9.453908803396041  65.35055823960818  8.274760853217604  12.227571191564522  25.436753132384343  45.238810962235995  2.8002832152805643  10.042387021480039  120.000000
10.001033707865169  0.000000  0.000000  0.000000  -21.660772938812357  9.740827856483108  8.072888649318775  65.0196225955635  7.947749003663875  11.846559540356855  25.410803481712982  42.10985946433891  4.880136538458825  10.328896633003579  120.000000
10.041198501872659  0.000000  0.000000  0.000000  -21.44032776435446  9.303912614150404  6.664128764224126  64.60117510990278  7.663319797334606  11.483254875108583  25.184192445194363  38.86992877054207  7.250636429813685  10.724482785540921  120.000000
10.08136329588015  0.000000  0.000000  0.000000  -21.294061043316027  8.869985192899154  5.258491901225311  64.11207457500768  7.433658455153076  11.144128926651536  24.716541287941663  35.569510309268985  9.93014354414746  11.232107199505782  120.000000
10.12152808988764  0.000000  0.000000  0.000000  -21.21953443671363  8.447773141532192  3.8843536451240617  63.575342936446305  7.2672635224431525  10.834519766512381  23.967415830948312  32.26118268949615  12.932896406872418  11.847625099574875  120.000000
10.161692883895132  0.000000  0.000000  0.000000  -21.21053422591711  8.044242651017775  2.5657759414252896  63.01720583135856  7.1679435859312  10.55823457159207  22.89675911357973  28.996336688238955  16.26867255457137  12.558395201338895  120.000000
10.201857677902622  0.000000  0.000000  0.000000  -21.259107911671656  7.663817775444489  1.3216103827099284  62.46306661225147  7.134331823526133  10.317023864304687  21.463601811546734  25.82209744678083  19.944653201400797  13.343317974917797  120.000000
10.242022471910113  0.000000  0.000000  0.000000  -21.356881828753547  7.308860633026519  0.1664245376723709  61.93450827502767  7.161122441719338  10.111197368113114  19.62729575026564  22.780434573955382  23.96579010051951  14.17362703442347  120.000000
10.282187265917603  0.000000  0.000000  0.000000  -21.49521611033701  6.980869101033806  -0.8879166789196278  61.448050713391474  7.241451393440072  9.939423156202071  17.349246830627667  19.908831642759264  28.33434852247625  15.014587846985174  120.000000
10.322352059925093  0.000000  0.000000  0.000000  -21.665484702773067  6.681433229530401  -1.8319921301002116  61.01464414465975  7.368749991229311  9.797976011363126  14.591861109113493  17.240002404001814  33.05273370941499  15.827694554004637  120.000000
10.362516853932584  0.000000  0.000000  0.000000  -21.86029753272596  6.41259287934908  -2.659328635101261  60.63964444917321  7.536620826439755  9.681218347471678  11.320643271899316  14.801292992814213  38.122763263394546  16.572402728818723  120.000000
10.402681647940074  0.000000  0.000000  0.000000  -22.07419805407616  6.176618899028589  -3.366371938540712  60.32267656560202  7.7386006890391785  9.582962304352607  7.507085071701405  12.613979360685128  43.54493517940352  17.209322894378083  120.000000
10.442846441947566  0.000000  0.000000  0.000000  -22.3033595946165  5.976314491975961  -3.95258306366929  60.05903458351375  7.967830411708611  9.497020297534341  3.1414451627730724  10.694124515400551  49.30698440038381  17.702953687099388  120.000000
10.483011235955056  0.000000  0.000000  0.000000  -22.54466217021874  5.814457640251549  -4.420157597464323  59.84037507812248  8.216755811982855  9.41883599698735  -1.7446628341888957  9.05233430708078  55.363036317195004  18.025606990370242  120.000000
10.523176029962547  0.000000  0.000000  0.000000  -22.79324053821971  5.6928767915456  -4.77440065418291  59.656726097486505  8.476063759882782  9.346042524828693  -7.038871556275506  7.69348990837464  61.59580679761033  18.162285611025364  120.000000
10.563340823970037  0.000000  0.000000  0.000000  -23.040632717392537  5.610846497339115  -5.024299212521206  59.49989402248372  8.73362493778757  9.27815567169988  -12.48489502593946  6.615529823855802  67.75410371711249  18.114635783845504  120.000000
10.603505617977529  0.000000  0.000000  0.000000  -23.27333122716278  5.564428799300094  -5.182626375393314  59.36766814548845  8.97412699088956  9.217164380202675  -17.622169405592516  5.807987127317444  73.39322396322162  17.906450606670866  120.000000
10.643670411985019  0.000000  0.000000  0.000000  -23.473497818711103  5.544937132738282  -5.265612664951473  59.26132437751521  9.17765855825358  9.169168748720317  -21.833572358799007  5.253044246323804  77.92170297271906  17.583399983587707  120.000000
10.683835205992509  0.000000  0.000000  0.000000  -23.61325315271788  5.538741275053785  -5.294633566602049  59.184674381791126  9.321222580484724  9.140897084065298  -24.596462302786428  4.93255188443334  80.85186926574758  17.2111188840452  120.000000
10.724  0.000000  0.000000  0.000000  -23.663415296870145  5.537089687934946  -5.298817843496178  59.15472657052887  9.375059555080902  9.132177449159839  -25.566138848896347  4.829073839075482  81.87262405110715  16.86209314657946  120.000000
