Simulation
nRows=268
nColumns=15
endheader
time  TH_x TH_y TH_z SC_y  SC_z  SC_x  AC_y  AC_z  AC_x  GH_y  GH_z  GH_yy  EL_x  PS_y
0.0  0.000000  0.000000  0.000000  -22.587087361196772  4.437246235967018  -6.459853284359782  56.88150011787907  8.827115050601343  7.461404700488171  -155.7187065239635  4.10045481052129  -166.81341031894559  20.1978401626998  120.000000
0.04016479400749064  0.000000  0.000000  0.000000  -22.607183693080685  4.457364104277321  -6.440652117997488  56.85040609128847  8.880178808485745  7.449958609990288  -154.81018690085884  3.961594752865369  -167.81873007681705  20.111473969831348  120.000000
0.08032958801498127  0.000000  0.000000  0.000000  -22.66971941674306  4.519399045633028  -6.386842132585453  56.75059242174706  9.032994417162179  7.409258885181354  -151.5300792469387  3.560364367791525  -171.3931904289638  19.86095267911769  120.000000
0.12049438202247191  0.000000  0.000000  0.000000  -22.7852190232353  4.6249960304782585  -6.310637202790739  56.568517545689474  9.265289291854305  7.334220393934659  -143.95952850508007  2.955903110680242  -179.46230590500844  19.4714181782533  120.000000
0.16065917602996255  0.000000  0.000000  0.000000  -22.968084945154928  4.769527087614837  -6.2290542609839  56.29600352230841  9.550641830144937  7.22770688049009  -127.38245365993764  2.296312123907012  163.25513848931072  18.974188051220157  120.000000
0.20082397003745317  0.000000  0.000000  0.000000  -23.230826388135387  4.945829719578416  -6.155413894076554  55.93329965821649  9.866163596179693  7.096156600497479  -94.95212204414278  1.9672137484349037  129.91629792178844  18.399204801115875  120.000000
0.24098876404494382  0.000000  0.000000  0.000000  -23.58479675970633  5.148964125201546  -6.094414619160885  55.48747662188726  10.194071955746635  6.948541901894708  -59.603909782436965  2.4867570793688163  93.46668164449703  17.773587018684808  120.000000
0.28115355805243447  0.000000  0.000000  0.000000  -24.03719743282632  5.377039091954852  -6.041512587280296  54.97353448710437  10.522948414083698  6.791602647974333  -39.606619124516534  3.7261127908964995  72.18994079919996  17.119631576648366  120.000000
0.3213183520599251  0.000000  0.000000  0.000000  -24.589864770984686  5.63204403557543  -5.9839579536545  54.41010660223856  10.846457293464596  6.630600098086166  -29.640217205431274  5.353123013211658  60.78522056829633  16.455586736092396  120.000000
0.3614831460674157  0.000000  0.000000  0.000000  -25.239998518253994  5.9164835623484695  -5.905906711215428  53.81679811990752  11.162422902441824  6.470174382361617  -24.18205522213643  7.224686214890939  53.75213077507382  15.795225358449208  120.000000
0.40164794007490634  0.000000  0.000000  0.000000  -25.981045415375075  6.232300589542669  -5.792195043985077  53.21329171037403  11.47073423844691  6.3145737560394055  -20.913171982055477  9.282530334410213  48.796410910782356  15.149309588142245  120.000000
0.441812734082397  0.000000  0.000000  0.000000  -26.80359683185967  6.580646756118722  -5.62654340225864  52.6176178066972  11.769421509699699  6.16703019520806  -18.850359712744392  11.494326995345833  44.961174055275244  14.526104320050685  120.000000
0.48197752808988764  0.000000  0.000000  0.000000  -27.696024135634552  6.961257714497469  -5.390935947940526  52.04674295476709  12.053125739710364  6.028539074202633  -17.526202062788713  13.835136665029015  41.80616329443696  13.931679048059058  120.000000
0.5221423220973783  0.000000  0.000000  0.000000  -28.644881862637032  7.371933661850796  -5.068032033922267  51.516354697603674  12.313805590695488  5.898802219061686  -16.692124846070357  16.280474151080014  39.11010754241136  13.370317846181967  120.000000
0.5623071161048689  0.000000  0.000000  0.000000  -29.635810429902424  7.808612461879843  -4.644824605554377  51.04051715999377  12.543873822683553  5.778244440366348  -16.19974811732034  18.804149933167626  36.75102227841128  12.844444721945623  120.000000
0.6024719101123596  0.000000  0.000000  0.000000  -30.6540115723172  8.26674871330331  -4.117045689096584  50.63091373430724  12.741058218982184  5.671084929321223  -15.949733685863663  21.378950381929076  34.654057009169435  12.354773417911437  120.000000
0.6426367041198502  0.000000  0.000000  0.000000  -31.68483228428609  8.741980313320544  -3.487013686984049  50.29657381232004  12.908265861173623  5.584576607473381  -15.869509264570002  23.978299462607886  32.76805090621218  11.89997420436568  120.000000
0.6828014981273408  0.000000  0.000000  0.000000  -32.71418876619894  9.230088380568763  -2.757732656910963  50.04379850447847  13.049997129335475  5.5257405035967775  -15.904109237216188  26.57714552549198  31.055496111261252  11.476513342229886  120.000000
0.7229662921348314  0.000000  0.000000  0.000000  -33.728465895147366  9.72678515462382  -1.9328766002832567  49.87556330936555  13.1730055490478  5.5015750359252955  -16.01186718907963  29.152098512804272  29.48763243884584  11.078721029980061  120.000000
0.7631310861423221  0.000000  0.000000  0.000000  -34.71431070513809  10.22753108366563  -1.0163987424410055  49.79142427160575  13.286101363530394  5.518800547779519  -16.161627013491668  31.68158347782779  28.041736594149643  10.699179594182468  120.000000
0.8032958801498127  0.000000  0.000000  0.000000  -35.658452692780585  10.727018817606542  -0.012019171811124526  49.787342558918986  13.398759804876185  5.582975507505444  -16.3316401133729  34.14588886485852  26.700530485520613  10.329622726441361  120.000000
0.8434606741573034  0.000000  0.000000  0.000000  -36.54845762420216  11.218822889093289  1.0753923149952545  49.85564098176613  13.519948533381271  5.698247987772949  -16.50866137449066  36.52709474683703  25.452279633751893  9.962149073273128  120.000000
0.883625468164794  0.000000  0.000000  0.000000  -37.37369740564552  11.696036173062346  2.2384688852840586  49.98565960790979  13.656791127857213  5.866203584437749  -16.68688484771504  38.80933357961537  24.290842333390195  9.590703847963503  120.000000
0.9237902621722847  0.000000  0.000000  0.000000  -38.12675355144926  12.151760272085715  3.4665571994063145  50.164452557330755  13.813386906569152  6.085332813010436  -16.865877243541664  40.97976766206753  23.21493414913643  9.212501429287958  120.000000
0.9639550561797753  0.000000  0.000000  0.000000  -38.80420946691614  12.579314312204662  4.745505124935647  50.377370380462295  13.98959037045139  6.3517142500878725  -17.048267825194337  43.029119017549284  22.227090828221506  8.829200045491596  120.000000
1.004119850187266  0.000000  0.000000  0.000000  -39.406030093625716  12.972806645461555  6.057366515955605  50.60941697823038  14.180899220442724  6.659074497186006  -17.237758877227474  44.951395185864385  21.332439739042215  8.447102503084114  120.000000
1.0442846441947566  0.000000  0.000000  0.000000  -39.93497642962692  13.327848264384315  7.380950241492213  50.84654509461056  14.379164600302554  6.99900407673364  -17.4375075235827  46.743578061916324  20.5372879861763  8.076376862681514  120.000000
1.0844494382022472  0.000000  0.000000  0.000000  -40.39590252719755  13.642145754479705  8.692800939547876  51.076745523203094  14.573889649725876  7.361203390209208  -17.649294710262463  48.40497853759878  19.847798689784728  7.729511214136395  120.000000
1.1246142322097379  0.000000  0.000000  0.000000  -40.79501666541641  13.915667382429799  9.96842640595855  51.29089424244089  14.75370352035518  7.733731295858635  -17.873161854224822  49.936422268811334  19.268797116962947  7.419535434914073  120.000000
1.1647790262172284  0.000000  0.000000  0.000000  -41.139201109435994  14.150466943597108  11.183580224939337  51.48325968056358  14.907663301791606  8.103349639886662  -18.107465189654413  51.339270264661984  18.802737240503774  7.158282819431865  120.000000
1.2049438202247191  0.000000  0.000000  0.000000  -41.4354009138858  14.350238350720264  12.31548909222505  51.65149030673235  15.026261845543376  8.455979067171583  -18.34903879847605  52.614718830282285  18.448882243694246  6.954972182330779  120.000000
1.2451086142322096  0.000000  0.000000  0.000000  -41.69022754096217  14.519760377825552  13.34425470585178  51.796041658479155  15.102302219700476  8.777469179969875  -18.593397034034723  53.76360581823681  18.202726119177232  6.815205340940015  120.000000
1.2852734082397004  0.000000  0.000000  0.000000  -41.909688330129896  14.664312037298425  14.254253343680444  51.91912860668707  15.131590606014427  9.05467884488468  -18.834829410159813  54.78690739820746  18.05561002314602  6.740243025893303  120.000000
1.325438202247191  0.000000  0.000000  0.000000  -42.099168323632725  14.788957928979237  15.03545967532485  52.02343136666556  15.113347934759375  9.276855300951445  -19.066511559156858  55.68647895743934  17.99458169626392  6.726491221071901  120.000000
1.3656029962546816  0.000000  0.000000  0.000000  -42.26346088417829  14.89785079202626  15.684199286488257  52.11091080435396  15.050246517933108  9.436758226916028  -19.28057575754509  56.465761488949234  18.00246460330124  6.765163567232791  120.000000
1.4057677902621724  0.000000  0.000000  0.000000  -42.40684459508465  14.993699332324576  16.203252109561497  52.182034139417866  14.948110156261622  9.531308620864346  -19.468357812648392  57.13005623894687  18.058389663709967  6.842494271978704  120.000000
1.4459325842696629  0.000000  0.000000  0.000000  -42.533075066119274  15.077608099029916  16.601035506943926  52.235605599359296  14.815198692635146  9.561399660150801  -19.620723201036743  57.68619862596207  18.13883415471838  6.940821269237021  120.000000
1.4860973782771536  0.000000  0.000000  0.000000  -42.645212215140866  15.149261215589211  16.88998994816865  52.26917178957181  14.661157308218613  9.531039457845345  -19.72857573573584  58.14153058833053  18.219227662402925  7.040686153884229  120.000000
1.5262621722846441  0.000000  0.000000  0.000000  -42.745236937529455  15.20732816377112  17.08442774682562  52.27984349740004  14.495794782946039  9.445993947783716  -19.78338062684605  58.50227291650696  18.275771665186102  7.123572481207844  120.000000
1.5664269662921348  0.000000  0.000000  0.000000  -42.83353989838564  15.249912084004906  17.198248943608363  52.26521726857572  14.32786957907201  9.312423658041189  -19.77769541274698  58.77165888575399  18.287218157647185  7.174845320772314  120.000000
1.6065917602996254  0.000000  0.000000  0.000000  -42.90842501220228  15.274895078731317  17.242935987888803  52.2241434354808  14.164090378360084  9.135727700127713  -19.705640744815238  58.948114460571304  18.236316898914797  7.186297680273547  120.000000
1.646756554307116  0.000000  0.000000  0.000000  -42.965762360330984  15.280101148989976  17.22611507831025  52.15717837026517  14.008455684560085  8.919890772574286  -19.56327011724396  59.02390171007471  18.110668304698134  7.157689945850345  120.000000
1.6869213483146068  0.000000  0.000000  0.000000  -42.99885419886687  15.263278549998464  17.15090712851409  52.06670946501965  13.862134261077786  8.667291596756305  -19.34874203489589  58.98435240905132  17.902856567706102  7.096820486244136  120.000000
1.7270861423220973  0.000000  0.000000  0.000000  -42.998554149939565  15.221995040326654  17.015927640566797  51.956867016317325  13.723702732944918  8.378906314501835  -19.062350740507704  58.80792889073895  17.61004190003292  7.018383243346514  120.000000
1.767250936329588  0.000000  0.000000  0.000000  -42.95370436737671  15.153504576788976  16.81570938205803  51.83326936088492  13.589546171578135  8.054717879162029  -18.70636690527831  58.46693877200333  17.233399056996607  6.942103791218334  120.000000
1.8074157303370786  0.000000  0.000000  0.000000  -42.851808087015854  15.054623976347065  16.541287363095154  51.702713345954365  13.454135600539091  7.694182358677619  -18.284779381722732  57.9290293532366  16.777698739310672  6.890571125472632  120.000000
1.8475805243445693  0.000000  0.000000  0.000000  -42.679935962058295  14.921637166550454  16.180934175953134  51.572742368987804  13.310253927643979  7.296722565372812  -17.802816758972636  57.15930813147307  16.251317187719586  6.88684376983131  120.000000
1.8877453183520598  0.000000  0.000000  0.000000  -42.42568086426256  14.750240071214938  15.721055975596636  51.45110163663333  13.149081025222413  6.862265594251913  -17.26632863117427  56.12332512842652  15.66671964594173  6.951912649415101  120.000000
1.9279101123595506  0.000000  0.000000  0.000000  -42.07804935669546  14.535493633825077  15.147412228283619  51.344976388483104  12.960503250243272  6.391963893339436  -16.68094422100635  54.790568557063445  15.041461067492207  7.101993521320176  120.000000
1.9680749063670413  0.000000  0.000000  0.000000  -41.62797379161328  14.271834424788603  14.446728447189031  51.260204555547595  12.733618735718592  5.889123607033724  -16.05124010712124  53.13839447138999  14.39930925322509  7.3457655838174265  120.000000
2.008239700374532  0.000000  0.000000  0.000000  -41.06847437406529  13.953124071257388  13.608728870212563  51.20059001487972  12.457868629728187  5.36037216859648  -15.380070066179586  51.15560324928258  13.771275383709616  7.681879696295397  120.000000
2.0484044943820225  0.000000  0.000000  0.000000  -40.39449057119887  13.572875472514749  12.628430718814048  51.1677587920347  12.124529723535959  4.816670295066062  -14.668526164820314  48.845362159730776  13.1960194727233  8.097299598636232  120.000000
2.0885692883895133  0.000000  0.000000  0.000000  -39.60295257500797  13.124778973610862  11.508446655498958  51.16166708239049  11.728741373220512  4.273893077255623  -13.916796933985939  46.22656750205418  12.719406715388303  8.567559302410258  120.000000
2.1287340823970036  0.000000  0.000000  0.000000  -38.69323727869176  12.603672332511351  10.260857039378546  51.18187287209805  11.271390325846381  3.7522712456766576  -13.12624252286796  43.333419935739975  12.392956105078376  9.059825189200453  120.000000
2.1688988764044943  0.000000  0.000000  0.000000  -37.6683952844173  12.00692429379012  8.907997164693167  51.22907415335786  10.760536289087485  3.274931586042212  -12.302306179800377  40.21305252608327  12.271334184779212  9.538558426897639  120.000000
2.209063670411985  0.000000  0.000000  0.000000  -36.536639058574806  11.33610430811659  7.48209845358406  51.30630463220845  10.21180153266615  2.865295755571271  -11.457890783670598  36.92218057111035  12.409657062029513  9.972906563639508  120.000000
2.2492284644194758  0.000000  0.000000  0.000000  -35.31288945120134  10.598883356627033  6.02320659308086  51.41928320029837  9.647970489217764  2.544342559531168  -10.616317610924286  33.52348592293352  12.860632134041815  10.343870549706951  120.000000
2.2893932584269665  0.000000  0.000000  0.000000  -34.01888829943911  9.8100760248384  4.576164742004553  51.57608750641183  9.097253324009886  2.3281490123109387  -9.812256173205812  30.082013206574317  13.671385383033194  10.650383081725847  120.000000
2.329558052434457  0.000000  0.000000  0.000000  -32.68110592502443  8.991426802524666  3.1858374311508855  51.78724392054026  8.590813548735115  2.2266902483340654  -9.088193071316232  26.66151167321282  14.878291644735423  10.911251056526503  120.000000
2.3697228464419475  0.000000  0.000000  0.000000  -31.32926814099214  8.170308392897981  1.8927895518073812  52.064151743327535  8.159290942987477  2.2428949181759616  -8.48859587819351  23.32123305413149  16.501260957064467  11.161350829813648  120.000000
2.4098876404494383  0.000000  0.000000  0.000000  -29.99523350696546  7.376779500312324  0.7283668739166335  52.416036259200055  7.830560710943821  2.3724434512850507  -8.054378863534422  20.113676513433536  18.540016143211744  11.444051414983466  120.000000
2.450052434456929  0.000000  0.000000  0.000000  -28.711606677563847  6.639756666641228  -0.28982057147211576  52.848160068200244  7.6286978127037495  2.6074935252135223  -7.808518726703295  17.08217230928889  20.962906811335074  11.800998044987137  120.000000
2.4902172284644193  0.000000  0.000000  0.000000  -27.510138337517986  5.9841076261737465  -1.1476857684676833  53.3606073725655  7.5629029424991  2.931622355811133  -7.737055935097273  14.257986465077686  23.69170647468466  12.262733596082013  120.000000
2.53038202247191  0.000000  0.000000  0.000000  -26.422601625575247  5.4284277143592075  -1.8321408190046893  53.9447004438277  7.624537097213689  3.318166531129335  -7.780245001098484  11.657805076194377  26.596371343205284  12.841076727066005  120.000000
2.5705468164794008  0.000000  0.000000  0.000000  -25.480098716980482  4.984367354362551  -2.340604212353908  54.58190273302093  7.795560506509835  3.7380524024926736  -7.8200704138003365  9.283382843487757  29.48714346793688  13.525997055407231  120.000000
2.6107116104868915  0.000000  0.000000  0.000000  -24.708410781834157  4.656373219365702  -2.6813294986429805  55.247246311848656  8.051742443934936  4.16507698158732  -7.638027118936372  7.123644760529263  32.078595282862366  14.289910970691025  120.000000
2.650876404494382  0.000000  0.000000  0.000000  -24.12514196916191  4.438827011372547  -2.8710553697849073  55.91101034576789  8.364481168356427  4.579097288651174  -6.816095119430806  5.158890743714756  33.89571499435996  15.093193674518416  120.000000
2.6910411985018725  0.000000  0.000000  0.000000  -23.73629844686657  4.316529456795183  -2.9316072006002902  56.53870343188316  8.702400610753005  4.966681010047505  -4.436996879552154  3.367328016759131  33.979080793139026  15.890376976733858  120.000000
2.7312059925093632  0.000000  0.000000  0.000000  -23.53388180440785  4.271975906159937  -2.89015667051847  57.10040807627743  9.037111752210123  5.319228913624291  3.066928853325274  1.7397131580497116  28.7364657793346  16.637899310408603  120.000000
2.771370786516854  0.000000  0.000000  0.000000  -23.491858459547615  4.290824404683119  -2.7787795788155525  57.58436689179614  9.348382118179252  5.627807367497706  60.92350421851444  0.4913308535789314  -27.067296459214408  17.300135584561605  120.000000
2.8115355805243447  0.000000  0.000000  0.000000  -23.571611676310056  4.360083469395522  -2.624955457393971  57.990202663808034  9.623497163686677  5.885979379620134  147.82426891765246  1.3644936781072285  -112.11640047879553  17.85204778958959  120.000000
2.851700374531835  0.000000  0.000000  0.000000  -23.736383936859998  4.466402228914603  -2.4457638905442343  58.32088100545452  9.85745567152146  6.093335447314284  158.48078854295485  2.6349476705994364  -121.10903615070093  18.27860458793111  120.000000
2.8918651685393257  0.000000  0.000000  0.000000  -23.954704302024325  4.597586243019259  -2.2494541478206633  58.58285242459587  10.052601285390748  6.25351775236449  162.63246096117348  3.8238716420251526  -123.77147720739006  18.575503519500522  120.000000
2.9320299625468165  0.000000  0.000000  0.000000  -24.20063649778481  4.743064436045295  -2.0389859511085975  58.783919477639415  10.214645866724744  6.372818030969483  165.21482093078214  4.908235235850596  -125.02792530505282  18.748658188210406  120.000000
2.972194756554307  0.000000  0.000000  0.000000  -24.453930344309327  4.893668967382348  -1.8157015729174604  58.9324550770484  10.349250812628664  6.458042149976153  167.16566538412235  5.883126950556709  -125.80653830558946  18.812059614164976  120.000000
3.012359550561798  0.000000  0.000000  0.000000  -24.699415652502342  5.041947133041673  -1.5812562790260285  59.03619382117104  10.460468380787578  6.5150834139479565  168.78617546006495  6.7481582181138515  -126.39933495208939  18.785744269598336  120.000000
3.0525243445692882  0.000000  0.000000  0.000000  -24.927649578335377  5.183497423947561  -1.3387419436635295  59.10237908040215  10.550293572922852  6.547616481438073  170.20233467256784  7.505576813366029  -126.92386371255911  18.692888088025374  120.000000
3.092689138576779  0.000000  0.000000  0.000000  -25.13341200119171  5.3164341333530984  -1.0926083845908448  59.1372723712863  10.619213765204398  6.557277616154037  171.4743079276269  8.159554963244721  -127.43176226253911  18.557130856033243  120.000000
3.1328539325842697  0.000000  0.000000  0.000000  -25.314263789319536  5.439425938584983  -0.8478242304125048  59.1458618987891  10.66678706732423  6.545230132629266  172.63070554489553  8.71547571456626  -127.94290030505402  18.39975614539213  120.000000
3.1730187265917604  0.000000  0.000000  0.000000  -25.469800868222272  5.551276572599067  -0.6091698654455052  59.13211227760932  10.691902233932705  6.5131750684404635  173.68052735831319  9.179518654189751  -128.45745115383212  18.237781514746654  120.000000
3.2131835205992507  0.000000  0.000000  0.000000  -25.600305943427642  5.650666276945758  -0.38114190304612133  59.09935220161903  10.693280275298164  6.463467095386837  174.62221849550414  9.557998717471325  -128.96507295290175  18.082668380618294  120.000000
3.2533483146067415  0.000000  0.000000  0.000000  -25.706321027624192  5.736469716010009  -0.16763175242744505  59.05058413935696  10.669933099596182  6.398836204514175  175.4493645573446  9.856651178768194  -129.45090650818875  17.940159348048635  120.000000
3.293513108614232  0.000000  0.000000  0.000000  -25.788349183621907  5.808361371857216  0.02809081346156066  58.98882470138315  10.621483489411991  6.321689897397757  176.15344306039452  10.080114281452524  -129.89856125968882  17.811384836908  120.000000
3.333677902621723  0.000000  0.000000  0.000000  -25.846730453832862  5.86652557126929  0.20336420060215818  58.91680385287688  10.547997850907588  6.234024281405744  176.72902738192957  10.231973402480198  -130.29516419831876  17.694525822485556  120.000000
3.3738426966292137  0.000000  0.000000  0.000000  -25.882033051711698  5.911355590712518  0.3560157142873398  58.83670948432575  10.449753771005009  6.137631449241279  177.1740557538101  10.314926783106698  -130.6317610840219  17.586627411410166  120.000000
3.414007490636704  0.000000  0.000000  0.000000  -25.895037467952708  5.9433227938217845  0.4844058553633484  58.75012675458427  10.327278767445787  6.034209677144503  177.48966413014202  10.330834160469252  -130.90321794712094  17.485013879942432  120.000000
3.4541722846441947  0.000000  0.000000  0.000000  -25.886795762419904  5.962959422655746  0.587449982501492  58.65801988775969  10.181433109748832  5.925388152016175  177.6796301554603  10.280673955561243  -131.1077613484249  17.388030891607997  120.000000
3.4943370786516854  0.000000  0.000000  0.000000  -25.85861842916151  5.970834911376475  0.664628353151574  58.56085278782689  10.013445174695375  5.812723952650476  177.74960981841133  10.1645951396142  -131.2463073430457  17.295034085542845  120.000000
3.534501872659176  0.000000  0.000000  0.000000  -25.8120309123971  5.967586462382707  0.7159123428696184  58.45876733996751  9.824892961293084  5.697691018096087  177.70612054250276  9.981962092290413  -131.32149440128126  17.205816262346822  120.000000
3.574666666666667  0.000000  0.000000  0.000000  -25.7486333601448  5.9539729323360335  0.7417147446432526  58.3519497225737  9.617711755542217  5.581532815312901  177.5552056661187  9.731427715036302  -131.33640912741353  17.119733996381722  120.000000
3.614831460674157  0.000000  0.000000  0.000000  -25.6700177449865  5.930900485088083  0.7427279063630009  58.24066783989197  9.394217979880214  5.465365111282524  177.30193122528166  9.411026999433918  -131.2941077062723  17.034728691572102  120.000000
3.654996254681648  0.000000  0.000000  0.000000  -25.577630455334806  5.899271897948291  0.7199807822246664  58.12519496913431  9.157103387106773  5.350282141307822  176.95086315679612  9.018264360578726  -131.19807300357968  16.946612003223706  120.000000
3.6951610486891386  0.000000  0.000000  0.000000  -25.47233511347162  5.859977745851248  0.6749388794692655  58.00590543977061  8.909540719274657  5.237400519339604  176.50445659198374  8.550232063438138  -131.0505936645605  16.84891518427106  120.000000
3.7353258426966294  0.000000  0.000000  0.000000  -25.354158399760962  5.813905230418896  0.6092856478002793  57.88337501387093  8.655279112836876  5.128193921210583  175.9602188696927  8.003851415649187  -130.85000249683296  16.733335355211103  120.000000
3.7754906367041197  0.000000  0.000000  0.000000  -25.221605066300693  5.761315390045069  0.5247992629328773  57.7585042353259  8.398126789848922  5.024383340432488  175.31024974554217  7.3764764801244125  -130.5900983869412  16.590759924188124  120.000000
3.8156554307116104  0.000000  0.000000  0.000000  -25.071647189539856  5.7023937256185935  0.4228032326388237  57.63288174209054  8.141673683343203  4.927793099220697  174.53536115639977  6.666502572353001  -130.2544505239047  16.412163449719273  120.000000
3.855820224719101  0.000000  0.000000  0.000000  -24.899886711791034  5.63812042301969  0.3042359486174425  57.508116931670216  7.890056422267606  4.839899506623059  173.60014322320683  5.872921055877519  -129.81128974482502  16.189547547113325  120.000000
3.895985018726592  0.000000  0.000000  0.000000  -24.699989468915593  5.57005685543738  0.17039527961521966  57.384904778974246  7.649117994531572  4.761523788863165  172.44209865682367  4.9948364030823225  -129.20217313468783  15.91637288060634  120.000000
3.9361498127340826  0.000000  0.000000  0.000000  -24.46413439474835  5.500759393825863  0.02380481399354057  57.26338347282211  7.426887885554115  4.693499225285876  170.90687638712527  4.03143991901688  -128.27745723904667  15.588728217685533  120.000000
3.976314606741573  0.000000  0.000000  0.000000  -24.185129879477927  5.4342352511541785  -0.13061635592811013  57.142805946212285  7.234160499560937  4.636949851154572  168.5046851489174  2.9821596607811816  -126.5551096917714  15.207053603849529  120.000000
4.016479400749064  0.000000  0.000000  0.000000  -23.86129979474498  5.375285580321563  -0.2840801473691747  57.01926531857694  7.0851589200894045  4.593193462167333  163.26881339432566  1.8495057285775012  -122.0820554630711  14.777186771766026  120.000000
4.056644194756554  0.000000  0.000000  0.000000  -23.497845207723365  5.330078430426448  -0.4235968554373675  56.88548774874866  6.997712685662176  4.564047256185281  138.58856235263596  0.6913355933219674  -98.26507108734285  14.310659186667054  120.000000
4.096808988764045  0.000000  0.000000  0.000000  -23.102344679371825  5.307684488833833  -0.5337967082910409  56.73405275474827  6.992807817106462  4.551277309744133  23.727788783803074  0.9264573183010832  15.61618123744947  13.823947471699984  120.000000
4.136973782771536  0.000000  0.000000  0.000000  -22.68342987274118  5.320080012372016  -0.5997956507992462  56.560855892908855  7.092223668023272  4.555330302925758  6.826225587928801  2.3594507096262594  31.411256791855642  13.337932905249508  120.000000
4.177138576779027  0.000000  0.000000  0.000000  -22.251496966987165  5.379086738497434  -0.6092328550192785  56.36535963979032  7.313293278126944  4.576520799151436  2.5821054057333517  3.9815030070898128  34.41792620419042  12.875649050222139  120.000000
4.217303370786517  0.000000  0.000000  0.000000  -21.818902035879688  5.491657546781303  -0.5514723611536463  56.148149710106814  7.663979333412552  4.616350448650061  0.6531583391418929  5.7596146685774094  34.9818970383647  12.45881149719846  120.000000
4.257468164794007  0.000000  0.000000  0.000000  -21.40194986074739  5.659855316116963  -0.41644693080584505  55.910010333508836  8.14132514155365  4.677733016812174  -0.4896457939009708  7.6891159524375245  34.641877505436014  12.104606616398883  120.000000
4.297632958801498  0.000000  0.000000  0.000000  -21.020297384579063  5.88194450926406  -0.19442865558864467  55.651534113380706  8.731810790013549  4.764727463890636  -1.2874508902147737  9.763500180842026  33.85337722295022  11.821932149400636  120.000000
4.337797752808989  0.000000  0.000000  0.000000  -20.69452617543105  6.151945781063832  0.12221860628563246  55.37367697750493  9.414530323731553  4.881546513873203  -1.911065573952707  11.97162263044101  32.804827468389604  11.609318610470371  120.000000
4.377962546816479  0.000000  0.000000  0.000000  -20.44479800404632  6.462824722338429  0.5368163355955065  55.079084541417224  10.165252866751592  5.033406778755338  -2.4311587564421626  14.298233474601108  31.58629654880667  11.456033645919119  120.000000
4.41812734082397  0.000000  0.000000  0.000000  -20.288195454207035  6.8074080491091165  1.0483036138935429  54.77169111539196  10.959447605957532  5.227335388553467  -2.876914051975978  16.725272156810455  30.247540285589142  11.345011363065051  120.000000
4.458292134831461  0.000000  0.000000  0.000000  -20.236281837271697  7.176785672275847  1.6518450158369449  54.45725089942933  11.773648191123835  5.4703399722205  -3.258225662730483  19.232990414096637  28.819771046121723  11.256775022282193  120.000000
4.4984569288389515  0.000000  0.000000  0.000000  -20.294020316210265  7.56098504763592  2.339493041406097  54.144095188282  12.585603182994564  5.768116375379871  -3.5755020789650955  21.800388120476057  27.325521092049687  11.173907492241138  120.000000
4.538621722846442  0.000000  0.000000  0.000000  -20.459772292517762  7.949573894958861  3.10062088770213  53.842458622919466  13.374976815185402  6.1239545452252875  -3.826294418836607  24.406226795291747  25.78519199370247  11.084307889392274  120.000000
4.578786516853933  0.000000  0.000000  0.000000  -20.72684106402172  8.332903045930085  3.9230802390409703  53.5632398201345  14.123360405988473  6.5371400694217785  -4.009593815282287  27.030106068874016  24.220583693609086  10.982622332450598  120.000000
4.618951310861423  0.000000  0.000000  0.000000  -21.085630801112178  8.703285280776324  4.79370862165478  53.3163627211206  14.814913745086214  7.002639824334265  -4.127917454405583  29.653166691028716  22.65584402347744  10.869963325136606  120.000000
4.659116104868914  0.000000  0.000000  0.000000  -21.52559251899161  9.055436571489158  5.6988446867419045  53.10974972558496  15.437204326339268  7.511555785895152  -4.186655402223991  32.25842577508407  21.115255158991104  10.752368681882505  120.000000
4.699280898876404  0.000000  0.000000  0.000000  -22.03658247241185  9.386696979491713  6.625241234905589  52.94873346768734  15.98180581347331  8.051837437438932  -4.193143654306509  34.83078740169224  19.620866851027493  10.639058073749593  120.000000
4.739445692883895  0.000000  0.000000  0.000000  -22.60959805652722  9.69672136769857  7.560829565284918  52.83588431932393  16.44476278288395  8.609206134029987  -4.1558222063125845  37.35674340377972  18.190347519366675  10.540586253293627  120.000000
4.779610486891386  0.000000  0.000000  0.000000  -23.23653503113137  9.986502546857789  8.495284627600181  52.771249472407234  16.826221148549497  9.1685437160107  -4.083166379367401  39.823671509554565  16.83533185663336  10.467440792023025  120.000000
4.8197752808988765  0.000000  0.000000  0.000000  -23.90927609864088  10.25696242347788  9.420157693175168  52.752762822608254  17.12978940536023  9.71555112756586  -3.9832204326950396  42.219249999223855  15.561237826451956  10.429359200420313  120.000000
4.859940074906367  0.000000  0.000000  0.000000  -24.61904860572637  10.508511071459433  10.328928207355633  52.77674878103962  17.36185016799509  10.237943975638522  -3.863455074505124  44.5313013970889  14.368013204483137  10.434595044290596  120.000000
4.900104868913858  0.000000  0.000000  0.000000  -25.356189979668894  10.740929073405749  11.216842725192228  52.837940117740345  17.531066776957772  10.726046463798502  -3.7308123786000373  46.74816860598334  13.251439964566917  10.489470383715714  120.000000
4.940269662921349  0.000000  0.000000  0.000000  -26.110056373473935  10.953165872617834  12.080493817459436  52.929489753672605  17.647549285722715  11.172983060563155  -3.5917928733651063  48.85898176897514  12.204706388263551  10.598076011836046  120.000000
4.980434456928839  0.000000  0.000000  0.000000  -26.86895789004101  11.143290533773474  12.917076250089966  53.043543651749154  17.72182213043263  11.57452651939142  -3.452069538914408  50.85353373337942  11.219714354553513  10.761902761839433  120.000000
5.020599250936329  0.000000  0.000000  0.000000  -27.62000111733902  11.308645279848287  13.72352208816885  53.17199185492434  17.76395186610786  11.928536492467863  -3.3160012490864363  52.72207357565711  10.288345898768153  10.979619160695574  120.000000
5.06076404494382  0.000000  0.000000  0.000000  -28.34918789464511  11.446270312755018  14.495715020412153  53.307093425715244  17.782889334352195  12.234180579377401  -3.1862570769071286  54.455134970571805  9.403757028475827  11.246739335156677  120.000000
5.100928838951311  0.000000  0.000000  0.000000  -29.04183693711642  11.553422409059063  15.227920831189564  53.44192831028477  17.786032639303986  12.490991007086789  -3.0636382872141787  56.043445526675406  8.561575508074062  11.555237192337406  120.000000
5.1410936329588015  0.000000  0.000000  0.000000  -29.683207293367673  11.628124409031303  15.912404532678428  53.57059136987073  17.77893959728199  12.69799554022084  -2.9470268947384786  57.477859818989934  7.760893955688241  11.89313183958557  120.000000
5.181258426966292  0.000000  0.000000  0.000000  -30.259210584289445  11.669599325325128  16.539303624453858  53.68829362237029  17.765199122537116  12.852973021110556  -2.833515529494973  58.7492127494584  7.004816598214614  12.24424582929511  120.000000
5.221423220973783  0.000000  0.000000  0.000000  -30.75703572190778  11.678509237866459  17.096759559827824  53.79132964529478  17.746505101319006  12.952016685265527  -2.7186965450350464  59.848025424110716  6.300338287469046  12.588557591353904  120.000000
5.261588014981274  0.000000  0.000000  0.000000  -31.165554975551682  11.656863165240159  17.571408763519376  53.87705499866877  17.72295664400121  12.989530803770522  -2.597197021054873  60.764013246209636  5.657310023271648  12.903549946235941  120.000000
5.301752808988764  0.000000  0.000000  0.000000  -31.475409128819102  11.607586535597688  17.94914982518282  53.94387023631182  17.69351964890352  12.958754060538492  -2.4633688614954727  61.48548909367843  5.086541897157848  13.16668770156262  120.000000
5.341917602996254  0.000000  0.000000  0.000000  -31.678873176488285  11.533889310480783  18.2160422091846  53.99138216775763  17.65646667172199  12.852718720705756  -2.3120717777840087  61.998877262818674  4.59743716289945  13.35864940995224  120.000000
5.382082397003745  0.000000  0.000000  0.000000  -31.769699401908685  11.438604501286306  18.359140671870648  54.02068481651711  17.60965243946882  12.66542255363568  -2.1394244605354373  62.28859201160575  4.1956741818382906  13.466715601147433  120.000000
5.422247191011236  0.000000  0.000000  0.000000  -31.743252489231462  11.32366623116462  18.3671749683692  54.034663837194515  17.550594303339665  12.392898607330887  -1.9435070565728494  62.337434502083084  3.8815304509970114  13.487481586067148  120.000000
5.4624119850187265  0.000000  0.000000  0.000000  -31.597069678287298  11.189830101868596  18.231028830946688  54.03806358541462  17.476359823408817  12.033866221038931  -1.7247912513312293  62.12766327961749  3.6493950201247123  13.427904985942707  120.000000
5.502576779026217  0.000000  0.000000  0.000000  -31.331710809795375  11.036602216711985  17.944069071715028  54.03715222322111  17.3833743930533  11.590011155703626  -1.4859558430387638  61.642679442446145  3.4887301379950224  13.304092070002952  120.000000
5.542741573033708  0.000000  0.000000  0.000000  -30.95151488740919  10.862200951049278  17.502448917994517  54.03885528265851  17.26724226266083  11.066091798040251  -1.2308462419000257  60.869184392558985  3.3861892887370653  13.138222338383834  120.000000
5.582906367041199  0.000000  0.000000  0.000000  -30.465134704914746  10.663552636893215  16.905405933960154  54.04955393966478  17.122820136516953  10.470096117412012  -0.9629624793386133  59.79944217831032  3.3283048790812453  12.954540448821955  120.000000
5.623071161048689  0.000000  0.000000  0.000000  -29.885755363212482  10.436439854251352  16.155646388603085  54.073858840767286  16.944534088562236  9.813195262544674  -0.6840303094336175  58.43336216867207  3.3042307064423597  12.775264551177148  120.000000
5.66323595505618  0.000000  0.000000  0.000000  -29.23093739897429  10.175939503758798  15.25968792106039  54.11380116791697  16.72697615436696  9.10963683007457  -0.3930791221238975  56.77992552244477  3.3079219761015817  12.61724589985909  120.000000
5.70340074906367  0.000000  0.000000  0.000000  -28.52184494455479  9.877072932485849  14.228190049935243  54.1686621062826  16.46552219832554  8.376458108117795  -0.08609479087176604  54.8576160344831  3.3392832146675286  12.490164636498685  120.000000
5.743565543071161  0.000000  0.000000  0.000000  -27.781881887071197  9.53560636404508  13.075991888572709  54.23537610702907  16.15707435471216  7.633108910564977  0.2436764256166406  52.69354896111451  3.4040738156503023  12.396579499322275  120.000000
5.7837303370786515  0.000000  0.000000  0.000000  -27.035181625422542  9.14894538787351  11.821901327352869  54.30938590772956  15.80067014330568  6.900628367538445  0.6048209917883428  50.3215843125196  3.5129580950076695  12.333217487659638  120.000000
5.823895131086142  0.000000  0.000000  0.000000  -26.305169864345352  8.71707899879465  10.487905327781927  54.38554436695355  15.398047699922389  6.200221163136735  1.0060837797636766  47.77972889977051  3.680293642954405  12.292862060803856  120.000000
5.864059925093633  0.000000  0.000000  0.000000  -25.61345935635736  8.243297269097104  9.098044435246747  54.45922711988803  14.953594515682653  5.551665606040901  1.4547595364390562  45.107247549190035  3.92278881400391  12.266354885963619  120.000000
5.904224719101124  0.000000  0.000000  0.000000  -24.978410499375936  7.734128796559531  7.67702238175675  54.52720175420896  14.474008054574096  4.972190893570861  1.95573365882977  42.34211407650798  4.257946508938229  12.244608252297365  120.000000
5.944389513108614  0.000000  0.000000  0.000000  -24.414195022427034  7.198989740950721  6.249291814147434  54.58820174447008  13.967922632133423  4.475790350896049  2.5101850152191547  39.51916342131031  4.703198888598106  12.220094285576087  120.000000
5.984554307116105  0.000000  0.000000  0.000000  -23.93102883324461  6.650184977179336  4.838309980779425  54.642849240351104  13.445745583063138  4.07259248473498  3.1143827740923014  36.669432725612054  5.275396686039292  12.18758773698971  120.000000
6.024719101123596  0.000000  0.000000  0.000000  -23.535302541870966  6.102527360823  3.4662453777640785  54.692981329083686  12.919556398023172  3.7682048834682416  3.7584410750587667  33.8201016464289  5.990836741128172  12.144710687775774  120.000000
6.064883895131086  0.000000  0.000000  0.000000  -23.22975964562599  5.572345234456555  2.1535412211449714  54.74114354720884  12.402785863646068  3.563777875717957  4.42576652893892  30.994812324308278  6.865309701296143  12.092352154940373  120.000000
6.1050486891385765  0.000000  0.000000  0.000000  -23.0134708105797  5.076574394414663  0.9183549616525125  54.79050399771845  11.909496065748408  3.4562956898284907  5.093399255030051  28.21392428063439  7.91391416834387  12.034873505458311  120.000000
6.145213483146067  0.000000  0.000000  0.000000  -22.881489927967298  4.631038154506946  -0.22314480403393774  54.845014949635946  11.453156705550539  3.438701363178047  5.733017079924626  25.494953649454175  9.150863899686916  11.98023484348124  120.000000
6.185378277153558  0.000000  0.000000  0.000000  -22.824517642146482  4.249059634726254  -1.2570746036858085  54.90994772915014  11.045938694581762  3.501341317438241  6.314161344966755  22.8531206677267  10.587697620006965  11.939720477161858  120.000000
6.225543071161049  0.000000  0.000000  0.000000  -22.82920715068261  3.940374712756501  -2.1705265108182665  54.99207751764244  10.696721016900606  3.6322947628040123  6.807334575071198  20.301678062858837  12.231767831738127  11.927133850169763  120.000000
6.265707865168539  0.000000  0.000000  0.000000  -22.87999245594316  3.710110410347869  -2.95179439841706  55.09850591598226  10.410228915455935  3.8177749016171854  7.183790337692296  17.85204301373634  14.087511887395738  11.957364707667901  120.000000
6.30587265917603  0.000000  0.000000  0.000000  -22.96128729889525  3.5589786807795236  -3.592008945421666  55.235239268493494  10.187517450535635  4.043674700814374  7.413495310243109  15.513967587196083  16.159653022076476  12.044620284852211  120.000000
6.346037453183521  0.000000  0.000000  0.000000  -23.059220739120533  3.4832634483514844  -4.085587286694191  55.40575818929127  10.027185169894762  4.296998850028391  7.461316313780954  13.29624404897708  18.457356951814994  12.2005134294547  120.000000
6.386202247191012  0.000000  0.000000  0.000000  -23.16291324347619  3.476736786923603  -4.430877077515059  55.610673659730594  9.926270523958172  4.566439141384185  7.2807498577780905  11.207021635038735  21.0011104160269  12.43293100539799  120.000000
6.426367041198501  0.000000  0.000000  0.000000  -23.264804486954727  3.531637156516317  -4.631069009260302  55.849809231939474  9.879176233256427  4.840656356634081  6.810233191319012  9.252727656361142  23.82615520470703  12.745439230414416  120.000000
6.466531835205992  0.000000  0.000000  0.000000  -23.3606258130989  3.6357405744810025  -4.695382996746552  56.12029699067381  9.877974767675282  5.111154051714301  5.953102854259541  7.43606111842018  27.002330277731854  13.135568260258419  120.000000
6.506696629213483  0.000000  0.000000  0.000000  -23.449726687404898  3.774069378423169  -4.636986103866423  56.414044046422255  9.91289399644959  5.373698548727135  4.535012681492408  5.756276149992251  30.676244349418862  13.594534237048617  120.000000
6.546861423220974  0.000000  0.000000  0.000000  -23.533660019180548  3.934671087213728  -4.472182818493489  56.72300215765713  9.973906748919358  5.622838375810771  2.2189623244110237  4.211460740038963  35.15506336602488  14.106913027146414  120.000000
6.587026217228464  0.000000  0.000000  0.000000  -23.615413996461907  4.109539026684538  -4.219969445965378  57.03991600006973  10.05155477786809  5.85068588804915  -1.8747201861465785  2.7996571693222783  41.287478923856334  14.650533284885684  120.000000
6.627191011235955  0.000000  0.000000  0.000000  -23.701329822381084  4.292276934139398  -3.899584039066038  57.35432221776701  10.135822891920611  6.049944773730897  -11.285931134214646  1.5275850281732595  52.582913381417505  15.198155178109797  120.000000
6.667355805243446  0.000000  0.000000  0.000000  -23.799700127050436  4.477035448232553  -3.529948873648992  57.65475031958117  10.216575768909111  6.214486866441488  -56.649330699100496  0.5407093679073578  99.64834229608053  15.720383477488808  120.000000
6.707520599250937  0.000000  0.000000  0.000000  -23.917345232408067  4.65870235873695  -3.1292715912556606  57.93196288550055  10.284502229303898  6.340088464781931  -146.30471113087148  0.9798938079176449  -169.19805473537915  16.190345725814453  120.000000
6.747685393258427  0.000000  0.000000  0.000000  -24.057489416660513  4.832490387967978  -2.7133066299557664  58.18017380019769  10.332040566461341  6.425784801094662  -162.8845994285691  1.9353902588311453  -151.33663423891562  16.58733510749715  120.000000
6.787850187265918  0.000000  0.000000  0.000000  -24.218404848750698  4.99301569599296  -2.2936688213529517  58.39687153659751  10.354635555545071  6.4739910144635955  -169.40285393840645  2.862602263074654  -143.7555834044387  16.899319260456465  120.000000
6.828014981273408  0.000000  0.000000  0.000000  -24.393639064764624  5.1357160561386  -1.8781030485039303  58.58302428477749  10.351049633538425  6.489413714047159  -173.61920143572303  3.7356617129089162  -138.6852553314738  17.124475467498378  120.000000
6.868179775280899  0.000000  0.000000  0.000000  -24.573454862968394  5.258513239081252  -1.4711993100978986  58.743031554158065  10.322624345720328  6.4767559150696  -176.94643553146645  4.55426306714286  -134.69221412842393  17.27163667647482  120.000000
6.908344569288389  0.000000  0.000000  0.000000  -24.747769231473857  5.361414959619981  -1.0752762974974537  58.88286240920893  10.272576330164663  6.439683858673175  -179.77565120970948  5.318709871937499  -131.35846307586496  17.357615278487597  120.000000
6.94850936329588  0.000000  0.000000  0.000000  -24.90922080812756  5.445466621925956  -0.6910215688348244  59.00709060470426  10.204788900953984  6.381748358747267  177.7548520743133  6.027551180558288  -128.51827295439108  17.40179525300847  120.000000
6.988674157303371  0.000000  0.000000  0.000000  -25.05350073820247  5.511575351973979  -0.3181069834129801  59.11806309591783  10.122919921835225  6.3068102574465055  175.58117259767727  6.678307153179845  -126.08241416452704  17.421990733449377  120.000000
7.028838951310862  0.000000  0.000000  0.000000  -25.17829990356872  5.56027059684216  0.043983040835729036  59.2171525058399  10.02995397910048  6.2185045011972315  173.6674718595115  7.268344946103217  -123.99184828544463  17.432324670648757  120.000000
7.069003745318352  0.000000  0.000000  0.000000  -25.282905158397494  5.59240270903401  0.39535901608628793  59.305403227655226  9.928045027862163  6.119457001770016  171.9950937404156  7.79531354122398  -122.20672463163397  17.44238143774264  120.000000
7.109168539325843  0.000000  0.000000  0.000000  -25.367656366994183  5.609888078022452  0.7356595657332144  59.38372793904014  9.819097072558856  6.0106494562355275  170.55927251846214  8.256942352726137  -120.70300399768931  17.457185366966545  120.000000
7.149333333333334  0.000000  0.000000  0.000000  -25.433827043381328  5.615381566888555  1.064986823888703  59.4521226577871  9.704825905871822  5.891983315367978  169.36427601306963  8.65087378764613  -119.46730001853496  17.47812708670685  120.000000
7.189498127340824  0.000000  0.000000  0.000000  -25.483069462997303  5.611358682277417  1.383813055256565  59.50966243474538  9.586841915906156  5.763619183561334  168.41790590852375  8.974785735543305  -118.49160503045859  17.50430374113076  120.000000
7.229662921348314  0.000000  0.000000  0.000000  -25.51680356665073  5.5999810531296035  1.6926859423306997  59.55538654721062  9.466567801837613  5.626099174186093  167.72876829737754  9.226694551067434  -117.77060150330776  17.533862327014393  120.000000
7.269827715355805  0.000000  0.000000  0.000000  -25.536502236721578  5.583208318404354  1.9922812951982105  59.588690746907204  9.345211785943828  5.480110770545145  167.30743693539762  9.405216299580527  -117.30261455480247  17.564948757125826  120.000000
7.309992509363296  0.000000  0.000000  0.000000  -25.543615713060674  5.562802145753166  2.283289232861957  59.609410525902035  9.2237543477923  5.326674596486966  167.16742369026593  9.509564559839612  -117.090606734823  17.596216085949926  120.000000
7.3501573033707865  0.000000  0.000000  0.000000  -25.53961735322264  5.540279713269637  2.566507021804621  59.61794570423577  9.102943323740954  5.167134533765499  167.32457271769042  9.53977830028064  -117.14153112399688  17.627135904300072  120.000000
7.390322097378277  0.000000  0.000000  0.000000  -25.525982410357702  5.5169684116097795  2.842745549609672  59.61507589542706  8.983242348844353  5.003318442348137  167.79938490925875  9.49676959859983  -117.468626267404  17.65806333279976  120.000000
7.430486891385768  0.000000  0.000000  0.000000  -25.504256769777452  5.494233832165511  3.1126510148349604  59.601769647339886  8.864804604517959  4.837224792801084  168.61858391589533  9.382430479849797  -118.09309319983102  17.690023296120774  120.000000
7.470651685393259  0.000000  0.000000  0.000000  -25.476167444606475  5.4736576163783655  3.3765773737198415  59.5785697421414  8.747486606114931  4.671029622921836  169.8197372155325  9.199733387763368  -119.04860445485362  17.724357136848553  120.000000
7.5108164794007495  0.000000  0.000000  0.000000  -25.44331554109913  5.4570596214661045  3.63424978403557  59.54572339424761  8.630917781218901  4.506810078839773  171.45160340332518  8.953009532945387  -120.38186032513975  17.762405320966025  120.000000
7.550981273408239  0.000000  0.000000  0.000000  -25.40669726574409  5.4463284969044725  3.8845080507859184  59.50381685408154  8.514346026914577  4.346602931628072  173.56851888758516  8.64891228355361  -122.14711945485045  17.805285542677478  120.000000
7.59114606741573  0.000000  0.000000  0.000000  -25.36636735363647  5.442836852591669  4.125427167230359  59.45376111743415  8.396159892689662  4.193004325471577  176.22556250794858  8.296971276971199  -124.4015087116493  17.853610815169926  120.000000
7.631310861423221  0.000000  0.000000  0.000000  -25.321239612550087  5.447289752091917  4.354534893844913  59.39702399358192  8.273914125308803  4.048712613099362  179.47266012303277  7.9092495215624865  -127.19957307080142  17.906900515922562  120.000000
7.6714756554307115  0.000000  0.000000  0.000000  -25.269149723359764  5.460156629124138  4.56889000716364  59.335606578319855  8.144622794683917  3.9160135013169497  -176.6507863615851  7.499663884570482  -130.58815058184004  17.962791013541118  120.000000
7.711640449438202  0.000000  0.000000  0.000000  -25.20749470820049  5.481549513892157  4.765195753559742  59.27143476991203  8.004717633276044  3.796736822056985  -172.1240022267109  7.083123830070815  -134.59855717765092  18.016520232493765  120.000000
7.751805243445693  0.000000  0.000000  0.000000  -25.13347266162496  5.510972951184312  4.9397217009951015  59.205996781073566  7.849967279378614  3.692315934026205  -166.96043797231016  6.674232703589681  -139.2313578411035  18.060906617102567  120.000000
7.791970037453184  0.000000  0.000000  0.000000  -25.04430547257947  5.547170756525488  5.0881932317440075  59.140510129255816  7.675603202639559  3.603492280674168  -161.23072469059807  6.285169961074775  -144.4339477397008  18.086524949619736  120.000000
7.8321348314606745  0.000000  0.000000  0.000000  -24.937222509868985  5.58843400373881  5.205842958906407  59.07647454256948  7.4765252092211325  3.530165516937199  -155.08860494076342  5.922444501011965  -150.0751069235515  18.08234343448115  120.000000
7.872299625468165  0.000000  0.000000  0.000000  -24.809929745021815  5.632346386308856  5.287921898549506  59.01562021667476  7.247633752977885  3.4716649835647337  -148.78517286704928  5.582652031380716  -155.93155142889654  18.036106518201645  120.000000
7.912464419475655  0.000000  0.000000  0.000000  -24.662276806394868  5.675178280096998  5.331101561494847  58.957526232444934  6.985094705315675  3.4277813922076157  -142.63566602162132  5.2489556904328305  -161.72184866647197  17.93381565602181  120.000000
7.952629213483146  0.000000  0.000000  0.000000  -24.49496402617033  5.713857489424587  5.3361948544769735  58.89999731144831  6.689277848206897  3.399600651546406  -136.91280205976634  4.891384842015497  -167.20814554674496  17.761975704803255  120.000000
7.9927940074906365  0.000000  0.000000  0.000000  -24.306332360724376  5.7481297025235465  5.309810152380508  58.84319232012618  6.367443533617286  3.3889879742824776  -131.69904134795897  4.473513878891042  -172.33484738013192  17.511355769959355  120.000000
8.032958801498127  0.000000  0.000000  0.000000  -24.0930809356115  5.781604592652111  5.263447701030561  58.78877833187771  6.032976261277348  3.397555273949189  -126.77690201197646  3.9643173965503706  -177.33621525064942  17.178100566862035  120.000000
8.073123595505619  0.000000  0.000000  0.000000  -23.853508787512844  5.822028349363095  5.21112717466965  58.73788389354881  5.703433588163952  3.426776527223938  -121.51337583635363  3.3447470972757616  177.14408836515582  16.764183208388665  120.000000
8.113288389513109  0.000000  0.000000  0.000000  -23.587422594723698  5.878958924907816  5.1688331740581885  58.69222729875875  5.400294753187589  3.4801031709088845  -114.39434286240737  2.6084130476430265  169.58326357047  16.277832017868334  120.000000
8.153453183520599  0.000000  0.000000  0.000000  -23.29552751576884  5.961929632707926  5.156456289974944  58.65581764146326  5.1474857854169445  3.563131877697365  -100.75251792185993  1.782101658291412  155.30711026510215  15.733672243877892  120.000000
8.19361797752809  0.000000  0.000000  0.000000  -22.981334515937434  6.081480436784152  5.1955973231499  58.63492814653932  4.9686610523328545  3.681726603217215  -62.1677235599519  1.1063520844982426  115.89185078029483  15.151971708959916  120.000000
8.23378277153558  0.000000  0.000000  0.000000  -22.652960835926194  6.248927491212957  5.305890999672294  58.63412698784855  4.8832321634072215  3.8412993111971323  -2.3916620329234375  1.5003130356056975  55.089707738391866  14.55577142694071  120.000000
8.273947565543072  0.000000  0.000000  0.000000  -22.322725112813437  6.473317135132695  5.5028333803909035  58.654982115395114  4.903414427654771  4.046628799729684  20.482081216366822  2.818244362400175  31.000696723787154  13.967836377002737  120.000000
8.314112359550561  0.000000  0.000000  0.000000  -22.005295221270035  6.759423635601602  5.79534456957456  58.698614118599565  5.033137708259804  4.302835085534406  28.546927675069494  4.505650784046999  21.544464189401182  13.408487578879003  120.000000
8.354277153558053  0.000000  0.000000  0.000000  -21.715432892641974  7.106801761355185  6.185210488491691  58.76620987511609  5.266718394417524  4.61721348477155  32.05964268838582  6.443820351815762  16.484930714389183  12.893790917400537  120.000000
8.394441947565543  0.000000  0.000000  0.000000  -21.465300713719916  7.509537663086454  6.668617110129845  58.859104153637574  5.589872621032956  4.997530173612682  33.69484156132351  8.592162445701883  13.175447478609858  12.434174625412032  120.000000
8.434606741573035  0.000000  0.000000  0.000000  -21.26424582465715  7.958946146865308  7.2380756685272045  58.979002565208795  5.9830995258025546  5.449392798049813  34.39137013508945  10.920815313595941  10.7099442721257  12.033858659293632  120.000000
8.474771535580524  0.000000  0.000000  0.000000  -21.11868568961958  8.44568451218656  7.884271426964786  59.1263177837344  6.424792284317467  5.9761119740278525  34.5563179479368  13.399709206641248  8.716232524832114  11.691695050149551  120.000000
8.514936329588014  0.000000  0.000000  0.000000  -21.031973203642192  8.95946382967061  8.596990714112257  59.300478578708116  6.893560199672807  6.577841930589974  34.39736459027697  15.997727047224101  7.020626220416384  11.402789383854333  120.000000
8.555101123595506  0.000000  0.000000  0.000000  -21.004920582031293  9.489946446842024  9.365430153584867  59.500641558204364  7.369822798836373  7.251203392543062  34.035098630253465  18.683995418376792  5.532959687199846  11.160562387687456  120.000000
8.595265917602996  0.000000  0.000000  0.000000  -21.03656349080639  10.027628476959014  10.178797772779031  59.724861072105384  7.836875715476698  7.989624468800576  33.54412539269514  21.42839176793757  4.2037200674662625  10.95841535517301  120.000000
8.635430711610487  0.000000  0.000000  0.000000  -21.12551836570947  10.563939361036491  11.02674681470249  59.97012573658464  8.281638926827386  8.783272056918273  32.972527018056205  24.202321718707946  3.0033375145370385  10.790391469252464  120.000000
8.675595505617977  0.000000  0.000000  0.000000  -21.270511613018876  11.091689740391686  11.89928187500704  60.232068686521906  8.69476571074145  9.619347034639228  32.35077002731617  26.97855547444824  1.9131695471814085  10.651519820473501  120.000000
8.715760299625469  0.000000  0.000000  0.000000  -21.47094036388988  11.605144055721148  12.786553670390798  60.50463652734902  9.07015086689716  10.482481719363692  31.697583711853746  29.73113732187576  0.9202383862220238  10.537786100291473  120.000000
8.755925093632959  0.000000  0.000000  0.000000  -21.72620135668567  12.099870080410136  13.678863028408415  60.78042376193941  9.404562706075707  11.355602495374223  31.02481335112254  32.435589497348076  0.013493170411485162  10.446028169009963  120.000000
8.79608988764045  0.000000  0.000000  0.000000  -22.034337205780616  12.57235360789984  14.566623580320826  61.05182323208468  9.697185381858482  12.221344133543555  30.34111404810666  35.06916067315975  -0.8183074729269934  10.373938887447691  120.000000
8.83625468164794  0.000000  0.000000  0.000000  -22.391107588629534  13.019614225689978  15.440319618546136  61.3121307284719  9.94888446034657  13.063504444478921  29.65465691980997  37.61090479042411  -1.5875773631755328  10.32018415005903  120.000000
8.87641947565543  0.000000  0.000000  0.000000  -22.789720039618263  13.438966857599224  16.29041746682673  61.556116647649894  10.161932715759043  13.868068948847457  28.973549988216  40.041740998668516  -2.306821003884111  10.2840968422296  120.000000
8.916584269662922  0.000000  0.000000  0.000000  -23.221683204158985  13.828203982825212  17.107650089874966  61.77983386997641  10.339846915946627  14.6236570054028  28.305508687998607  42.34461397475516  -2.987060110589005  10.264998536001201  120.000000
8.956749063670411  0.000000  0.000000  0.000000  -23.67778284565232  14.185778093114786  17.883490642821148  61.980252060390555  10.487178177478844  15.321542809384884  27.657920443315803  44.50495411782341  -3.6367248267484915  10.261700354266813  120.000000
8.996913857677903  0.000000  0.000000  0.000000  -24.148744471203187  14.51047888516966  18.61078747055651  62.15487160505438  10.609312843414887  15.955925114239927  27.03813072362169  46.51119758456038  -4.260900332653881  10.272006322530288  120.000000
9.037078651685393  0.000000  0.000000  0.000000  -24.62590692158546  14.8015180625376  19.284532840925163  62.301344513519254  10.712493097586183  16.523755032840644  26.453493983624384  48.3552897652228  -4.860842600724622  10.29249820197613  120.000000
9.077243445692885  0.000000  0.000000  0.000000  -25.101729615098822  15.058495730926603  19.90220555488503  62.417300127263395  10.80374030585683  17.024314724917335  25.91127778603844  50.032707255529985  -5.433997974837155  10.318652816369521  120.000000
9.117408239700374  0.000000  0.000000  0.000000  -25.569521400593544  15.28090497703387  20.463313938038823  62.500363767808956  10.89010887879706  17.45886756625898  25.418911641405575  51.541782492726995  -5.974937484971489  10.345358335450946  120.000000
9.157573033707866  0.000000  0.000000  0.000000  -26.022933976520363  15.46810791093226  20.9685578751492  62.54859266513769  10.977823027246824  17.8300163134851  24.984229618073908  52.882489693158156  -6.476759931312954  10.367767732436093  120.000000
9.197737827715356  0.000000  0.000000  0.000000  -26.45539156867254  15.619482141707053  21.418934788279493  62.56095322642606  11.071629867654513  18.140858128647675  24.615417689912064  54.05510374052648  -6.932537229451308  10.3821118959466  120.000000
9.237902621722846  0.000000  0.000000  0.000000  -26.859446630684538  15.73448405144013  21.81488207849557  62.537744010624245  11.174320899054234  18.39434318344843  24.320881632994492  55.058920740297516  -7.336700091140214  10.386332002548356  120.000000
9.278067415730337  0.000000  0.000000  0.000000  -27.22631745945104  15.81272827711654  22.155662326561263  62.48088895310182  11.28645312731748  18.592849100523466  24.109133584220814  55.891327669126596  -7.68603122206773  10.38036146199153  120.000000
9.318232209737827  0.000000  0.000000  0.000000  -27.545839170809934  15.854096327518466  22.4391244903792  62.3939555475636  11.406484270577884  18.737871518093993  23.98850665805853  56.54734748692333  -7.980008667806172  10.365833643169337  120.000000
9.358397003745319  0.000000  0.000000  0.000000  -27.80690323012806  15.858839826245474  22.661797687698122  62.281850490158085  11.531193107056945  18.82981531975087  23.966729276380764  57.01974896631286  -8.220450127630386  10.34527788994677  120.000000
9.398561797752809  0.000000  0.000000  0.000000  -27.998247885148807  15.827595164889141  22.819174151064942  62.150274072864185  11.656286378405982  18.867922787289423  24.05043773075733  57.29950712799241  -8.410740927020873  10.321080420722913  120.000000
9.4387265917603  0.000000  0.000000  0.000000  -28.10942054271788  15.761382677295867  22.906008613127156  62.00508532602402  11.77699796197808  18.850275426863504  24.24473679911149  57.37649892001206  -8.554837469871984  10.294494012720984  120.000000
9.47889138576779  0.000000  0.000000  0.000000  -28.13170838026899  15.66154592094884  22.916528807672716  61.85174615437116  11.888609160760819  18.77389976286172  24.552886340689113  57.240196430324026  -8.656322875803276  10.265003858360517  120.000000
9.519056179775282  0.000000  0.000000  0.000000  -28.058855491009812  15.529677272708383  22.84448863873251  61.69493946497614  11.986773021048561  18.63495169567142  24.976179628974034  56.88029918939944  -8.717671896059905  10.230304994386698  120.000000
9.559220973782772  0.000000  0.000000  0.000000  -27.887569307750052  15.367500846589168  22.683139243307135  61.53837829798679  12.0676729433905  18.4289997459871  25.513942755806394  56.28721257834007  -8.739821513798793  10.187008101281132  120.000000
9.599385767790261  0.000000  0.000000  0.000000  -27.61784030701967  15.176822542380544  22.425180831390662  61.38476674398663  12.128072476448725  18.151285191280586  26.16356528945217  55.45245583785171  -8.721928822488133  10.131895490516538  120.000000
9.639550561797753  0.000000  0.000000  0.000000  -27.253140760625364  14.959373580383993  22.062818068823233  61.23580229333126  12.165185690592972  17.79714462289891  26.9205378820399  54.36903346844524  -8.661234105443196  10.063516437197727  120.000000
9.679715355805243  0.000000  0.000000  0.000000  -26.800719590895145  14.716469286158281  21.588096315070285  61.09195910048552  12.176461669470442  17.362667872177227  27.778303007460693  53.032055306864  -8.552874447979036  9.98365800823802  120.000000
9.719880149812735  0.000000  0.000000  0.000000  -26.27222733771905  14.448927019964865  20.993830051577635  60.95191616123285  12.159753637554791  16.845257424970974  28.727516350116247  51.43956406411003  -8.389379641315838  9.898286349206785  120.000000
9.760044943820224  0.000000  0.000000  0.000000  -25.68409086885579  14.156996977899674  20.274759829355016  60.81210170452589  12.113649848320454  16.244322847149874  29.755250767626862  49.59358844052605  -8.160067968915392  9.817552579612116  120.000000
9.800209737827716  0.000000  0.000000  0.000000  -25.056704817561375  13.839995453658577  19.428636265158296  60.66688326113214  12.037514774386027  15.5625129629635  30.845167806605932  47.5011325396374  -7.850980654622638  9.755341284989719  120.000000
9.840374531835206  0.000000  0.000000  0.000000  -24.412820263337945  13.496094300618273  18.457101891326285  60.50957489744638  11.931572659092602  14.807031772872508  31.97823507658058  45.175016023976596  -7.4452865716689525  9.728446448681995  120.000000
9.880539325842697  0.000000  0.000000  0.000000  -23.776043654434535  13.122385154689578  17.366477722900242  60.33341183953769  11.797393534299347  13.990372886939731  33.1325621223559  42.634369069229265  -6.923560310104474  9.75504428987859  120.000000
9.920704119850187  0.000000  0.000000  0.000000  -23.169750445362837  12.715630979524853  16.168320323809095  60.132396870256514  11.638722885746525  13.129835040446968  34.28232952790004  39.90496095011242  -6.263752493473064  9.852980534493232  120.000000
9.960868913857677  0.000000  0.000000  0.000000  -22.615871936096273  12.273360746354083  14.87957948780466  59.90239683922577  11.461982106329927  12.246234826319325  35.39715699219536  37.01921406807961  -5.441812258063682  10.038377579354275  120.000000
10.001033707865169  0.000000  0.000000  0.000000  -22.133154870966237  11.794728211854176  13.521712491892561  59.64253097953117  11.276003867435334  11.362310195830196  36.44230142143562  34.01570417190504  -4.433147912111316  10.324232715476832  120.000000
10.041198501872659  0.000000  0.000000  0.000000  -21.735643863160682  11.281158779101002  12.118897747506532  59.35631259650833  11.091031643365689  10.50092463198907  37.3796063491421  30.937929353107524  -3.2145945295901885  10.719248165076202  120.000000
10.08136329588015  0.000000  0.000000  0.000000  -21.43179767917767  10.736435290799008  10.695902525556358  59.0519953365797  10.917305856999702  9.683115107435066  38.168709185235095  27.832735875497818  -1.7663153060562582  11.226452650957576  120.000000
10.12152808988764  0.000000  0.000000  0.000000  -21.224704540932006  10.166474422332366  9.27596595306676  58.7416486953236  10.763599637657407  8.926296064222562  38.768065605676085  24.748196734326378  -0.07326291996716557  11.841480501719118  120.000000
10.161692883895132  0.000000  0.000000  0.000000  -21.113251257669976  9.578644129918002  7.879168561126017  58.43931948264143  10.635907300724448  8.24291890382214  39.135549448750595  21.731373517778938  1.874570956473031  12.551581526511237  120.000000
10.201857677902622  0.000000  0.000000  0.000000  -21.092851269212293  8.980741449331202  6.521995089338384  58.15879861145665  10.536982593259564  7.640492619320576  39.23073526149133  18.826671437173825  4.08099600637881  13.335278092904137  120.000000
10.242022471910113  0.000000  0.000000  0.000000  -21.155937605720883  8.380035985085282  5.218231961361714  57.91179526631307  10.467240546065767  7.122236610088398  39.01641311187159  16.074862548539677  6.543541634739457  14.163176490739003  120.000000
10.282187265917603  0.000000  0.000000  0.000000  -21.292775222339248  7.783788324530124  3.980162537405474  57.70673064152756  10.426539593359696  6.687362550690407  38.457957139175384  13.512187186980437  9.25604476259487  14.999648507212385  120.000000
10.322352059925093  0.000000  0.000000  0.000000  -21.492554740327307  7.200293832024646  2.8192043384982344  57.547864017895826  10.415351579589936  6.331327660409492  37.52241717748359  11.169527032482076  12.211495299747344  15.804640905293908  120.000000
10.362516853932584  0.000000  0.000000  0.000000  -21.744078115172446  6.638612657906577  1.7460149257272066  57.43479656798984  10.435039162626842  6.046323945662462  36.17654259511592  9.07118858953124  15.40632775753262  16.536247456053747  120.000000
10.402681647940074  0.000000  0.000000  0.000000  -22.036463001609636  6.108217103379841  0.7701653419682464  57.362694683612375  10.48682387348898  5.822424298752219  34.38774929851741  7.233676237943288  18.84174062294777  17.154064804972123  120.000000
10.442846441947566  0.000000  0.000000  0.000000  -22.359994125673932  5.618227712991786  -0.10047740416126943  57.323768040811395  10.570252976005598  5.648460024946299  32.13178052225868  5.665048626922349  22.5180924644  17.623132612821607  120.000000
10.483011235955056  0.000000  0.000000  0.000000  -22.704810577870887  5.177126154204427  -0.8604099896253061  57.308535910338676  10.682175114471406  5.513156315340904  29.405010855712714  4.364123547195086  26.424631146206202  17.919214485341293  120.000000
10.523176029962547  0.000000  0.000000  0.000000  -23.06108054348857  4.792374608840627  -1.5065986790156425  57.30706228722972  10.815503150873816  5.406484410885876  26.249011837578372  3.321036620521152  30.516151320510698  18.03397827216968  120.000000
10.563340823970037  0.000000  0.000000  0.000000  -23.41647557513648  4.4700502389566665  -2.038206471455856  57.30882763428767  10.958799422088758  5.321219663984763  22.762221274920602  2.51746095136431  34.70220275100985  17.98096337235259  120.000000
10.603505617977529  0.000000  0.000000  0.000000  -23.751656136647444  4.21515536830195  -2.4552136068119594  57.3065975415854  11.097412449670848  5.252368452193909  19.129121526273977  1.9301584308671385  38.8187997778915  17.800503320906568  120.000000
10.643670411985019  0.000000  0.000000  0.000000  -24.040310681004794  4.031545711475855  -2.7572093053987166  57.29835178780779  11.215631031358987  5.198061392264102  15.754148715491036  1.535984267066026  42.49090824315409  17.559556224038985  120.000000
10.683835205992509  0.000000  0.000000  0.000000  -24.242225752101646  3.9211519830114194  -2.941373264736715  57.28887677916265  11.298691079259308  5.160044050867876  13.254553952003642  1.3129802795150163  45.14060846215102  17.348462549062656  120.000000
10.724  0.000000  0.000000  0.000000  -24.31515139292538  3.884326518840546  -3.0033418000664636  57.28513269541961  11.3296997586822  5.145425657901018  12.303699666202533  1.2416082750015127  46.135607242859955  17.26300741639826  120.000000
