Simulation
nRows=268
nColumns=15
endheader
time  TH_x TH_y TH_z SC_y  SC_z  SC_x  AC_y  AC_z  AC_x  GH_y  GH_z  GH_yy  EL_x  PS_y
0.0  0.000000  0.000000  0.000000  -22.104461842734374  5.954268846151034  -7.89050899610039  56.670999508506625  8.547857366168186  9.506377543696765  -152.37009826764003  3.547912568001969  -170.58184669627454  20.205997838533218  120.000000
0.04016479400749064  0.000000  0.000000  0.000000  -22.11452762955817  5.959065907678922  -7.885672131552556  56.64035041869469  8.590277565274718  9.487544361885822  -151.0567747817989  3.418691332874286  -171.99822143339725  20.12053857638973  120.000000
0.08032958801498127  0.000000  0.000000  0.000000  -22.1452356157944  5.977003242676025  -7.86795614203601  56.54011397132611  8.718326166518038  9.427181836622939  -146.26465883829056  3.04353094826626  -177.1067612378535  19.871820982285207  120.000000
0.12049438202247191  0.000000  0.000000  0.000000  -22.20406376996155  6.014016580691523  -7.8400598160422454  56.357903766789356  8.922525727585123  9.323492060015285  -134.99008928511094  2.4959876082066668  171.07630647295025  19.483684022074076  120.000000
0.16065917602996255  0.000000  0.000000  0.000000  -22.303569563558586  6.0695635973627775  -7.814540143104104  56.08873565176635  9.182548267167999  9.179244408542779  -110.69024534582681  2.019756839418146  146.00378539237298  18.986940865996544  120.000000
0.20082397003745317  0.000000  0.000000  0.000000  -22.460703719949056  6.1402299077253355  -7.80340954690793  55.73372365679564  9.478838741215608  8.999078915124706  -73.93864822075629  2.155136362259629  108.25331072198225  18.410594083455372  120.000000
0.24098876404494382  0.000000  0.000000  0.000000  -22.693773477975533  6.222298022422036  -7.813312263147047  55.30051911281315  9.794306374084151  8.792473341180088  -47.23114357274876  3.1492677387040384  80.33421318286261  17.781067656514043  120.000000
0.28115355805243447  0.000000  0.000000  0.000000  -23.017764099141285  6.3120795063381685  -7.84120023224131  54.80421594507295  10.11794621214171  8.568899410774149  -33.835752679398745  4.6816455068622655  65.5355737108337  17.121623581709567  120.000000
0.3213183520599251  0.000000  0.000000  0.000000  -23.443266713494953  6.411078590214892  -7.875936829252075  54.26522505644518  10.446054948138391  8.335920567473206  -26.830248608950356  6.529634767336128  56.95980148170235  16.452349561560315  120.000000
0.3614831460674157  0.000000  0.000000  0.000000  -23.971375409023697  6.522675347408111  -7.904074568162602  53.70287476970197  10.780791199120701  8.100133735219542  -22.772014845750192  8.60363379001179  51.192517277475964  15.788101277222781  120.000000
0.40164794007490634  0.000000  0.000000  0.000000  -24.598416185042446  6.6503144222927135  -7.908980773203497  53.133853594672736  11.123376961951475  7.864725459283291  -20.248070143047677  10.858349642634026  46.85029101393915  15.139644994809265  120.000000
0.441812734082397  0.000000  0.000000  0.000000  -25.316165420453984  6.797610583547428  -7.870265532036681  52.57287458626955  11.471284769199148  7.629591278327425  -18.622855478398723  13.262159506877403  43.32834415545006  14.514941006524033  120.000000
0.48197752808988764  0.000000  0.000000  0.000000  -26.11225091960216  6.966700628384965  -7.769331105913456  52.03257332410024  11.821647394309663  7.394997665124539  -17.571816340394246  15.787361986943202  40.33271280268029  13.9195281751095  120.000000
0.5221423220973783  0.000000  0.000000  0.000000  -26.972287270106232  7.158279210662374  -7.5928727352023975  51.52420366486522  12.171984378868801  7.163905755244379  -16.904578290976083  18.40732769075229  37.70304633824277  13.357320047902746  120.000000
0.5623071161048689  0.000000  0.000000  0.000000  -27.88006029594737  7.371501184394162  -7.33346141636595  51.05812822053033  12.519475935022236  6.940920563075773  -16.49610012311065  21.09582447327535  35.34254473349964  12.830639022754998  120.000000
0.6024719101123596  0.000000  0.000000  0.000000  -28.819777157512338  7.604234830059746  -6.986861149176136  50.644118053757026  12.858543857994913  6.7300061219174285  -16.25611772811304  23.827641450092216  33.18643482593117  12.340036124512373  120.000000
0.6426367041198502  0.000000  0.000000  0.000000  -29.7770121019219  7.853705666908218  -6.551466889518693  50.29053002115551  13.181233998755488  6.533879128430417  -16.11679306801228  26.57874694661629  31.18830482742219  11.884106332646489  120.000000
0.6828014981273408  0.000000  0.000000  0.000000  -30.739808791921508  8.11676523039139  -6.028392768011403  50.003548431374874  13.478937778983356  6.35418364354167  -16.02579679986738  29.32694488809204  29.31222167055984  11.459139644029515  120.000000
0.7229662921348314  0.000000  0.000000  0.000000  -31.698716699328774  8.390600561703769  -5.421173149827806  49.78660652007367  13.744205269658902  6.191968413597212  -15.94265140418257  32.05227058111971  27.528455682293522  11.059194937907716  120.000000
0.7631310861423221  0.000000  0.000000  0.000000  -32.646130308103025  8.673166988786283  -4.7357485470267475  49.640342108456885  13.972569018575177  6.048235527318946  -15.836416834111736  34.73757827071069  25.81130968070494  10.676652738102922  120.000000
0.8032958801498127  0.000000  0.000000  0.000000  -33.57544460013927  8.963177665971733  -3.97916513635445  49.56272302748383  14.162332756785956  5.923640927022999  -15.684633442134205  37.368549594223836  24.138864455288118  10.303196308764402  120.000000
0.8434606741573034  0.000000  0.000000  0.000000  -34.4800976040587  9.259048212282424  -3.158601280071833  49.54890196247212  14.313956405005856  5.818423350502707  -15.473449936983222  39.933439771562995  22.494336077513385  9.931363569203807  120.000000
0.883625468164794  0.000000  0.000000  0.000000  -35.35309381391395  9.558987472951559  -2.281992519285269  49.59131945016142  14.429491188980563  5.732617161177872  -15.198373703228645  42.422314218365244  20.868194512647182  9.55584479615436  120.000000
0.9237902621722847  0.000000  0.000000  0.000000  -36.18712272259483  9.861198853366256  -1.3592504648489885  49.67960284329014  14.511755882545135  5.66551420979592  -14.864126030464822  44.82597106723779  19.259371638196395  9.174723370981846  120.000000
0.9639550561797753  0.000000  0.000000  0.000000  -36.974639165347654  10.163200041765593  -0.4028222735931492  49.80063158604201  14.563345894714649  5.615284553610454  -14.483235490584137  47.13484277466353  17.675163932014197  8.790300561872533  120.000000
1.004119850187266  0.000000  0.000000  0.000000  -37.70809793598316  10.462223587591913  0.5725379596269268  49.93979781293074  14.586236766248957  5.578988436692978  -14.073247525633402  49.33852510697433  16.12958191380296  8.409072881847385  120.000000
1.0442846441947566  0.000000  0.000000  0.000000  -38.381056954148484  10.755878291405113  1.5506496524156173  50.0825708117155  14.5820103227144  5.552508954409069  -13.653546005191458  51.42674437559245  14.640993940403266  8.040958822834634  120.000000
1.0844494382022472  0.000000  0.000000  0.000000  -38.989384443815275  11.042038422639123  2.5146602211395077  50.21585845164081  14.551463290669693  5.530982926835208  -13.24270796960408  53.39010978664805  13.229722737615727  7.697866033702665  120.000000
1.1246142322097379  0.000000  0.000000  0.000000  -39.531899523588855  11.318104452118975  3.447702882945802  50.32944435686351  14.49430710858667  5.508969165430958  -12.857104558447107  55.219838340431714  11.916293669128363  7.3920655904552115  120.000000
1.1647790262172284  0.000000  0.000000  0.000000  -40.01032300925825  11.580906787838353  4.333410271157325  50.4170909900892  14.409186233201012  5.480212258986814  -12.50999687708048  56.907672384354704  10.719675211314373  7.1345517483297805  120.000000
1.2049438202247191  0.000000  0.000000  0.000000  -40.42884391716835  11.826925437141135  5.157119576064852  50.476989128708965  14.294152127647635  5.437968273858098  -12.210839417022624  58.44611988862063  9.655830027860802  6.933842332394218  120.000000
1.2451086142322096  0.000000  0.000000  0.000000  -40.79284245283315  12.052560515372326  5.906787151944109  50.511135830172954  14.14738071540334  5.375967873328555  -11.964498472896743  59.82931298834893  8.736125452266096  6.7951554329244575  120.000000
1.2852734082397004  0.000000  0.000000  0.000000  -41.107562292870924  12.254620310978337  6.573884412833281  50.523792279251616  13.968266825948762  5.289640497799423  -11.771614907303748  61.053702816595816  7.966804535694007  6.719801774469365  120.000000
1.325438202247191  0.000000  0.000000  0.000000  -41.37758965880091  12.430666703272935  7.154211719722801  50.520144220347234  13.758564661624854  5.176671872161372  -11.629594586228  62.11872099338104  7.348536972843214  6.704504350257381  120.000000
1.3656029962546816  0.000000  0.000000  0.000000  -41.606793671298014  12.579256011893985  7.648422841948862  50.504935516725745  13.523091144239647  5.037490365384974  -11.533644042243743  63.027115939044535  6.876455965140996  6.740915562797013  120.000000
1.4057677902621724  0.000000  0.000000  0.000000  -41.79842076516884  12.699905286053287  8.061964131419316  50.48180757151432  13.26993783421502  4.875075454317357  -11.477783189278822  63.78472222508475  6.540323214825934  6.815707519258321  120.000000
1.4459325842696629  0.000000  0.000000  0.000000  -41.95527695272446  12.792993241889837  8.40430444600672  50.45303123427214  13.009958774035322  4.694451620925038  -11.455437134773184  64.39969400313633  6.325350963621977  6.911585469205786  120.000000
1.4860973782771536  0.000000  0.000000  0.000000  -42.07974682559774  12.859597530883686  8.68751173146886  50.41973935394187  12.755696918064002  4.5017996297842755  -11.459878513574715  64.88113028280334  6.21337801032249  7.009381366537392  120.000000
1.5262621722846441  0.000000  0.000000  0.000000  -42.17368638348762  12.901225984004103  8.924362554354605  50.38233034971741  12.519808548746319  4.3035544945363835  -11.48424853212911  65.23743341743054  6.184454928881561  7.090788674639769  120.000000
1.5664269662921348  0.000000  0.000000  0.000000  -42.23808501858946  12.9195079717719  9.126366664309321  50.341021170951656  12.313429949997674  4.105575815529162  -11.521581305258994  65.4743525762661  6.218367182660465  7.141322176545226  120.000000
1.6065917602996254  0.000000  0.000000  0.000000  -42.272620227030295  12.915819677598686  9.30197875294602  50.29627569383537  12.144695499375072  3.912558740450808  -11.564725141266536  65.59322909310754  6.296072630747796  7.152865536829111  120.000000
1.646756554307116  0.000000  0.000000  0.000000  -42.27516785524762  12.89095974572382  9.45535534601139  50.24916996364673  12.017805939160116  3.727734401200772  -11.606466087948625  65.58945350150115  6.40061412469579  7.125213298100715  120.000000
1.6869213483146068  0.000000  0.000000  0.000000  -42.24134699425728  12.844881218839541  9.585746509655413  50.20154449937158  11.932695452402333  3.552824241763522  -11.63974622949243  65.45149535594818  6.51757820749426  7.06614203361747  120.000000
1.7270861423220973  0.000000  0.000000  0.000000  -42.16433725001372  12.776583176662786  9.68745611173201  50.15613695290605  11.885271590010447  3.388169060218536  -11.658054381465439  65.16055380834707  6.635049967284347  6.990247755208656  120.000000
1.767250936329588  0.000000  0.000000  0.000000  -42.03503016481509  12.684168301373829  9.750268776481558  50.11645412800459  11.867941783409789  3.2329610279289693  -11.655807363013182  64.6909584716686  6.743570669380671  6.917098206790467  120.000000
1.8074157303370786  0.000000  0.000000  0.000000  -41.84270729268968  12.56503031796534  9.760121138022575  50.08666506513804  11.870260942831958  3.085519682439318  -11.628683397129937  64.0114466194479  6.836171548458975  6.869035993078545  120.000000
1.8475805243445693  0.000000  0.000000  0.000000  -41.57606567175745  12.416130743380883  9.700083048557378  50.07118882968652  11.879580545642785  2.9435991810428987  -11.573715839899549  63.08725188245928  6.908908053002565  6.8688425880548225  120.000000
1.8877453183520598  0.000000  0.000000  0.000000  -41.22448488422024  12.234223094679637  9.551485954799029  50.0743111635387  11.881676431768966  2.8046983558798457  -11.489206425631371  61.88310740438303  6.961837860599566  6.937191772728019  120.000000
1.9279101123595506  0.000000  0.000000  0.000000  -40.779200414442506  12.015999858392863  9.295312829195812  50.099478263106036  11.861435373819345  2.6665362357722464  -11.37427896331458  60.36681128730858  7.000540342562642  7.089991116313718  120.000000
1.9680749063670413  0.000000  0.000000  0.000000  -40.23405229769228  11.758144795921282  8.913881963590883  50.14870478311474  11.803761167200157  2.527753841776182  -11.228332127337302  58.51334961708671  7.037765494964794  7.335664254235232  120.000000
2.008239700374532  0.000000  0.000000  0.000000  -39.585869267152766  11.457426241668715  8.393073540390658  50.22201118838069  11.694994602757447  2.3890626578643954  -11.050233900497178  56.309068613051906  7.09475238755069  7.672614376371432  120.000000
2.0484044943820225  0.000000  0.000000  0.000000  -38.83422462457178  11.110936251993078  7.724608105962701  50.31754838795826  11.524810676341644  2.254116433077365  -10.838315717119906  53.75528472391839  7.202029917979519  8.087628224670471  120.000000
2.0885692883895133  0.000000  0.000000  0.000000  -37.98102601793919  10.716474881992738  6.908504334742931  50.432708831731304  11.288109490991342  2.1303524135277074  -10.590529591996868  50.87020122561084  7.398839096178269  8.556125722629798  120.000000
2.1287340823970036  0.000000  0.000000  0.000000  -37.02988091556339  10.27284383592268  5.954833219317122  50.56579944461546  10.986742935401926  2.0295142484145816  -10.30508620047896  47.68903608172642  7.730845448203735  9.045609070019108  120.000000
2.1688988764044943  0.000000  0.000000  0.000000  -35.986600456593386  9.780454498425692  4.884461390865969  50.717626402519144  10.630241479497487  1.9669816217104445  -9.982795300912846  44.26175669867325  8.247299593637903  9.521368755216734  120.000000
2.209063670411985  0.000000  0.000000  0.000000  -34.86102437556327  9.24279684222508  3.7277134121628848  50.892169371618266  10.235317061226771  1.9594596789670375  -9.630465179141106  40.649079323786445  8.99808737397735  9.953451337746358  120.000000
2.2492284644194758  0.000000  0.000000  0.000000  -33.66891932626512  8.667933069482197  2.522316628544104  51.09632278676487  9.825052146389385  2.021338519789548  -9.264023841402592  36.918095519376664  10.030700103724199  10.323684804468083  120.000000
2.2893932584269665  0.000000  0.000000  0.000000  -32.4326802929237  8.069650054657219  1.3103229801307135  51.33850527540146  9.427843579169268  2.162559432950171  -8.910859828671633  33.13829825426119  11.387844049616703  10.631107347485683  120.000000
2.329558052434457  0.000000  0.000000  0.000000  -31.179946801179895  7.466898346262326  0.13444939444125842  51.62768590042567  9.074703686657285  2.387349986482028  -8.608802425361144  29.377418392420264  13.104322299769551  10.893763315570848  120.000000
2.3697228464419475  0.000000  0.000000  0.000000  -29.939690091788265  6.881439517081106  -0.9642992755998377  51.97313289136511  8.794837666813658  2.693584288739192  -8.400774607178729  25.69680081553574  15.202260508303766  11.145741804536357  120.000000
2.4098876404494383  0.000000  0.000000  0.000000  -28.739537796163763  6.335404177269972  -1.9528131335961718  52.38345094563628  8.61502718164786  3.075349142694115  -8.325411173173999  22.148451852363962  17.6838447801965  11.430124971540486  120.000000
2.450052434456929  0.000000  0.000000  0.000000  -27.606002949645013  5.849489465954184  -2.804474293420433  52.86397439733663  8.554275265124716  3.5210088734249694  -8.408934583398885  18.77346115381593  20.525329415825652  11.78881185280829  120.000000
2.4902172284644193  0.000000  0.000000  0.000000  -26.566463118798097  5.441404569302862  -3.495201737749558  53.413134781372996  8.617147772089933  4.010302817595531  -8.662698072448533  15.600354986810393  23.677334470180107  12.25220073695622  120.000000
2.53038202247191  0.000000  0.000000  0.000000  -25.649930707552194  5.123837345067564  -4.0106056358929605  54.0198851393036  8.796824209963697  4.519404171386213  -9.084211606043604  12.643728382368286  27.06938493067114  12.83129321920508  120.000000
2.5705468164794008  0.000000  0.000000  0.000000  -24.883414664713555  4.9027412761479345  -4.34825473530218  54.6650939793198  9.07570659200331  5.024066602114335  -9.663545606443414  9.903959954056496  30.6217017718215  13.516306037389253  120.000000
2.6107116104868915  0.000000  0.000000  0.000000  -24.28881972962319  4.775434100138351  -4.516364393055545  55.32465522174391  9.42557876452391  5.502912079763028  -10.400673328463784  7.36833885506986  34.26828734267689  14.280679630104244  120.000000
2.650876404494382  0.000000  0.000000  0.000000  -23.878799580722813  4.729194746889183  -4.5385024547172845  55.96725201390762  9.815455015940111  5.944232339246886  -11.426417152082843  5.015116400438519  38.08298867315404  15.085058603100183  120.000000
2.6910411985018725  0.000000  0.000000  0.000000  -23.654148309697472  4.745819566986482  -4.449310123396252  56.55716541136491  10.214922488032975  6.342285446429832  -13.625554258686671  2.821972296212321  42.907232673235114  15.884303366493693  120.000000
2.7312059925093632  0.000000  0.000000  0.000000  -23.60000033108187  4.809548439896995  -4.286659346690462  57.069977764179384  10.595467420725331  6.688763452813705  -27.547708773475165  0.7930601501478161  59.263171159702  16.63509151637621  120.000000
2.771370786516854  0.000000  0.000000  0.000000  -23.68194491908927  4.908130776331904  -4.087227797337683  57.49700331736634  10.93586043022634  6.975965500861468  -174.0760447864096  1.2278523263130394  -151.9762858860933  17.30134913044228  120.000000
2.8115355805243447  0.000000  0.000000  0.000000  -23.858302863020622  5.030506296443069  -3.8783961791301613  57.83681410601211  11.224383269758135  7.202154563662449  179.48606181568292  3.0402695584679726  -143.50441812472212  17.85677195141927  120.000000
2.851700374531835  0.000000  0.000000  0.000000  -24.092817806747274  5.167411412367652  -3.6751790063873617  58.093813652045895  11.459344265903523  7.370319752574728  179.08048015705407  4.751789200900167  -141.25407972822418  18.285308850745004  120.000000
2.8918651685393257  0.000000  0.000000  0.000000  -24.356984046429368  5.310878985229009  -3.482657200291056  58.277248095505925  11.647244323860928  7.488129360646119  179.84597292944946  6.344247982591007  -140.35462659175684  18.583030822534983  120.000000
2.9320299625468165  0.000000  0.000000  0.000000  -24.63022682662602  5.4535016622360635  -3.299626926459547  58.39735667491509  11.797462163603832  7.567700802758213  -178.97487732949196  7.808460184295854  -140.04145196656017  18.756443540109622  120.000000
2.972194756554307  0.000000  0.000000  0.000000  -24.897693712339002  5.5900162748651185  -3.1227688452491322  58.46279945400458  11.918974406030628  7.620536719366961  -177.62427042133248  9.137448606810626  -140.0663709189718  18.81979643817201  120.000000
3.012359550561798  0.000000  0.000000  0.000000  -25.149451556015308  5.719814063054288  -2.950407161587273  58.48179875432971  12.019255398393408  7.6527644575451355  -176.20657496898744  10.327118126666017  -140.31872900028824  18.792770850425462  120.000000
3.0525243445692882  0.000000  0.000000  0.000000  -25.379666877151145  5.845033452462773  -2.783808180958874  58.46241428198418  12.102788081349493  7.6672758518692055  -174.78573491522732  11.377044088822501  -140.72751719544223  18.698271777244095  120.000000
3.092689138576779  0.000000  0.000000  0.000000  -25.584463453529956  5.9662298244337  -2.626188367234586  58.41114465384455  12.171088198834584  7.6668002265299355  -173.40496457312557  12.289590875764228  -141.2414181485704  18.56032462822049  120.000000
3.1328539325842697  0.000000  0.000000  0.000000  -25.761557615266426  6.082573031669163  -2.4814662698998333  58.33359599187338  12.223520991454528  7.654385818529688  -172.09775479088395  13.068535474971009  -141.8183050241896  18.40073647078959  120.000000
3.1730187265917604  0.000000  0.000000  0.000000  -25.90985839076251  6.19284457484418  -2.353591398370767  58.23475804865887  12.258372234325048  7.633152462841212  -170.89016638612503  13.717801400840322  -142.42321841713698  18.236912075673263  120.000000
3.2131835205992507  0.000000  0.000000  0.000000  -26.028721417727265  6.295786263344117  -2.246165741418365  58.119554756352855  12.273776250315212  7.605812519470423  -169.80367502809088  14.240692876467506  -143.02578389818586  18.080333372473785  120.000000
3.2533483146067415  0.000000  0.000000  0.000000  -26.117767716258275  6.390495346388941  -2.1621856321390642  57.99290695926694  12.267990324704282  7.5747404433257435  -168.8564517938164  14.639621006085777  -143.59910565473825  17.936714174445736  120.000000
3.293513108614232  0.000000  0.000000  0.000000  -26.17682728046494  6.476323122475241  -2.1040453805303643  57.8595879696505  12.23956191216609  7.5419114543836905  -168.06292987369247  14.916100357433578  -144.12042712181054  17.80716235984685  120.000000
3.333677902621723  0.000000  0.000000  0.000000  -26.20599807847666  6.552726913214834  -2.07351490329006  57.72367327790307  12.187291350716562  7.509192720351724  -167.43252243518006  15.071026381380795  -144.57235734425518  17.689843392368036  120.000000
3.3738426966292137  0.000000  0.000000  0.000000  -26.205797658677717  6.619196342755608  -2.0717202149747216  57.58850490047782  12.110218963422904  7.478215833512734  -166.9707818832563  15.104846584885873  -144.94188202178498  17.581815038694366  120.000000
3.414007490636704  0.000000  0.000000  0.000000  -26.17718273954104  6.675389997439672  -2.0992335725089006  57.45667144010792  12.007728567439022  7.45037251251642  -166.67986440112486  15.017665169903369  -145.2199369976474  17.48044645787302  120.000000
3.4541722846441947  0.000000  0.000000  0.000000  -26.121440505971897  6.721164260324125  -2.1561474180460323  57.33001645095549  11.879801154528382  7.426730346916844  -166.55919803421884  14.80925727155905  -145.4008795693624  17.384133086868435  120.000000
3.4943370786516854  0.000000  0.000000  0.000000  -26.040174856277368  6.756533486845079  -2.2419525280252475  57.20962404712872  11.727129055190863  7.408194185701022  -166.60614932606325  14.479005795729819  -145.4818438809021  17.29229276443557  120.000000
3.534501872659176  0.000000  0.000000  0.000000  -25.935086159541225  6.781696213270105  -2.355502040037086  57.09613637790529  11.55125725673327  7.395503848790239  -166.81825657269883  14.025798176459576  -145.4607423753778  17.204823312375453  120.000000
3.574666666666667  0.000000  0.000000  0.000000  -25.80784312537095  6.796900945897904  -2.4949491943829405  56.98980246357625  11.354611987338828  7.3893549384880854  -167.19357142120134  13.448010315007906  -145.33593602528128  17.121094445202203  120.000000
3.614831460674157  0.000000  0.000000  0.000000  -25.660304409245306  6.802413789686424  -2.657886630100435  56.89008144563054  11.140340974539088  7.390506053333363  -167.7291372738298  12.743792066817251  -145.10770208223644  17.03882838384307  120.000000
3.654996254681648  0.000000  0.000000  0.000000  -25.49443978077561  6.798609932690172  -2.8419668252171353  56.79572152989835  10.911834382888497  7.399431423654759  -168.41900379850233  11.911675559698816  -144.77999756354882  16.953199820432616  120.000000
3.6951610486891386  0.000000  0.000000  0.000000  -25.311774381546254  6.785612060753599  -3.0458209250332056  56.70548721633156  10.672161966212862  7.415753149791319  -169.25607642418746  10.951286563660739  -144.35843353414003  16.856998433702785  120.000000
3.7353258426966294  0.000000  0.000000  0.000000  -25.112613659425534  6.762602787471275  -3.2695082836642624  56.61884087022472  10.423167144238649  7.439012348316741  -170.23950502348728  9.864085369766986  -143.84283790567997  16.741432501354055  120.000000
3.7754906367041197  0.000000  0.000000  0.000000  -24.895210673959017  6.7269039242010695  -3.514956317197562  56.53636386172687  10.165161275952324  7.469366503332712  -171.3861686291866  8.653854681992135  -143.2159648228309  16.597531821785886  120.000000
3.8156554307116104  0.000000  0.000000  0.000000  -24.655412551198594  6.674317392198029  -3.7859606743470753  56.45948047115619  9.897238019162703  7.507462692170461  -172.74114321099663  7.326801030601442  -142.43295910742694  16.41685833276784  120.000000
3.855820224719101  0.000000  0.000000  0.000000  -24.387726734048762  6.600456654233523  -4.087249679196356  56.3885007557371  9.618331074637611  7.553853140989133  -174.39036371175385  5.8909415719052465  -141.40883190343064  16.19173267919907  120.000000
3.895985018726592  0.000000  0.000000  0.000000  -24.086324764985985  6.502062170994555  -4.423605028392044  56.32166658067651  9.328794214181416  7.608389587431868  -176.53382375423556  4.35542003614429  -139.9450792088378  15.915869731329009  120.000000
3.9361498127340826  0.000000  0.000000  0.000000  -23.744928185426062  6.377693010837233  -4.798215345321957  56.256108646889906  9.031260684009018  7.67013011438724  -179.90493439046253  2.7306166922504604  -137.3101698406042  15.585481947744487  120.000000
3.976314606741573  0.000000  0.000000  0.000000  -23.360672726356125  6.228060823016654  -5.210306321636175  56.18806060556165  8.732441397317425  7.7379721848847325  169.45394264069105  1.0374078914614682  -127.46654083027437  15.201084652173279  120.000000
4.016479400749064  0.000000  0.000000  0.000000  -22.9389474036115  6.057359967567541  -5.652745029476666  56.11307676743399  8.445455681993568  7.810614155055861  22.264110792782095  0.8436925385434341  18.85365099478475  14.768719053641505  120.000000
4.056644194756554  0.000000  0.000000  0.000000  -22.492008593858895  5.874710041271776  -6.110667373156185  56.027341533341136  8.191318379491717  7.885893773790344  8.39036324603671  2.7022306227799118  31.77037938202064  14.30019778905575  120.000000
4.096808988764045  0.000000  0.000000  0.000000  -22.033871814040417  5.694682325387302  -6.562522370808049  55.92815977977227  7.997976288311383  7.9609354088210775  5.2340643489940275  4.683787975063261  33.86756850380508  13.812692109729872  120.000000
4.136973782771536  0.000000  0.000000  0.000000  -21.578189917463355  5.534601362215036  -6.983184033666895  55.813552149764064  7.895813058765619  8.032423056774105  3.647131520318044  6.774673288012798  34.28235289760302  13.32734029610557  120.000000
4.177138576779027  0.000000  0.000000  0.000000  -21.138348232820995  5.410401921292245  -7.3472473688885795  55.6814900016105  7.9117997765193495  8.097189546886208  2.64280402686641  8.976570551019389  33.995836508523396  12.866667507261864  120.000000
4.217303370786517  0.000000  0.000000  0.000000  -20.727603362390237  5.334684580670642  -7.631832044825519  55.529500232750955  8.06582990844858  8.153177393581506  1.9317996134443562  11.286107683839445  33.29766084745431  12.45189891002121  120.000000
4.257468164794007  0.000000  0.000000  0.000000  -20.360535868263923  5.316262232067858  -7.819286584561745  55.3554716688459  8.368683683856583  8.199735437774997  1.3921131422019066  13.693755976666656  32.31559822412192  12.099420379729724  120.000000
4.297632958801498  0.000000  0.000000  0.000000  -20.05218048113893  5.360241577780906  -7.8979938707148225  55.15899704639181  8.822021631306567  8.236115411529044  0.9630462428815837  16.184675889651327  31.12039066782337  11.81732553428602  120.000000
4.337797752808989  0.000000  0.000000  0.000000  -19.81711413285688  5.468251823702386  -7.860641431825138  54.94140215723785  9.41879064336806  8.260905743475044  0.6115752576205696  18.74120802744799  29.758199463102663  11.603688658390043  120.000000
4.377962546816479  0.000000  0.000000  0.000000  -19.668457554836476  5.6370411837528  -7.7025981765589595  54.703885596639296  10.14358033326784  8.275838724197953  0.32051381122112804  21.344121739762766  28.261683653685434  11.447413576738352  120.000000
4.41812734082397  0.000000  0.000000  0.000000  -19.61515463131277  5.856668611618875  -7.421778594097809  54.448935370343776  10.97424260973181  8.287432142243347  0.0852570152659484  23.97299452776099  26.653664957685546  11.33187439566611  120.000000
4.458292134831461  0.000000  0.000000  0.000000  -19.66113754504775  6.112925267564143  -7.018575584799274  54.18313346843904  11.883653160663272  8.304270222227107  -0.09118910135349614  26.607368563240335  24.952114036975303  11.238936182225755  120.000000
4.4984569288389515  0.000000  0.000000  0.000000  -19.806272623143826  6.390956349966855  -6.49579535174224  53.91559237775497  12.841889661449079  8.333972724647357  -0.2069896194677379  29.227884415527363  23.17838711786884  11.15235931432851  120.000000
4.538621722846442  0.000000  0.000000  0.000000  -20.047750590622297  6.677227682160871  -5.858941101164088  53.65520231871016  13.818090684935205  8.381786640646826  -0.26479182459427786  31.817455940454447  21.35973551253515  11.06041486009495  120.000000
4.578786516853933  0.000000  0.000000  0.000000  -20.38023870107049  6.960517708463487  -5.116269654904596  53.40954026900545  14.782629770877275  8.450498324777467  -0.26994917629877874  34.361546349066174  19.52682961749222  10.957376248326684  120.000000
4.618951310861423  0.000000  0.000000  0.000000  -20.795769299250555  7.232132571237648  -4.2780102797899335  53.185110715964264  15.708806851077494  8.54037346135886  -0.22840727677738212  36.848688956699064  17.710546452358937  10.843796047426668  120.000000
4.659116104868914  0.000000  0.000000  0.000000  -21.28467382313685  7.486312528933339  -3.3552706846662415  52.98740336424018  16.573605438315113  8.649264121738069  -0.1460710968422749  39.27016571057608  15.939564701711173  10.72550233069131  120.000000
4.699280898876404  0.000000  0.000000  0.000000  -21.83690184393166  7.720038437564005  -2.3598522468247274  52.82042237919979  17.358231458280212  8.772641366231225  -0.02937122738871344  41.619480722383734  14.23890579991497  10.611724267949857  120.000000
4.739445692883895  0.000000  0.000000  0.000000  -22.44333274950151  7.932538855889681  -1.3040980476457418  52.686376694265135  18.048440594483736  8.904050067456412  0.11421622752696799  43.89143922922895  12.628491059537104  10.513112223796623  120.000000
4.779610486891386  0.000000  0.000000  0.000000  -23.09599263869574  8.12461181644376  -0.2005187123710135  52.585869616114536  18.63486779755643  9.035771931804396  0.2767738785042605  46.08159249853028  11.12160549486659  10.440254245326622  120.000000
4.8197752808988765  0.000000  0.000000  0.000000  -23.78720751798964  8.29792695625599  0.9388125290956179  52.51855373371622  19.113418011983576  9.15984144781898  0.4508376857366056  48.18593076101708  9.724047689439669  10.40274745498009  120.000000
4.859940074906367  0.000000  0.000000  0.000000  -24.50876998593103  8.454453870119165  2.1023988036388515  52.48346123868546  19.485242308752234  9.269014209848  0.6298872953422388  50.200762846139106  8.434573625118661  10.40870348892728  120.000000
4.900104868913858  0.000000  0.000000  0.000000  -25.25172626842844  8.595769313062432  3.2791219831845138  52.47870754141839  19.756037033574398  9.357578188694216  0.807942307834701  52.122503535193836  7.246572143645204  10.464387830591047  120.000000
4.940269662921349  0.000000  0.000000  0.000000  -26.00633949630975  8.722607950504342  4.45790916124438  52.50140967424196  19.934853554020275  9.421628359950867  0.9794742264386365  53.94738551782088  6.1498135288035  10.573800403015362  120.000000
4.980434456928839  0.000000  0.000000  0.000000  -26.761834210007983  8.834698202447191  5.627375102755952  52.548037944504266  20.032924657476954  9.459023426748656  1.1397390674253958  55.6712463337036  5.132164281430533  10.738409302188654  120.000000
5.020599250936329  0.000000  0.000000  0.000000  -27.50618958814052  8.93088639358332  6.775525116323343  52.61475361766062  20.062629355558848  9.469070416481271  1.2853092624087745  57.289449624276834  4.181171856812408  10.956877407266866  120.000000
5.06076404494382  0.000000  0.000000  0.000000  -28.226303041040342  9.009416898185517  7.889492233288435  52.6976593523747  20.03656060066481  9.451936407784077  1.414325941474887  58.796858190010795  3.285795224848943  11.22472058269018  120.000000
5.100928838951311  0.000000  0.000000  0.000000  -28.90849258735361  9.068285616539873  8.95531249904107  52.79285177275093  19.966635613185556  9.407894156791643  1.5266776143667606  60.187767760069896  2.437911815436616  11.533903518142429  120.000000
5.1410936329588015  0.000000  0.000000  0.000000  -29.53917967118552  9.105633594006996  9.957886254721705  52.89645566954174  19.86340210135851  9.336591744899517  1.6241448995698404  61.45595357744392  1.6335470709089803  11.872416511317574  120.000000
5.181258426966292  0.000000  0.000000  0.000000  -30.105547676453128  9.12017202156578  10.881122291776263  53.004597129608946  19.735671164837004  9.236527314523572  1.7105122855958657  62.59477711783589  0.8735139735703108  12.224060137343383  120.000000
5.221423220973783  0.000000  0.000000  0.000000  -30.59613984734149  9.111498496325476  11.708210093853639  53.11348975740485  19.590285120846577  9.104819689153919  1.791408778811745  63.59714403545109  0.16339250191205568  12.56882593600849  120.000000
5.261588014981274  0.000000  0.000000  0.000000  -31.001264121125722  9.080108703978244  12.421952840394086  53.21969084748187  19.43201193997637  8.93726739293265  1.8739529540901136  64.4551783984082  -0.4875022411890771  12.884268830661993  120.000000
5.301752808988764  0.000000  0.000000  0.000000  -31.313100862193686  9.027205483702064  13.005165032766635  53.320608777266955  19.263533307790947  8.728854874233853  1.9660832891589972  65.15969725404116  -1.0679812739128005  13.147988910150344  120.000000
5.341917602996254  0.000000  0.000000  0.000000  -31.525655305962687  8.954374361544003  13.441102768107044  53.41515280973943  19.085458350854157  8.474623205617288  2.0757596801780775  65.69975786094034  -1.5673813721652372  13.34080736952904  120.000000
5.382082397003745  0.000000  0.000000  0.000000  -31.634823238961808  8.863176405705326  13.71397718847922  53.50430823165095  18.896332885209905  8.170808007028006  2.2099202429936797  66.06246354075618  -1.9778265015961871  13.450074143825454  120.000000
5.422247191011236  0.000000  0.000000  0.000000  -31.638781353406372  8.754742969090975  13.809486616645904  53.59129412607876  18.692704563677623  7.815884603118518  2.3734367694603478  66.23315175407038  -2.295919998318274  13.472250878144882  120.000000
5.4624119850187265  0.000000  0.000000  0.000000  -31.538409705805602  8.629273882688521  13.715503680608112  53.68100342900029  18.46933211841425  7.4114993104461355  2.568432682877542  66.19598521129753  -2.5232531279390735  13.413983125411894  120.000000
5.502576779026217  0.000000  0.000000  0.000000  -31.337529420356518  8.485506777477156  13.422832133319195  53.77880456198635  18.21961815488455  6.9632146399312  2.7946139097223632  65.93504610059027  -2.6656603318645873  13.29105229311387  120.000000
5.542741573033708  0.000000  0.000000  0.000000  -31.042928057017168  8.320312774538202  12.926022952972769  53.88886593725142  17.93630496197836  6.481071605466455  3.0502752115842093  65.43595330389832  -2.7313138456836734  13.125498032593184  120.000000
5.582906367041199  0.000000  0.000000  0.000000  -30.66446581874849  8.12869107279495  12.224274483685425  54.01249250009077  17.612629653238322  5.979562914786128  3.33329201448232  64.68767757555544  -2.7281973662698538  12.941640705778763  120.000000
5.623071161048689  0.000000  0.000000  0.000000  -30.21524604898022  7.904417508741197  11.322312089563978  54.14706224560036  17.243605913154568  5.47697936928543  3.6417219974799124  63.684355396619345  -2.661599858240833  12.761920743261488  120.000000
5.66323595505618  0.000000  0.000000  0.000000  -29.71137164733759  7.641176521154927  10.231075465483096  54.286003102544576  16.827298288031134  4.994142406342755  3.9739550120027984  62.4263799983585  -2.53214515991187  12.603426555487303  120.000000
5.70340074906367  0.000000  0.000000  0.000000  -29.171130452576474  7.333932088766679  8.967881965423048  54.41981074714078  16.36555489365322  4.552673139868369  4.32862644080988  60.920467546729505  -2.3350376253504006  12.476039764671814  120.000000
5.743565543071161  0.000000  0.000000  0.000000  -28.613696036362903  6.98024916873883  7.556069902119412  54.537775859095106  15.864182944909466  4.173081089964526  4.704252500617627  59.17859009719233  -2.0604297271337444  12.382340291302393  120.000000
5.7837303370786515  0.000000  0.000000  0.000000  -28.05746175959593  6.58130757042902  6.024163027042878  54.6298959187878  15.332575841347962  3.8729111127008364  5.098753165460084  57.21635126918585  -1.6948605215321852  12.31891263156277  120.000000
5.823895131086142  0.000000  0.000000  0.000000  -27.51819464482262  6.142556617394814  4.40479196462322  54.688827522477425  14.782848814675722  3.665346019968672  5.509249008132579  55.0511680733505  -1.2230827121846215  12.278418552716484  120.000000
5.864059925093633  0.000000  0.000000  0.000000  -27.007366108798124  5.673865754115206  2.733126164994345  54.71144678507153  14.228867265340343  3.5581713839247673  5.932110056012441  52.70074951242068  -0.6302576819444623  12.251807676383072  120.000000
5.904224719101124  0.000000  0.000000  0.000000  -26.53141267246061  5.188944494703064  1.045281384519413  54.699028421761355  13.685213670352917  3.5534522808939544  6.362543496141228  50.18191767289615  0.0966042526667121  12.23017228000636  120.000000
5.944389513108614  0.000000  0.000000  0.000000  -26.092237858448275  4.704245740480651  -0.623124365716208  54.65650914646314  13.166135359717622  3.647635156754766  6.793921388442711  47.51022672574653  0.9678152345232008  12.206022073132146  120.000000
5.984554307116105  0.000000  0.000000  0.000000  -25.688254095468878  4.23783208994316  -2.237925518006194  54.59131113816037  12.684807284708397  3.8322996155017592  7.217581969534735  44.70052064868978  1.9907770503921982  12.174185594746328  120.000000
6.024719101123596  0.000000  0.000000  0.000000  -25.315296134757816  3.80823284065068  -3.7671392217925956  54.51235841984534  12.253312519290501  4.095185212292211  7.622845962056307  41.768484608247995  3.169993746235379  12.132206234438078  120.000000
6.064883895131086  0.000000  0.000000  0.000000  -24.967994185495243  3.4334970117304753  -5.181173345286583  54.42928019289129  11.882436195262477  4.421561390823197  7.997719753414653  38.73268286302943  4.5072368618865095  12.081171784579224  120.000000
6.1050486891385765  0.000000  0.000000  0.000000  -24.64101066752072  3.129980126786568  -6.452885191571803  54.35189343519275  11.581331574977042  4.795428742637385  8.329949938776807  35.616467064646116  6.001562699370376  12.025801080608622  120.000000
6.145213483146067  0.000000  0.000000  0.000000  -24.331140233264694  2.9112839936058172  -7.559028852092524  54.28886341310331  11.35730085764441  5.200776708531517  8.606883620624751  32.44908817251306  7.650248525506982  11.97413231061596  120.000000
6.185378277153558  0.000000  0.000000  0.000000  -24.039667990636758  2.7880231678116933  -8.482280766143793  54.24727233243276  11.214507298188884  5.622008705310131  8.816254830867896  29.265147411018877  9.449584116213007  11.93722714552966  120.000000
6.225543071161049  0.000000  0.000000  0.000000  -23.7718691322802  2.764714094291795  -9.212220335423426  54.232452366206495  11.153452948388079  6.045088560242806  8.948416010843241  26.102728733938704  11.393658763186098  11.927853543014688  120.000000
6.265707865168539  0.000000  0.000000  0.000000  -23.53565557112831  2.8382585888534493  -9.74480840912417  54.24897117111054  11.17104626184167  6.459208566070861  8.99657255583569  23.000327906872595  13.474925538439823  11.959560664782996  120.000000
6.30587265917603  0.000000  0.000000  0.000000  -23.339209215038444  3.0009473279010614  -10.08283526287286  54.30370843734358  11.259850289282902  6.854698686744552  8.958648489850807  19.993011134629555  15.682609379213435  12.04578779393322  120.000000
6.346037453183521  0.000000  0.000000  0.000000  -23.189133401540683  3.239440574813376  -10.23588456388883  54.40419658768501  11.40871952419497  7.2227980231721345  8.8354914778969  17.10799773816161  18.00382354344124  12.198393040682763  120.000000
6.386202247191012  0.000000  0.000000  0.000000  -23.089607631110304  3.53455206164124  -10.218263590843163  54.55502122348531  11.60378666518675  7.557663312551906  8.625714064412604  14.362994722470292  20.427614457231048  12.426266435006267  120.000000
6.426367041198501  0.000000  0.000000  0.000000  -23.04152250740033  3.865186890122061  -10.047294187940022  54.7580549121264  11.830411598583154  7.855970189743736  8.32503029882823  11.767947180883295  22.944451870172895  12.734287481705833  120.000000
6.466531835205992  0.000000  0.000000  0.000000  -23.043238417265307  4.21064542714934  -9.741676319309004  55.011898239444626  12.075132279806649  8.115616929232162  7.919038577366559  9.327386750099762  25.551852292127595  13.12165371060886  120.000000
6.506696629213483  0.000000  0.000000  0.000000  -23.091951014633903  4.552090460749398  -9.320141503867998  55.30735019483859  12.325996677679091  8.33704023583412  7.347818584393734  7.041390947726173  28.28864137856356  13.580197830227158  120.000000
6.546861423220974  0.000000  0.000000  0.000000  -23.184659475250662  4.87422641536952  -8.801639856728864  55.6296294091828  12.573270472050261  8.521543614183733  6.427083332054849  4.9073395394494135  31.313129235625702  14.09385634057868  120.000000
6.587026217228464  0.000000  0.000000  0.000000  -23.316256214522486  5.167658167694415  -8.207704789914068  55.96673575450945  12.809149368613758  8.666040119613095  4.548300086266856  2.922581684344246  35.20359905918769  14.639686719598878  120.000000
6.627191011235955  0.000000  0.000000  0.000000  -23.481034419247788  5.427896607204854  -7.561715554087159  56.306738276581875  13.025397765366966  8.76614901445798  -2.806581306553884  1.0894152428146349  44.44683823851163  15.190311884596293  120.000000
6.667355805243446  0.000000  0.000000  0.000000  -23.676104560458825  5.6527227038905705  -6.887006338127499  56.63560266407545  13.21270070000046  8.8187191297117  -153.02537460682572  0.6813972567400325  -163.5995084631838  15.71621118207345  120.000000
6.707520599250937  0.000000  0.000000  0.000000  -23.898842574789374  5.841852478786025  -6.205766199791461  56.94199562199353  13.362551004621139  8.821209619125426  -166.15496795698473  2.2465332147096646  -148.91431051966146  16.18980664494622  120.000000
6.747685393258427  0.000000  0.000000  0.000000  -24.143866253973933  5.9949140260788285  -5.537506166547456  57.21845231102641  13.468964031565932  8.774023976261612  -168.51008113546357  3.7170224182749627  -145.2004266098005  16.589680604461222  120.000000
6.787850187265918  0.000000  0.000000  0.000000  -24.403047174037344  6.111644582184113  -4.897839365868787  57.462091862452375  13.528652698344997  8.68215210219324  -169.59386707630537  5.082912215697681  -142.9620422008221  16.903469693133182  120.000000
6.828014981273408  0.000000  0.000000  0.000000  -24.666136549464635  6.1931264906881  -4.296533162377265  57.673764489543665  13.541055681629615  8.553722197547284  -170.29012307099427  6.348561129171058  -141.31110736955753  17.12983959131763  120.000000
6.868179775280899  0.000000  0.000000  0.000000  -24.921759999858352  6.240477897390314  -3.736737505784505  57.85695273620065  13.50987810299201  8.39728718020147  -170.81093759648715  7.515167732420319  -140.02067615745554  17.277677512817434  120.000000
6.908344569288389  0.000000  0.000000  0.000000  -25.1609990437403  6.256624045127297  -3.2163864628488037  58.01670622977059  13.441839999315704  8.22069226624599  -171.21754383456533  8.58066145301574  -139.0079319384157  17.363618305035494  120.000000
6.94850936329588  0.000000  0.000000  0.000000  -25.37887554419963  6.247398579233083  -2.7322721580452245  58.157816910821246  13.34390355173505  8.029634665545958  -171.5376777528964  9.542466962061958  -138.2226131031194  17.407238124764355  120.000000
6.988674157303371  0.000000  0.000000  0.000000  -25.572650500652593  6.218722067016036  -2.282269191145143  58.28344785326265  13.221759438003438  7.828186404094681  -171.78713524035547  10.399480199373569  -137.62738987180126  17.426439986183944  120.000000
7.028838951310862  0.000000  0.000000  0.000000  -25.74121535067887  6.175282022299636  -1.8650530133129364  58.39533135514965  13.079450480024157  7.619937261300084  -171.97571259806838  11.152087741071059  -137.19203055987202  17.43545523276967  120.000000
7.069003745318352  0.000000  0.000000  0.000000  -25.884553776580738  6.120839292901253  -1.4796562513603377  58.49439685855103  12.919862765460683  7.408242047293814  -172.10963182969655  11.80161844269487  -136.8911538089578  17.443894543614718  120.000000
7.109168539325843  0.000000  0.000000  0.000000  -26.00323780892456  6.058490616580487  -1.1251134882478901  58.58110503309623  12.74511117103178  7.196028199791114  -172.19102427599654  12.34981368687973  -136.7047183457229  17.456887706131084  120.000000
7.149333333333334  0.000000  0.000000  0.000000  -26.098294667219502  5.990996372921663  -0.8003517415514321  58.655737994584385  12.556861266322956  6.985771568006553  -172.2182202476988  12.798548450259597  -136.6177353537358  17.476092701913995  120.000000
7.189498127340824  0.000000  0.000000  0.000000  -26.170895688530496  5.920925120893419  -0.5041302705332249  58.71861574704165  12.35653189698178  6.7795313255708525  -172.18573491071632  13.149578233267349  -136.62023210810125  17.50091605735935  120.000000
7.229662921348314  0.000000  0.000000  0.000000  -26.22230108875683  5.850707256186822  -0.23493434274187922  58.77019518643458  12.1454672786627  6.579054969300981  -172.0845306840915  13.40436642449707  -136.70705730691435  17.529691611300024  120.000000
7.269827715355805  0.000000  0.000000  0.000000  -26.25379215926789  5.78266359589959  0.009112389694659065  58.811043937773235  11.92502041162116  6.385979668764574  -171.90210692327938  13.563948116415355  -136.87777800582847  17.560570250439255  120.000000
7.309992509363296  0.000000  0.000000  0.000000  -26.266608421210165  5.718986028848658  0.23028664943505586  58.841957010750775  11.696674625186473  6.201885087495689  -171.6229592216328  13.628881102789974  -137.13624660288926  17.592124576462034  120.000000
7.3501573033707865  0.000000  0.000000  0.000000  -26.26198227130769  5.661739896483391  0.4312484314769975  58.86390286462835  11.462025729112257  6.028475023450906  -171.2286319597015  13.599283175825398  -137.49060852176066  17.62367428812027  120.000000
7.390322097378277  0.000000  0.000000  0.000000  -26.2410880105272  5.61276369599671  0.6149750167212954  58.878033254120055  11.222771756620748  5.8676259798450126  -170.69715207586196  13.47497253693886  -137.9539291787677  17.655314731115855  120.000000
7.430486891385768  0.000000  0.000000  0.000000  -26.205118596928262  5.5737450632602545  0.7845943249321422  58.88561661907705  10.980635807922832  5.721351957110948  -170.00172952353435  13.255682159071151  -138.5456384356183  17.687877114798532  120.000000
7.470651685393259  0.000000  0.000000  0.000000  -26.155365671602524  5.5463437696424185  0.9430675786835984  58.8879722695232  10.737194923921553  5.591692242118493  -169.10926740588886  12.941454407802906  -139.29308929820633  17.722611018335442  120.000000
7.5108164794007495  0.000000  0.000000  0.000000  -26.092960216895573  5.531879064697864  1.0926909814996562  58.886644131064706  10.493614557323996  5.480414293374206  -167.97787665699056  12.533243770754545  -140.23415918825526  17.760962926274434  120.000000
7.550981273408239  0.000000  0.000000  0.000000  -26.018934315421596  5.531497987595954  1.234459599889119  58.88368919790436  10.25015439804693  5.3890403040003285  -166.55798675922316  12.03368428664413  -141.41639648012082  17.804284280917248  120.000000
7.59114606741573  0.000000  0.000000  0.000000  -25.933970408004832  5.5457826464605064  1.3678116182066398  58.88151362637287  10.006036165492102  5.319045690960191  -164.79061709168627  11.447428561268513  -142.89887083016805  17.853352686837958  120.000000
7.631310861423221  0.000000  0.000000  0.000000  -25.83813750655347  5.5742391505020565  1.490840987849206  58.88271790446304  9.759856072072733  5.271824888552933  -162.60159481595488  10.781218778222007  -144.75840229421098  17.907673133126064  120.000000
7.6714756554307115  0.000000  0.000000  0.000000  -25.73115715706796  5.615453984251692  1.6004040676539222  58.88984580866861  9.509578096209077  5.248888805015499  -159.89477314792066  10.044326778515387  -147.09679541700888  17.964734216850527  120.000000
7.711640449438202  0.000000  0.000000  0.000000  -25.612151592013387  5.666816860208577  1.6917832383607752  58.905253206736035  9.252174158447541  5.251621426504492  -156.54280567056367  9.249476628107729  -150.05047404461675  18.019770021920305  120.000000
7.751805243445693  0.000000  0.000000  0.000000  -25.479720025028772  5.724694219686272  1.7582873978569995  58.93120794117356  8.983224844035606  5.2808395913038035  -152.37718577037745  8.413819853697259  -153.80084540890041  18.065791195079438  120.000000
7.791970037453184  0.000000  0.000000  0.000000  -25.332202686178835  5.784631945937786  1.7911454145022845  58.96954950088275  8.696921513211938  5.3364614503884455  -147.1758030565976  7.5595552428947945  -158.5873808933353  18.093743106653196  120.000000
7.8321348314606745  0.000000  0.000000  0.000000  -25.16773235487443  5.841131117156814  1.7799888416016534  59.02101044646851  8.386428642036897  5.417576515103601  -140.6490600992529  6.714707018702977  -164.72184604576842  18.09269940576513  120.000000
7.872299625468165  0.000000  0.000000  0.000000  -24.985483998286927  5.887491940871457  1.713709376694944  59.084140443384676  8.044356265951567  5.52270108482506  -132.43827560753547  5.913647234734616  -172.59069506227476  18.04970338068357  120.000000
7.912464419475655  0.000000  0.000000  0.000000  -24.787087173557897  5.916803907257881  1.5820271636817913  59.15336650302546  7.663977567197757  5.650453423788924  -122.14146341092787  5.197376182939908  177.37005048972975  17.949655197128703  120.000000
7.952629213483146  0.000000  0.000000  0.000000  -24.574732322152734  5.923406780062637  1.3781142428042321  59.22243385109607  7.242492945952459  5.79960039716374  -109.3858502995819  4.613348291816522  164.7526171844141  17.777936857934865  120.000000
7.9927940074906365  0.000000  0.000000  0.000000  -24.34754152413863  5.904218608384404  1.1017330738277604  59.29095651332701  6.784797797212993  5.96980781460022  -94.02393957030797  4.217761381762921  149.38373984771545  17.52515066361843  120.000000
8.032958801498127  0.000000  0.000000  0.000000  -24.10215420630892  5.860332523815899  0.7614183833856069  59.36391838643935  6.304464203207401  6.162591111595041  -76.58741915673856  4.074596672536813  131.78008433873495  17.188737503532643  120.000000
8.073123595505619  0.000000  0.000000  0.000000  -23.836896927692997  5.797101062759181  0.37475738385532986  59.44661140153085  5.822752048648984  6.380800071542356  -58.624753251256394  4.237710909999585  113.481074752999  16.771660874761643  120.000000
8.113288389513109  0.000000  0.000000  0.000000  -23.552926765357675  5.723976934139252  -0.033203300254174825  59.54387266891311  5.366607077671575  6.627227622845911  -42.063251068178865  4.727372693853354  96.40874869853776  16.28267625944474  120.000000
8.153453183520599  0.000000  0.000000  0.000000  -23.253287233107688  5.6545055499764  -0.4334947817547993  59.66200308563972  4.965936002662252  6.902398304665803  -28.066143253491653  5.531934384993412  81.72373978600066  15.736641789139304  120.000000
8.19361797752809  0.000000  0.000000  0.000000  -22.944531221596897  5.60504128482846  -0.7967680161993744  59.807522864682646  4.650229488069002  7.204077170749021  -16.792688509329132  6.631209309939049  69.58488371134449  15.153266461140792  120.000000
8.23378277153558  0.000000  0.000000  0.000000  -22.636678013898738  5.592564284877918  -1.0961268917196385  59.983746800492234  4.445007281477145  7.52931865512491  -7.8989365892967935  8.009911199334852  59.650358019259514  14.554907336562183  120.000000
8.273947565543072  0.000000  0.000000  0.000000  -22.341711682977756  5.630696811746346  -1.3104446187617664  60.19002002830981  4.368513618419644  7.876504265613924  -0.9335207309765843  9.65517000831368  51.475174047936754  13.96460974035802  120.000000
8.314112359550561  0.000000  0.000000  0.000000  -22.071513514970196  5.727730745294259  -1.4267575430141273  60.42588296069769  4.4284775674307735  8.243835561597752  4.525474498191483  11.551205178110314  44.649689565630204  13.403573977178747  120.000000
8.354277153558053  0.000000  0.000000  0.000000  -21.833901296240068  5.887800528695588  -1.4388906952453744  60.692635143353044  4.6224918296953215  8.627019464621377  8.824287665775934  13.677698001498804  38.846476615610975  12.888368184606364  120.000000
8.394441947565543  0.000000  0.000000  0.000000  -21.633397086206973  6.111200960679198  -1.3433339723909195  60.989772731100416  4.94061691389263  9.021922608519718  12.225772806329696  16.010286210351936  33.82732420199752  12.429700481792075  120.000000
8.434606741573035  0.000000  0.000000  0.000000  -21.47154554686434  6.393719900941144  -1.13835409626373  61.31414651342371  5.366985655731373  9.42732871734749  14.926430401619644  18.521151539787404  29.42382045775806  12.031207228336374  120.000000
8.474771535580524  0.000000  0.000000  0.000000  -21.34631857392027  6.726771484728925  -0.8248014208175073  61.66166495399258  5.881908907955617  9.843007253879243  17.070349595910994  21.178142469292357  25.5215032424805  11.690891781445494  120.000000
8.514936329588014  0.000000  0.000000  0.000000  -21.25538043537599  7.101112743974098  -0.4058751913652715  62.02800231407003  6.46278914242265  10.269024498185631  18.76888119724852  23.945862661488317  22.037956290785672  11.403464370293687  120.000000
8.555101123595506  0.000000  0.000000  0.000000  -21.196948221717257  7.507821302625665  0.11393226455319183  62.40788939515373  7.085696427481735  10.705493664753194  20.110815689175777  26.788088324169692  18.91054410385011  11.162262910456768  120.000000
8.595265917602996  0.000000  0.000000  0.000000  -21.169751395531833  7.936869809207707  0.7290344788262196  62.79413761797542  7.727078507330485  11.15084858385163  21.164651810175712  29.669337432922827  16.09233851792982  10.96058373027901  120.000000
8.635430711610487  0.000000  0.000000  0.000000  -21.174816312710796  8.378854483940934  1.4325225255858682  63.17784544905094  8.36413045224302  11.601958298726613  21.98279402154961  32.55538974262941  13.546820577689902  10.792333227873316  120.000000
8.675595505617977  0.000000  0.000000  0.000000  -21.21500155774745  8.82571342420639  2.2166332473570156  63.54876096030653  8.97619491634851  12.054046063772219  22.605748660932804  35.414259891470095  11.244068729284246  10.652707398137895  120.000000
8.715760299625469  0.000000  0.000000  0.000000  -21.293362872956298  9.270832914176959  3.073313383510675  63.89677174573852  9.546226097418053  12.501219404449095  23.065092112591564  38.21744616003283  9.15801656699236  10.537660460006796  120.000000
8.755925093632959  0.000000  0.000000  0.000000  -21.412298860895486  9.70886965164968  3.9941336674925187  64.21284446470067  10.061087724916467  12.937413366259268  23.385599760640577  40.93975916002975  7.2654182416617115  10.44433347207977  120.000000
8.79608988764045  0.000000  0.000000  0.000000  -21.572585730989694  10.135081929450209  4.969151752670809  64.4897906137835  10.510950754310802  13.35685809323252  23.58717081102628  43.55867703518646  5.545104681698418  10.370916444227435  120.000000
8.83625468164794  0.000000  0.000000  0.000000  -21.77271848574923  10.545209727940561  5.986442707652619  64.72296000080243  10.889022309817472  13.754162299860255  23.686610014967236  46.05396702732236  3.9775044442971557  10.316292358633865  120.000000
8.87641947565543  0.000000  0.000000  0.000000  -22.008919575046587  10.935601939562979  7.032412907541257  64.91012608119136  11.191894532058003  14.124461260554664  23.69843251053459  48.408147158982665  2.5450066014123967  10.279807181184518  120.000000
8.916584269662922  0.000000  0.000000  0.000000  -22.275726679756904  11.303379131638255  8.092613740616448  65.05138147909202  11.419894006814923  14.463828404710231  23.63574072655407  50.60695628879211  1.232218720856222  10.260503336509277  120.000000
8.956749063670411  0.000000  0.000000  0.000000  -22.566537800047023  11.646426309604836  9.152487056433946  65.14877466480498  11.57705828671249  14.769516298337319  23.51100504567354  52.63985342260695  0.026464252271289193  10.256905143264827  120.000000
8.996913857677903  0.000000  0.000000  0.000000  -22.874309986316575  11.963316472756444  10.198134378679445  65.20586989372107  11.670765154164313  15.040191144597028  23.336652922591956  54.50007095723504  -1.081705238414078  10.266618797612407  120.000000
9.037078651685393  0.000000  0.000000  0.000000  -23.19223002645147  12.253112032955324  11.216875388430786  65.22707902967495  11.711015926054486  15.275874295228085  23.125292760763596  56.18454987446075  -2.098123461546692  10.286186451150813  120.000000
9.077243445692885  0.000000  0.000000  0.000000  -23.51441719992819  12.515320967163627  12.197732687644882  65.217033687741  11.709538593144691  15.477745604721223  22.88959959355958  57.69351434558515  -3.02499070237376  10.311209949883398  120.000000
9.117408239700374  0.000000  0.000000  0.000000  -23.836086923154404  12.749747793561474  13.131628966711242  65.18022118638312  11.678692628348697  15.647757659828871  22.64220235388901  59.02987474815256  -3.861582616857838  10.336781528912967  120.000000
9.157573033707866  0.000000  0.000000  0.000000  -24.153099570746853  12.956214974736987  14.011162650189585  65.12097598642127  11.630301529277942  15.788365178916735  22.39556977455086  60.19813083873374  -4.6054128907993315  10.358212952737698  120.000000
9.197737827715356  0.000000  0.000000  0.000000  -24.461414377715126  13.134521195421044  14.830055507479855  65.04380893464037  11.57451563101871  15.902056782743205  22.16196637772425  61.20307986629538  -5.253672519266592  10.371844176874108  120.000000
9.237902621722846  0.000000  0.000000  0.000000  -24.756336091711848  13.284308479419929  15.582445646843826  64.95374403557912  11.518940625143973  15.991014433517668  21.95326656758702  62.048454522239815  -5.804469907677089  10.375696446526709  120.000000
9.278067415730337  0.000000  0.000000  0.000000  -25.03192220633365  13.405101422458953  16.262377265926496  64.85658490253803  11.468133438560853  16.056731607968203  21.780806006079203  62.73582355782301  -6.257734942471272  10.369678078067098  120.000000
9.318232209737827  0.000000  0.000000  0.000000  -25.280789987267404  13.49639914094236  16.86357643884163  64.75900832371991  11.423575344220405  16.09965937995127  21.65512175916473  63.26393282741511  -6.615405228284966  10.355351925198141  120.000000
9.358397003745319  0.000000  0.000000  0.000000  -25.49426110967912  13.557661059409607  17.37939449686262  64.66826544028102  11.38395683252062  16.11912224778305  21.585796623760142  63.62850755612216  -6.881081003125173  10.335165891276146  120.000000
9.398561797752809  0.000000  0.000000  0.000000  -25.662918315598727  13.588387352791681  17.8029516532493  64.59156466637894  11.3457896125246  16.11336002422361  21.58106934899415  63.822480288649906  -7.059165797771901  10.311460829023304  120.000000
9.4387265917603  0.000000  0.000000  0.000000  -25.777590380068016  13.588276757445792  18.127466556460334  64.53521606594308  11.304282188982885  16.079518182051775  21.64733811422953  63.83653938424369  -7.153781282998008  10.285462285077267  120.000000
9.47889138576779  0.000000  0.000000  0.000000  -25.830227313984295  13.557249234272337  18.346441314588887  64.50386377853428  11.254141818160342  16.013835241068072  21.788686387559398  63.65978377434571  -7.16774206142418  10.256606170122073  120.000000
9.519056179775282  0.000000  0.000000  0.000000  -25.814478676554423  13.495250198631615  18.453659052704637  64.49989579811266  11.190078352858752  15.912064174814164  22.006799189019652  63.28025839239776  -7.1018568791588965  10.222548066959376  120.000000
9.559220973782772  0.000000  0.000000  0.000000  -25.726159872876515  13.40218286761709  18.443042497051877  64.52316613359525  11.107155322571117  15.769980550025608  22.30093890044215  62.6854719405213  -6.9545866795224764  10.179881332648204  120.000000
9.599385767790261  0.000000  0.000000  0.000000  -25.563520050244545  13.277774635702484  18.308642804196772  64.57074399400197  11.001015635428088  15.583911037248916  22.66790765648835  61.86286835182047  -6.721940830780019  10.12541672642158  120.000000
9.639550561797753  0.000000  0.000000  0.000000  -25.32754378780258  13.12155640267537  18.044690588338817  64.63697789002629  10.867987881670862  15.351109946058754  23.101944472345664  60.8003422639934  -6.397523843280719  10.057739888117641  120.000000
9.679715355805243  0.000000  0.000000  0.000000  -25.022263231236067  12.932913399470532  17.645572963481523  64.7135027587059  10.705448399723092  15.070109027901527  23.594451626962503  59.48680094246419  -5.972588347584601  9.97866415217797  120.000000
9.719880149812735  0.000000  0.000000  0.000000  -24.65524837427318  12.7110862080878  17.106428584937227  64.78910359821359  10.512171623239652  14.741097080961042  24.13342933781876  57.913153327689045  -5.435946285742366  9.894209391246887  120.000000
9.760044943820224  0.000000  0.000000  0.000000  -24.238252364767096  12.45540824321528  16.42439946579479  64.84987470174005  10.288717487647737  14.366187084789061  24.703002924549367  56.07374886804878  -4.773813449370763  9.814706297532112  120.000000
9.800209737827716  0.000000  0.000000  0.000000  -23.787233167734822  12.165487711399896  15.59992518747207  64.8797679342497  10.037781948535446  13.949629907767312  25.283101038030797  53.967904986542564  -3.96967378624631  9.75413664495754  120.000000
9.840374531835206  0.000000  0.000000  0.000000  -23.321713800739648  11.841577019023768  14.638149024932517  64.86179924582392  9.76441563467291  13.49796341044393  25.849456584334888  51.601448332575664  -3.004266298572235  9.728973027019563  120.000000
9.880539325842697  0.000000  0.000000  0.000000  -22.86324468313421  11.48512045645038  13.55015902368539  64.78020770002517  9.476336582913236  13.019955717411001  26.374199354179385  48.98814320535269  -1.8560915351330198  9.756965188530579  120.000000
9.920704119850187  0.000000  0.000000  0.000000  -22.432989872467008  11.0988698292138  12.353337449679689  64.62302527950453  9.183892443326544  12.526428273173225  26.82653040084535  46.15051085508392  -0.5020980787879721  9.855978899098096  120.000000
9.960868913857677  0.000000  0.000000  0.000000  -22.049704050833043  10.68697161703113  11.070653380936976  64.38427992710449  8.899630932529284  12.02960739158391  27.17276027760754  43.11977348974891  1.081520660242308  10.042355230576039  120.000000
10.001033707865169  0.000000  0.000000  0.000000  -21.728413606523816  10.255305971681262  9.729043670585051  64.06526433855771  8.637453230103532  11.542042994593652  27.37550344226021  39.93515927301791  2.919056790862625  10.329389966260326  120.000000
10.041198501872659  0.000000  0.000000  0.000000  -21.47937477104387  9.811274786646113  8.357383989602921  63.67490534690192  8.411096141190042  11.075375365647773  27.39346311487119  36.64263708463287  5.034621096379852  10.725900478116541  120.000000
10.08136329588015  0.000000  0.000000  0.000000  -21.307469392301808  9.362986526051735  6.984202697965911  63.22918775756337  8.232359823095766  10.639793161941096  27.18192764650511  33.29301178215798  7.451126949025226  11.234797530639947  120.000000
10.12152808988764  0.000000  0.000000  0.000000  -21.212514771634986  8.918322035181971  5.63562836282883  62.74953447720537  8.109521466869186  10.243686776277041  26.6933032006228  29.93950406791923  10.189670022360719  11.851658022968627  120.000000
10.161692883895132  0.000000  0.000000  0.000000  -21.190296712578224  8.483787160088982  4.333584944460606  62.259935984571534  8.04629542145366  9.8929827597299  25.87652880591703  26.634705343843777  13.27025650444773  12.563550523077545  120.000000
10.201857677902622  0.000000  0.000000  0.000000  -21.234191187425495  8.063835770481685  3.0950646397311585  61.78348780319039  8.041384395172575  9.591053247588809  24.675558801713198  23.427809382108144  16.714094692734637  13.348876724837877  120.000000
10.242022471910113  0.000000  0.000000  0.000000  -21.336417103411666  7.661355377857153  1.9330435894933138  61.3396662700689  8.089649807612819  9.338775777907607  23.029414140956327  20.36387566840978  20.545170552965075  14.178082256139298  120.000000
10.282187265917603  0.000000  0.000000  0.000000  -21.488049953361827  7.278576441306913  0.8578892642613114  60.942886734030594  8.184703662441795  9.134110701341388  20.86922085728131  17.483759279798242  24.79479568586282  15.015460148686321  120.000000
10.322352059925093  0.000000  0.000000  0.000000  -21.679872784630064  6.9178090519535935  -0.12201333310975195  60.6015948141255  8.320513800902324  8.972148196483356  18.113374976855578  14.823557493557022  29.508131015719417  15.820981747097031  120.000000
10.362516853932584  0.000000  0.000000  0.000000  -21.903548506823547  6.582015027157298  -1.00008452164613  60.318244289546975  8.491513430157596  8.845966462984846  14.664374525541328  12.41382131588092  34.74914434591383  16.552949774084283  120.000000
10.402681647940074  0.000000  0.000000  0.000000  -22.152135019898253  6.274712902713666  -1.77164248135531  60.090053659004  8.692328336757761  8.747395684360745  10.40844564461446  10.278948195694616  40.60294459306161  17.171257426731632  120.000000
10.442846441947566  0.000000  0.000000  0.000000  -22.42058601963865  5.999735323526841  -2.4341107380568476  59.909894496098744  8.917084880479281  8.66801980999052  5.224696095242458  8.436981839965311  47.168084085165304  17.640901823937085  120.000000
10.483011235955056  0.000000  0.000000  0.000000  -22.704154744276494  5.761615694364635  -2.9871662319664627  59.76787804804869  9.158835688099858  8.600611245443268  -0.9808180981855423  6.898914124331118  54.524730220518286  17.93752982333543  120.000000
10.523176029962547  0.000000  0.000000  0.000000  -22.997151522677015  5.5644361173454  -3.4331682640571586  59.65445992607938  9.40819207761024  8.539565071838116  -8.177554930745579  5.667377711356159  62.637974581699794  18.05244147060703  120.000000
10.563340823970037  0.000000  0.000000  0.000000  -23.289746865569434  5.409768454043843  -3.7771333833338394  59.56223359878301  9.653036716067929  8.48196442694417  -16.060041847791243  4.732720403359135  71.2089997617231  17.999130991638218  120.000000
10.603505617977529  0.000000  0.000000  0.000000  -23.56512854221735  5.296692886269969  -4.025985845096153  59.48798889943993  9.878323401947592  8.42858048332565  -23.897358976649098  4.06961340243972  79.5250310740017  17.81799193104309  120.000000
10.643670411985019  0.000000  0.000000  0.000000  -23.803334809306424  5.220938522479569  -4.187544412802409  59.42837353271925  10.065876111411791  8.385523826924185  -30.59750932306829  3.639739288582224  86.52165929751321  17.575786939290058  120.000000
10.683835205992509  0.000000  0.000000  0.000000  -23.970329175248057  5.176328881140323  -4.272275797021646  59.38347583332198  10.19637210142811  8.35929570786049  -35.11435502339247  3.4043975977527876  91.19087100145669  17.363581786483063  120.000000
10.724  0.000000  0.000000  0.000000  -24.030014555806044  5.161097114387782  -4.2970466027759  59.365589091814805  10.244915446777675  8.350780446272477  -36.71393798244246  3.3311252406399725  92.83607723348202  17.277780657655498  120.000000
