unw1
version=1
nRows=3989
nColumns=18
inDegrees=yes

Units are S.I. units (second, meters, Newtons, ...)
If the header above contains a line with 'inDegrees', this indicates whether rotational values are in degrees (yes) or radians (no).

endheader
time	TH_x	TH_y	TH_z	TH_x_trans	TH_y_trans	TH_z_trans	SC_y	SC_z	SC_x	AC_y	AC_z	AC_x	GH_y	GH_z	GH_yy	EL_x	PS_y
     18.30000000	      6.74322206	   -177.36790826	      8.06743336	      0.05471531	      1.39628628	      0.09324681	    -24.57356090	      3.44512765	      3.53187446	     43.55186373	      6.82985335	      4.87299434	     20.45866938	     -1.91657691	     18.79529638	     20.45700316	     82.61764705
     18.31000000	      6.74408470	   -177.36776860	      8.06459185	      0.05478734	      1.39623954	      0.09316644	    -24.57327425	      3.44263670	      3.53017220	     43.55322989	      6.82719698	      4.87322390	     20.45925668	     -1.91965598	     18.79597839	     20.45829851	     82.61776534
     18.32000000	      6.74548060	   -177.36108726	      8.05143809	      0.05476296	      1.39630741	      0.09314076	    -24.56736978	      3.42846641	      3.52541054	     43.56202794	      6.81453528	      4.87907609	     20.46285850	     -1.93624328	     18.80028326	     20.46766830	     82.61849108
     18.33000000	      6.74573969	   -177.36065446	      8.04913303	      0.05481533	      1.39628456	      0.09308059	    -24.56684312	      3.42619027	      3.52441449	     43.56345861	      6.81246301	      4.87972758	     20.46347926	     -1.93910841	     18.80101226	     20.46912193	     82.61861790
     18.34000000	      6.74344013	   -177.35470766	      8.03947702	      0.05480212	      1.39634255	      0.09302715	    -24.56138068	      3.41429374	      3.52337458	     43.57209143	      6.80424083	      4.88638668	     20.46703524	     -1.95362789	     18.80530953	     20.47842411	     82.61934190
     18.35000000	      6.74319957	   -177.35472815	      8.03836495	      0.05484552	      1.39631759	      0.09296602	    -24.56123306	      3.41310641	      3.52305073	     43.57309932	      6.80342400	      4.88672814	     20.46747384	     -1.95542440	     18.80583037	     20.47939381	     82.61943198
     18.36000000	      6.73445774	   -177.35142878	      8.03451204	      0.05481057	      1.39630343	      0.09283176	    -24.55761112	      3.40534512	      3.52730292	     43.58205563	      6.80283054	      4.89303936	     20.47096971	     -1.96705250	     18.81022350	     20.48818533	     82.62013633
     18.37000000	      6.73382502	   -177.35192234	      8.03433183	      0.05490665	      1.39632784	      0.09281249	    -24.55783454	      3.40503523	      3.52745983	     43.58261691	      6.80270624	      4.89333742	     20.47119596	     -1.96787065	     18.81051843	     20.48866987	     82.62018044
     18.38000000	      6.73242861	   -177.35252883	      8.03436710	      0.05495816	      1.39631159	      0.09274799	    -24.55821195	      3.40477493	      3.52822087	     43.58304300	      6.80325153	      4.89379875	     20.47125796	     -1.96790951	     18.81065014	     20.48891477	     82.62018711
     18.39000000	      6.72933624	   -177.35335435	      8.03525939	      0.05501399	      1.39629303	      0.09266300	    -24.55883304	      3.40487031	      3.53049997	     43.58320474	      6.80511998	      4.89501672	     20.47099980	     -1.96635870	     18.81048513	     20.48883408	     82.62011991
     18.40000000	      6.71292666	   -177.35706058	      8.04118676	      0.05509861	      1.39626704	      0.09252403	    -24.56190756	      3.40700437	      3.54216581	     43.58267065	      6.81561613	      4.90023831	     20.46888287	     -1.95554063	     18.80878198	     20.48596796	     82.61959623
     18.41000000	      6.71009619	   -177.35878993	      8.04235264	      0.05514201	      1.39624904	      0.09244121	    -24.56324515	      3.40790021	      3.54376262	     43.58231576	      6.81757943	      4.90036062	     20.46830850	     -1.95306569	     18.80826303	     20.48469379	     82.61945720
     18.42000000	      6.69056910	   -177.36795531	      8.05014420	      0.05527250	      1.39622343	      0.09227303	    -24.57080858	      3.41373721	      3.55501708	     43.57843714	      6.83035461	      4.90227545	     20.46340875	     -1.93301609	     18.80367596	     20.47404599	     82.61829104
     18.43000000	      6.67104284	   -177.37847137	      8.05454238	      0.05536285	      1.39617116	      0.09218089	    -24.57936422	      3.41834844	      3.56285220	     43.57376188	      6.83985962	      4.90234505	     20.45713364	     -1.91001738	     18.79772282	     20.45850272	     82.61679372
     18.44000000	      6.52473525	   -177.41035087	      7.99091089	      0.05526245	      1.39634433	      0.09208885	    -24.51638597	      3.44964116	      3.43731716	     43.65160419	      6.64413020	      4.87484169	     20.36859498	     -1.64145779	     18.72644812	     20.10710280	     82.59078098
     18.45000000	      6.51386824	   -177.41545610	      8.00459383	      0.05536900	      1.39631234	      0.09195112	    -24.51984524	      3.45988162	      3.45169389	     43.64608514	      6.65948047	      4.87836706	     20.36429911	     -1.62163194	     18.72234369	     20.10132489	     82.58957296
     18.46000000	      6.50097855	   -177.42257575	      8.01826486	      0.05547978	      1.39623242	      0.09180977	    -24.52536164	      3.47073041	      3.46669497	     43.63842677	      6.67603114	      4.88130973	     20.35792310	     -1.59515690	     18.71611730	     20.09082398	     82.58788097
     18.47000000	      6.47202452	   -177.48836295	      7.95155842	      0.05536077	      1.39640784	      0.09183082	    -24.56758575	      3.44461358	      3.43767577	     43.58841870	      6.61487478	      4.87898009	     20.28993304	     -1.41261683	     18.65164991	     19.93516438	     82.56808657
     18.48000000	      6.45740532	   -177.48677609	      7.97477196	      0.05551486	      1.39629069	      0.09161881	    -24.56477159	      3.46297938	      3.45750645	     43.58436311	      6.63572932	      4.88465375	     20.28298555	     -1.37952926	     18.64488245	     19.92295657	     82.56630274
     18.49000000	      6.45715169	   -177.44181002	      7.91525239	      0.05557480	      1.39636274	      0.09138158	    -24.47765672	      3.48573621	      3.34804722	     43.59130875	      6.43829523	      4.88863945	     20.14601607	     -0.99246766	     18.51497493	     19.57188793	     82.52641343
     18.50000000	      6.43334271	   -177.44843636	      7.94524379	      0.05571008	      1.39623897	      0.09116654	    -24.48199902	      3.50713896	      3.37157518	     43.58478918	      6.46271230	      4.89566738	     20.13839625	     -0.95828366	     18.50748138	     19.56317512	     82.52422322
     18.51000000	      6.34441671	   -177.47008948	      7.95863472	      0.05570783	      1.39615465	      0.09100528	    -24.39527853	      3.57769319	      3.24161910	     43.63693049	      6.18821613	      4.92757691	     19.98079126	     -0.58883402	     18.35765726	     19.26275239	     82.46565821
     18.52000000	      6.32234425	   -177.47739875	      7.98833269	      0.05579934	      1.39606157	      0.09082305	    -24.40116577	      3.59998451	      3.27143253	     43.62644696	      6.22346676	      4.93284093	     19.97223125	     -0.54963418	     18.34910151	     19.25234672	     82.46328334
     18.53000000	      6.29554984	   -177.53858106	      7.92031443	      0.05579820	      1.39623067	      0.09075851	    -24.43707445	      3.57138194	      3.26749037	     43.58149616	      6.19671035	      4.93046570	     19.88092841	     -0.32847095	     18.25889868	     19.08578894	     82.43305704
     18.54000000	      6.27399674	   -177.54066359	      7.96191905	      0.05598685	      1.39609463	      0.09056959	    -24.43805933	      3.60442857	      3.30032026	     43.57248346	      6.23673684	      4.93484443	     19.86776725	     -0.27259070	     18.24574841	     19.06491848	     82.42946200
     18.55000000	      6.29637312	   -177.51375867	      7.88135832	      0.05597894	      1.39625837	      0.09034874	    -24.40197601	      3.57618240	      3.22308960	     43.57897186	      6.08961428	      4.93875189	     19.68307530	      0.17288533	     18.06186349	     18.69265995	     82.37203790
     18.56000000	      6.26305304	   -177.51968667	      7.93497686	      0.05619925	      1.39610691	      0.09015279	    -24.40700711	      3.61525741	      3.26231082	     43.56988158	      6.13446675	      4.94724614	     19.66879172	      0.23296001	     18.04755459	     18.67498047	     82.36797428
     18.57000000	      6.20272872	   -177.47892107	      7.97648568	      0.05626103	      1.39596080	      0.08989413	    -24.32115326	      3.66964035	      3.09958002	     43.71412399	      5.80592889	      4.98759741	     19.39173260	      0.76645919	     17.76565260	     18.25106035	     82.26703226
     18.58000000	      6.16420269	   -177.48980613	      8.02620953	      0.05641638	      1.39584439	      0.08969044	    -24.33202702	      3.70548013	      3.15171199	     43.69700346	      5.86669867	      4.99828095	     19.37629557	      0.83291245	     17.75021353	     18.23485660	     82.26269572
     18.59000000	      6.14659837	   -177.55309893	      7.93960270	      0.05630684	      1.39609274	      0.08964442	    -24.39403066	      3.66073733	      3.16576231	     43.65334374	      5.86349001	      4.99765597	     19.23470122	      1.13300304	     17.60609546	     18.02566465	     82.21611518
     18.60000000	      6.10917067	   -177.55464102	      8.00421470	      0.05657361	      1.39592385	      0.08940011	    -24.39764128	      3.70849620	      3.22307938	     43.63984938	      5.93039845	      5.00963373	     19.21473842	      1.21685009	     17.58606735	     18.00060813	     82.21069097
     18.61000000	      6.09388265	   -177.46436166	      8.03609667	      0.05666713	      1.39578434	      0.08911446	    -24.33067346	      3.74997892	      3.04687801	     43.84904413	      5.56620942	      5.06076726	     18.81133872	      1.89760595	     17.16057502	     17.49523603	     82.06531576
     18.62000000	      6.04556949	   -177.47466748	      8.10015776	      0.05685283	      1.39565121	      0.08888703	    -24.34281973	      3.79638758	      3.11750415	     43.82670611	      5.64909035	      5.07525032	     18.79176814	      1.98374310	     17.14109015	     17.47608530	     82.06000523
     18.63000000	      6.03168318	   -177.46828963	      8.05780199	      0.05686137	      1.39570020	      0.08876176	    -24.34908071	      3.81231672	      3.05584388	     43.96460954	      5.46142620	      5.09385119	     18.38590209	      2.51203221	     16.70002231	     17.14635575	     81.90359328
     18.64000000	      5.97898417	   -177.47610230	      8.13051764	      0.05708067	      1.39555766	      0.08850787	    -24.36029421	      3.86440610	      3.13689780	     43.93939059	      5.55608792	      5.11101970	     18.36507670	      2.60879545	     16.67935847	     17.12588389	     81.89817357
     18.65000000	      6.01971977	   -177.50035120	      8.00636305	      0.05708243	      1.39589017	      0.08840125	    -24.42261564	      3.80847983	      3.19874869	     43.86621661	      5.62478680	      5.10496239	     18.18667131	      2.99608874	     16.49413794	     16.89364492	     81.84468985
     18.66000000	      5.96058431	   -177.50292425	      8.09664359	      0.05736577	      1.39569867	      0.08810801	    -24.43113870	      3.87170419	      3.28493229	     43.84504958	      5.72184126	      5.12706771	     18.16164441	      3.10904190	     16.46893459	     16.86899894	     81.83812439
     18.67000000	      5.99356521	   -177.35135941	      8.12600622	      0.05755287	      1.39547381	      0.08776178	    -24.41774520	      3.92030532	      3.12330468	     44.06118343	      5.36390795	      5.19776268	     17.67755892	      3.93199524	     15.93236048	     16.41588737	     81.67938174
     18.68000000	      5.92394365	   -177.36531406	      8.21829901	      0.05773545	      1.39536520	      0.08753805	    -24.43574451	      3.98596630	      3.22036798	     44.03047916	      5.47737661	      5.21847685	     17.65262720	      4.04674819	     15.90780917	     16.39555109	     81.67302652
     18.69000000	      5.89400252	   -177.33525180	      8.16975618	      0.05775195	      1.39539308	      0.08743429	    -24.48976385	      4.02915866	      3.15302324	     44.21504106	      5.26234461	      5.24689443	     17.07871678	      4.70415808	     15.24910214	     16.16557921	     81.48491344
     18.70000000	      5.82333765	   -177.34549019	      8.26847429	      0.05801638	      1.39522822	      0.08716315	    -24.50493644	      4.09964793	      3.26244581	     44.18002610	      5.39057672	      5.26968629	     17.05213399	      4.83083286	     15.22305577	     16.14345591	     81.47855753
     18.71000000	      5.86922525	   -177.28444492	      8.21307698	      0.05809898	      1.39529520	      0.08699053	    -24.55806075	      4.10111164	      3.24862495	     44.26919156	      5.25209551	      5.29737323	     16.54260435	      5.49238910	     14.62666336	     15.94107413	     81.33679837
     18.72000000	      5.79222744	   -177.29472260	      8.32050143	      0.05837041	      1.39513661	      0.08671668	    -24.57386161	      4.17792268	      3.36608368	     44.23248329	      5.38966135	      5.32199118	     16.51483842	      5.62829302	     14.59949324	     15.91917108	     81.33045394
     18.73000000	      5.83248212	   -177.22838943	      8.25782275	      0.05845997	      1.39520826	      0.08656057	    -24.63886286	      4.18723583	      3.34977124	     44.33830683	      5.25341120	      5.34504658	     15.99282191	      6.34132115	     13.97366607	     15.76214914	     81.20835079
     18.74000000	      5.74972154	   -177.23811749	      8.37497234	      0.05871360	      1.39506149	      0.08629337	    -24.65466552	      4.27015439	      3.47542913	     44.29980641	      5.39995326	      5.37216037	     15.96484868	      6.48417656	     13.94645304	     15.74132021	     81.20220239
     18.75000000	      5.81137926	   -177.16358941	      8.31119202	      0.05883157	      1.39511603	      0.08613738	    -24.73269766	      4.27444671	      3.47297630	     44.40086587	      5.27938714	      5.40039311	     15.42795334	      7.22698355	     13.28962484	     15.63342820	     81.10116470
     18.76000000	      5.72329778	   -177.17387219	      8.43562307	      0.05908774	      1.39496863	      0.08587250	    -24.74960591	      4.36239463	      3.60615030	     44.36002270	      5.43474700	      5.42900803	     15.39869341	      7.37752088	     13.26122198	     15.61302516	     81.09501202
     18.77000000	      5.79966741	   -177.09604544	      8.36025427	      0.05922545	      1.39502860	      0.08572946	    -24.84420837	      4.36060073	      3.61813302	     44.45712959	      5.33967344	      5.45803770	     14.85475784	      8.14462972	     12.58450649	     15.55130663	     81.01699612
     18.78000000	      5.70659207	   -177.10608351	      8.49175733	      0.05946180	      1.39489858	      0.08547534	    -24.86157137	      4.45315176	      3.75824998	     44.41468937	      5.50272852	      5.48847639	     14.82440414	      8.30185209	     12.55497082	     15.53183612	     81.01088660
     18.79000000	      5.78053679	   -177.01264628	      8.41732252	      0.05959627	      1.39498489	      0.08539145	    -24.97497047	      4.45487336	      3.77514709	     44.54405058	      5.41857035	      5.50450309	     14.20634012	      9.07993054	     11.76601307	     15.55224422	     80.96125287
     18.80000000	      5.68345962	   -177.02143277	      8.55375478	      0.05984024	      1.39483457	      0.08511180	    -24.99166160	      4.54969555	      3.92222832	     44.50036049	      5.58819030	      5.53786657	     14.17594053	      9.24230239	     11.73624302	     15.53414000	     80.95545930
     18.81000000	      5.72985792	   -177.04392395	      8.42086883	      0.05995298	      1.39526263	      0.08494095	    -25.07219908	      4.50080394	      4.11037032	     44.36253967	      5.81471812	      5.55415063	     13.98903928	      9.69732399	     11.53423214	     15.42222121	     80.93217483
     18.82000000	      5.63672899	   -177.05088996	      8.56937877	      0.06020548	      1.39508394	      0.08470679	    -25.09047004	      4.60532790	      4.25560065	     44.32324045	      5.98207784	      5.58760560	     13.95494973	      9.87371869	     11.49989509	     15.40434657	     80.92518473
     18.83000000	      5.81293867	   -176.77800811	      8.57268564	      0.06052003	      1.39493436	      0.08464728	    -25.25730213	      4.57136261	      4.28720854	     44.76237470	      5.81230736	      5.54417637	     12.46964295	     10.65224878	      9.45825086	     15.95688386	     81.18015764
     18.84000000	      5.71234884	   -176.79181094	      8.71989136	      0.06074497	      1.39479424	      0.08444804	    -25.27972234	      4.67573791	      4.43864770	     44.71506249	      5.98936537	      5.57515815	     12.44031836	     10.82933685	      9.42990453	     15.93818001	     81.17610233
     18.85000000	      5.81034454	   -176.71139833	      8.60726350	      0.06081667	      1.39495122	      0.08436457	    -25.43878315	      4.67748841	      4.48439303	     44.79929413	      5.93431727	      5.62593120	     12.16605041	     11.76707081	      8.99221485	     15.87777171	     81.34851710
     18.86000000	      5.70990949	   -176.72483899	      8.76015142	      0.06101185	      1.39479570	      0.08418994	    -25.46205035	      4.78522085	      4.63990050	     44.75053304	      6.11716768	      5.65661550	     12.13414028	     11.94467138	      8.96150114	     15.86063953	     81.34378534
     18.87000000	      5.85592698	   -176.55715870	      8.69736107	      0.06126368	      1.39496013	      0.08413980	    -25.60913123	      4.70801736	      5.32400016	     44.93444000	      5.79130063	      5.20060177	     11.41006128	     12.54077527	      5.44797916	     16.54143811	     87.63859134
     18.88000000	      5.75228694	   -176.57055176	      8.85359256	      0.06145327	      1.39483644	      0.08396219	    -25.63304115	      4.81732650	      5.48335493	     44.88726342	      5.97744094	      5.23369790	     11.37971683	     12.72401592	      5.41837790	     16.52804065	     87.63070270
     18.89000000	      5.92913606	   -176.48920158	      8.77324701	      0.06151660	      1.39490884	      0.08399085	    -25.84296130	      4.79830756	      5.57658036	     44.98139195	      6.00938856	      5.31987213	     11.14335437	     13.58301095	      5.04817181	     16.50333906	     87.51926342
     18.90000000	      5.90513750	   -176.48317390	      8.77312321	      0.06168521	      1.39509756	      0.08381513	    -25.90924170	      4.82673201	      5.76985223	     44.89636070	      6.24762287	      5.34250621	     11.03204606	     13.92689447	      4.92213172	     16.45205348	     87.48565690
     18.91000000	      5.97720551	   -176.33137132	      8.83769649	      0.06180594	      1.39495899	      0.08387396	    -26.16242788	      4.87088825	      5.81964027	     45.10907176	      6.26101498	      5.40253023	     10.70311501	     14.60049398	      4.42231109	     16.55106729	     87.35158113
     18.92000000	      5.98043433	   -176.31819075	      8.84811160	      0.06201197	      1.39511288	      0.08369971	    -26.20838276	      4.90676700	      6.02639710	     45.01692809	      6.52259337	      5.42112004	     10.59074503	     14.91867198	      4.30072319	     16.50288901	     87.32380016
     18.93000000	      6.07353152	   -176.17451221	      8.92140619	      0.06211178	      1.39497968	      0.08378713	    -26.48227060	      4.93123422	      6.09947488	     45.23988752	      6.56754210	      5.49643753	     10.24037836	     15.55946872	      3.77596221	     16.63095840	     87.20903346
     18.94000000	      6.07220394	   -176.15957415	      8.92969261	      0.06231358	      1.39515994	      0.08361851	    -26.52943673	      4.96592869	      6.31036367	     45.14522803	      6.83703539	      5.51353215	     10.12441018	     15.87281864	      3.65319590	     16.58050211	     87.18569574
     18.95000000	      6.17532428	   -176.01017756	      9.00433510	      0.06240536	      1.39504342	      0.08374652	    -26.82729162	      4.98283939	      6.39145629	     45.38230901	      6.90480244	      5.59331585	      9.77141997	     16.49753827	      3.12954445	     16.70158522	     87.09903078
     18.96000000	      6.17788278	   -175.99365087	      9.01467044	      0.06259997	      1.39523050	      0.08359463	    -26.87684135	      5.01754608	      6.60509519	     45.28761052	      7.17799427	      5.61150215	      9.65550422	     16.80904909	      3.00898255	     16.65033699	     87.08041874
     18.97000000	      6.29627117	   -175.84009244	      9.09142459	      0.06267273	      1.39512588	      0.08376053	    -27.20426407	      5.02595859	      6.69516193	     45.53711874	      7.26433482	      5.70265023	      9.31508234	     17.42402571	      2.50588901	     16.75733188	     87.02276779
     18.98000000	      6.29806767	   -175.82368872	      9.10252705	      0.06285493	      1.39532651	      0.08362862	    -27.26049958	      5.05842453	      6.91069564	     45.44209206	      7.53920757	      5.72288108	      9.19909277	     17.73446602	      2.38754594	     16.70491687	     87.00814041
     18.99000000	      6.43330536	   -175.66124867	      9.18109874	      0.06291078	      1.39523263	      0.08383299	    -27.62258015	      5.05831600	      7.00765632	     45.70637460	      7.64239241	      5.82589126	      8.86871968	     18.34154461	      1.90406879	     16.79529444	     86.97530550
     19.00000000	      6.43355987	   -175.64538515	      9.19313024	      0.06308039	      1.39544666	      0.08372020	    -27.68634377	      5.08786201	      7.22477646	     45.61106671	      7.91803661	      5.84878697	      8.75266316	     18.64977050	      1.78823337	     16.74195947	     86.96415822
     19.01000000	      6.54874561	   -175.46001103	      9.26300228	      0.06327777	      1.39536210	      0.08379784	    -27.90054201	      5.11736252	      7.17979346	     45.93934454	      8.14484518	      6.04805807	      7.83361801	     19.10562282	      0.41664533	     17.14182767	     88.23099267
     19.02000000	      6.53726703	   -175.47924512	      9.29280480	      0.06332583	      1.39561063	      0.08382106	    -28.02431401	      5.11813987	      7.39730747	     45.84612589	      8.39178287	      6.10117515	      7.76938765	     19.42755047	      0.34819985	     17.09942247	     88.22889319
     19.03000000	      6.74069486	   -175.32116872	      9.37575169	      0.06333790	      1.39549694	      0.08409038	    -28.45735864	      5.09687777	      7.53087090	     46.07220139	      8.53960814	      6.22764947	      7.66356659	     20.04576077	      0.13944163	     17.07170008	     88.25156121
     19.04000000	      6.72631323	   -175.30619779	      9.39045550	      0.06346600	      1.39573584	      0.08402811	    -28.55658557	      5.11646821	      7.74521459	     45.98219398	      8.80438409	      6.26046336	      7.56680999	     20.36256382	      0.04598426	     17.00864622	     88.24301771
     19.05000000	      6.89824398	   -175.10789890	      9.46379059	      0.06348859	      1.39565543	      0.08429322	    -29.02621647	      5.10562676	      7.86007657	     46.25620146	      8.94999115	      6.39452543	      7.34894509	     20.95949468	     -0.27464541	     16.98783715	     88.24161072
     19.06000000	      6.88480502	   -175.09643536	      9.48243398	      0.06361488	      1.39589111	      0.08423451	    -29.11599838	      5.12853060	      8.07561515	     46.16202109	      9.21638536	      6.42768550	      7.24342913	     21.25715879	     -0.37213904	     16.93240715	     88.23203424
     19.07000000	      7.05105366	   -174.90667191	      9.55461534	      0.06363221	      1.39580210	      0.08449855	    -29.58197838	      5.12336577	      8.19516901	     46.43667939	      9.37104437	      6.58236420	      6.96617414	     21.81433517	     -0.73759302	     16.93967668	     88.22941629
     19.08000000	      7.03198673	   -174.89764272	      9.57723006	      0.06376986	      1.39601822	      0.08442782	    -29.66225190	      5.15163779	      8.40931706	     46.33807215	      9.63614786	      6.61495078	      6.85651592	     22.09922595	     -0.83407524	     16.88767845	     88.22149806
     19.09000000	      7.17423862	   -174.72022511	      9.63932931	      0.06378756	      1.39593632	      0.08465110	    -30.09869273	      5.16401978	      8.52783729	     46.59075129	      9.79371057	      6.78490843	      6.53602889	     22.62136531	     -1.21643764	     16.90795737	     88.23278244
     19.10000000	      7.15189049	   -174.71478695	      9.66896730	      0.06394844	      1.39610383	      0.08456669	    -30.16966720	      5.20027660	      8.73933499	     46.48914645	     10.05493191	      6.81811426	      6.42481251	     22.89766022	     -1.30985027	     16.86071682	     88.22799178
     19.11000000	      7.27122506	   -174.55556642	      9.72316759	      0.06396389	      1.39599882	      0.08475214	    -30.56399285	      5.24319920	      8.84758496	     46.71534272	     10.19839103	      7.00888413	      6.06414289	     23.39994182	     -1.70145846	     16.89727680	     88.26297070
     19.12000000	      7.22783450	   -174.55915357	      9.75777723	      0.06414058	      1.39613416	      0.08464118	    -30.62283665	      5.28473682	      9.05708640	     46.60399773	     10.45514786	      7.04141509	      5.95501379	     23.66046275	     -1.78666383	     16.85373170	     88.26174854
     19.13000000	      7.24235971	   -174.54852096	      9.78491660	      0.06430634	      1.39619582	      0.08456171	    -30.71166628	      5.32621169	      9.25861607	     46.52284217	     10.68665848	      7.10002064	      5.82975289	     23.98908228	     -1.90182394	     16.82011797	     88.25682769
     19.14000000	      7.30032958	   -174.40797164	      9.83492550	      0.06429351	      1.39598233	      0.08468727	    -31.05602176	      5.44970380	      9.32551890	     46.73771316	     10.74297187	      7.33649983	      5.40936242	     24.51412329	     -2.32722573	     16.88079574	     88.30474086
     19.15000000	      7.19594679	   -174.44130334	     10.00439188	      0.06446823	      1.39577949	      0.08460609	    -31.09936371	      5.56382891	      9.48315107	     46.67911159	     10.93249592	      7.35440357	      5.37447112	     24.68845081	     -2.35538492	     16.87503822	     88.29916074
     19.16000000	      7.21209870	   -174.39431536	      9.97123105	      0.06480263	      1.39590286	      0.08435409	    -30.94703230	      5.56094003	      8.85294077	     46.91266228	     11.55240048	      8.31553180	      2.88519635	     25.22940576	     -2.80262379	     17.55453499	     91.36546397
     19.17000000	      7.10534230	   -174.42705404	     10.13834506	      0.06497351	      1.39568544	      0.08423916	    -30.99267539	      5.67279258	      9.01081185	     46.85567290	     11.73724239	      8.33730064	      2.85829294	     25.40286618	     -2.82881770	     17.55198954	     91.35910264
     19.18000000	      7.18702457	   -174.39004712	      9.98295773	      0.06495630	      1.39570468	      0.08419597	    -31.24436636	      5.81671590	      9.24920926	     46.78998486	     11.88035852	      8.62456256	      2.70792460	     25.88693138	     -3.04566423	     17.46842646	     91.35557024
     19.19000000	      7.08152611	   -174.42511932	     10.14933786	      0.06514874	      1.39547267	      0.08410751	    -31.28953820	      5.92882112	      9.40157093	     46.73063650	     12.06250921	      8.64077167	      2.67830885	     26.05698690	     -3.07231884	     17.46520731	     91.34919918
     19.20000000	      7.10313971	   -174.39874047	     10.06088897	      0.06538407	      1.39556761	      0.08387835	    -31.33416265	      5.99683546	      9.62141169	     46.57041372	     12.28660517	      8.73764126	      2.50320968	     26.44280597	     -3.23734578	     17.40882418	     91.33319361
     19.21000000	      6.99406567	   -174.43443446	     10.22581283	      0.06560113	      1.39533554	      0.08377486	    -31.38082757	      6.10579910	      9.77280171	     46.51308243	     12.46398236	      8.75796242	      2.47432377	     26.61290254	     -3.26490563	     17.40873635	     91.32649278
     19.22000000	      6.98689513	   -174.42414589	     10.07346987	      0.06557584	      1.39534930	      0.08363371	    -31.48686367	      6.28886076	      9.92402467	     46.43989201	     12.48550438	      9.09412853	      2.04824842	     27.15571477	     -3.69512894	     17.50694938	     91.31224092
     19.23000000	      6.88363860	   -174.46283556	     10.23653092	      0.06577341	      1.39509943	      0.08357350	    -31.53364689	      6.39681673	     10.07148621	     46.37966500	     12.66346899	      9.10787721	      2.01807904	     27.31943464	     -3.72096310	     17.50573983	     91.30651827
     19.24000000	      6.78655980	   -174.49071640	     10.19475367	      0.06598079	      1.39538445	      0.08337049	    -31.58358691	      6.36937009	     10.31333120	     46.20431126	     12.91456985	      9.17113269	      1.90374354	     27.58647317	     -3.80875654	     17.47587914	     91.29672571
     19.25000000	      6.69316570	   -174.52639744	     10.35502232	      0.06618480	      1.39513040	      0.08330131	    -31.62783409	      6.47769869	     10.45880479	     46.14750180	     13.08833294	      9.18724885	      1.87412442	     27.75168816	     -3.83553093	     17.47685074	     91.29077290
     19.26000000	      6.82942215	   -174.56747452	     10.22123357	      0.06616705	      1.39503424	      0.08328815	    -31.73463359	      6.58667669	     10.66680393	     46.08748159	     13.15831113	      9.56541013	      1.36339585	     28.27404981	     -4.26613408	     17.72901566	     91.32431650
     19.27000000	      6.72879043	   -174.60400630	     10.37821801	      0.06635108	      1.39480033	      0.08323088	    -31.77979143	      6.69033814	     10.80933097	     46.02941860	     13.33062931	      9.57879872	      1.33383262	     28.43107985	     -4.29107907	     17.72837073	     91.31951537
     19.28000000	      6.62346830	   -174.62379647	     10.33364262	      0.06657395	      1.39511130	      0.08302506	    -31.82835999	      6.65313648	     11.05150856	     45.85969554	     13.58397449	      9.64246240	      1.21244942	     28.67970149	     -4.37429891	     17.70274261	     91.31772010
     19.29000000	      6.53299660	   -174.66017778	     10.48880977	      0.06676936	      1.39487256	      0.08298403	    -31.87432207	      6.75607829	     11.19278568	     45.80434270	     13.75291081	      9.65834218	      1.18353651	     28.83889269	     -4.39994704	     17.70569753	     91.31271477
     19.30000000	      6.65910315	   -174.58730541	     10.31471856	      0.06683422	      1.39480887	      0.08295940	    -32.03282474	      6.94805306	     11.33942239	     45.97191470	     13.94338792	     10.23292972	     -0.16883641	     29.16729466	     -5.08088277	     18.21963840	     91.73934717
     19.31000000	      6.56073425	   -174.62498138	     10.46892960	      0.06702626	      1.39459206	      0.08290861	    -32.07859966	      7.04233046	     11.48058856	     45.91756816	     14.11071074	     10.25010811	     -0.19057575	     29.32347335	     -5.10160857	     18.22566265	     91.73633221
     19.32000000	      6.64933439	   -174.71197795	     10.43193792	      0.06712838	      1.39478351	      0.08293488	    -32.17414228	      6.89998925	     11.74290366	     45.78725381	     14.38613468	     10.38648743	     -0.29994121	     29.67877549	     -5.12352676	     18.32754989	     91.83065406
     19.33000000	      6.54874751	   -174.74902045	     10.58416980	      0.06732426	      1.39457437	      0.08290652	    -32.22310332	      6.99312000	     11.88183462	     45.73404955	     14.54886479	     10.40554014	     -0.32304064	     29.83269781	     -5.14576753	     18.33371143	     91.82735387
     19.34000000	      6.62566727	   -174.79156435	     10.53528137	      0.06738173	      1.39476825	      0.08295163	    -32.38166862	      6.87767495	     12.13847121	     45.63457405	     14.78090882	     10.59233743	     -0.49334294	     30.19505219	     -5.22240361	     18.44925087	     91.91375713
     19.35000000	      6.52623234	   -174.82735432	     10.68498236	      0.06756545	      1.39456890	      0.08293076	    -32.43131837	      6.96908612	     12.27532797	     45.58384191	     14.94023936	     10.61266077	     -0.51663795	     30.34592568	     -5.24519448	     18.45650937	     91.91046200
     19.36000000	      6.57187199	   -174.80441404	     10.58714674	      0.06749286	      1.39472479	      0.08298202	    -32.51626568	      6.93385281	     11.44708226	     46.37735034	     15.68286373	     12.49687309	     -4.49575296	     31.15851702	     -4.34452812	     19.49313077	     96.63189588
     19.37000000	      6.47878335	   -174.84219457	     10.73395055	      0.06765888	      1.39453754	      0.08300231	    -32.56614180	      7.02306749	     11.58142481	     46.32250294	     15.84074000	     12.51140586	     -4.51188186	     31.30437236	     -4.36753049	     19.49962285	     96.62636771
     19.38000000	      6.58434632	   -174.88222061	     10.68928094	      0.06774249	      1.39472264	      0.08303493	    -32.72773326	      6.89538031	     11.87034726	     46.19901891	     16.11372857	     12.67445277	     -4.55556804	     31.59419354	     -4.47107468	     19.57780260	     96.61513801
     19.39000000	      6.49005856	   -174.91900903	     10.83375147	      0.06789943	      1.39454453	      0.08306322	    -32.77992925	      6.98190831	     12.00228946	     46.14836778	     16.26719990	     12.69145179	     -4.57119017	     31.73867312	     -4.49482142	     19.58731603	     96.60946070
     19.40000000	      6.62354464	   -174.94161421	     10.77537775	      0.06788449	      1.39472514	      0.08321059	    -33.02724679	      6.84256796	     12.27816500	     46.09606203	     16.51538839	     12.90088158	     -4.64612490	     32.07552996	     -4.64553595	     19.73755090	     96.59291232
     19.41000000	      6.52936924	   -174.97723170	     10.91712567	      0.06803168	      1.39455587	      0.08325081	    -33.07989585	      6.92714155	     12.40701253	     46.04719936	     16.66512203	     12.91790236	     -4.66282652	     32.21654950	     -4.66980676	     19.74700252	     96.58739402
     19.42000000	      6.64318305	   -174.76185864	     10.83285187	      0.06801315	      1.39473963	      0.08344922	    -33.62226896	      6.88346178	     12.54671312	     46.25691125	     17.01204709	     13.33844546	     -5.24579135	     32.43759766	     -5.19224215	     20.01225396	     96.68192087
     19.43000000	      6.55527816	   -174.79869751	     10.97050283	      0.06814973	      1.39457550	      0.08349055	    -33.66859804	      6.96458601	     12.67360038	     46.20729239	     17.16014995	     13.35351907	     -5.25967176	     32.57718095	     -5.21328512	     20.02346711	     96.67775607
     19.44000000	      6.47339733	   -174.83608531	     10.92942145	      0.06822021	      1.39494928	      0.08345680	    -33.75172501	      6.85290795	     12.90774637	     46.08387207	     17.37364767	     13.45730283	     -5.30780997	     32.83094837	     -5.27406213	     20.08087041	     96.67456763
     19.45000000	      6.40177081	   -174.87232359	     11.06467870	      0.06834938	      1.39477494	      0.08352228	    -33.80013055	      6.93321268	     13.03124853	     46.03874791	     17.51843635	     13.47264121	     -5.32145528	     32.97022158	     -5.29563797	     20.09546658	     96.67031231
     19.46000000	      6.67925709	   -174.86253753	     10.97399781	      0.06819470	      1.39476789	      0.08382752	    -34.03327148	      6.81256336	     11.65185366	     46.43084320	     18.86096679	     15.52678761	     -7.85926265	     33.69854745	     -4.95429645	     20.95621275	    100.07126663
     19.47000000	      6.59539349	   -174.89679584	     11.10606288	      0.06830965	      1.39460772	      0.08389776	    -34.08035525	      6.88847649	     11.77366844	     46.38055412	     19.00114141	     15.54027462	     -7.86897922	     33.82986480	     -4.97616378	     20.96710027	    100.06551625
     19.48000000	      6.52415219	   -174.91046614	     11.07112335	      0.06838717	      1.39496030	      0.08386398	    -34.17330438	      6.76951145	     12.00866344	     46.25286584	     19.20568130	     15.64711811	     -7.90201372	     34.06124010	     -5.04932617	     21.01669496	    100.04506441
     19.49000000	      6.45819324	   -174.94384538	     11.19771242	      0.06849686	      1.39480945	      0.08395788	    -34.22132367	      6.84289492	     12.12460299	     46.20792081	     19.34000800	     15.66045124	     -7.91114250	     34.18927911	     -5.07092588	     21.03115662	    100.03943078
     19.50000000	      6.77293784	   -174.95444111	     11.14698116	      0.06849584	      1.39484335	      0.08425060	    -34.49771377	      6.63736817	     12.40759403	     46.16488997	     19.59541829	     15.89238853	     -7.96357336	     34.54219379	     -5.22864971	     21.27456293	    100.00107022
     19.51000000	      6.69051386	   -174.98678008	     11.26958212	      0.06854499	      1.39469387	      0.08435754	    -34.54750466	      6.70624646	     12.52023030	     46.11902900	     19.72435985	     15.90621011	     -7.97582485	     34.66290340	     -5.25067102	     21.28530920	     99.99589901
     19.52000000	      6.82035325	   -174.87345318	     11.24920712	      0.06843428	      1.39491385	      0.08457657	    -34.97840090	      6.52620189	     12.73005175	     46.18201520	     19.97254726	     16.23288037	     -8.23047917	     34.86511797	     -5.51493487	     21.55530647	     99.98206477
     19.53000000	      6.74800826	   -174.87424389	     11.28107922	      0.06858294	      1.39499755	      0.08461734	    -35.02375322	      6.53001153	     12.88529524	     46.09426642	     20.14916214	     16.27253099	     -8.29062602	     35.01636059	     -5.56446957	     21.56072156	     99.98059977
     19.54000000	      6.73114834	   -174.87564314	     11.29837398	      0.06869557	      1.39508068	      0.08466248	    -35.09174725	      6.49968411	     13.05674958	     46.01603009	     20.33228230	     16.34017779	     -8.35199303	     35.18579685	     -5.61904448	     21.60412671	     99.97976115
     19.55000000	      6.75756573	   -174.88047874	     11.31780517	      0.06877201	      1.39513678	      0.08476407	    -35.19203524	      6.44593073	     13.23522155	     45.95217769	     20.51600905	     16.43450221	     -8.42141627	     35.36132293	     -5.67766722	     21.68478490	     99.98211727
     19.56000000	      6.69862681	   -174.90905178	     11.42643549	      0.06886857	      1.39502380	      0.08489935	    -35.23623604	      6.50621990	     13.33398173	     45.91536776	     20.62991207	     16.44838751	     -8.43250170	     35.46654171	     -5.69568337	     21.69932406	     99.97913475
     19.57000000	      6.69523767	   -174.90129677	     11.39968551	      0.06893554	      1.39525854	      0.08493490	    -35.33930129	      6.38653952	     13.54784593	     45.82348183	     20.81600975	     16.56695815	     -8.50498323	     35.65041136	     -5.75606118	     21.77984686	     99.97824888
     19.58000000	      6.88580351	   -174.89669016	     11.41537209	      0.06897233	      1.39516424	      0.08515350	    -35.51398652	      6.28107338	     13.76070618	     45.77981586	     21.02842066	     16.71946086	     -8.62093087	     35.83280574	     -5.82061258	     21.94524676	     99.99489222
     19.59000000	      6.82599477	   -174.92221906	     11.51587563	      0.06903712	      1.39507693	      0.08529168	    -35.55672937	      6.33526389	     13.84903514	     45.74835667	     21.12972732	     16.73372554	     -8.63259535	     35.92357452	     -5.83615758	     21.95903360	     99.99321346
     19.60000000	      6.94931696	   -174.84267838	     11.53091354	      0.06899176	      1.39508405	      0.08546918	    -35.71645784	      6.26805568	     12.65605393	     46.38351974	     22.43130568	     18.79409424	    -12.09349229	     36.42161552	     -4.48214789	     22.90979678	    103.00971519
     19.61000000	      6.89126901	   -174.86597788	     11.62170462	      0.06906697	      1.39497265	      0.08559766	    -35.75162652	      6.31829177	     12.74125440	     46.34844276	     22.52787106	     18.80402295	    -12.09569431	     36.51221366	     -4.49781610	     22.91679778	    103.00646449
     19.62000000	      6.83704184	   -174.84916829	     11.59115876	      0.06915070	      1.39524492	      0.08558133	    -35.80775271	      6.22326877	     12.91375462	     46.25199526	     22.67394337	     18.88933187	    -12.11195061	     36.66536466	     -4.54378650	     22.92735837	    103.00130806
     19.63000000	      6.79377961	   -174.87161857	     11.67559820	      0.06921946	      1.39513133	      0.08571476	    -35.84184178	      6.26919968	     12.99312423	     46.22028489	     22.76443794	     18.89886918	    -12.11399197	     36.74825377	     -4.55741723	     22.93687073	    102.99863897
     19.64000000	      6.84408769	   -174.85451237	     11.62541134	      0.06930545	      1.39534703	      0.08573329	    -35.92050029	      6.13249455	     13.19841889	     46.11394632	     22.93973337	     19.00776139	    -12.13652195	     36.90411724	     -4.59982984	     22.98266683	    102.99729940
     19.65000000	      6.80847189	   -174.87603601	     11.70493964	      0.06936670	      1.39523936	      0.08586961	    -35.95341381	      6.17538560	     13.26907508	     46.08749275	     23.02113183	     19.01669899	    -12.13806257	     36.97575965	     -4.61074906	     22.99360416	    102.99544159
     19.66000000	      6.77365994	   -174.89430070	     11.77438786	      0.06942863	      1.39515006	      0.08598327	    -35.98510643	      6.20756079	     13.34269690	     46.05854806	     23.10210027	     19.02926262	    -12.14079025	     37.04626820	     -4.62212401	     23.00513175	    102.99352588
     19.67000000	      7.10650667	   -174.68780889	     11.70662028	      0.06943172	      1.39517098	      0.08626325	    -36.58876629	      6.01646177	     13.51040303	     46.02933670	     23.68057883	     19.53469469	    -12.49542154	     36.85468752	     -4.49729961	     23.22918267	    103.31027187
     19.68000000	      7.06803553	   -174.70625762	     11.76752728	      0.06948147	      1.39513939	      0.08638878	    -36.61141272	      6.04703650	     13.56709909	     46.00458517	     23.74482997	     19.54220530	    -12.49822031	     36.91527783	     -4.50646348	     23.23583698	    103.30928642
     19.69000000	      7.03042044	   -174.72115843	     11.82225454	      0.06954708	      1.39508116	      0.08648178	    -36.63187101	      6.07045241	     13.62719359	     45.97906007	     23.80987807	     19.55316685	    -12.50102178	     36.97485929	     -4.51565102	     23.24346396	    103.30827989
     19.70000000	      6.99532394	   -174.73418570	     11.86583886	      0.06959026	      1.39504739	      0.08648219	    -36.65181697	      6.08106382	     13.69100643	     45.94940949	     23.87557059	     19.56812821	    -12.50597275	     37.03359258	     -4.52486980	     23.25211174	    103.30772559
     19.71000000	      7.18160507	   -174.81282550	     11.87418139	      0.06953385	      1.39528355	      0.08674221	    -36.78229845	      5.76781858	     13.87642366	     45.83262260	     24.16032867	     19.87460256	    -12.66229353	     37.00125723	     -4.36531518	     23.46261009	    103.48600346
     19.72000000	      7.15254810	   -174.82276036	     11.91991209	      0.06959821	      1.39519032	      0.08682906	    -36.79712344	      5.79469940	     13.92034960	     45.81504954	     24.21195607	     19.87988521	    -12.66496905	     37.04577724	     -4.37129360	     23.46588804	    103.48610113
     19.73000000	      7.12679216	   -174.83003595	     11.95591012	      0.06966024	      1.39514034	      0.08689984	    -36.80978865	      5.81318428	     13.96239731	     45.79711840	     24.25956981	     19.88673611	    -12.66855836	     37.08510935	     -4.37645606	     23.46894543	    103.48656135
     19.74000000	      7.10371967	   -174.83532830	     11.98430405	      0.06972650	      1.39510744	      0.08695393	    -36.82086991	      5.82476732	     14.00349105	     45.77875526	     24.30449625	     19.89503644	    -12.67287014	     37.12017801	     -4.38080858	     23.47198428	    103.48737204
     19.75000000	      7.08970446	   -174.80575525	     11.91263009	      0.06983450	      1.39536502	      0.08686173	    -36.82279825	      5.72401640	     14.12779954	     45.69441802	     24.42351113	     19.95465679	    -12.71948220	     37.15827618	     -4.37280578	     23.47471129	    103.50823169
     19.76000000	      7.08079828	   -174.81349189	     11.94133447	      0.06988211	      1.39530612	      0.08692813	    -36.83312619	      5.73973400	     14.15392112	     45.68523806	     24.45602566	     19.95865555	    -12.72122034	     37.17916981	     -4.37265877	     23.47918685	    103.51010332
     19.77000000	      7.07364454	   -174.81898481	     11.96303556	      0.06993048	      1.39525709	      0.08698494	    -36.84138792	      5.74938475	     14.17822858	     45.67647217	     24.48502239	     19.96391580	    -12.72323133	     37.19507101	     -4.37157009	     23.48339695	    103.51229091
     19.78000000	      7.06866720	   -174.82289459	     11.97845370	      0.06997932	      1.39521671	      0.08702982	    -36.84808128	      5.75367037	     14.20060222	     45.66801034	     24.51089581	     19.97008784	    -12.72567614	     37.20574756	     -4.36920686	     23.48734960	    103.51499123
     19.79000000	      7.18207505	   -174.83778614	     11.91077923	      0.07007445	      1.39544204	      0.08700660	    -36.89712081	      5.59060427	     14.37934674	     45.56509656	     24.72538043	     20.07458719	    -12.80203121	     37.07228804	     -4.24547083	     23.53410159	    103.59821219
     19.80000000	      7.21292261	   -174.87201041	     11.98795837	      0.07003465	      1.39513894	      0.08714343	    -36.93779779	      5.64897923	     14.35458936	     45.59566983	     24.75113115	     20.07671866	    -12.80749647	     36.99941979	     -4.18065835	     23.55367868	    103.63580751
     19.81000000	      7.21246983	   -174.87082369	     11.98771289	      0.07010299	      1.39514668	      0.08720605	    -36.93698289	      5.64835349	     14.35512176	     45.59629231	     24.75142758	     20.07800010	    -12.80726039	     36.99829614	     -4.17990062	     23.55393716	    103.63626685
     19.82000000	      7.21244504	   -174.86958594	     11.98607323	      0.07014226	      1.39510874	      0.08722892	    -36.93601409	      5.64682055	     14.35462474	     45.59714473	     24.75069500	     20.07903940	    -12.80712749	     36.99591909	     -4.17884970	     23.55405113	    103.63683045
     19.83000000	      7.21488429	   -174.86393199	     11.97427878	      0.07016898	      1.39516455	      0.08719970	    -36.93120884	      5.63711667	     14.34767017	     45.60198437	     24.74349645	     20.08325609	    -12.80738831	     36.97651446	     -4.17060768	     23.55364062	    103.64108750
     19.84000000	      7.21768139	   -174.86040685	     11.96187571	      0.07019326	      1.39517970	      0.08719439	    -36.92777946	      5.62784936	     14.33785793	     45.60651805	     24.73480559	     20.08552247	    -12.80834915	     36.95329193	     -4.16057875	     23.55232961	    103.64614207
     19.85000000	      7.22371348	   -174.85624460	     11.94640737	      0.07021548	      1.39518330	      0.08718184	    -36.92243761	      5.61816190	     14.32256006	     45.61373058	     24.72104168	     20.08634487	    -12.80857100	     36.92425591	     -4.14905702	     23.55041438	    103.65154182
     19.86000000	      7.17572154	   -174.79050099	     11.92019658	      0.07022476	      1.39511227	      0.08713156	    -37.01717045	      5.68851727	     12.12475750	     45.70871526	     26.59360574	     22.57374301	    -15.48327155	     37.16883933	     -1.72117305	     23.82660567	    106.43255300
     19.87000000	      7.19361091	   -174.78464647	     11.89466424	      0.07023529	      1.39511359	      0.08707518	    -37.00463143	      5.67445098	     12.09703111	     45.72169588	     26.56604983	     22.57333782	    -15.47957068	     37.13890990	     -1.71554084	     23.82359741	    106.43398271
     19.88000000	      7.21426969	   -174.77956617	     11.86603340	      0.07024678	      1.39512458	      0.08703977	    -36.99123640	      5.66073661	     12.06130120	     45.73749076	     26.53183101	     22.57009060	    -15.47564763	     37.10134467	     -1.70770255	     23.81955579	    106.43602191
     19.89000000	      7.21577429	   -174.83004840	     11.91437344	      0.07019223	      1.39490980	      0.08714908	    -36.97391072	      5.73371700	     11.94470350	     45.79534582	     26.48150458	     22.53294855	    -15.42734021	     36.97662268	     -1.66097081	     23.79999440	    106.44934367
     19.90000000	      7.23547980	   -174.81953536	     11.86968519	      0.07020167	      1.39495347	      0.08707797	    -36.95574663	      5.70912013	     11.90250540	     45.81154050	     26.43822627	     22.52978452	    -15.42430522	     36.93030499	     -1.65166115	     23.79361893	    106.45179636
     19.91000000	      7.16975351	   -174.86464950	     11.90264489	      0.07015260	      1.39483802	      0.08712865	    -36.91943102	      5.79009429	     11.75777287	     45.86700060	     26.38128180	     22.47180630	    -15.36013335	     36.76273869	     -1.58162370	     23.75427777	    106.47190359
     19.92000000	      7.19684430	   -174.85057020	     11.84519000	      0.07015865	      1.39489428	      0.08703452	    -36.89677165	      5.75907982	     11.70587236	     45.88567124	     26.32788298	     22.46651285	    -15.35704424	     36.70721909	     -1.57017494	     23.74634475	    106.47487935
     19.93000000	      7.13996040	   -174.88699723	     11.86785900	      0.07012905	      1.39476274	      0.08705882	    -36.84502006	      5.85501778	     11.53693610	     45.94039929	     26.26390664	     22.38274115	    -15.28150603	     36.52856996	     -1.48493145	     23.70103776	    106.49840649
     19.94000000	      7.17253212	   -174.87039164	     11.79870623	      0.07013223	      1.39482987	      0.08694629	    -36.81887928	      5.81755773	     11.47398723	     45.96266859	     26.19879392	     22.37557346	    -15.27786227	     36.46272055	     -1.47113499	     23.69211380	    106.50188392
     19.95000000	      7.10960580	   -174.90536153	     11.82547529	      0.07009037	      1.39468081	      0.08697458	    -36.76261787	      5.92600208	     11.27349502	     46.03041986	     26.11134507	     22.27440095	    -15.18921957	     36.26762572	     -1.37288301	     23.65043112	    106.52722987
     19.96000000	      7.14775396	   -174.88634280	     11.74411430	      0.07009078	      1.39476078	      0.08684199	    -36.73284893	      5.88178843	     11.19885153	     46.05644990	     26.03381324	     22.26521490	    -15.18502654	     36.19079347	     -1.35671935	     23.64033356	    106.53120072
     19.97000000	      7.08024650	   -174.92111817	     11.77618465	      0.07003970	      1.39458499	      0.08687856	    -36.67196646	      6.00162202	     10.96853430	     46.13725989	     25.92146598	     22.14874162	    -15.08644051	     35.97922220	     -1.24861918	     23.60175553	    106.55753254
     19.98000000	      7.12419752	   -174.89913722	     11.68177137	      0.07003430	      1.39468520	      0.08672433	    -36.63782316	      5.95003147	     10.88153866	     46.16774795	     25.83056857	     22.13782531	    -15.08141656	     35.89030522	     -1.22996860	     23.59051060	    106.56200535
     19.99000000	      7.04306336	   -174.93526479	     11.72048083	      0.06997338	      1.39449043	      0.08677027	    -36.56879297	      6.08270668	     10.61845679	     46.26065663	     25.69214706	     22.00445215	    -14.97035995	     35.65616894	     -1.10996578	     23.55220342	    106.58980727
     20.00000000	      7.09318451	   -174.91046358	     11.61267426	      0.06996227	      1.39460861	      0.08659666	    -36.53028612	      6.02332174	     10.51919864	     46.29537424	     25.58778062	     21.99188451	    -14.96451208	     35.55512799	     -1.08893842	     23.53975120	    106.59474574
     20.01000000	      6.79865385	   -175.07663017	     11.71208491	      0.07015150	      1.39470600	      0.08633014	    -36.13554084	      5.96514151	      9.96986247	     45.79604578	     25.57705436	     21.65349695	    -13.77893791	     35.27224006	     -0.60515833	     23.18254606	    106.58574154
     20.02000000	      6.85176125	   -175.06597005	     11.67394743	      0.07006527	      1.39458632	      0.08629861	    -36.11360137	      6.02077079	      9.76982128	     45.89660779	     25.42589040	     21.60566197	    -13.74010714	     35.08968534	     -0.58293978	     23.17015297	    106.58006503
     20.03000000	      6.91930160	   -175.03967445	     11.55067928	      0.07004045	      1.39470405	      0.08614900	    -36.07689120	      5.95526866	      9.64933216	     45.94309958	     25.29804499	     21.59156172	    -13.73700356	     34.96854428	     -0.56389506	     23.15937061	    106.58364496
     20.04000000	      6.90639325	   -175.06141240	     11.59650975	      0.06990538	      1.39437448	      0.08624434	    -36.04997628	      6.10231508	      9.35276629	     46.09884301	     25.08798763	     21.49248461	    -13.66678026	     34.70189239	     -0.50050182	     23.15418465	    106.58787148
     20.05000000	      6.97327163	   -175.03215308	     11.45796580	      0.06987026	      1.39452881	      0.08608857	    -36.00775774	      6.02742072	      9.21953858	     46.14841254	     24.94601241	     21.47609305	    -13.66270449	     34.56663562	     -0.47823551	     23.14129023	    106.59224448
     20.06000000	      6.63049446	   -175.03620708	     11.48235890	      0.06977309	      1.39455434	      0.08598810	    -35.88740027	      6.23361304	      8.81923186	     46.25065051	     24.70250193	     21.28524840	    -13.51381045	     34.17305706	     -0.37832146	     23.06829269	    106.58626488
     20.07000000	      6.74163285	   -175.02853970	     11.42324689	      0.06974221	      1.39435900	      0.08595338	    -35.80573586	      6.27579625	      8.59172651	     46.32396857	     24.53103483	     21.19799780	    -13.45316443	     33.97071578	     -0.32514951	     23.04695323	    106.58860346
     20.08000000	      6.70827238	   -175.03923590	     11.39919584	      0.06963916	      1.39426238	      0.08593694	    -35.72474472	      6.33173153	      8.31158628	     46.41113016	     24.30877349	     21.10075327	    -13.35856773	     33.70240199	     -0.25104796	     23.02683583	    106.59047711
     20.09000000	      6.79621962	   -175.00809360	     11.23507695	      0.06957973	      1.39443007	      0.08579609	    -35.67545945	      6.23892606	      8.15719053	     46.46494107	     24.14210039	     21.08090491	    -13.35239957	     33.54601970	     -0.22417002	     23.01185273	    106.59583662
     20.10000000	      6.51374593	   -175.26954613	     11.34469695	      0.06964032	      1.39436899	      0.08552175	    -35.08752469	      6.29058351	      7.60256045	     45.82742385	     23.86900721	     20.70032054	    -12.03700180	     33.09310184	     -0.06272091	     22.83960954	    106.31104527
     20.11000000	      6.57639420	   -175.23736824	     11.29692205	      0.06949505	      1.39419194	      0.08552563	    -35.06213649	      6.32717607	      7.34175175	     45.96195229	     23.64072597	     20.64223166	    -11.99064531	     32.83238600	     -0.04111244	     22.80317745	    106.30125439
     20.12000000	      6.54934692	   -175.20946751	     11.25061799	      0.06934473	      1.39413263	      0.08551437	    -35.02232662	      6.36672184	      7.05542183	     46.08357142	     23.38978389	     20.56775485	    -11.93170566	     32.52618783	     -0.00828336	     22.75547922	    106.29025811
     20.13000000	      6.53270267	   -175.18039035	     11.19135931	      0.06923498	      1.39408281	      0.08546978	    -34.94669683	      6.40584575	      6.76953061	     46.17577474	     23.14588424	     20.47334880	    -11.86572464	     32.21246854	      0.03645205	     22.70008604	    106.28099272
     20.14000000	      6.51508511	   -175.16029708	     11.12859414	      0.06912967	      1.39402798	      0.08544424	    -34.85359540	      6.43405642	      6.48297419	     46.24950618	     22.89740565	     20.37220818	    -11.79158148	     31.89156756	      0.09297366	     22.64719085	    106.27397419
     20.15000000	      6.49353573	   -175.14505684	     11.06998459	      0.06901577	      1.39398407	      0.08540097	    -34.73928952	      6.45875874	      6.19125387	     46.30928408	     22.64129455	     20.26363978	    -11.70465327	     31.55612537	      0.16139325	     22.59321306	    106.26804061
     20.16000000	      6.27461657	   -175.14609849	     10.99166142	      0.06898424	      1.39422830	      0.08510008	    -34.47139180	      6.46782878	      5.88179012	     46.17652765	     22.38419413	     20.07274846	    -11.46982427	     31.11347164	      0.26006102	     22.46299844	    106.22039278
     20.17000000	      6.44446454	   -175.13972725	     10.91458749	      0.06885523	      1.39404333	      0.08517353	    -34.37457774	      6.46502759	      5.61674256	     46.26317399	     22.14232285	     19.98929219	    -11.38233965	     30.84828117	      0.32278920	     22.44926031	    106.21679732
     20.18000000	      6.55973209	   -175.10814904	     10.71159559	      0.06866055	      1.39420863	      0.08515418	    -34.32213567	      6.34323659	      5.42259993	     46.33096104	     21.92968036	     19.96188117	    -11.37165733	     30.64813908	      0.35591291	     22.43213180	    106.22309618
     20.19000000	      6.55799832	   -175.12664806	     10.79981885	      0.06845567	      1.39376682	      0.08532172	    -34.20090221	      6.45420655	      5.04106490	     46.46588438	     21.59022664	     19.82838577	    -11.25319083	     30.22360147	      0.47013231	     22.39732284	    106.23031857
     20.20000000	      6.66638468	   -175.09169345	     10.58611069	      0.06822826	      1.39398654	      0.08529220	    -34.14263288	      6.32334365	      4.84305795	     46.53205363	     21.37135325	     19.80061381	    -11.24192911	     30.01429988	      0.50512704	     22.37644553	    106.23707854
     20.21000000	      6.24955413	   -175.50762758	     10.78749672	      0.06825820	      1.39400552	      0.08485423	    -33.20588066	      6.29229311	      4.41221403	     45.68002971	     20.97212097	     19.27391798	     -9.86614136	     29.27949313	      0.90261154	     22.16460015	    105.93543913
     20.22000000	      6.38091263	   -175.47016454	     10.57161919	      0.06802138	      1.39422120	      0.08490131	    -33.15716790	      6.16395022	      4.20593122	     45.75684718	     20.74688679	     19.24195885	     -9.85574822	     29.06992654	      0.93270083	     22.14338213	    105.94069680
     20.23000000	      6.23502375	   -175.27152522	     10.59097850	      0.06802438	      1.39397075	      0.08478984	    -33.25160588	      6.36656827	      3.71353463	     44.55201789	     20.46164835	     18.09707093	     -4.91605838	     27.95169130	     -1.75761178	     21.12324409	    102.26253488
     20.24000000	      6.36797104	   -175.23763831	     10.37655634	      0.06775473	      1.39416826	      0.08484473	    -33.19809200	      6.23416608	      3.50791205	     44.63098642	     20.23747434	     18.06166004	     -4.90122605	     27.73540191	     -1.72435438	     21.10889227	    102.27073181
     20.25000000	      6.20401116	   -175.32247728	     10.51961154	      0.06768691	      1.39397113	      0.08467418	    -32.74228004	      6.25189204	      3.12599407	     44.61583055	     19.91459120	     17.79744833	     -4.81296524	     27.18242247	     -1.56579144	     20.98096635	    102.27679180
     20.26000000	      6.33750877	   -175.29206445	     10.30342527	      0.06741947	      1.39414841	      0.08478884	    -32.69305369	      6.11847573	      2.91894836	     44.69345293	     19.68864634	     17.76030908	     -4.79621176	     26.96805485	     -1.53164545	     20.96758705	    102.28489774
     20.27000000	      6.16438014	   -175.34033342	     10.39752479	      0.06734655	      1.39397388	      0.08463736	    -32.26286867	      6.16311105	      2.52246096	     44.65831813	     19.34019139	     17.47855284	     -4.61200996	     26.49098400	     -1.32160038	     20.82531176	    102.28791456
     20.28000000	      6.27726179	   -175.33257747	     10.32049710	      0.06704511	      1.39382170	      0.08480934	    -32.17069770	      6.11718827	      2.24548463	     44.78372376	     19.05669278	     17.40446878	     -4.53759351	     26.20194884	     -1.24429416	     20.82469377	    102.29563417
     20.29000000	      6.13374343	   -175.43475907	     10.30033704	      0.06696043	      1.39397332	      0.08459783	    -31.67490872	      6.02479886	      1.93433539	     44.60203933	     18.73433799	     17.11324274	     -4.22645572	     25.83007435	     -0.99010343	     20.65897903	    102.24793136
     20.30000000	      6.23318667	   -175.42164830	     10.22429343	      0.06663719	      1.39380778	      0.08478314	    -31.59896372	      5.97903470	      1.66036847	     44.73321653	     18.44669505	     17.04397264	     -4.14783331	     25.54135233	     -0.91759452	     20.65738764	    102.24934698
     20.31000000	      6.24341875	   -175.40166070	     10.17453590	      0.06635121	      1.39370030	      0.08487211	    -31.46226295	      5.95390405	      1.35992470	     44.83144287	     18.14752695	     16.93050547	     -4.06019802	     25.20101658	     -0.82248033	     20.60917345	    102.25126710
     20.32000000	      6.08354633	   -175.66325882	     10.17901160	      0.06620647	      1.39387504	      0.08469695	    -30.80840261	      5.76912426	      1.11091112	     44.44827617	     17.74300479	     16.55727465	     -3.34975950	     24.90731524	     -0.43060512	     20.43232983	    102.00672139
     20.33000000	      6.18956516	   -175.59723806	     10.08480472	      0.06595264	      1.39371977	      0.08478784	    -30.71555096	      5.75225819	      0.84041430	     44.57188005	     17.47922577	     16.46010378	     -3.29429618	     24.60936658	     -0.37559904	     20.38634420	    101.99944344
     20.34000000	      6.16181444	   -175.54606896	     10.03287978	      0.06570235	      1.39361710	      0.08484769	    -30.58650302	      5.74859817	      0.54154607	     44.66843918	     17.18693016	     16.33138222	     -3.22062733	     24.24810237	     -0.29573529	     20.31068468	    101.98805003
     20.35000000	      6.11477015	   -175.50221717	      9.97119740	      0.06551735	      1.39356941	      0.08483245	    -30.39224407	      5.73554418	      0.25060226	     44.70672929	     16.90873810	     16.17154406	     -3.13184583	     23.88008691	     -0.19325629	     20.21001789	    101.97257307
     20.36000000	      6.05632120	   -175.48685739	      9.91508441	      0.06533361	      1.39354399	      0.08479391	    -30.15415345	      5.70572196	     -0.03167936	     44.70282621	     16.62808878	     16.00153517	     -3.01155622	     23.51206831	     -0.06297891	     20.11460976	    101.95109904
     20.37000000	      5.95391409	   -175.67625328	      9.86023867	      0.06523978	      1.39380226	      0.08462065	    -29.68178654	      5.54119818	      1.01134462	     43.87005103	     15.49166045	     14.08476665	      0.98420876	     23.00683020	     -0.65163865	     19.27591596	     96.76062360
     20.38000000	      6.03395172	   -175.64180834	      9.78923189	      0.06496700	      1.39361643	      0.08476902	    -29.58972350	      5.50710645	      0.76216243	     43.98566422	     15.22256457	     14.00908302	      1.03232448	     22.71725908	     -0.58619429	     19.26025003	     96.77941344
     20.39000000	      6.00391802	   -175.61378237	      9.74984216	      0.06470105	      1.39350478	      0.08483563	    -29.44505358	      5.49068057	      0.49188425	     44.06677528	     14.93363930	     13.90098277	      1.09165425	     22.36543575	     -0.48983972	     19.21532659	     96.80582046
     20.40000000	      5.84963981	   -175.83734997	      9.70575346	      0.06451753	      1.39366846	      0.08460578	    -28.83003433	      5.38238863	      0.34346435	     43.73464340	     14.54584399	     13.62861058	      1.41465671	     22.03720508	     -0.04069026	     19.10776121	     96.87066179
     20.41000000	      5.93053567	   -175.78855483	      9.62925964	      0.06428151	      1.39349954	      0.08474778	    -28.74491744	      5.35085505	      0.10586813	     43.84469540	     14.29411146	     13.54438606	      1.46943312	     21.75861012	      0.02892852	     19.08962289	     96.88300411
     20.42000000	      5.88737449	   -175.75310373	      9.59196367	      0.06401726	      1.39341425	      0.08481230	    -28.62103366	      5.33092233	     -0.14872624	     43.91735996	     14.01764474	     13.43393660	      1.54398322	     21.40531712	      0.13699517	     19.04615919	     96.90114896
     20.43000000	      5.76067716	   -175.94834512	      9.55202203	      0.06382894	      1.39357641	      0.08463259	    -28.10600782	      5.21222368	     -0.22625944	     43.55581156	     13.65107732	     13.14220597	      2.00497158	     21.05904242	      0.69898394	     18.91251196	     96.87918350
     20.44000000	      5.87622168	   -175.92654763	      9.36859767	      0.06351958	      1.39369521	      0.08480573	    -28.07360327	      5.09020021	     -0.40285384	     43.62010662	     13.45211001	     13.10263753	      2.02791338	     20.86758157	      0.72904104	     18.90625637	     96.88586425
     20.45000000	      5.70348108	   -175.87643154	      9.41513662	      0.06348069	      1.39359371	      0.08460896	    -27.76652238	      5.13616013	     -0.61689228	     43.53568560	     13.17074905	     12.83824571	      2.23874446	     20.34611447	      1.03250066	     18.72969972	     96.86597502
     20.46000000	      5.81425493	   -175.86040502	      9.24018231	      0.06319266	      1.39371229	      0.08479463	    -27.73791463	      5.01525956	     -0.78610415	     43.59730800	     12.97634591	     12.80285601	      2.26397190	     20.16053916	      1.06354022	     18.72813254	     96.87244627
     20.47000000	      5.71009284	   -176.07575121	      9.36454459	      0.06295027	      1.39351060	      0.08480945	    -27.32770755	      4.95320391	     -0.82624272	     43.31333007	     12.57903643	     12.51470893	      2.90276282	     19.71353051	      1.80127721	     18.63663983	     96.75473765
     20.48000000	      5.81857377	   -176.05608867	      9.19235336	      0.06263248	      1.39364790	      0.08497125	    -27.29934297	      4.83669557	     -0.99330332	     43.37466574	     12.38963867	     12.47619165	      2.92578863	     19.53019478	      1.83018951	     18.63246716	     96.76045202
     20.49000000	      5.64434759	   -175.99623899	      9.25250183	      0.06259429	      1.39358511	      0.08480302	    -27.06826395	      4.86726940	     -1.14831837	     43.31106488	     12.16470714	     12.21727840	      3.15785315	     18.95065446	      2.16610180	     18.45681371	     96.69745979
     20.50000000	      5.75162378	   -175.98452098	      9.08923373	      0.06232414	      1.39372281	      0.08500967	    -27.04546261	      4.75381253	     -1.30877276	     43.36762623	     11.98109002	     12.18065389	      3.18210047	     18.77446137	      2.19592636	     18.45654934	     96.70311907
     20.51000000	      5.64659557	   -176.07044092	      9.19462908	      0.06219458	      1.39362844	      0.08497501	    -26.77765843	      4.70935316	     -1.36213846	     43.18593814	     11.79089230	     11.93142421	      3.61031454	     18.14831431	      2.76423166	     18.36406838	     96.64349242
     20.52000000	      5.74998023	   -176.05856527	      9.03786753	      0.06192301	      1.39376890	      0.08516171	    -26.75631535	      4.60005007	     -1.51702394	     43.24180477	     11.61283493	     11.89621113	      3.63476187	     17.97940188	      2.79333263	     18.36461748	     96.64873510
     20.53000000	      5.78285466	   -176.03395851	      9.12216283	      0.06173745	      1.39337128	      0.08533918	    -26.67767002	      4.62576921	     -1.73492909	     43.38565105	     11.36006747	     11.82435373	      3.76009033	     17.62580308	      2.93295493	     18.40260639	     96.65774149
     20.54000000	      5.87434431	   -176.02377886	      8.96770510	      0.06145449	      1.39354686	      0.08549884	    -26.65614617	      4.51551154	     -1.88194951	     43.43527677	     11.19086896	     11.79016166	      3.78596569	     17.45400567	      2.96494818	     18.40153927	     96.66385461
     20.55000000	      5.76168769	   -176.25973248	      9.14472041	      0.06126386	      1.39356908	      0.08553205	    -26.39511929	      4.37482441	     -1.71142754	     43.01120800	     11.04612489	     11.45215199	      4.77041991	     16.72918970	      4.24189631	     18.17706363	     96.54186065
     20.56000000	      5.85625741	   -176.24386941	      8.99434023	      0.06099700	      1.39372063	      0.08566938	    -26.37246302	      4.27303639	     -1.85774215	     43.06520230	     10.88046922	     11.41538710	      4.79272048	     16.56659899	      4.26856728	     18.17632057	     96.54603663
     20.57000000	      5.84555754	   -176.17800800	      9.06471462	      0.06092845	      1.39340286	      0.08573283	    -26.27737033	      4.32979324	     -2.06150005	     43.21734931	     10.68069660	     11.30908237	      4.89737931	     16.18013492	      4.39872983	     18.18360058	     96.54522812
     20.58000000	      5.93038113	   -176.16952785	      8.92027421	      0.06066067	      1.39359185	      0.08589136	    -26.25997583	      4.22805906	     -2.19912766	     43.26380600	     10.52442265	     11.27398292	      4.92119713	     16.01601718	      4.42820965	     18.18347872	     96.55019797
     20.59000000	      5.74865557	   -176.23018372	      8.97957704	      0.06069626	      1.39382245	      0.08582916	    -26.10700780	      4.18123784	     -2.10588680	     43.07238090	     10.66429927	     10.97394357	      5.35351401	     15.04029716	      5.07926288	     18.02167542	     96.50948696
     20.60000000	      5.83870913	   -176.21982237	      8.84710231	      0.06043752	      1.39400756	      0.08597515	    -26.08935517	      4.08621364	     -2.24033639	     43.12335355	     10.50711839	     10.94437857	      5.37955525	     14.88850680	      5.10807283	     18.02737518	     96.51386401
     20.61000000	      5.85605238	   -176.20181364	      8.98773758	      0.06030085	      1.39353460	      0.08609688	    -26.02568353	      4.13668451	     -2.41392659	     43.28266555	     10.29044945	     10.89236743	      5.54130361	     14.50159007	      5.28695944	     18.10224632	     96.52036387
     20.62000000	      5.93726653	   -176.19636007	      8.85548079	      0.06006186	      1.39373125	      0.08623995	    -26.01087059	      4.04220985	     -2.54048723	     43.32572740	     10.14541523	     10.86081492	      5.56776633	     14.34752966	      5.31818798	     18.10556726	     96.52548750
     20.63000000	      5.83366883	   -176.33869629	      8.91324667	      0.06006483	      1.39392423	      0.08622732	    -25.88950947	      3.98385450	     -2.33032785	     43.06955220	     10.37407883	     10.58796763	      6.23989366	     13.32629070	      6.23670696	     17.98834271	     96.50846256
     20.64000000	      5.91703816	   -176.33039635	      8.79369108	      0.05981884	      1.39409339	      0.08638510	    -25.87493118	      3.89917204	     -2.45730902	     43.11683022	     10.22647061	     10.55852817	      6.26538160	     13.18538311	      6.26470188	     17.99425267	     96.51227541
     20.65000000	      5.91119910	   -176.30432476	      8.94595804	      0.05971782	      1.39360517	      0.08644799	    -25.81063108	      3.97027472	     -2.62397992	     43.28333189	     10.00784491	     10.51670392	      6.43560793	     12.81498504	      6.44990938	     18.07329683	     96.51552522
     20.66000000	      5.98572519	   -176.29991961	      8.82502551	      0.05950608	      1.39379277	      0.08657419	    -25.79731188	      3.88504220	     -2.74148145	     43.32402513	      9.87300689	     10.48709413	      6.46247534	     12.67068231	      6.48066234	     18.07841828	     96.52001909
     20.67000000	      5.88136164	   -176.40772318	      8.85043730	      0.05925647	      1.39393049	      0.08673938	    -25.96551643	      3.95454142	     -0.02023364	     43.33584832	      8.26619366	      8.46897739	      8.24999221	     11.98247834	     10.33383141	     17.08225138	     89.15573893
     20.68000000	      5.95782277	   -176.39735799	      8.73800121	      0.05908246	      1.39408085	      0.08682240	    -25.94532847	      3.87630526	     -0.13490576	     43.37872758	      8.13366835	      8.44097100	      8.27226852	     11.84744202	     10.35743302	     17.09727063	     89.16206073
     20.69000000	      5.95322011	   -176.37369299	      8.86305187	      0.05910226	      1.39365192	      0.08683047	    -25.82504319	      3.95756426	     -0.26954281	     43.53489572	      7.99559891	      8.37250550	      8.39568244	     11.43707396	     10.49784917	     17.24534739	     89.20244957
     20.70000000	      6.01848106	   -176.37025222	      8.75134435	      0.05891455	      1.39383666	      0.08692603	    -25.81001959	      3.87834626	     -0.37547921	     43.57069903	      7.87259670	      8.34659395	      8.41942930	     11.29919391	     10.52380619	     17.26037562	     89.20931954
     20.71000000	      5.89442124	   -176.58659760	      8.77909045	      0.05888149	      1.39395172	      0.08698920	    -25.60791587	      3.90552172	     -0.18762152	     43.39833866	      8.13494032	      8.14332124	      8.80172754	     10.28128574	     11.06771020	     17.45502750	     89.37675156
     20.72000000	      5.96288756	   -176.57656557	      8.67862543	      0.05871828	      1.39410528	      0.08706417	    -25.59068656	      3.83344762	     -0.29279398	     43.43799111	      8.00896136	      8.12138751	      8.82574832	     10.15562014	     11.09245430	     17.46829363	     89.38301250
     20.73000000	      5.94502596	   -176.55079736	      8.82810396	      0.05872532	      1.39362813	      0.08705695	    -25.49046709	      3.92369976	     -0.41347222	     43.58044803	      7.84615534	      8.09040678	      8.97792491	      9.76123689	     11.25831624	     17.59053775	     89.42589643
     20.74000000	      6.00420278	   -176.54655518	      8.72578570	      0.05856028	      1.39382146	      0.08712629	    -25.47595126	      3.85097618	     -0.50931195	     43.61419193	      7.73164884	      8.06970931	      9.00361670	      9.63297639	     11.28546414	     17.60505397	     89.43260709
     20.75000000	      5.90012906	   -176.77652878	      8.71809567	      0.05849766	      1.39389863	      0.08718427	    -25.29578048	      3.93564299	     -0.26708360	     43.40859515	      7.99390876	      7.92008190	      9.54400631	      8.64014159	     11.97364103	     17.72970657	     89.60625326
     20.76000000	      5.96175468	   -176.76639763	      8.62646927	      0.05835123	      1.39406000	      0.08724910	    -25.27951211	      3.86878871	     -0.36301323	     43.44644988	      7.87589986	      7.90274838	      9.56852097	      8.52431282	     11.99823022	     17.74368439	     89.61178743
     20.77000000	      5.94676883	   -176.73436337	      8.77999842	      0.05837238	      1.39358821	      0.08721332	    -25.17936521	      3.96345852	     -0.47062803	     43.59143046	      7.71140360	      7.89135080	      9.73026649	      8.16253859	     12.16798648	     17.86833287	     89.64778753
     20.78000000	      6.00083507	   -176.73142169	      8.68510605	      0.05822419	      1.39377217	      0.08729721	    -25.16651945	      3.89586407	     -0.55827133	     43.62291180	      7.60499277	      7.87371129	      9.75623861	      8.04365851	     12.19482543	     17.88360975	     89.65369501
     20.79000000	      5.88700369	   -177.03060088	      8.66266195	      0.05796798	      1.39379298	      0.08737105	    -25.01432862	      4.03648782	     -0.16036110	     43.32231732	      7.60223435	      7.72408738	     10.84359735	      7.33711963	     13.51335544	     17.75223128	     89.78043923
     20.80000000	      5.94514368	   -177.01856300	      8.57573435	      0.05784387	      1.39395543	      0.08743518	    -24.99663961	      3.97344204	     -0.24639662	     43.35939864	      7.49659275	      7.70821712	     10.86434033	      7.22695449	     13.53357799	     17.77020205	     89.78356734
     20.81000000	      5.95567828	   -176.97378247	      8.69773026	      0.05792940	      1.39355813	      0.08738095	    -24.88418737	      4.05794225	     -0.31908107	     43.50874180	      7.39432187	      7.68746553	     10.98399113	      6.86133082	     13.65658591	     17.93000539	     89.79251943
     20.82000000	      6.00476939	   -176.97139753	      8.61051853	      0.05779561	      1.39374857	      0.08747878	    -24.87258527	      3.99490956	     -0.39780527	     43.53909431	      7.29809238	      7.67205469	     11.00630605	      6.74927345	     13.67896670	     17.94945579	     89.79604135
     20.83000000	      5.98219622	   -177.21795010	      8.59918175	      0.05772675	      1.39377960	      0.08768709	    -24.74393823	      4.05483452	     -0.10068128	     43.41330493	      7.57528565	      7.56037440	     11.45021974	      5.83341739	     14.19783236	     18.20555965	     89.77991925
     20.84000000	      6.02909015	   -177.20492536	      8.52068521	      0.05759627	      1.39396378	      0.08773716	    -24.72628277	      3.99526868	     -0.17665922	     43.44841581	      7.47627605	      7.55173969	     11.47205373	      5.73455084	     14.21868096	     18.22307670	     89.78287682
     20.85000000	      6.01196966	   -177.16717864	      8.65229150	      0.05766362	      1.39358411	      0.08768329	    -24.61878470	      4.08309528	     -0.24799638	     43.59017123	      7.35415336	      7.54826515	     11.61575242	      5.40669350	     14.36334947	     18.36682225	     89.79351262
     20.86000000	      6.05577463	   -177.16369565	      8.57237568	      0.05753998	      1.39377575	      0.08778582	    -24.60649652	      4.02490963	     -0.31857223	     43.61847960	      7.26516924	      7.53689482	     11.63880814	      5.30640622	     14.38612638	     18.38506096	     89.79682448
     20.87000000	      5.98343512	   -177.22079202	      8.69990832	      0.05755459	      1.39343631	      0.08784750	    -24.50117976	      4.13481692	     -0.31850538	     43.72814322	      7.24046150	      7.51971420	     11.87242468	      4.81072452	     14.62790018	     18.60961871	     89.81896263
     20.88000000	      6.02701663	   -177.21738881	      8.61760574	      0.05742511	      1.39365155	      0.08794236	    -24.48811682	      4.07560815	     -0.38027209	     43.75138689	      7.16125253	      7.51069505	     11.89534545	      4.71784769	     14.65064835	     18.62569319	     89.82219902
     20.89000000	      6.05381644	   -177.57075281	      8.57674198	      0.05714658	      1.39370941	      0.08802182	    -24.29918887	      4.14713291	      0.09201738	     43.37109555	      7.24203050	      7.47499548	     12.99536286	      4.06897187	     15.81784393	     18.56158187	     89.69036384
     20.90000000	      6.09594426	   -177.55877212	      8.50469517	      0.05706407	      1.39388342	      0.08811213	    -24.28273846	      4.09640915	      0.02564939	     43.40391113	      7.15856014	      7.46442444	     13.01372299	      3.98357216	     15.83532651	     18.58044316	     89.69154735
     20.91000000	      6.08314271	   -177.51453395	      8.57565791	      0.05718670	      1.39362300	      0.08808064	    -24.17196171	      4.18369261	     -0.02333560	     43.55907009	      7.09107555	      7.44150342	     13.13438127	      3.71375882	     15.95316420	     18.75089472	     89.68269744
     20.92000000	      6.11708047	   -177.50901244	      8.50606245	      0.05706360	      1.39383020	      0.08817866	    -24.15961221	      4.13217941	     -0.08010290	     43.58645568	      7.01550157	      7.43613161	     13.15427150	      3.62959745	     15.97220526	     18.77245795	     89.68416997
     20.93000000	      6.08085773	   -177.73164058	      8.45726669	      0.05691602	      1.39386049	      0.08845603	    -24.06583375	      4.22802851	      0.13047197	     43.60608134	      7.22124244	      7.36512566	     13.56371531	      3.02918526	     16.38817319	     19.13743024	     89.61987994
     20.94000000	      6.11847673	   -177.71794293	      8.39610138	      0.05685693	      1.39402338	      0.08854212	    -24.04892201	      4.17984276	      0.07462033	     43.63341999	      7.14380017	      7.36259623	     13.58260354	      2.95310548	     16.40617774	     19.15325731	     89.62109395
     20.95000000	      6.13171813	   -177.67875553	      8.50451240	      0.05696998	      1.39372882	      0.08849941	    -23.94680817	      4.24634319	      0.05194830	     43.73476330	      7.05496881	      7.38262914	     13.73079762	      2.70339280	     16.55113005	     19.28484971	     89.61373401
     20.96000000	      6.16041111	   -177.67028305	      8.44229490	      0.05683391	      1.39394231	      0.08859478	    -23.93314726	      4.19673696	      0.00533552	     43.75891825	      6.98638896	      7.38426833	     13.75083145	      2.62995639	     16.57029130	     19.30445298	     89.61517556
     20.97000000	      6.21032246	   -177.89841200	      8.39575977	      0.05673817	      1.39396091	      0.08881373	    -23.83642717	      4.25198342	      0.29234120	     43.67535616	      7.17240166	      7.35322668	     14.36569601	      2.11912431	     17.18411555	     19.55751607	     89.52648098
     20.98000000	      6.23650291	   -177.88412758	      8.34271969	      0.05661553	      1.39415641	      0.08891227	    -23.82125761	      4.20694792	      0.24557865	     43.70157782	      7.10163954	      7.35687449	     14.38289345	      2.05391851	     17.20040928	     19.57430844	     89.52708166
     20.99000000	      6.22019883	   -177.84525802	      8.46394463	      0.05667529	      1.39388154	      0.08888782	    -23.74421986	      4.27051939	      0.21619812	     43.81599824	      6.99445531	      7.38908891	     14.52372449	      1.84841225	     17.33666555	     19.70988160	     89.51538815
     21.00000000	      6.24368872	   -177.83629544	      8.40973179	      0.05652734	      1.39409437	      0.08900061	    -23.73146526	      4.22593408	      0.17763064	     43.83901430	      6.93421857	      7.39337756	     14.54342204	      1.78467944	     17.35559427	     19.73033968	     89.51605855
     21.01000000	      6.26219318	   -177.99745297	      8.42966004	      0.05630402	      1.39406571	      0.08916103	    -23.76209792	      4.25750841	      0.57729608	     43.71692805	      6.84921377	      7.32565928	     15.67373070	      1.55443180	     18.45206444	     19.75919150	     89.01857591
     21.02000000	      6.28804704	   -177.98458977	      8.38027868	      0.05625437	      1.39425799	      0.08927743	    -23.74714438	      4.21898799	      0.53919473	     43.74079825	      6.79306291	      7.32721254	     15.68561816	      1.49892989	     18.46322061	     19.77758347	     89.01758598
     21.03000000	      6.31768646	   -177.94273352	      8.43708312	      0.05635590	      1.39409822	      0.08927443	    -23.66055159	      4.26842885	      0.54062050	     43.86452261	      6.75970842	      7.33906348	     15.76539489	      1.32589600	     18.53813269	     19.95000004	     88.98839866
     21.04000000	      6.33459290	   -177.93465967	      8.38894035	      0.05622066	      1.39430562	      0.08938837	    -23.64954410	      4.22710416	      0.51200461	     43.88644948	      6.71018219	      7.34688671	     15.77957524	      1.27166104	     18.55155606	     19.97452588	     88.98727190
     21.05000000	      6.36434952	   -178.10136446	      8.39820154	      0.05606890	      1.39424983	      0.08977196	    -23.67868137	      4.23931405	      0.66998324	     44.00122087	      6.84781352	      7.33405141	     16.02388979	      0.93829034	     18.78625225	     20.40283740	     88.89192167
     21.06000000	      6.38537490	   -178.08302113	      8.35612073	      0.05602821	      1.39443881	      0.08987039	    -23.66094049	      4.20300160	      0.64388679	     44.02166302	      6.80292168	      7.34122800	     16.03664984	      0.89369140	     18.79853309	     20.41787801	     88.89144487
     21.07000000	      6.44715845	   -178.00998669	      8.40358233	      0.05619063	      1.39432594	      0.08981152	    -23.57280240	      4.22404409	      0.66261287	     44.10926666	      6.79430363	      7.35370496	     16.13406342	      0.76615315	     18.89338934	     20.53298979	     88.87469726
     21.08000000	      6.45668247	   -178.00067923	      8.36414319	      0.05607064	      1.39452315	      0.08990421	    -23.56332253	      4.18537317	      0.64448758	     44.12743932	      6.75435717	      7.36657223	     16.14897097	      0.72296797	     18.90781867	     20.55575439	     88.87387035
     21.09000000	      6.48269556	   -178.03282821	      8.46336367	      0.05614677	      1.39430769	      0.09005596	    -23.54754225	      4.21037041	      0.71776369	     44.23857540	      6.79222966	      7.39164394	     16.34666679	      0.49847474	     19.10191667	     20.84005552	     88.84932714
     21.10000000	      6.49193558	   -178.02384940	      8.42189142	      0.05605156	      1.39450974	      0.09015372	    -23.53966788	      4.17169509	      0.70415404	     44.25171171	      6.75984341	      7.40358438	     16.35872958	      0.46571091	     19.11371091	     20.85664157	     88.84858886
     21.11000000	      6.59615648	   -178.08243042	      8.43819910	      0.05610997	      1.39445926	      0.09038394	    -23.55810178	      4.13857139	      0.85054812	     44.33137178	      6.91096354	      7.39288869	     16.64009656	      0.27100974	     19.39201106	     21.17739742	     88.80812210
     21.12000000	      6.59932284	   -178.07266976	      8.40430374	      0.05607209	      1.39464755	      0.09047578	    -23.55148343	      4.10453978	      0.84008296	     44.34198182	      6.88163633	      7.40631503	     16.64905666	      0.24661816	     19.40083098	     21.18912655	     88.80718981
     21.13000000	      6.60312875	   -178.06086473	      8.37557646	      0.05602083	      1.39481639	      0.09055999	    -23.54235819	      4.07393211	      0.83186078	     44.35493258	      6.85495975	      7.42043972	     16.65997367	      0.22111201	     19.41161315	     21.20462646	     88.80656673
     21.14000000	      6.72454662	   -178.09484060	      8.42661892	      0.05591679	      1.39489156	      0.09082017	    -23.74603090	      3.94156370	      2.55429201	     44.45758327	      5.89482761	      6.34848764	     18.38707595	      0.26902052	     21.03194337	     21.09553173	     83.18811063
     21.15000000	      6.72306969	   -178.08066779	      8.40167747	      0.05590781	      1.39504670	      0.09089720	    -23.73476690	      3.91601537	      2.54837533	     44.47032908	      5.87109550	      6.36338633	     18.39223258	      0.25020982	     21.03692967	     21.10987697	     83.18906549
     21.16000000	      6.72244754	   -178.06544569	      8.38170279	      0.05588628	      1.39519296	      0.09096431	    -23.72208289	      3.89395213	      2.54456769	     44.48466061	      5.85045638	      6.37829464	     18.39865742	      0.23130110	     21.04319146	     21.12712572	     83.19031219
     21.17000000	      6.74378198	   -178.01024773	      8.43589617	      0.05600031	      1.39504638	      0.09093428	    -23.67048536	      3.91971045	      2.56706871	     44.58264327	      5.85809396	      6.39213010	     18.45785887	      0.15669990	     21.10133909	     21.28028450	     83.20422757
     21.18000000	      6.74007276	   -178.00229814	      8.41443961	      0.05597101	      1.39519090	      0.09102336	    -23.66554259	      3.89460722	      2.56731547	     44.59186898	      5.84231198	      6.40762129	     18.46295893	      0.14295187	     21.10633918	     21.29648950	     83.20513358
     21.19000000	      6.73701057	   -177.99286034	      8.39808451	      0.05594411	      1.39530996	      0.09108970	    -23.65909780	      3.87290783	      2.57060004	     44.60250515	      5.83064944	      6.42337377	     18.46900029	      0.13028968	     21.11228571	     21.31498776	     83.20625381
     21.20000000	      6.73539413	   -177.98157774	      8.38607341	      0.05591075	      1.39541035	      0.09113428	    -23.65115345	      3.85308338	      2.57734396	     44.61600639	      5.82291366	      6.44003537	     18.47704504	      0.11717893	     21.12022900	     21.33864158	     83.20780146
     21.21000000	      6.82240970	   -177.96279452	      8.46151830	      0.05607111	      1.39522147	      0.09122976	    -23.65382515	      3.84289676	      2.66041899	     44.74326106	      5.91378180	      6.45331160	     18.58159914	      0.02437867	     21.22395719	     21.60619853	     83.23017525
     21.22000000	      6.81452100	   -177.96106564	      8.44414983	      0.05602635	      1.39531535	      0.09131334	    -23.65846444	      3.81870485	      2.66854660	     44.74648973	      5.91051096	      6.46668139	     18.58463630	      0.02185181	     21.22697757	     21.61807052	     83.23059857
     21.23000000	      6.81237492	   -177.95906400	      8.44160229	      0.05609072	      1.39534629	      0.09145161	    -23.65758713	      3.81463197	      2.67086597	     44.74728441	      5.90986500	      6.47049023	     18.58505617	      0.02175388	     21.22739492	     21.62009379	     83.23064297
     21.24000000	      6.80271870	   -177.94720643	      8.42543256	      0.05603758	      1.39547703	      0.09146770	    -23.65258182	      3.78905029	      2.68351654	     44.75494605	      5.90565776	      6.49209207	     18.58836509	      0.01918365	     21.23068841	     21.63392345	     83.23103394
     21.25000000	      6.80051274	   -177.94470187	      8.42401697	      0.05605860	      1.39549363	      0.09158610	    -23.65141254	      3.78569025	      2.68677033	     44.75586676	      5.90627947	      6.49597048	     18.58873763	      0.01988992	     21.23105870	     21.63594282	     83.23106376
