Simulation
nRows=101
nColumns=15
endheader
time  TH_x TH_y TH_z SC_y  SC_z  SC_x  AC_y  AC_z  AC_x  GH_y  GH_z  GH_yy  EL_x  PS_y
0.0  0.000000  0.000000  0.000000  -22.215639730007354  -0.15599083945377237  -12.199567818635941  59.830624070427895  14.056392089691336  -0.6686390941484657  6.665417202156081  18.20100819390958  25.013865839344614  32.225720394988  120.000000
0.025  0.000000  0.000000  0.000000  -22.218707975225673  0.01293153704762537  -11.864180259281266  59.66773794057608  14.174052308382915  -0.8959694151811461  6.88728177429243  18.435518317599854  24.35788139661097  31.93062413434295  120.000000
0.05  0.000000  0.000000  0.000000  -22.227036281738123  0.09082986780935687  -11.600818653841767  59.56709119517393  14.235526241422871  -1.0720265818534305  7.14482378838524  18.602578641406314  23.707078137510745  31.680541949220686  120.000000
0.07500000000000001  0.000000  0.000000  0.000000  -22.262452557520003  0.11635135216221887  -11.392075113526683  59.52737652813257  14.276373833577338  -1.203011433359484  7.429453369920796  18.721119095998326  23.041910862645455  31.477676082113152  120.000000
0.1  0.000000  0.000000  0.000000  -22.333729675325227  0.12069750925545174  -11.221843975770787  59.54637239879206  14.325667546148967  -1.2947900850769993  7.7307793670153835  18.81432943431735  22.34408969258245  31.322914866345496  120.000000
0.125  0.000000  0.000000  0.000000  -22.44324532877012  0.12729617144807237  -11.074004682824865  59.61976856412642  14.404361237570836  -1.352703259098487  8.034944117909093  18.91190943230804  21.59932537138833  31.207023390698055  120.000000
0.15000000000000002  0.000000  0.000000  0.000000  -22.5888838044822  0.15049470723402375  -10.936194788280156  59.73556584149655  14.52661940687565  -1.3805822554975218  8.325564409666953  19.04149154966267  20.801996801589524  31.12085999328015  120.000000
0.17500000000000002  0.000000  0.000000  0.000000  -22.765671786541937  0.19901430829552336  -10.801718069053306  59.880431910816455  14.698657073863995  -1.3799921189502649  8.58704658143086  19.225525412623412  19.9554146227798  31.05506650091139  120.000000
0.2  0.000000  0.000000  0.000000  -22.96810001187533  0.2765177642788135  -10.668624336507046  60.04522990153483  14.923381840163813  -1.352257228115944  8.803582061137973  19.47921362054371  19.068112901229842  31.003524991358784  120.000000
0.225  0.000000  0.000000  0.000000  -23.193566381513325  0.380950696405402  -10.536921716943988  60.225973124946485  15.204245517561123  -1.2999405516479503  8.961923301944719  19.813266856394666  18.15422454917009  30.963409182150357  120.000000
0.25  0.000000  0.000000  0.000000  -23.438621118511325  0.509758694941818  -10.407291651842842  60.421066987244615  15.543956726563893  -1.2237207114085809  9.049332661187755  20.23281714375463  17.228152515684023  30.934199891309127  120.000000
0.275  0.000000  0.000000  0.000000  -23.701001061921986  0.6604716118105648  -10.280706862443443  60.63150856345174  15.94533416447991  -1.1234529561526838  9.054340828686104  20.73871769665315  16.302899928416803  30.91689074513468  120.000000
0.30000000000000004  0.000000  0.000000  0.000000  -23.981339549392775  0.8294159513341953  -10.158182131171571  60.86050630393462  16.411870259494226  -0.9988824695072382  8.966920768361291  21.328650321540543  15.388325030717791  30.911979661711214  120.000000
0.325  0.000000  0.000000  0.000000  -24.28172316900994  1.0116876426183545  -10.041180165389756  61.112539444247695  16.94691127836094  -0.8498957963789003  8.778329928634744  21.998562335351142  14.489105335431987  30.918394080392172  120.000000
0.35000000000000003  0.000000  0.000000  0.000000  -24.605208001156154  1.201551455490757  -9.931460517866203  61.392816141333256  17.553564042033692  -0.6770713561911702  8.482674317610465  22.743649337609693  13.60543081947259  30.933315091128904  120.000000
0.375  0.000000  0.000000  0.000000  -24.95412608722222  1.3932788484687284  -9.831181339870085  61.704963289924926  18.233809311160506  -0.48147479823905037  8.078061262082038  23.559263337678747  12.734168152609822  30.95246831100444  120.000000
0.4  0.000000  0.000000  0.000000  -25.32898321838614  1.5816430682571296  -9.742869631501396  62.05009718560175  18.988189978154256  -0.26505451392601875  7.567816622728496  24.44149073724787  11.870281452663868  30.97026268218449  120.000000
0.42500000000000004  0.000000  0.000000  0.000000  -25.72752074342544  1.7624518178436228  -9.669400247805187  62.42544580542512  19.815110388598733  -0.030259627763197457  6.961136444616246  25.387738949445904  11.008663057583375  30.980139981574396  120.000000
0.45  0.000000  0.000000  0.000000  -26.144498543358008  1.9327706607800916  -9.61380011971176  62.824608327146926  20.710633532739855  0.22013057099595804  6.272918979426211  26.396687295533358  10.144969821389576  30.974858926036358  120.000000
0.47500000000000003  0.000000  0.000000  0.000000  -26.572280301246163  2.090827233899717  -9.578999505369081  63.23847222295195  21.668349915785317  0.48357538534859656  5.522177123446778  27.467985533006985  9.27594957298562  30.94707081151113  120.000000
0.5  0.000000  0.000000  0.000000  -27.001975648351664  2.235835586825747  -9.56763336626053  63.65702341723961  22.679484763517348  0.7581623038015798  4.729612107984566  28.601597399474716  8.39852388971885  30.890222163865683  120.000000
0.525  0.000000  0.000000  0.000000  -27.424653632337535  2.3679421744650706  -9.581847144331842  64.07044912309827  23.733187334934467  1.0428820522782383  3.915370645639377  29.797162865137157  7.510262674351043  30.799870209822828  120.000000
0.55  0.000000  0.000000  0.000000  -27.832189691134847  2.488413361346527  -9.623244462215295  64.46930519304551  24.817170232183926  1.3377259019405567  3.0973941526519124  31.053132001561114  6.610245661775142  30.675083068311437  120.000000
0.5750000000000001  0.000000  0.000000  0.000000  -28.218092291179893  2.5996219596283043  -9.693109006328823  64.84466525269185  25.918519996528254  1.6437330016771865  2.2896444851469226  32.36626054337565  5.699436364973293  30.519091323071244  120.000000
0.6000000000000001  0.000000  0.000000  0.000000  -28.578170084345544  2.7048570633193565  -9.79255177567374  65.18830707771491  27.02467862200097  1.9626419525629195  1.501596604235016  33.731599089182986  4.780740004464383  30.338583744936916  120.000000
0.625  0.000000  0.000000  0.000000  -28.910609025020086  2.8079938133068443  -9.922131687978778  65.49291630641497  28.124297372941882  2.2963020388784776  0.7387839649392196  35.14255014822489  3.8596161752391773  30.142047668851106  120.000000
0.65  0.000000  0.000000  0.000000  -29.21569192661564  2.9127531727148672  -10.081320605343638  65.75260210232047  29.207774982743846  2.6462216698657555  0.004012216948045844  36.59098851805232  2.9436168662020736  29.93769205655739  120.000000
0.675  0.000000  0.000000  0.000000  -29.49556545919129  3.0221369797857243  -10.268329878916974  65.96378304813014  30.267600023064563  3.0134135275313074  -0.7013227031452923  38.06758822571548  2.04135251956678  29.731566269666413  120.000000
0.7000000000000001  0.000000  0.000000  0.000000  -29.7540158539974  3.1384285228043387  -10.480087759571475  66.12548187316968  31.29835791941092  3.3983012654254106  -1.37576463534573  39.562214362038844  1.1614978458789795  29.526521592375552  120.000000
0.7250000000000001  0.000000  0.000000  0.000000  -29.996065396780413  3.263151640779297  -10.712230735868836  66.23917963234668  32.29633000104919  3.800529022007246  -2.017259069613005  41.06433804397023  0.3119858685657738  29.32209960445226  120.000000
0.75  0.000000  0.000000  0.000000  -30.227287718344225  3.3969781840219464  -10.959376246613292  66.30812036531539  33.25884606288586  4.218755496415492  -2.623034165713604  42.56362713209487  -0.5006940773931302  29.115208087817525  120.000000
0.775  0.000000  0.000000  0.000000  -30.452994902775526  3.539704166084835  -11.215343056129457  66.33681204514815  34.18345749854332  4.65046990427596  -3.1901696002402686  44.050500819995854  -1.272017325494987  28.90127385303148  120.000000
0.8  0.000000  0.000000  0.000000  -30.677390016937306  3.6902053539500623  -11.473660552592325  66.33079497449948  35.06753851248969  5.091973807395742  -3.7162772499829506  45.51664198247077  -2.000218197373383  28.675123657436128  120.000000
0.8250000000000001  0.000000  0.000000  0.000000  -30.902893779422417  3.846364683585756  -11.728476789286312  66.29656800203841  35.90866692209902  5.538570045740811  -4.200387464338667  46.95525385969301  -2.6867874700170002  28.43172045505629  120.000000
0.8500000000000001  0.000000  0.000000  0.000000  -31.13007439493298  4.0052470675299  -11.974864005417075  66.24135956927972  36.704772771763295  5.984876741760959  -4.643234614389775  48.36096780758304  -3.336280989615632  28.16677289644477  120.000000
0.875  0.000000  0.000000  0.000000  -31.35803054871958  4.163613193113172  -12.208553361503553  66.17287624738714  37.45405138702329  6.42516715732021  -5.047069525665625  49.72940253270903  -3.9553988672361076  27.87720017030334  120.000000
0.9  0.000000  0.000000  0.000000  -31.585035175729082  4.318525176209822  -12.425437417942323  66.0987702049447  38.15488338552927  6.85386798440242  -5.4151181274784275  51.056562194704995  -4.551756116867618  27.561721610469984  120.000000
0.925  0.000000  0.000000  0.000000  -31.809299010914533  4.4679294905529465  -12.621060147995097  66.02617549273897  38.80587291921194  7.266048083816115  -5.75103631290071  52.33824582937825  -5.1326414443144905  27.22144615338281  120.000000
0.9500000000000001  0.000000  0.000000  0.000000  -32.02946906787469  4.6109634640428645  -12.79040532727284  65.96119073748703  39.40615867050534  7.657869338867493  -6.058475708901033  53.56954285416253  -5.704154579062942  26.860257122885272  120.000000
0.9750000000000001  0.000000  0.000000  0.000000  -32.244875190069635  4.7478353219406655  -12.927984463243842  65.90881918490165  39.95558852060711  8.026770092554898  -6.341020987861688  54.74469961808703  -6.270955884104432  26.484688814960762  120.000000
1.0  0.000000  0.000000  0.000000  -32.455627006818965  4.879563616641699  -13.028097667221301  65.87306536920264  40.454450859798456  8.371385299580973  -6.602108108647561  55.85741179177354  -6.836569919229755  26.10326710811859  120.000000
1.0250000000000001  0.000000  0.000000  0.000000  -32.6626244148191  5.007708524749831  -13.085216378923965  65.85729661207067  40.90299849728427  8.691218591787361  -6.845081669439416  56.90146396839877  -7.404021703232388  25.7254651157856  120.000000
1.05  0.000000  0.000000  0.000000  -32.86750441448863  5.133983638933491  -13.094300200734246  65.86464034654881  41.301106900572215  8.986184724786261  -7.072978906471759  57.87156480430585  -7.976593805637339  25.360669404843772  120.000000
1.075  0.000000  0.000000  0.000000  -33.072336791095935  5.259920802937001  -13.050857304079639  65.8982378569504  41.648092535128086  9.256042970261277  -7.288282956887091  58.764059357199855  -8.558091686980088  25.017614325467168  120.000000
1.1  0.000000  0.000000  0.000000  -33.27940009825553  5.386758652862696  -12.9511437110202  65.96138493476552  41.94271755502426  9.500209006982912  -7.49299549880688  59.57721429600521  -9.152740130966448  24.703611797061445  120.000000
1.125  0.000000  0.000000  0.000000  -33.491011943636956  5.5152762166168365  -12.792749968546492  66.05697830406301  42.18353484266182  9.717841835482002  -7.68874216886939  60.311032158793104  -9.764839236275195  24.42400236366978  120.000000
1.1500000000000001  0.000000  0.000000  0.000000  -33.70915951192258  5.645535973073052  -12.574819456861505  66.1864350730474  42.36922573868802  9.907766586782724  -7.87657315555977  60.96679033754395  -10.397497299296614  24.18224831909118  120.000000
1.175  0.000000  0.000000  0.000000  -33.935055868305014  5.776804215300411  -12.298002102380051  66.348918746401  42.49889014596969  10.068579209409117  -8.056541050702485  61.54661136736387  -11.050951326503405  23.97993625138588  120.000000
1.2000000000000002  0.000000  0.000000  0.000000  -34.168728995859226  5.907560613034986  -11.964511878221055  66.54071239344341  42.57247089644075  10.198917996070199  -8.227136610947914  62.05312474470548  -11.720981239708228  23.816799395956888  120.000000
1.225  0.000000  0.000000  0.000000  -34.408852768330625  6.035650889277059  -11.578251996415892  66.7549382925544  42.59108622952133  10.297815231852455  -8.384886034790286  62.489310399594565  -12.397639108353308  23.690819089696344  120.000000
1.25  0.000000  0.000000  0.000000  -34.652900330842755  6.158919384675722  -11.145037709920064  66.98202350655873  42.55730265718885  10.365461461114567  -8.524655329102151  62.858180682311115  -13.065627889820108  23.59843755946726  120.000000
1.2750000000000001  0.000000  0.000000  0.000000  -34.897322448851426  6.275817310570202  -10.672772555884334  67.21074856379232  42.47534417940094  10.403868979173687  -8.640725932089495  63.162501191018244  -13.706089217358521  23.534979939933898  120.000000
1.3  0.000000  0.000000  0.000000  -35.137944106866264  6.387067240454505  -10.17171915355336  67.42951240711594  42.35076086865485  10.418344640248774  -8.72842221525436  63.40435915580557  -14.29908849970606  23.494565919841815  120.000000
1.3250000000000002  0.000000  0.000000  0.000000  -35.370183648399  6.496733013668228  -9.654657500024978  67.62751077010526  42.18960156633981  10.418345000765392  -8.785850339252022  63.585036930060355  -14.826513255859924  23.470329379650224  120.000000
1.35  0.000000  0.000000  0.000000  -35.588240207660284  6.605936611330642  -9.134531538452293  67.79756591931962  41.99706575657398  10.408883923167316  -8.813253779611545  63.70768976507293  -15.274448456290243  23.45569084325588  120.000000
1.375  0.000000  0.000000  0.000000  -35.78479314587204  6.707346956951386  -8.6224044392382  67.93834402033588  41.77664686142133  10.382921226771202  -8.811149344598753  63.77957156813905  -15.634306544934049  23.445249151818608  120.000000
1.4000000000000001  0.000000  0.000000  0.000000  -35.952410867445714  6.791475622264942  -8.129132267074965  68.05204581795827  41.53085296344055  10.32977963837439  -8.780937766424978  63.80890269276227  -15.902798358239341  23.43456535189794  120.000000
1.425  0.000000  0.000000  0.000000  -36.08489310611408  6.852951692564544  -7.666268646592333  68.14152957270183  41.26210000781627  10.243551182555612  -8.725380892004173  63.80153078858129  -16.0813309901835  23.419669586993813  120.000000
1.4500000000000002  0.000000  0.000000  0.000000  -36.178014945835095  6.889346610186451  -7.244624235137802  68.20965063993296  40.97350046431568  10.122019638212862  -8.64719536977205  63.76021848995785  -16.17553866247193  23.397755225314  120.000000
1.475  0.000000  0.000000  0.000000  -36.23010339831889  6.899591339327353  -6.873060458274494  68.25885868434034  40.66941385313558  9.965234658418703  -8.548037579063443  63.684015684987806  -16.194889718213854  23.368264373380743  120.000000
1.5  0.000000  0.000000  0.000000  -36.24204026202282  6.883402547865867  -6.557914104488163  68.29106612713451  40.355353432114725  9.774925244342873  -8.428226561794233  63.56812181062436  -16.151979645412883  23.332989831116315  120.000000
1.5250000000000001  0.000000  0.000000  0.000000  -36.216830713844544  6.840845272235849  -6.3029258313713425  68.30788398337509  40.03757250382702  9.553871921591393  -8.286800079076572  63.404608655388216  -16.061116841023768  23.295716870379945  120.000000
1.55  0.000000  0.000000  0.000000  -36.15891545728045  6.772409840712142  -6.1096938140520765  68.31093645863645  39.72231455023127  9.305637474711352  -8.12179007122329  63.18381709065885  -15.9363599441954  23.261504780033803  120.000000
1.5750000000000002  0.000000  0.000000  0.000000  -36.07342871234107  6.679094182534249  -5.978220987123132  68.30217664404299  39.415146290515864  9.03437533218183  -7.930585441521542  62.895844109959434  -15.789436203446098  23.235814820139257  120.000000
1.6  0.000000  0.000000  0.000000  -35.96563317213369  6.562555986217176  -5.907535429045228  68.28404803960612  39.12046331058876  8.744721683573184  -7.710285431969881  62.53190345173671  -15.62802127628648  23.22372572469481  120.000000
1.625  0.000000  0.000000  0.000000  -35.84053187494698  6.425109473268303  -5.896176217414073  68.25950117371616  38.84125948212637  8.441668920569775  -7.458075150699751  62.08530222537114  -15.454863066735694  23.22930491786607  120.000000
1.6500000000000001  0.000000  0.000000  0.000000  -35.70255093919131  6.269407688952211  -5.942567764903377  68.23189502651606  38.579221674210544  8.130244064248846  -7.17168035555341  61.551921934601744  -15.268321408805354  23.255260325292948  120.000000
1.675  0.000000  0.000000  0.000000  -35.55538755967861  6.098016315732677  -6.045317657667228  68.20483114441508  38.33491714774634  7.815101388111035  -6.849875062902019  60.9303602307387  -15.063968424928811  23.3026772034467  120.000000
1.7000000000000002  0.000000  0.000000  0.000000  -35.40190393658375  5.912918284903436  -6.203495289721704  68.18184115496591  38.10794965627066  7.500006075393426  -6.492938982205763  60.22196311907032  -14.83662105865484  23.370786937974252  120.000000
1.725  0.000000  0.000000  0.000000  -35.244048806643136  5.715147204532397  -6.41684548014543  68.16611107420175  37.89696623374084  7.187466354153607  -6.102917922697158  59.43090084439361  -14.582258470740731  23.456719776437396  120.000000
1.75  0.000000  0.000000  0.000000  -35.0827538189586  5.504611509383309  -6.685682292759376  68.16039707446122  37.69967792359146  6.878688127209093  -5.683348765992386  58.56427183249939  -14.299086632425208  23.55549098702274  120.000000
1.7750000000000001  0.000000  0.000000  0.000000  -34.91768259041995  5.280160439389215  -7.010616276836634  68.16682277160668  37.51327541157287  6.573770914177294  -5.238644829761324  57.63187034181116  -13.987368094339814  23.660658990440258  120.000000
1.8  0.000000  0.000000  0.000000  -34.747409250154085  5.040068083579143  -7.392341743293666  68.18666890610194  37.33480920115395  6.272474012560512  -4.773845491764676  56.64543774269851  -13.648164041830471  23.764810803018662  120.000000
1.8250000000000002  0.000000  0.000000  0.000000  -34.56991861739408  4.782632467029921  -7.8315057486977775  68.21945746860058  37.16129597425287  5.97497563478852  -4.294081464290455  55.61762433944253  -13.281823969139017  23.86003445292359  120.000000
1.85  0.000000  0.000000  0.000000  -34.3829776738573  4.506664940747618  -8.328356522952859  68.26179435846291  36.98992191928697  5.682250619913145  -3.80382236408782  54.56087220555891  -12.886162071581873  23.938950338935754  120.000000
1.875  0.000000  0.000000  0.000000  -34.18444435168287  4.212015302047678  -8.882412883123775  68.30682631567258  36.81831062659958  5.396478540553568  -3.306104957655502  53.48660085310472  -12.455237383754827  23.99544781616437  120.000000
1.9000000000000001  0.000000  0.000000  0.000000  -33.972467228878365  3.8997926550228095  -9.492200136558894  68.34452427131762  36.64483173192275  5.121180325778207  -2.802121534011797  52.40458274504331  -11.97959857611668  24.025178399881447  120.000000
1.925  0.000000  0.000000  0.000000  -33.74563384511531  3.572424852120595  -10.155190768106225  68.36287113080151  36.46861169730448  4.8610457883224285  -2.2913005107567437  51.32276334516438  -11.447998317426718  24.025833000139187  120.000000
1.9500000000000002  0.000000  0.000000  0.000000  -33.50309684973182  3.233478857002236  -10.867762230723667  68.34974898406153  36.289421619247186  4.62161907525247  -1.7718999378527307  50.24701132437356  -10.850352089030245  23.99715797701978  120.000000
1.975  0.000000  0.000000  0.000000  -33.244929482443276  2.886994231674776  -11.625234344056313  68.2950917042888  36.10752399446589  4.408693257339359  -1.2421182832912634  49.18127302987933  -10.181184236221528  23.94090628899396  120.000000
2.0  0.000000  0.000000  0.000000  -32.97306867337959  2.5373653219082613  -12.421868271345375  68.19246211014224  35.923760770068164  4.2278532182015685  -0.7011915878705717  48.12774869858931  -9.442292247225827  23.860953935564854  120.000000
2.025  0.000000  0.000000  0.000000  -32.6916567613009  2.1890282852402794  -13.250492884843846  68.04008327117783  35.739425331896854  4.083371508550131  -0.15020668903760412  47.087228657270614  -8.6436576584389  23.763096357655314  120.000000
2.0500000000000003  0.000000  0.000000  0.000000  -32.406202052524485  1.8456921849574563  -14.102436871029688  67.84059791273604  35.55572300842337  3.977480803980054  0.4079561883935452  46.05975350922118  -7.801839223806285  23.654342419664687  120.000000
2.075  0.000000  0.000000  0.000000  -32.12243189658416  1.5103391539696491  -14.968255397679808  67.59968292857337  35.37318212595406  3.910482166535408  0.9696257611896408  45.04550337855819  -6.936522852471722  23.542247912976332  120.000000
2.1  0.000000  0.000000  0.000000  -31.84536052786868  1.1854309489079669  -15.838540897119103  67.32430473395038  35.19132259349147  3.881227523901332  1.5312556340799242  44.04578593327376  -6.066181104131241  23.434303669311603  120.000000
2.125  0.000000  0.000000  0.000000  -31.578343616105272  0.8730414648290423  -16.70462921234407  67.0207899687498  35.00868244379262  3.8875439049370883  2.090251198919087  43.0638275019011  -5.204542838869532  23.337195011816874  120.000000
2.15  0.000000  0.000000  0.000000  -31.32243422569311  0.5750300880013659  -17.558978858272177  66.693387283361  34.82310442616858  3.926721075487145  2.6451210032128456  42.10499701721648  -4.3584048730281895  23.256288348144324  120.000000
2.1750000000000003  0.000000  0.000000  0.000000  -31.076337173665944  0.2931072109137445  -18.395195530399118  66.34376495212572  34.63216092481164  3.995730063794151  3.1953550255924505  41.17656371538253  -3.5281858362183725  23.19543034230406  120.000000
2.2  0.000000  0.000000  0.000000  -30.836968720780845  0.028971271333302333  -19.20751919471374  65.97159243767597  34.4337263315204  4.091299557169653  3.740780628528364  40.28671892150998  -2.7101058501946946  23.156992526076362  120.000000
2.225  0.000000  0.000000  0.000000  -30.600224768573483  -0.21561302554992157  -19.989995252749573  65.57568809713277  34.22627580669298  4.209652429233633  4.281148696400376  39.443518341360374  -1.899636940604725  23.14194944443662  120.000000
2.25  0.000000  0.000000  0.000000  -30.36203582017956  -0.4387958894004183  -20.73519465900794  65.15567466013025  34.00937413093892  4.346036045950434  4.815860000295881  38.65311950253873  -1.0942071752718576  23.149772729259514  120.000000
2.275  0.000000  0.000000  0.000000  -30.11911239674658  -0.63845959100368  -21.433106323594032  64.71332866072714  33.78371756140916  4.493966065195005  5.3443988217222165  37.918019434498405  -0.2953149752007542  23.178926959625326  120.000000
2.3000000000000003  0.000000  0.000000  0.000000  -29.86946126130247  -0.8123818012341248  -22.06971251709256  64.25417411698544  33.55110579425165  4.643991910126974  5.867334769038432  37.234081762465514  0.4918071544767746  23.22736140616824  120.000000
2.325  0.000000  0.000000  0.000000  -29.611618795803512  -0.9589391077361898  -22.626938859047158  63.787556998140985  33.31312326556667  4.782919744386091  6.387982590314432  36.58797984566694  1.2599123023387067  23.294148694112355  120.000000
2.35  0.000000  0.000000  0.000000  -29.344182141997592  -1.0785359733286661  -23.08373270976526  63.3270390845858  33.06915086114956  4.893474591714199  6.913948929854747  35.954005658150656  2.0027176574921435  23.380637196548214  120.000000
2.375  0.000000  0.000000  0.000000  -29.06428447050819  -1.175652857609414  -23.42115175155451  62.888249205734795  32.8123535360063  4.95571958464486  7.458102449480376  35.294274857294425  2.7183239826215146  23.49171649428519  120.000000
2.4000000000000004  0.000000  0.000000  0.000000  -28.76802459780494  -1.260722519176005  -23.628399084219748  62.4875693790572  32.52575570332717  4.950319822192154  8.037336563145738  34.558590935103894  3.410638857302468  23.637088416761006  120.000000
2.4250000000000003  0.000000  0.000000  0.000000  -28.449619160282314  -1.3543643860002967  -23.713868928728676  62.13926871421226  32.1774977492787  4.862187275340498  8.66996777852125  33.69566257334589  4.08969356903899  23.827047683684405  120.000000
2.45  0.000000  0.000000  0.000000  -28.099809363740835  -1.4857477182061547  -23.71386910385026  61.849274027542116  31.726136437973462  4.689634108383185  9.368210467987232  32.657941320120145  4.768032138288499  24.07227201693459  120.000000
2.475  0.000000  0.000000  0.000000  -27.71918214278146  -1.6895162189400859  -23.689855667570217  61.61921951779025  31.12137649493248  4.447094582379857  10.136389950947095  31.42041776297149  5.45669315816013  24.376916387824448  120.000000
2.5  0.000000  0.000000  0.000000  -27.303539198581213  -2.006415537197255  -23.71386910926418  61.43367115522046  30.325363092288168  4.1616073068518915  10.961676358245832  29.977940582832144  6.1608676354837275  24.73049600125057  120.000000
