Simulation
nRows=62
nColumns=15
endheader
time  TH_x TH_y TH_z SC_y  SC_z  SC_x  AC_y  AC_z  AC_x  GH_y  GH_z  GH_yy  EL_x  PS_y
0.0  0.000000  0.000000  0.000000  -22.99364430960932  -1.2606415504210393  -10.41024338347283  60.177745213841426  12.67826642762162  -2.379142697160904  6.322767093553331  16.474003728359623  26.37747766266937  32.070185017076774  120.000000
0.040983606557377046  0.000000  0.000000  0.000000  -22.76609455655835  -0.7299403329295456  -10.525407525172557  60.05525731585996  13.389427981933936  -2.0353623364741567  6.807853747142436  17.260550401017333  24.89720227402983  31.766968387603253  120.000000
0.08196721311475409  0.000000  0.000000  0.000000  -22.630496581211357  -0.34170177836556737  -10.710577363391193  59.95926777690135  14.013517917995415  -1.7030786547868415  7.191104480502142  17.95488145521099  23.508479440936004  31.476934877955678  120.000000
0.12295081967213115  0.000000  0.000000  0.000000  -22.636309604877884  -0.05425056242726194  -10.941523601200728  59.91924673217398  14.614727228354267  -1.3679677020984675  7.525435857104826  18.58336483662935  22.126335236631856  31.22646047799521  120.000000
0.16393442622950818  0.000000  0.000000  0.000000  -22.77143334744678  0.17004551952074562  -11.19201087351198  59.96375230733613  15.251525250151438  -1.0350123051964644  7.804096198726671  19.17878673312141  20.7262691090454  31.027841484197317  120.000000
0.20491803278688522  0.000000  0.000000  0.000000  -23.028191792415384  0.374417566674284  -11.417514047148272  60.10929616700983  15.954551291931034  -0.7044968644300943  7.998423832477492  19.790888251669262  19.30756191612264  30.888615824282294  120.000000
0.2459016393442623  0.000000  0.000000  0.000000  -23.392267395043685  0.5908390137568713  -11.570325559158217  60.35704632642071  16.731276535629256  -0.37741579999332675  8.057899579433101  20.474400345709434  17.884129441786552  30.81132158795099  120.000000
0.28688524590163933  0.000000  0.000000  0.000000  -23.846791318781673  0.8367274747037351  -11.608306735855672  60.708967660855336  17.572855533828086  -0.06332912833006324  7.9351041020546855  21.28172062720259  16.471102037849402  30.788541398512468  120.000000
0.32786885245901637  0.000000  0.000000  0.000000  -24.382504992060902  1.1110665041035679  -11.496264465416862  61.16897503543838  18.461184153623726  0.2211545342362327  7.595670821679436  22.25633729714129  15.074949506838246  30.808571556339874  120.000000
0.3688524590163934  0.000000  0.000000  0.000000  -24.986933410594066  1.4042662739381735  -11.209032605161065  61.73355756062639  19.36836877639888  0.4598986842336256  7.036548335307031  23.427587857145024  13.677717966673619  30.850823295580877  120.000000
0.40983606557377045  0.000000  0.000000  0.000000  -25.64315196718813  1.7045178387198607  -10.732372511877  62.39186147341724  20.26310151011685  0.6398285487511768  6.285494822815083  24.808398464594994  12.248775139935145  30.888449196124206  120.000000
0.4508196721311475  0.000000  0.000000  0.000000  -26.330644546958222  1.9990805711099793  -10.064662261429918  63.12348482894788  21.114916594186294  0.7519292791195235  5.393908353952618  26.399170496115772  10.757403171626773  30.891859160630144  120.000000
0.4918032786885246  0.000000  0.000000  0.000000  -27.02523745352979  2.2790231677195547  -9.216282640569307  63.898333250614336  21.89608752701906  0.7944926492232224  4.424993325805346  28.188758773300915  9.18335246315789  30.831650252403023  120.000000
0.5327868852459016  0.000000  0.000000  0.000000  -27.703641928275943  2.5401156397372224  -8.208446153681455  64.68000362218143  22.583930470484027  0.7732925085787362  3.4380035361436057  30.157441496686484  7.526750382143314  30.688692983651627  120.000000
0.5737704918032787  0.000000  0.000000  0.000000  -28.34764141932704  2.783145384610386  -7.070290907445204  65.4301083311876  23.162299029422357  0.7005862474240957  2.4781107517000747  32.27811986570931  5.807583627038977  30.46235409760265  120.000000
0.6147540983606556  0.000000  0.000000  0.000000  -28.94637246189012  3.013275868746998  -5.835498662085835  66.11363468562155  23.621939371172417  0.5928717823246292  1.5717673639137486  34.51792187636759  4.061711139369683  30.17194084474884  120.000000
0.6557377049180327  0.000000  0.000000  0.000000  -29.496962286738768  3.238460143749202  -4.538387563525751  66.70312166752595  23.96076827398039  0.46785415633046207  0.7322254242001138  36.83989612683779  2.331646242086847  29.846634905651186  120.000000
0.6967213114754098  0.000000  0.000000  0.000000  -30.003447455851468  3.4670359916193285  -3.2105400268521347  67.1825488275445  24.183356605537845  0.34154880917540137  -0.03371352981671148  39.20498404145647  0.657055153349399  29.51012304014862  120.000000
0.7377049180327868  0.000000  0.000000  0.000000  -30.474703663191942  3.7055045439218  -1.8785455766248513  67.54809409380779  24.29988608872929  0.225965701668169  -0.720263732168049  41.574577107369045  -0.9309877229146525  29.16989056824285  120.000000
0.7786885245901639  0.000000  0.000000  0.000000  -30.92169335272873  3.9574611843147043  -0.5635296349142589  67.80762501743087  24.323992422557787  0.12912437313975814  -1.3232919935271625  43.91279611050198  -2.412701854617155  28.816265687200033  120.000000
0.8196721311475409  0.000000  0.000000  0.000000  -31.35403770170364  4.2227176561358455  0.7186411733481234  67.97780872738514  24.27081677480724  0.05501075787817695  -1.8411416617265868  46.1885865150379  -3.7821225634915674  28.43053600226762  120.000000
0.860655737704918  0.000000  0.000000  0.000000  -31.77755104929706  4.497392431040834  1.9570799286209286  68.08284332202669  24.155527726547756  0.004994545558636049  -2.278756083592027  48.37635314286044  -5.045469140716109  27.994179672853562  120.000000
0.901639344262295  0.000000  0.000000  0.000000  -32.19435016504649  4.775905464315427  3.1455506383084244  68.15098663694702  23.992268470535883  -0.019918452879492326  -2.647303050473219  50.45490863322613  -6.2188495658901095  27.4954986829352  120.000000
0.9426229508196721  0.000000  0.000000  0.000000  -32.604281236206326  5.052962022930658  4.282192553085955  68.20992258999563  23.79421791227033  -0.017791752079638096  -2.963087498554321  52.40515613852677  -7.3239030879633  26.936971062159206  120.000000
0.9836065573770492  0.000000  0.000000  0.000000  -33.00700518779601  5.324819113046958  5.368959348328716  68.28270771168519  23.57418082676248  0.01450708537605943  -3.2445544122638967  54.20835177435961  -8.383523613267105  26.33846133386836  120.000000
1.0245901639344261  0.000000  0.000000  0.000000  -33.40323796096069  5.589627509460019  6.410319418163557  68.38547152059218  23.34448885295931  0.08096218766907443  -3.509210579292093  55.84606869175906  -9.419396913557618  25.733851015910847  120.000000
1.0655737704918031  0.000000  0.000000  0.000000  -33.79478597578255  5.846593849580203  7.411219490953098  68.526565705996  23.11660420704213  0.18480304322898067  -3.7699650554122477  57.30205534432586  -10.45082994979769  25.162087843894604  120.000000
1.1065573770491803  0.000000  0.000000  0.000000  -34.183925518489424  6.094986059214397  8.374964957006156  68.70693565125511  22.90014093777208  0.3269465250094288  -4.0330336162215525  58.56487588731534  -11.492444542366703  24.65733959075556  120.000000
1.1475409836065573  0.000000  0.000000  0.000000  -34.57233897671676  6.3334617571201814  9.301747444244059  68.92020748529544  22.702246820931517  0.5042206028705223  -4.296895601765235  59.62948066351319  -12.550168578366552  24.24283818981225  120.000000
1.1885245901639343  0.000000  0.000000  0.000000  -34.959497954497465  6.559763808198566  10.187953933574207  69.1531812187931  22.527275227717602  0.7084346128384228  -4.553480933626252  60.49761852979612  -13.615311993595371  23.928818903509907  120.000000
1.2295081967213113  0.000000  0.000000  0.000000  -35.34122657909422  6.770620418060854  11.02610656555909  69.38730688069965  22.376421131941076  0.9262205336270777  -4.7899601543540316  61.17760954776652  -14.66049868885271  23.712816308002434  120.000000
1.2704918032786885  0.000000  0.000000  0.000000  -35.70899836956806  6.961928841837647  11.805080935020023  69.60199296120588  22.24706468676474  1.1401471500476008  -4.991820820937506  61.68380987367421  -15.640689203945836  23.58132866649224  120.000000
1.3114754098360655  0.000000  0.000000  0.000000  -36.05003599112795  7.129080553380674  12.510834963129906  69.77929553376369  22.132570066072013  1.3306848753250562  -5.146760016011868  62.0348214885139  -16.50174649673991  23.512889009743045  120.000000
1.3524590163934425  0.000000  0.000000  0.000000  -36.3480246380027  7.266683116246763  13.127521237262911  69.90900768162871  22.023038928488884  1.4786112763550834  -5.248515743873234  62.250817189349014  -17.193326772432588  23.482103975720968  120.000000
1.3934426229508197  0.000000  0.000000  0.000000  -36.58500602999064  7.368708139586046  13.639125178872957  69.99104771508534  21.906633243941023  1.5674890540450135  -5.297578269229829  62.35012023978581  -17.68080701678011  23.463922998541566  120.000000
1.4344262295081966  0.000000  0.000000  0.000000  -36.74480113852915  7.429472062079195  14.03158178013104  70.03397997297947  21.77169096115123  1.5855649351504233  -5.29852783502415  62.34471095297919  -17.95199682878658  23.43864620802415  120.000000
1.4754098360655736  0.000000  0.000000  0.000000  -36.81704892709915  7.444014226505993  14.295174504823434  70.05117004425476  21.60936579031693  1.5263603666405068  -5.255518541690118  62.23581377667355  -18.018116884858177  23.397169396827657  120.000000
1.5163934426229506  0.000000  0.000000  0.000000  -36.79989307283093  7.40809823092865  14.426169959536384  70.05705528707355  21.41550598421845  1.3885870118341157  -5.168922425923655  62.01189307800253  -17.90956480508596  23.343869620135038  120.000000
1.5573770491803278  0.000000  0.000000  0.000000  -36.69987961926637  7.31856890599772  14.42651309788206  70.06470992572963  21.19053438784767  1.1759737966952464  -5.0346515428130045  61.65149452431194  -17.66637567987292  23.294387207314266  120.000000
1.5983606557377048  0.000000  0.000000  0.000000  -36.52939377702988  7.173954255659291  14.301767724999966  70.08507299672347  20.937623683745414  0.8968814000331643  -4.8461611894862475  61.130023567369456  -17.325953751979476  23.269150156080883  120.000000
1.6393442622950818  0.000000  0.000000  0.000000  -36.30302803363093  6.974762176289638  14.058341011425505  70.1268176314594  20.660324131958134  0.5633668365613725  -4.597366635070669  60.427328283803604  -16.913706118126083  23.2860843011831  120.000000
1.680327868852459  0.000000  0.000000  0.000000  -36.034345231028546  6.72279777080002  13.701328187609953  70.19640271510715  20.360989317093622  0.18946961293190942  -4.285020538449561  59.53312888161254  -16.440154682891503  23.354916468662886  120.000000
1.721311475409836  0.000000  0.000000  0.000000  -35.73358941919487  6.4198461593376805  13.233365475698577  70.29756762028642  20.0401634659807  -0.21089999900441717  -3.909285839312487  58.44981230816389  -15.904425565946962  23.473264604537135  120.000000
1.762295081967213  0.000000  0.000000  0.000000  -35.40658667142644  6.066731263307418  12.654605508823337  70.43022731899696  19.696840050922386  -0.6254558279387807  -3.4730317568284192  57.19267016282289  -15.299504447333586  23.62475983518341  120.000000
1.80327868852459  0.000000  0.000000  0.000000  -35.05493687259189  5.66354132033573  11.963572538221019  70.58860779285149  19.32902480376827  -1.0439576961050807  -2.980939164604909  55.78822513593144  -14.615204891177846  23.781331304311156  120.000000
1.8442622950819672  0.000000  0.000000  0.000000  -34.67768491305199  5.211163939428864  11.158973681191203  70.75937718171845  18.934890966999337  -1.4573866281316836  -2.4393498781031657  54.27033222818257  -13.837684981340775  23.910492730566975  120.000000
1.8852459016393441  0.000000  0.000000  0.000000  -34.27340217160772  4.713215822033687  10.241954320082304  70.92076707279864  18.51434483042347  -1.8569483922510002  -1.856479281533101  52.675639855344336  -12.947950214160178  23.984559654094294  120.000000
1.9262295081967211  0.000000  0.000000  0.000000  -33.842060387691205  4.177269496112661  9.218295689734097  71.04481113971711  18.070720479975375  -2.2334534343780557  -1.2424103942894003  51.039273198431594  -11.924784920409035  23.98732598998599  120.000000
1.9672131147540983  0.000000  0.000000  0.000000  -33.38648000300441  3.614484253626364  8.099422667574784  71.1027052312628  17.61184193046922  -2.5773709980400348  -0.6074349818565875  49.39239832405861  -10.754411600095562  23.916028415496527  120.000000
2.0081967213114753  0.000000  0.000000  0.000000  -32.913038641138606  3.0379922666361443  6.902298724626825  71.07082203716058  17.150219155966685  -2.8799985146704543  0.04079839753650967  47.76121527553413  -9.442610353603209  23.78126470286489  120.000000
2.0491803278688523  0.000000  0.000000  0.000000  -32.431797728628304  2.461746835582373  5.64808229219811  70.93472979575188  16.701761627096815  -3.1346650792073296  0.6995356556841815  46.16732554587647  -8.020683330978002  23.605118540421184  120.000000
2.0901639344262293  0.000000  0.000000  0.000000  -31.955241466679464  1.899841096406748  4.360306225434442  70.68951856140762  16.28393244829533  -3.337871365060309  1.3721176583139598  44.62840843584789  -6.53864518575742  23.416319078806293  120.000000
2.1311475409836063  0.000000  0.000000  0.000000  -31.494144502816795  1.3655465007181657  3.0627010400278745  70.33714674069836  15.91430936535455  -3.490810473236285  2.0670258239763815  43.1581673099967  -5.049896959641809  23.244666035740867  120.000000
2.1721311475409832  0.000000  0.000000  0.000000  -31.053474328582272  0.8696887693366633  1.7783390181065992  69.88460933912738  15.610227801829982  -3.600302124223158  2.7950277562894974  41.76252643602584  -3.5941638240630702  23.115596587667522  120.000000
2.2131147540983607  0.000000  0.000000  0.000000  -30.63022052486136  0.4180051489378973  0.5280323517660362  69.3428204627855  15.38792920077234  -3.679816767193278  3.567650645952498  40.434443984757344  -2.192051467072523  23.047956781272873  120.000000
2.2540983606557377  0.000000  0.000000  0.000000  -30.215045145374667  0.007848214636590222  -0.671037152550668  68.72792775868419  15.261836221455928  -3.748926529862851  4.397095096435537  39.146060545348305  -0.8492390219757775  23.05186367721472  120.000000
2.2950819672131146  0.000000  0.000000  0.000000  -29.793875281071788  -0.3744729409336161  -1.8100385420926965  68.05969536066709  15.240371760457187  -3.831188906937984  5.296893696455381  37.84657967349989  0.43529780782693733  23.129861749831512  120.000000
2.3360655737704916  0.000000  0.000000  0.000000  -29.35317180511244  -0.7552647906814086  -2.894305527782548  67.36147222734986  15.32144373358081  -3.948597522788689  6.283817519985883  36.46289554393826  1.659449393032292  23.279128017194367  120.000000
2.3770491803278686  0.000000  0.000000  0.000000  -28.879110216556505  -1.1742363419188078  -3.951278471190421  66.65523320721682  15.482302980429111  -4.115921913273389  7.376421176763827  34.91595067104191  2.8167860554393043  23.489210670433856  120.000000
2.4180327868852456  0.000000  0.000000  0.000000  -28.361915284320098  -1.6782051348960223  -5.029603050511988  65.9527581812297  15.675503845096886  -4.333019317528906  8.592726952496568  33.13259895558914  3.8918976822450078  23.754225006869568  120.000000
2.4590163934426226  0.000000  0.000000  0.000000  -27.816388372924045  -2.3161549620057342  -6.1970380414577955  65.25499429105557  15.826886796318988  -4.579041644898193  9.955577542607289  31.080197915153665  4.8576725590633565  24.06657627071158  120.000000
2.5  0.000000  0.000000  0.000000  -27.23669190203182  -3.145504661973646  -7.527611002236255  64.54064917671361  15.876524204041935  -4.828861909238356  11.45009137827411  28.76073273258147  5.703980782203362  24.396359348705325  120.000000
