Simulation
nRows=101
nColumns=15
endheader
time  TH_x TH_y TH_z SC_y  SC_z  SC_x  AC_y  AC_z  AC_x  GH_y  GH_z  GH_yy  EL_x  PS_y
0.0  0.000000  0.000000  0.000000  -38.565286562338706  2.5138200729257436  1.4581419708819632  47.36489179589228  2.3099811362176954  0.8878114324578201  47.318268492608915  9.105714523397438  -23.74684752627068  23.52944525697795  120.000000
0.03099999999999998  0.000000  0.000000  0.000000  -38.37815269867274  2.732004840432282  1.5094685293429226  46.988023382573964  2.5058312095949047  0.8425163565940761  47.00998658740656  9.531979376472613  -23.726419699360143  23.48093652045053  120.000000
0.06199999999999996  0.000000  0.000000  0.000000  -38.1828573861273  2.851437659460557  1.5438464979705666  46.69277357143555  2.5893868297053078  0.8078132138484123  46.771265770300694  9.948130991770569  -23.65408915991925  23.37505369406962  120.000000
0.09299999999999994  0.000000  0.000000  0.000000  -38.007316511751284  2.9216380956769545  1.5665919880214207  46.49179480045088  2.5966385921913093  0.7715325060040866  46.60711473973201  10.380350586038745  -23.52825222053405  23.272717655347908  120.000000
0.12399999999999992  0.000000  0.000000  0.000000  -37.894207062363684  2.9700393674250942  1.585344788193205  46.372145607157584  2.56642787342632  0.7382382044540206  46.49461015032023  10.864116925996512  -23.37705242621713  23.197938623338075  120.000000
0.1549999999999999  0.000000  0.000000  0.000000  -37.869104293490906  3.0109921198724128  1.6111871591731604  46.315345267036896  2.531276873162211  0.720721685395634  46.40085928713067  11.43579971446911  -23.23790257180109  23.153247113087698  120.000000
0.1859999999999999  0.000000  0.000000  0.000000  -37.93684281474493  3.0538613375302006  1.6521765488024336  46.31253404646226  2.515590822435642  0.7304285040338733  46.29419159181079  12.127687676170641  -23.14465982832793  23.136994705910006  120.000000
0.21699999999999986  0.000000  0.000000  0.000000  -38.086552501525965  3.108435012365902  1.712679460540338  46.36179060083805  2.5369895851121873  0.7747181981605008  46.14896709269016  12.962264614729287  -23.121579933303316  23.14913731927795  120.000000
0.24799999999999983  0.000000  0.000000  0.000000  -38.30361016834343  3.1825924885136496  1.795578428575366  46.46016743840774  2.6072614706831274  0.8592290472176255  45.94560956022846  13.95044720798145  -23.18324100005509  23.192387613015388  120.000000
0.2789999999999998  0.000000  0.000000  0.000000  -38.57232985537408  3.282113733260785  1.9026087402182044  46.6029967591525  2.7330342706558293  0.9881688469467144  45.67056562025952  15.093128460051137  -23.335459104392957  23.27050369416801  120.000000
0.3099999999999998  0.000000  0.000000  0.000000  -38.87817416813543  3.4106508017042554  2.0340405142117706  46.7845235316352  2.916820723232762  1.1633825472086978  45.31593342142967  16.383609920145563  -23.576765390366518  23.38647073931621  120.000000
0.34099999999999975  0.000000  0.000000  0.000000  -39.2068614259703  3.571243505199588  2.1884647091343927  46.9972677109307  3.1573481419706777  1.384393540235106  44.87959726871319  17.809409822093286  -23.899187819170503  23.53964723994091  120.000000
0.3719999999999998  0.000000  0.000000  0.000000  -39.544027633329925  3.7666254455829864  2.363063310243341  47.23156920935808  3.450234883070337  1.6488952109587478  44.365078050011526  19.353897029213115  -24.28950797450232  23.72417466720729  120.000000
0.40299999999999975  0.000000  0.000000  0.000000  -39.8746489550825  3.998800425740807  2.55392041319645  47.47536315360284  3.7887181209548384  1.9530392271690233  43.78070750518109  20.997650098550192  -24.731055544955424  23.92795684236643  120.000000
0.4339999999999997  0.000000  0.000000  0.000000  -40.18412011213038  4.268538665373214  2.7567051598354197  47.71595738832624  4.164940356846534  2.2917173530836434  43.1384592854321  22.719611073984638  -25.206123866402173  24.13428225332516  120.000000
0.4649999999999997  0.000000  0.000000  0.000000  -40.46017502543629  4.574729555599406  2.967691969174017  47.94119838080285  4.57130075628431  2.6588973638817692  42.452868703460986  24.49787349937994  -25.697791225880113  24.32459600293708  120.000000
0.49599999999999966  0.000000  0.000000  0.000000  -40.69510852479919  4.914223144292313  3.1849187474494767  48.14127474107423  5.002432531109083  3.0476110023517533  41.74054150880546  26.309958533593058  -26.190916227770217  24.482526223602694  120.000000
0.5269999999999997  0.000000  0.000000  0.000000  -40.88787337924977  5.281984360613924  3.409120433543334  48.30925147204667  5.4564990020313555  3.4500221944057485  41.020033273263294  28.13317079983807  -26.672455041747362  24.597129543433237  120.000000
0.5579999999999996  0.000000  0.000000  0.000000  -41.045120433243525  5.671571756373931  3.6442058307862704  48.44130914596826  5.935781796521051  3.857668346417011  40.31160307607848  29.945091071051696  -27.132097140373816  24.664551475065696  120.000000
0.5889999999999996  0.000000  0.000000  0.000000  -41.18080694841546  6.076049723893281  3.8969886804186924  48.53622618054349  6.445652613235648  4.261974993500485  39.63687237194988  31.724746348840505  -27.563412194356577  24.68710652717335  120.000000
0.6199999999999996  0.000000  0.000000  0.000000  -41.314924820174994  6.4883095343346815  4.176584450737932  48.595131350853116  6.992498571672275  4.655420492739972  39.01756417564924  33.45408132878173  -27.966365145684865  24.670606110386977  120.000000
0.6509999999999996  0.000000  0.000000  0.000000  -41.47192067745609  6.90127919456528  4.4935183907657965  48.62170284751944  7.580923690982248  5.032773097281368  38.473881967294474  35.11963526564137  -28.350221517378262  24.62114074322061  120.000000
0.6819999999999995  0.000000  0.000000  0.000000  -41.67852107003973  7.30798802220662  4.858727653606537  48.623790982373585  8.211389839970076  5.391757256818181  38.02207859270295  36.713854609273476  -28.736108938408158  24.54218967635443  120.000000
0.7129999999999995  0.000000  0.000000  0.000000  -41.9609687932436  7.701424514134296  5.283379832118854  48.61334309321514  8.878861040337423  5.733345047111436  37.672587339440035  38.23476884414218  -29.155713294562965  24.433122165361596  120.000000
0.7439999999999996  0.000000  0.000000  0.000000  -42.34170831620454  8.07513331094124  5.779028017053868  48.605754631556586  9.573312420621773  6.060645118681399  37.42871832427107  39.684042351994535  -29.645147338212773  24.289701926043172  120.000000
0.7749999999999995  0.000000  0.000000  0.000000  -42.83538680427745  8.424250764055898  6.358007048312886  48.61709426813251  10.280937586111799  6.377000542269356  37.28604934685669  41.0637085126618  -30.234845326570824  24.10581248993232  120.000000
0.8059999999999995  0.000000  0.000000  0.000000  -43.446101910770146  8.746090529918915  7.033625315571282  48.66130330525065  10.985390675946185  6.684238199669649  37.23190647312989  42.373420652506184  -30.939182003010934  23.875831006729847  120.000000
0.8369999999999994  0.000000  0.000000  0.000000  -44.1659111592028  9.040610870978062  7.820055285649544  48.7474846619854  11.668204469344778  6.981464388790895  37.245418094346455  43.60886559316474  -31.748699817305557  23.59686881217078  120.000000
0.8679999999999994  0.000000  0.000000  0.000000  -44.976676180279796  9.309954158062057  8.731695132017895  48.879811237346495  12.308760411298454  7.264732811040205  37.2983038989248  44.76230464461662  -32.62899696240572  23.270473538293444  120.000000
0.8989999999999994  0.000000  0.000000  0.000000  -45.854555858062966  9.557347998782319  9.78240246929731  49.05944282037758  12.883822679583472  7.527653050080565  37.357073282006205  45.82455692664366  -33.52775229344446  22.903208972195806  120.000000
0.9299999999999994  0.000000  0.000000  0.000000  -46.776342406159614  9.785454653492485  10.984730380982532  49.28832401336175  13.367861112455477  7.762200311159014  37.38658529064074  46.78770037217512  -34.38789319666911  22.506057407598867  120.000000
0.9609999999999993  0.000000  0.000000  0.000000  -47.724487183502895  9.995537279514009  12.349678952697925  49.571395243518396  13.734101424761018  7.959441569243034  37.35475162092446  47.646810351174494  -35.16145884309655  22.092886387564185  120.000000
0.9919999999999993  0.000000  0.000000  0.000000  -48.69028221111303  10.187169703786171  13.886735250878887  49.9173248330809  13.956330794117967  8.10977895803626  37.237254676893265  48.400784577419834  -35.820488581722884  21.678422433870992  120.000000
1.0229999999999992  0.000000  0.000000  0.000000  -49.67354161115208  10.35851224733017  15.604140277894682  50.33627109315561  14.010491158802965  8.203385217822786  37.02115013572274  49.05207967078175  -36.361874251460605  21.276160708938765  120.000000
1.0539999999999994  0.000000  0.000000  0.000000  -50.67983864630197  10.506948305180348  17.508719407617363  50.83670516535293  13.87611675260318  8.230359074391734  36.70644100744367  49.60605935106091  -36.804956386554004  20.896674440527658  120.000000
1.0849999999999993  0.000000  0.000000  0.000000  -51.715279396995655  10.62975962188686  19.6049659672411  51.42105867590726  13.53735911900198  8.181437445217721  36.30526827211356  50.0700909708969  -37.18304010825104  20.546631845817448  120.000000
1.1159999999999992  0.000000  0.000000  0.000000  -52.781437857588806  10.724922599594967  21.89220275096165  52.08264847813165  12.983731474710119  8.048284017582587  35.83918043832023  50.452478842111745  -37.53221275587737  20.2284577684643  120.000000
1.1469999999999991  0.000000  0.000000  0.000000  -53.87006626159923  10.791520394857567  24.35969161611078  52.80367651112794  12.21135952736994  7.823867302750377  35.335137753644254  50.76116586704639  -37.88110988780883  19.94029373682035  120.000000
1.1779999999999993  0.000000  0.000000  0.000000  -54.96046115996955  10.830991480733967  26.9808049457601  53.55670611720861  11.224647447978645  7.50384466044495  34.82221728579215  51.00355335417825  -38.24442633890262  19.677110634665013  120.000000
1.2089999999999992  0.000000  0.000000  0.000000  -56.01841767161791  10.847187682990583  29.70950516640841  54.306710209050784  10.03828067838346  7.088770013237356  34.329096358933825  51.18673247739953  -38.62261184151696  19.432350767626225  120.000000
1.239999999999999  0.000000  0.000000  0.000000  -56.99945396798277  10.845448125604552  32.48059818176433  55.013918885155796  8.678679378518682  6.582350553438065  33.88179167936926  51.31719804706686  -39.00683126779896  19.20032613383233  120.000000
1.2709999999999992  0.000000  0.000000  0.000000  -57.8589549581973  10.831844251417946  35.21615997326934  55.64027881156962  7.183094877878031  5.9850086435366165  33.50290093839939  51.40083759077424  -39.385823855767214  18.979435049475  120.000000
1.3019999999999992  0.000000  0.000000  0.000000  -58.557616200743745  10.813448047653761  37.83766463502854  56.15275119661146  5.595669030829172  5.291024440987823  33.20963568639932  51.44251276212641  -39.75238806347926  18.77233805658419  120.000000
1.332999999999999  0.000000  0.000000  0.000000  -59.06405650873207  10.797028480612953  40.27690325504269  56.52417659293227  3.9614287313513725  4.491794941249797  33.01337978941929  51.44472907720299  -40.106169889369276  18.584502503863373  120.000000
1.363999999999999  0.000000  0.000000  0.000000  -59.3585141351347  10.788361429518323  42.48056057726381  56.73631332694849  2.3219542336845747  3.5787299702820468  32.920969152124314  51.406197248036264  -40.45323200049983  18.423095735193723  120.000000
1.3949999999999991  0.000000  0.000000  0.000000  -59.43508456623927  10.792234462074864  44.410990729287114  56.78071029533447  0.7117671352190224  2.5462257849749252  32.936995025892834  51.321075239803534  -40.803111841936136  18.296268969922625  120.000000
1.425999999999999  0.000000  0.000000  0.000000  -59.30024561616165  10.811709063145203  46.04559804163173  56.65797450018593  -0.842781529968301  1.394391547054951  33.06457741262733  51.17920929875039  -41.16617491496051  18.211938857503778  120.000000
1.456999999999999  0.000000  0.000000  0.000000  -58.96990731348376  10.84802627738682  47.376128287760345  56.3761938929301  -2.3231616454097184  0.13060200902959945  33.305299428722314  50.966556488226  -41.55130992937504  18.176481785153683  120.000000
1.487999999999999  0.000000  0.000000  0.000000  -58.467089015948616  10.899104611179842  48.407483274217896  55.950902140948855  -3.71773504454388  -1.2299855322367987  33.65810670547502  50.666064557013  -41.96447752682518  18.193538627496736  120.000000
1.518999999999999  0.000000  0.000000  0.000000  -57.82022607579848  10.958894618475158  49.15606941911821  55.405182290325335  -5.021120865872336  -2.665093103598121  34.117642625478744  50.25863315970089  -42.407565021168494  18.263220104777407  120.000000
1.549999999999999  0.000000  0.000000  0.000000  -57.06178970074233  11.017012995387491  49.64776438153266  54.76948457788005  -6.23401024977288  -4.146440603839189  34.672150796665605  49.72467482637576  -42.87743099894671  18.381841714474813  120.000000
1.5809999999999989  0.000000  0.000000  0.000000  -56.22652509752544  11.05938690942854  49.916008117934595  54.07995656562543  -7.362607023994139  -5.641978115257935  35.30206669650187  49.04545880782225  -43.36493573233608  18.54232548997008  120.000000
1.611999999999999  0.000000  0.000000  0.000000  -55.34933083796263  11.0693297336608  50.0000005211797  53.37595605674454  -8.417165349679214  -7.119264242728349  35.980261263558184  48.20371966058674  -43.853739006593706  18.734693471623412  120.000000
1.642999999999999  0.000000  0.000000  0.000000  -54.461892950361836  11.030876914351676  49.922914289946135  52.69434280966027  -9.402781781603776  -8.54299918982089  36.6740782818481  47.19194450250498  -44.319307518888564  18.94888133687016  120.000000
1.6739999999999988  0.000000  0.000000  0.000000  -53.588850348713926  10.932615083697817  49.670284586420365  52.06303898932789  -10.310417749513737  -9.871739964971217  37.34859331755573  46.02075797542122  -44.72837256705986  19.17737762919558  120.000000
1.7049999999999987  0.000000  0.000000  0.000000  -52.74563862872915  10.766851357855495  49.2092466017517  51.499497435972344  -11.122306050726076  -11.066359349097139  37.97059585454604  44.71117893274427  -45.04041519213274  19.413109152359603  120.000000
1.7359999999999989  0.000000  0.000000  0.000000  -51.93601763076567  10.529674516382967  48.50861259683175  51.00934307771013  -11.817833922411612  -12.096398282843168  38.51101507742452  43.28652045284294  -45.211585453850354  19.64629249743529  120.000000
1.7669999999999988  0.000000  0.000000  0.000000  -51.152823604606034  10.22257525448527  47.537995502616724  50.586503040163784  -12.374540725041367  -12.940041959276515  38.94678690492342  41.771852481507125  -45.20079483748075  19.863963783362212  120.000000
1.7979999999999987  0.000000  0.000000  0.000000  -50.3805512644804  9.85191635702906  46.26817876760656  50.21690632648037  -12.769867309644761  -13.584118269822579  39.26230344180819  40.19276741085754  -44.97736358460787  20.05013373309802  120.000000
1.8289999999999988  0.000000  0.000000  0.000000  -49.597544690758  9.428187071757867  44.67569309719896  49.880459934184664  -12.98218446838429  -14.02021655786604  39.45082633571112  38.57461289856921  -44.529066723684316  20.186186766121786  120.000000
1.8599999999999988  0.000000  0.000000  0.000000  -48.78238557231279  8.962883872098969  42.74759732987053  49.55662001098535  -12.992552830315185  -14.24175278065182  39.51623908263211  36.943153336797835  -43.867451270287404  20.25383709231599  120.000000
1.8909999999999987  0.000000  0.000000  0.000000  -47.921712724799676  8.46429557332233  40.48399433138213  49.23016606941907  -12.786881923808386  -14.24492812735012  39.472538212704315  35.32443372557881  -43.029058828195524  20.23857651472668  120.000000
1.9219999999999986  0.000000  0.000000  0.000000  -47.01621895087658  7.935065693387445  37.90162897943618  48.89454035641359  -12.358375896832083  -14.031185499715113  39.34037336496862  33.74481224857438  -42.07110502921489  20.132295354671705  120.000000
1.9529999999999987  0.000000  0.000000  0.000000  -46.08149746853466  7.374298575386536  35.04043136412606  48.552232743916505  -11.712366280994633  -13.610570090358834  39.14350654571189  32.22970203678791  -41.061908132629505  19.934761694301677  120.000000
1.9839999999999987  0.000000  0.000000  0.000000  -45.144033594097934  6.781229964534094  31.97060822537632  48.21124453352858  -10.87307643495443  -13.00565019762126  38.90704427238396  30.798716705783367  -40.06736555855257  19.653418930105538  120.000000
2.014999999999999  0.000000  0.000000  0.000000  -44.232353059515304  6.159207323733316  28.793207250364688  47.88175974855259  -9.886528957771684  -12.255611383240863  38.6576812222747  29.459484850206216  -39.13884170178271  19.301580291042104  120.000000
2.0459999999999985  0.000000  0.000000  0.000000  -43.3697113997843  5.51674033769346  25.630186453268248  47.57317914107432  -8.817253101872765  -11.41394926117177  38.42474862746912  28.204485595983794  -38.30747316352927  18.89594670677302  120.000000
2.0769999999999986  0.000000  0.000000  0.000000  -42.57007017765308  4.8663370756498505  22.598185797003765  47.294056766321916  -7.732084254396511  -10.5356985916766  38.240614009874626  27.014318090322178  -37.58626992695533  18.454628666262604  120.000000
2.1079999999999988  0.000000  0.000000  0.000000  -41.83862926598497  4.222270353569713  19.784051500397958  47.053424486836725  -6.68198463856085  -9.66373091494245  38.13844712616528  25.865675819424496  -36.97740934057399  17.995038095176945  120.000000
2.1389999999999985  0.000000  0.000000  0.000000  -41.17594363598706  3.598733309393495  17.232797647706683  46.85919048791231  -5.69130931252264  -8.819673589477864  38.1496464508489  24.739559363985602  -36.479836007025845  17.532877474494942  120.000000
2.1699999999999986  0.000000  0.000000  0.000000  -40.578913887582836  3.0110662807645427  14.95856049560936  46.718714185664055  -4.765621323912267  -8.011822368638594  38.30207711706347  23.626269663655933  -36.09422958508126  17.081524512468494  120.000000
2.2009999999999983  0.000000  0.000000  0.000000  -40.043471186058404  2.472794460268815  12.963466506737994  46.63450355937063  -3.9078684969704605  -7.246753044690741  38.61969748752036  22.524640929586234  -35.82358692563767  16.652587948005916  120.000000
2.2319999999999984  0.000000  0.000000  0.000000  -39.56581513535528  1.9931961225086399  11.239155719538429  46.602323987773126  -3.1210562384437797  -6.529328059136687  39.12191155857083  21.439101201605318  -35.67127780659007  16.256791553045172  120.000000
2.2629999999999986  0.000000  0.000000  0.000000  -39.14147298646103  1.5783496450261427  9.768199862568482  46.61425146685488  -2.4073967613566474  -5.86353971668941  39.821824079010064  20.3774412394044  -35.639151239885706  15.904672617817821  120.000000
2.2939999999999983  0.000000  0.000000  0.000000  -38.76613209161339  1.2302292735062221  8.526949216811387  46.660525866995705  -1.7671827376001124  -5.252343878722994  40.72302226836171  19.348896259490157  -35.72705023442164  15.60619989515803  120.000000
2.3249999999999984  0.000000  0.000000  0.000000  -38.43574524775877  0.9459399788153507  7.488585450611878  46.73199937779687  -1.1989228326445382  -4.696877975671979  41.81704612470245  18.3630275462421  -35.93399703520581  15.369661023097553  120.000000
2.3559999999999985  0.000000  0.000000  0.000000  -38.1468219827357  0.7179314462572018  6.6257153941030635  46.82248520418236  -0.6999808396203411  -4.195821798489721  43.082903347118545  17.429337430550657  -36.25926289478394  15.200550521590916  120.000000
2.3869999999999982  0.000000  0.000000  0.000000  -37.8958808086553  0.5352819438301609  5.912113763619624  46.92936764724802  -0.2672754777251735  -3.7457530503940335  44.48914955124198  16.55666745837622  -36.70261232927612  15.100826577194447  120.000000
2.4179999999999984  0.000000  0.000000  0.000000  -37.67919480829061  0.38567510191467835  5.323970048969766  47.05268074580818  0.10250282060641222  -3.341822063997756  45.9978364827441  15.752460057969827  -37.26309048125398  15.068676640458076  120.000000
2.4489999999999985  0.000000  0.000000  0.000000  -37.492187131245245  0.25766157305398285  4.840873828485042  47.19173959432955  0.41319486832011676  -2.978568841261462  47.569572022871476  15.021064515224367  -37.93663869922694  15.099146694064956  120.000000
2.479999999999998  0.000000  0.000000  0.000000  -37.32847754678907  0.14332585386757773  4.445754072399669  47.34369928211564  0.6702221471238644  -2.6517914171045343  49.16874825336355  14.3623956974009  -38.71289488801696  15.185692618843323  120.000000
2.5109999999999983  0.000000  0.000000  0.000000  -37.17927821206127  0.03992872633885369  4.124624161041193  47.50180932285545  0.8811367936953689  -2.359241428171373  50.76728236459436  13.770920123602009  -39.57337265653239  15.321878498943443  120.000000
2.5419999999999985  0.000000  0.000000  0.000000  -37.034410559359664  -0.05064349458243744  3.865835023717718  47.656256842448556  1.0554865653287606  -2.1005475962261526  52.34522081150149  13.236892123313424  -40.4927716462646  15.501750162788595  120.000000
2.572999999999998  0.000000  0.000000  0.000000  -36.88344347344349  -0.1235807002801652  3.6591980882273485  47.79545596797898  1.2035310694642165  -1.8761614376325917  53.88916193599504  12.748360827385703  -41.44260911061568  15.719220039726203  120.000000
2.6039999999999983  0.000000  0.000000  0.000000  -36.71787861540689  -0.1736927793670322  3.49529157446987  47.908540078232214  1.3350073359497494  -1.6862244413602163  55.38966977868592  12.29363853895828  -42.395351496541025  15.966884129536535  120.000000
2.634999999999998  0.000000  0.000000  0.000000  -36.53195371450875  -0.19733161033874133  3.364771089177269  47.98746391985564  1.4574775344908506  -1.529527603576887  56.83857909079923  11.863505442540836  -43.328477329276495  16.234630974918833  120.000000
2.665999999999998  0.000000  0.000000  0.000000  -36.32445854982571  -0.1942760575121991  3.2584810538796543  48.027897678529314  1.5756945905523614  -1.402736934569492  58.22695771521059  11.45234741694154  -44.227095848108455  16.50868219735959  120.000000
2.6969999999999983  0.000000  0.000000  0.000000  -36.09741058418649  -0.16676745883444014  3.167911922756159  48.0296008769999  1.6918456312339212  -1.3008912117185911  59.54519029752465  11.058086615991042  -45.08384196499652  16.772716567963986  120.000000
2.727999999999998  0.000000  0.000000  0.000000  -35.85520137108894  -0.1182492230155921  3.088319366823753  47.99651463496607  1.8050226721187959  -1.2202677155380162  60.784607449579376  10.681114069365991  -45.89657241520143  17.010515475595717  120.000000
2.758999999999998  0.000000  0.000000  0.000000  -35.60346881117574  -0.05293775763447623  3.0180337478008115  47.93410311266287  1.912555845216081  -1.1581164189357427  61.939057481201615  10.322490024115362  -46.666161358404615  17.208192365174963  120.000000
2.7899999999999983  0.000000  0.000000  0.000000  -35.34872473375207  0.02487903801279889  2.9563097653303516  47.84910620475917  2.0124722646282818  -1.1117217401896122  63.00594391332468  9.983698772906031  -47.39496497841343  17.35604851975317  120.000000
2.820999999999998  0.000000  0.000000  0.000000  -35.09713867360619  0.11144694995326973  2.9026380646613323  47.748472778195676  2.1037325728295846  -1.0782122799047018  63.986620226942584  9.666290177834798  -48.086034208066124  17.449296701113216  120.000000
2.851999999999998  0.000000  0.000000  0.000000  -34.85606874985506  0.20336070926906682  2.8555583612943023  47.639732914843336  2.186927264766045  -1.0538636181899896  64.88652450455051  9.372026165829608  -48.742382503312406  17.48869859061908  120.000000
2.8829999999999982  0.000000  0.000000  0.000000  -34.63271095848538  0.29703755825572586  2.8128650202291396  47.52984052824338  2.2633983954486845  -1.0342198482362635  65.71506950696835  9.101431803815583  -49.366361910981375  17.47987909980197  120.000000
2.913999999999998  0.000000  0.000000  0.000000  -34.437065036377  0.3886297831771388  2.7703448099013137  47.42581104210995  2.3355297950499985  -1.013286246644614  66.48583736718653  8.853265448819498  -49.95848677007874  17.434295892122446  120.000000
2.944999999999998  0.000000  0.000000  0.000000  -34.27738072616413  0.4740924137160433  2.721919280683625  47.33558177707052  2.406176594375626  -0.9851947366030548  67.21677177262575  8.622620326564718  -50.51619018191451  17.3689933183142  120.000000
2.975999999999998  0.000000  0.000000  0.000000  -34.16253911552667  0.5490294550123561  2.6607915886246545  47.269117617078145  2.4763916117604343  -0.944784951278432  67.93049711805678  8.400920391217259  -51.032423946522734  17.30886556568492  120.000000
3.006999999999998  0.000000  0.000000  0.000000  -34.09548089445191  0.6041646838994726  2.5801510390600004  47.23271394460515  2.5451401810008063  -0.8874465947107885  68.65214009771881  8.171792351153604  -51.4967757051963  17.281774389757956  120.000000
3.037999999999998  0.000000  0.000000  0.000000  -34.08112769935954  0.6285495073238887  2.4712129079468927  47.22741942294721  2.6047039197092094  -0.8074663865437167  69.40479494213548  7.915849717488108  -51.89988318646774  17.315378470962095  120.000000
3.0689999999999977  0.000000  0.000000  0.000000  -34.10752599562054  0.6128717285750458  2.317937434459006  47.266343623709105  2.6422058219525453  -0.7073650939698178  70.20086795532096  7.626523752851199  -52.242604284819116  17.423818718048697  120.000000
3.099999999999998  0.000000  0.000000  0.000000  -34.18971049977183  0.5349311015368523  2.1017641563306664  47.35512449028839  2.636669683662256  -0.5889300882305547  71.02667283189878  7.324835469498419  -52.55120973573238  17.596171602519203  120.000000
