Simulation
nRows=101
nColumns=15
endheader
time  TH_x TH_y TH_z SC_y  SC_z  SC_x  AC_y  AC_z  AC_x  GH_y  GH_z  GH_yy  EL_x  PS_y
0.0  0.000000  0.000000  0.000000  -30.234025741012115  0.10401603214631376  -0.007740470894954537  53.313128582247096  6.1302795261027985  -6.0802567933922536  27.712487333175034  2.1287808565897333  1.1487262973910757  22.882796191257945  0.000000
0.03099999999999998  0.000000  0.000000  0.000000  -30.21507162550587  0.021437486075013504  0.5593102090470965  53.20500021340495  5.762788555556862  -6.604329438698082  27.734707299547928  2.2383136125533905  1.1747890074061242  22.802720794220292  0.000000
0.06199999999999996  0.000000  0.000000  0.000000  -30.178573472259334  -0.07044740456995308  1.089185179263168  53.12103256957409  5.395552175764344  -7.095254072817122  27.7481372588361  2.3551135637736  1.2284335992745894  22.728706404437833  0.000000
0.09299999999999994  0.000000  0.000000  0.000000  -30.1442358506919  -0.1670860318371856  1.5770064719366765  53.05461558979085  5.038686584234313  -7.546280108380073  27.728679035092316  2.5014567546924114  1.3078902261213872  22.64615746406606  0.000000
0.12399999999999992  0.000000  0.000000  0.000000  -30.116119343602684  -0.2621200436236275  2.0207885472811706  53.00282560042739  4.699314800130659  -7.953867969536779  27.656564776539955  2.6977006667368033  1.4127010035657557  22.545990578881952  0.000000
0.1549999999999999  0.000000  0.000000  0.000000  -30.104239157069056  -0.351722321883373  2.4203554555720066  52.96302485050065  4.383256638813775  -8.316363795594867  27.509559341845318  2.964836300063506  1.5438112989110986  22.42231624846742  0.000000
0.1859999999999999  0.000000  0.000000  0.000000  -30.111068148412883  -0.43224752733645344  2.776951059748571  52.93284748044772  4.09523281594005  -8.633485500922045  27.26983235562896  3.317822766197812  1.7010706609534019  22.274101474804752  0.000000
0.21699999999999986  0.000000  0.000000  0.000000  -30.13842695502106  -0.5011136213123523  3.092868267097441  52.91176803151594  3.8386755144334748  -8.906031434901731  26.924157120036355  3.7668894637643042  1.8836967117289969  22.105158059514075  0.000000
0.24799999999999983  0.000000  0.000000  0.000000  -30.185490549401113  -0.5567674136721017  3.370938740098946  52.89985411873283  3.616002269457186  -9.13511201748312  26.46390260857119  4.316145904183374  2.0906890032812075  21.92272007084423  0.000000
0.2789999999999998  0.000000  0.000000  0.000000  -30.249673870002876  -0.5989100988753854  3.6141984321874436  52.899276064270325  3.4284632013261898  -9.321821424570723  25.88624754137158  4.964940362618117  2.3205727314262012  21.737139749405024  0.000000
0.3099999999999998  0.000000  0.000000  0.000000  -30.328139922156822  -0.6286426921524064  3.825312198119462  52.91347201444202  3.2761994476186547  -9.466662891728559  25.191801128985706  5.709323660597099  2.572153533151728  21.560677986500757  0.000000
0.34099999999999975  0.000000  0.000000  0.000000  -30.418591669196147  -0.6484923730703257  4.006182665586184  52.947364682393975  3.1580272298471908  -9.569443264563215  24.383920751442343  6.544339696519924  2.8444533243475463  21.40615164988155  0.000000
0.3719999999999998  0.000000  0.000000  0.000000  -30.519937811233916  -0.6619881844057406  4.157886822632671  53.00633751372686  3.0716855533485403  -9.62939702233906  23.468061050799353  7.465638538533461  3.1367139536265856  21.285785910213  0.000000
0.40299999999999975  0.000000  0.000000  0.000000  -30.631080879739226  -0.6726218172881747  4.280866088555029  53.09498812210466  3.0142060548109653  -9.645782032393138  22.453155490922114  8.470305616757067  3.448039642676581  21.208888811960797  0.000000
0.4339999999999997  0.000000  0.000000  0.000000  -30.749405065140706  -0.6824553127516568  4.375611240350362  53.21544449495798  2.982732640590705  -9.618898516934953  21.35421133251709  9.556638222657478  3.7768509982518244  21.18003471865061  0.000000
0.4649999999999997  0.000000  0.000000  0.000000  -30.869346486796005  -0.6904791704353981  4.443603738768303  53.36583126257424  2.975105737303903  -9.550909652953838  20.193954672623793  10.723717570187564  4.120939024927472  21.197201402593418  0.000000
0.49599999999999966  0.000000  0.000000  0.000000  -30.982559480552542  -0.6921916783617774  4.488488669317222  53.539612028081166  2.990361899348226  -9.446370449827302  19.002145354714052  11.970776277448309  4.477579897630619  21.251889238444953  0.000000
0.5269999999999997  0.000000  0.000000  0.000000  -31.080333600737553  -0.6803037289540729  4.516570688566971  53.726286226229554  3.0279759351615345  -9.312314778797573  17.810573856386515  13.29647382697855  4.844934167369743  21.330791562985137  0.000000
0.5579999999999996  0.000000  0.000000  0.000000  -31.157305743871074  -0.6467094011751188  4.537074110699184  53.91348302611017  3.086394373992467  -9.15834399355496  16.646589370896343  14.698071388709911  5.223863757125998  21.418648709746588  0.000000
0.5889999999999996  0.000000  0.000000  0.000000  -31.213418512787197  -0.5847696202141698  4.562062599432387  54.08934777977946  3.1620719963662856  -8.99628350282032  15.528251322965726  16.17087552415834  5.61868775716138  21.50158674040353  0.000000
0.6199999999999996  0.000000  0.000000  0.000000  -31.253059875800368  -0.4911642449342339  4.605454156491196  54.245123518110645  3.2497684428939104  -8.83921568573186  14.461821584196281  17.708496425356056  6.036977323443593  21.56883285427273  0.000000
0.6509999999999996  0.000000  0.000000  0.000000  -31.282307622521998  -0.36722596725643497  4.6826379920717836  54.376646302221396  3.3438503856058035  -8.700448363353523  13.442823270172273  19.303951501119226  6.487464680484771  21.613488770799894  0.000000
0.6819999999999995  0.000000  0.000000  0.000000  -31.305370154678627  -0.21744686886130163  4.808214729366469  54.4851969433142  3.4405763557278437  -8.591256548318322  12.459116325442828  20.950546667681824  6.978345457417657  21.632621023631728  0.000000
0.7129999999999995  0.000000  0.000000  0.000000  -31.322460596138892  -0.04835260931551935  4.992795331733655  54.57736693235487  3.538882454052664  -8.518855668578977  11.49481804193682  22.641285099377395  7.516159857361461  21.626147423736075  0.000000
0.7439999999999996  0.000000  0.000000  0.000000  -31.33017302939073  0.1318186562163781  5.24486079469341  54.662682658930514  3.636949662757486  -8.487858771900346  10.534350015583106  24.36608846002796  8.10496130553329  21.595531492933304  0.000000
0.7749999999999995  0.000000  0.000000  0.000000  -31.32354070313471  0.31557536438639805  5.572660453836658  54.75043731642279  3.73099689312458  -8.501963139577041  9.565202049746434  26.108953571254027  8.747097257172681  21.542753391780483  0.000000
0.8059999999999995  0.000000  0.000000  0.000000  -31.29837645207048  0.49758223546320435  5.98384001312802  54.847459373817195  3.817363653404506  -8.56442086793628  8.579029068593432  27.847787659616355  9.443977963903862  21.46911096352816  0.000000
0.8369999999999994  0.000000  0.000000  0.000000  -31.252625633921646  0.6749509122445915  6.485563794425025  54.957224474410594  3.893085330153795  -8.67847663993862  7.57132698762317  29.556149364310038  10.19634582267415  21.37451387967448  0.000000
0.8679999999999994  0.000000  0.000000  0.000000  -31.186438764456717  0.8468824007152984  7.083298269198147  55.07999961365384  3.9559251427648476  -8.846845913897958  6.540208645151725  31.206377792372145  11.00407424155145  21.25769306527783  0.000000
0.8989999999999994  0.000000  0.000000  0.000000  -31.10175555567714  1.0138726050093037  7.779802179894443  55.213426175026854  4.003853426577715  -9.070684661869176  5.485110009508078  32.77283357793344  11.865804056604274  21.116694524744734  0.000000
0.9299999999999994  0.000000  0.000000  0.000000  -31.002467620671336  1.1777203685965167  8.575999467445623  55.35349716734699  4.033508308437962  -9.349971280364947  4.40570215834762  34.23453043205775  12.779480922420035  20.94976532980429  0.000000
0.9609999999999993  0.000000  0.000000  0.000000  -30.89506236086922  1.341259835022405  9.471616535466845  55.495227837580956  4.040871972970218  -9.68343184476748  3.301479798305513  35.576265029963515  13.742725997575866  20.75633454083153  0.000000
0.9919999999999993  0.000000  0.000000  0.000000  -30.788826038845414  1.5081572404946935  10.464848322151823  55.633747532361134  4.022908716655573  -10.067708832207563  2.171749040178107  36.78908393831556  14.753190615753466  20.53741324623958  0.000000
1.0229999999999992  0.000000  0.000000  0.000000  -30.6953336108145  1.6826154924981476  11.552423421921791  55.76583499757728  3.9783616762538863  -10.496523093452536  1.0165096655251715  37.87040252846087  15.807683150962736  20.29615894078621  0.000000
1.0539999999999994  0.000000  0.000000  0.000000  -30.626458596494704  1.868602924058661  12.729212189901968  55.891326763882624  3.9081447630983166  -10.959811326491236  -0.16194439308691166  38.824499579788075  16.899513377146512  20.03798609637109  0.000000
1.0849999999999993  0.000000  0.000000  0.000000  -30.59148413710701  2.0693237618194655  13.987470448784245  56.0139463087623  3.815314773170718  -11.443339905462024  -1.3569526020034344  39.66318899786456  18.01509378758924  19.77031092801681  0.000000
1.1159999999999992  0.000000  0.000000  0.000000  -30.595416424186457  2.2869669775859673  15.316021051772257  56.14076862705101  3.7046097484353693  -11.928866998800142  -2.5561140109850964  40.405900707236825  19.13226077248742  19.502030798500112  0.000000
1.1469999999999991  0.000000  0.000000  0.000000  -30.63982616968704  2.522847015567432  16.699635337470188  56.28057623082992  3.58172146830967  -12.395017132008224  -3.7421290689532376  41.078002094386164  20.222484933534847  19.242620072294315  0.000000
1.1779999999999993  0.000000  0.000000  0.000000  -30.725684944884424  2.7778683570671507  18.118946453987117  56.44151064051874  3.4525481863142846  -12.818601525080682  -4.8957206043802355  41.70700631258931  21.256418622168642  19.001054493117692  0.000000
1.2089999999999992  0.000000  0.000000  0.000000  -30.855934091583727  3.0529822910395294  19.550996194507203  56.62899668018476  3.322689139265673  -13.176427217820596  -5.999259241749823  42.3180780928465  22.209949490916966  18.784585361763146  0.000000
1.239999999999999  0.000000  0.000000  0.000000  -31.035827892740045  3.3495018520590736  20.970447866316103  56.8443362320849  3.197457124560309  -13.447365999189413  -7.039137068766962  42.93062074287084  23.067681552052942  18.597827128186907  0.000000
1.2709999999999992  0.000000  0.000000  0.000000  -31.270734646341122  3.668913508030892  22.35150398144688  57.084483135563026  3.082427539029314  -13.614679865195619  -8.007025772233652  43.5569716453964  23.82322496403803  18.44228187384304  0.000000
1.3019999999999992  0.000000  0.000000  0.000000  -31.563350134174108  4.01198676910104  23.670212961562864  57.34302934788074  2.984804203271125  -13.667846892629042  -8.901154332642152  44.20217545561845  24.47800506726053  18.316691161321643  0.000000
1.332999999999999  0.000000  0.000000  0.000000  -31.91245073687723  4.377449149503376  24.907472169435838  57.61253478539677  2.9143339169937743  -13.603733680648805  -9.72833246142736  44.86385716486385  25.04044218696807  18.217674866468446  0.000000
1.363999999999999  0.000000  0.000000  0.000000  -32.31324993031359  4.760722579588129  26.04995862394413  57.887124151445626  2.8845657822420985  -13.425681235690902  -10.504984076305103  45.53200762612891  25.524937874393512  18.140849013007738  0.000000
1.3949999999999991  0.000000  0.000000  0.000000  -32.75929226854571  5.154117761930818  27.089351647634192  58.1641036710856  2.911333625818419  -13.141236221274681  -11.253713549198112  46.19023846405417  25.950148539598537  18.081683916299276  0.000000
1.425999999999999  0.000000  0.000000  0.000000  -33.24330147880807  5.548759479316585  28.02386934616943  58.44246695877859  3.005130964291944  -12.76264781090844  -11.994281394765194  46.819788393739884  26.334894534598426  18.03595166852885  0.000000
1.456999999999999  0.000000  0.000000  0.000000  -33.755886639972324  5.937067656839001  28.855279524507235  58.718781099688506  3.1657810609091417  -12.306686839589197  -12.732865120408686  47.40529344463603  26.69195460954746  18.00006286399758  0.000000
1.487999999999999  0.000000  0.000000  0.000000  -34.284660927015075  6.314940710526256  29.582619935060098  58.984100192538435  3.3823906166401847  -11.792277151243386  -13.456175056290808  47.93874979770845  27.024622932449066  17.97119487668434  0.000000
1.518999999999999  0.000000  0.000000  0.000000  -34.814014221160946  6.680978672620531  30.201145263579694  59.2259066184932  3.637153258665235  -11.239180424243905  -14.137629309876163  48.41873098332452  27.328438434960496  17.9478916751641  0.000000
1.549999999999999  0.000000  0.000000  0.000000  -35.32654415968959  7.03143225963402  30.706456888998435  59.43538108658127  3.9133308229149706  -10.668054408642536  -14.752216386573606  48.846514974173026  27.596443216877987  17.92995649583872  0.000000
1.5809999999999989  0.000000  0.000000  0.000000  -35.806518376846476  7.356474268213838  31.09996347138114  59.61252767651967  4.200726998288089  -10.101146606531543  -15.286422633575105  49.22362198486712  27.823963233549346  17.917891412471832  0.000000
1.611999999999999  0.000000  0.000000  0.000000  -36.24362016941149  7.643480610360018  31.390984758699865  59.763364515090785  4.493717814180025  -9.561110779471532  -15.736011072484002  49.55132110227395  28.009890437321104  17.912532271948127  0.000000
1.642999999999999  0.000000  0.000000  0.000000  -36.63456380844278  7.883877229786971  31.594043412466565  59.893359111937684  4.785753979243489  -9.067434515333822  -16.09911876013905  49.82891806383239  28.155877625018725  17.914642167748614  0.000000
1.6739999999999988  0.000000  0.000000  0.000000  -36.98073256955845  8.07539242797779  31.723841852816427  60.00406117254253  5.066785846108012  -8.634802967664136  -16.37280566310069  50.05189554290433  28.265259732585708  17.924303900128614  0.000000
1.7049999999999987  0.000000  0.000000  0.000000  -37.28293205020425  8.219050730334546  31.791441961032923  60.09339023235535  5.324307948285634  -8.27560045905092  -16.55315273877762  50.21248557629478  28.34224305962579  17.940295759026863  0.000000
1.7359999999999989  0.000000  0.000000  0.000000  -37.53636527495316  8.316640615630014  31.802923149569494  60.156598182630944  5.544779899717779  -8.002507191309325  -16.637152185012646  50.30079311342277  28.391025345862243  17.960062930371517  0.000000
1.7669999999999988  0.000000  0.000000  0.000000  -37.72916662944025  8.369891441991179  31.759573987410743  60.18749913434775  5.714025828382451  -7.82792133655021  -16.625320002174586  50.304774437683605  28.41519518779321  17.980548701345253  0.000000
1.7979999999999987  0.000000  0.000000  0.000000  -37.845309676030766  8.380014378769333  31.6593441146796  60.18044775245256  5.818091360472373  -7.761077770998178  -16.523773490708056  50.209972988941885  28.417519934016358  17.99952684437012  0.000000
1.8289999999999988  0.000000  0.000000  0.000000  -37.86982106676091  8.347232212142776  31.500027423982544  60.13259650435186  5.846230519189506  -7.8057443830016275  -16.344480290530463  50.00145931637368  28.399861092679647  18.016092404984906  0.000000
1.8599999999999988  0.000000  0.000000  0.000000  -37.79373317398371  8.269629609876446  31.28355489165265  60.046145160568216  5.79491722617365  -7.960441670296111  -16.103469160859103  49.66896111552289  28.36285460656678  18.03040191136318  0.000000
1.8909999999999987  0.000000  0.000000  0.000000  -37.616415196395366  8.14249968321019  31.018831874316977  59.92893212090102  5.6695933626988735  -8.22108270517243  -15.817460848368995  49.21157469459184  28.305624981747368  18.043158027254016  0.000000
1.9219999999999986  0.000000  0.000000  0.000000  -37.344790697108984  7.959325977839643  30.72003245908185  59.79219192062654  5.481362112062614  -8.583367047694162  -15.499808464500347  48.63792849889121  28.225548869071527  18.055449496533026  0.000000
1.9529999999999987  0.000000  0.000000  0.000000  -36.991716384603194  7.714796885043195  30.398285275895322  59.64544677564737  5.241025215950519  -9.041180628241907  -15.155741991056496  47.96187614917693  28.118328498152678  18.069974114329188  0.000000
1.9839999999999987  0.000000  0.000000  0.000000  -36.57399872318971  7.410231225841313  30.053882039110277  59.490332696826606  4.953649005721662  -9.583200966090798  -14.777577734589512  47.198041512298815  27.978077051767432  18.09182989943641  0.000000
2.014999999999999  0.000000  0.000000  0.000000  -36.109153120852696  7.055819501799283  29.677555387477085  59.31875136471684  4.617081628960886  -10.193227835664263  -14.34512564991911  46.3617026372633  27.797148821891795  18.127209054570148  0.000000
2.0459999999999985  0.000000  0.000000  0.000000  -35.61336562749445  6.6648344998700635  29.256999805313274  59.119368783308595  4.228244712540082  -10.852628409837816  -13.835857018906898  45.47075297621475  27.56738556723141  18.18100149516769  0.000000
2.0769999999999986  0.000000  0.000000  0.000000  -35.1018213236199  6.2462497065463  28.783182829367167  58.88718445035449  3.7913061505124763  -11.54152116424383  -13.239908428038893  44.54374310941485  27.28362350707978  18.254906609871018  0.000000
2.1079999999999988  0.000000  0.000000  0.000000  -34.58976338948561  5.803422347262703  28.25203360438654  58.62755751466606  3.3195182127195135  -12.237607189142855  -12.566950666735885  43.59664478715546  26.94574442587831  18.34735781592527  0.000000
2.1389999999999985  0.000000  0.000000  0.000000  -34.09285121893953  5.338334302509829  27.66045372033772  58.352643708024495  2.8306984122090357  -12.914335579958436  -11.838706970204564  42.64319238077464  26.556654054623404  18.454674348564712  0.000000
2.1699999999999986  0.000000  0.000000  0.000000  -33.625681851087016  4.855747961359113  27.001843362435288  58.07559291648056  2.341267809503813  -13.54115070670443  -11.0761984746645  41.697475377353356  26.11778636990022  18.572139996416084  0.000000
2.2009999999999983  0.000000  0.000000  0.000000  -33.199588275806875  4.363528822022257  26.26568238669497  57.807487466870455  1.8637560332206082  -14.086685237548554  -10.292428173265646  40.77430949712647  25.62602070502826  18.69448889632346  0.000000
2.2319999999999984  0.000000  0.000000  0.000000  -32.82132597178437  3.8702223704401737  25.44107538283049  57.55659681535731  1.4082381978507976  -14.523957449040255  -9.492610682207047  39.885823717724804  25.07471238951798  18.81633926175067  0.000000
2.2629999999999986  0.000000  0.000000  0.000000  -32.49314397652918  3.382554563843643  24.520933172379287  57.32789121614855  0.9851294616940102  -14.834908354417857  -8.676998816919141  39.037327090726684  24.456899922160748  18.932877022006927  0.000000
2.2939999999999983  0.000000  0.000000  0.000000  -32.213554323161354  2.9047130172412823  23.504153495217132  57.122453115420065  0.6065804866311758  -15.012594012024994  -7.8431377704728  38.22557103388937  23.768301297039955  19.04045802655815  0.000000
2.3249999999999984  0.000000  0.000000  0.000000  -31.978217805521062  2.4393109959426185  22.395918974113798  56.937961671874184  0.28540416340335933  -15.060278141715244  -6.987155382197818  37.439760883469255  23.007943401935187  19.136826868685986  0.000000
2.3559999999999985  0.000000  0.000000  0.000000  -31.78077594947614  1.9886492089600685  21.206862462757616  56.77004009393031  0.032475309698316426  -14.9887970099146  -6.105305285545915  36.663935612657525  22.17767795944693  19.221031267915258  0.000000
2.3869999999999982  0.000000  0.000000  0.000000  -31.61373959870174  1.5552992355784045  19.951952851303147  56.61357035507152  -0.14541769886701836  -14.813574141830545  -5.195405366595265  35.87899003727389  21.281558492481594  19.29312434269972  0.000000
2.4179999999999984  0.000000  0.000000  0.000000  -31.469336668411927  1.1420188379652814  18.64921202509077  56.463885760583075  -0.24646919891786231  -14.552220578973243  -4.258526484119523  35.06436637477948  20.326064809928106  19.353971740049566  0.000000
2.4489999999999985  0.000000  0.000000  0.000000  -31.340718018152003  0.7512711227426365  17.318557941663762  56.31792839135533  -0.2732532747013383  -14.222570923976166  -3.3002709215326615  34.199392544263084  19.320941258176397  19.40512966356317  0.000000
2.479999999999998  0.000000  0.000000  0.000000  -31.22301573789046  0.384793655884618  15.980717261486948  56.175013420961605  -0.23138225271970228  -13.841426237757847  -2.3311135703915458  33.26484764805601  18.279953748011373  19.448377951994626  0.000000
2.5109999999999983  0.000000  0.000000  0.000000  -31.113696345772485  0.04363830847184072  14.655957572745073  56.03659226286738  -0.12812844347342434  -13.42380310638973  -1.3650037756710998  32.24489423237742  17.220117412507804  19.485450481107787  0.000000
2.5419999999999985  0.000000  0.000000  0.000000  -31.012183409908914  -0.2712051485521859  13.362775767002942  55.9052567899251  0.02839756216117319  -12.982650946788777  -0.41634661553143637  31.12902916345339  16.159657675001945  19.5178787581139  0.000000
2.572999999999998  0.000000  0.000000  0.000000  -30.918343222377167  -0.558251737490344  12.1171032858729  55.78327175278589  0.22938064014159598  -12.528781838982432  0.5034351472741506  29.913855721864046  15.11518886916625  19.54703606560997  0.000000
2.6039999999999983  0.000000  0.000000  0.000000  -30.830719898026082  -0.8152599316315926  10.932368624028218  55.671476785199005  0.46561458472944195  -12.071452614157455  1.3886156142985064  28.603767776130596  14.099381379224148  19.574148854944028  0.000000
2.634999999999998  0.000000  0.000000  0.000000  -30.746460185342997  -1.0393664965672065  9.819410707412224  55.56892045210136  0.727897457779832  -11.619109152400332  2.2396010569747005  27.21038005611111  13.120144188088595  19.600642079257987  0.000000
2.665999999999998  0.000000  0.000000  0.000000  -30.66297558821882  -1.22820234916851  8.785953971739563  55.47303138544326  1.0076753588476464  -11.179660437105841  3.061930729778487  25.75002459491188  12.181081002739836  19.62848770673067  0.000000
2.6969999999999983  0.000000  0.000000  0.000000  -30.578912377618522  -1.381625825804115  7.834727196569411  55.38033265155891  1.2975322447088717  -10.759644182084031  3.8641653819654946  24.24073655880831  11.282897880511337  19.66057516675339  0.000000
2.727999999999998  0.000000  0.000000  0.000000  -30.494265633197156  -1.50274829606463  6.9639695120754865  55.2878364467306  1.5903862646489897  -10.363824570859062  4.656352432864242  22.69959133530653  10.424652118269796  19.700696056775303  0.000000
2.758999999999998  0.000000  0.000000  0.000000  -30.409912352540196  -1.5965122061403862  6.171258706047255  55.19358676047547  1.8779761836093922  -9.996377073090873  5.448963258965035  21.141326198616472  9.6044813254618  19.753914002017734  0.000000
2.7899999999999983  0.000000  0.000000  0.000000  -30.32702556848274  -1.6674612548402896  5.4551621929506116  55.096560581297126  2.1528849740784204  -9.66105238697552  6.252836742493144  19.577926720003855  8.81955775219052  19.82682857338585  0.000000
2.820999999999998  0.000000  0.000000  0.000000  -30.245825550067188  -1.7184891515626686  4.815290777832912  54.99627480299173  2.41024554525567  -9.360691872253906  7.078966446592606  18.01889289380088  8.066228037061153  19.92697337142961  0.000000
2.851999999999998  0.000000  0.000000  0.000000  -30.165422722016984  -1.750675385504805  4.25215529513486  54.892810865708434  2.6476482335661107  -9.09721778132317  7.938058402503353  16.471555450069275  7.340873169422053  20.062244222186287  0.000000
2.8829999999999982  0.000000  0.000000  0.000000  -30.084208176473243  -1.7636921411360567  3.7663493141076767  54.786771225169986  2.864402535998352  -8.871450704672041  8.839545261885  14.941320022211496  6.640914920133866  20.23958470941388  0.000000
2.913999999999998  0.000000  0.000000  0.000000  -30.001548388815326  -1.7571930589955602  3.3576781863193963  54.678903619722405  3.0609019251830922  -8.683038568418308  9.789950548308118  13.431991051184196  5.965853778826977  20.463929576260135  0.000000
2.944999999999998  0.000000  0.000000  0.000000  -29.917757910431895  -1.7318181020799728  3.0239829788992267  54.57054715214739  3.2380193751267266  -8.530668048080615  10.792235610047126  11.945759851497051  5.317412867064936  20.737118050395893  0.000000
2.975999999999998  0.000000  0.000000  0.000000  -29.83346889542645  -1.6896684921684815  2.76014624860641  54.46312908422096  3.3963982301828817  -8.411449628308308  11.845028640103996  10.48243930540111  4.699222341842573  21.057936304489488  0.000000
3.006999999999998  0.000000  0.000000  0.000000  -29.749207147603666  -1.635496092123876  2.556921540988449  54.35923075211841  3.5362553492518347  -8.320756729444234  12.943403955316931  9.039622224588966  4.1158179853247905  21.422355496807565  0.000000
3.037999999999998  0.000000  0.000000  0.000000  -29.659465232302047  -1.575488101260875  2.401436999955426  54.2618574440874  3.6559068874516556  -8.251976886513441  14.079652222809804  7.610613583386511  3.5704336668489423  21.82431189696876  0.000000
3.0689999999999977  0.000000  0.000000  0.000000  -29.559781822509848  -1.5179559493690487  2.2772360976527843  54.17716886148275  3.7528292734148283  -8.196011003680969  15.244251448074937  6.188784018764897  3.0672384859727626  22.25746985342623  0.000000
3.099999999999998  0.000000  0.000000  0.000000  -29.432123203697895  -1.4702539012757438  2.168055268570746  54.11573376455913  3.825028422542765  -8.141169673299128  16.43027321355843  4.7661968225111595  2.6094137575783356  22.71666119129194  0.000000
