Simulation
nRows=101
nColumns=15
endheader
time  TH_x TH_y TH_z SC_y  SC_z  SC_x  AC_y  AC_z  AC_x  GH_y  GH_z  GH_yy  EL_x  PS_y
0.0  0.000000  0.000000  0.000000  -29.686064766911493  -0.3456024110624557  2.204595401135742  52.70393289468896  5.770035935977123  -9.538670776715012  118.70084075756314  3.0715669904992833  -90.20113206070769  22.806644762076896  0.000000
0.03099999999999998  0.000000  0.000000  0.000000  -29.660112117616997  -0.3994774159604213  3.143248467702451  52.64768254250248  5.181576604994237  -10.266480249585799  108.56826066855156  3.239601215356739  -80.17858078646516  22.765829724116415  0.000000
0.06199999999999996  0.000000  0.000000  0.000000  -29.618723114935023  -0.46887793137282824  4.035834603311934  52.59384859411134  4.576047049428492  -10.979922500375848  100.20018390714068  3.494767076650357  -71.91883260327808  22.72032334119247  0.000000
0.09299999999999994  0.000000  0.000000  0.000000  -29.57940198301457  -0.5521230816064261  4.872852030444453  52.54146043425598  3.9669545880006307  -11.664832697290795  93.4334439889722  3.8158508907579263  -65.2779534871514  22.656361074588713  0.000000
0.12399999999999992  0.000000  0.000000  0.000000  -29.545217699739034  -0.6431101834113305  5.647632426890462  52.49225460433225  3.36743120512519  -12.310593006141714  87.94504262032865  4.188927084004836  -59.94851265658506  22.564743620205025  0.000000
0.1549999999999999  0.000000  0.000000  0.000000  -29.52841309523076  -0.7350808438968998  6.3554925277372805  52.44603847153142  2.7895173784173117  -12.907714039148507  83.36585621962605  4.610241252081959  -55.579739108483395  22.44216348482287  0.000000
0.1859999999999999  0.000000  0.000000  0.000000  -29.53320977452064  -0.821693231970353  6.994159966730722  52.40219558837247  2.2437615684912933  -13.449648782787468  79.4051828873623  5.080332170387145  -51.8973777722054  22.2887586065277  0.000000
0.21699999999999986  0.000000  0.000000  0.000000  -29.56214536581964  -0.8985693471057288  7.563285239639001  52.36103930631273  1.7383599751634606  -13.932316944251323  75.83854635014193  5.602184983418427  -48.688948872051164  22.10971812936857  0.000000
0.24799999999999983  0.000000  0.000000  0.000000  -29.61361526203579  -0.96287634449991  8.064398262164689  52.32188487119898  1.278876255700722  -14.35467487731489  72.52919499806626  6.180682964043189  -45.82752676057086  21.91305952251189  0.000000
0.2789999999999998  0.000000  0.000000  0.000000  -29.683201526132045  -1.0132666376900916  8.500691023169809  52.28545686378011  0.8679822486407848  -14.71790623121893  69.39226681127558  6.821973072134535  -43.23263326643895  21.709635243044033  0.000000
0.3099999999999998  0.000000  0.000000  0.000000  -29.765403394591022  -1.049202461212837  8.876490994601728  52.252970049925466  0.5057720210178137  -15.023136504249157  66.37875619242426  7.532595040767599  -40.856113622620846  21.513747046894245  0.000000
0.34099999999999975  0.000000  0.000000  0.000000  -29.855045341549534  -1.0711332300124605  9.196264730093525  52.22720856416906  0.19003316373542523  -15.269967652285104  63.4535254133552  8.318903831192708  -38.65977062802814  21.341261887358822  0.000000
0.3719999999999998  0.000000  0.000000  0.000000  -29.948184017766557  -1.0806618046019625  9.463044592597912  52.21179324993933  -0.08207434139917295  -15.456611926736509  60.59084647692509  9.18688333012946  -36.61194795778505  21.207944522113923  0.000000
0.40299999999999975  0.000000  0.000000  0.000000  -30.042140519721716  -1.0795372846889295  9.67733693512636  52.210713274994376  -0.31315154189901584  -15.579763866826365  57.773324222678944  10.142013395996104  -34.68591189321258  21.126323298452974  0.000000
0.4339999999999997  0.000000  0.000000  0.000000  -30.134815833069705  -1.0687576224827031  9.837152388885942  52.22759327078345  -0.5048779092415246  -15.635205634253772  54.99315460636013  11.188774546965973  -32.859972768316474  21.10230685122845  0.000000
0.4649999999999997  0.000000  0.000000  0.000000  -30.224394890005303  -1.0479084923604622  9.93914911755258  52.26473052021322  -0.6576927231820584  -15.619527402901133  52.2553641083588  12.330680321905156  -31.12046191033006  21.13248814440374  0.000000
0.49599999999999966  0.000000  0.000000  0.000000  -30.30982114575418  -1.0148518991142328  9.979793084678413  52.32304917448402  -0.7703303947848013  -15.531383314768068  49.57914214280196  13.570882926328448  -29.463834746000728  21.204183317098874  0.000000
0.5269999999999997  0.000000  0.000000  0.000000  -30.39153292341238  -0.9658293328337227  9.95649617571315  52.40198829493535  -0.839816707258899  -15.370907147472717  46.99512619216998  14.911985149747366  -27.896813539534666  21.299051722435802  0.000000
0.5579999999999996  0.000000  0.000000  0.000000  -30.472527768531886  -0.8965566564613937  9.869858271836115  52.500066238302246  -0.8627615871359614  -15.139816155266487  44.53905825300708  16.355138816450836  -26.433591453328695  21.398093567678142  0.000000
0.5889999999999996  0.000000  0.000000  0.000000  -30.557665218087944  -0.8040134022278161  9.725330123366701  52.61506318148467  -0.8358055429678474  -14.843098815587515  42.24740090853254  17.8989525231182  -25.09470477733008  21.48528867554741  0.000000
0.6199999999999996  0.000000  0.000000  0.000000  -30.651399773343513  -0.6871557658117192  9.533690955130023  52.744742473983614  -0.7560801956203612  -14.489408186030712  40.14883388273387  19.538002154262514  -23.900040533179432  21.549910198298182  0.000000
0.6509999999999996  0.000000  0.000000  0.000000  -30.75610917366706  -0.5461044541207491  9.310652727342807  52.88752666427689  -0.6219173976482509  -14.090372862734506  38.25856049730281  21.2618235073434  -22.862851352278852  21.587828165320932  0.000000
0.6819999999999995  0.000000  0.000000  0.000000  -30.87040438499492  -0.382036625140412  9.075893684769127  53.04235548531771  -0.43309237052099087  -13.659794904670713  36.575544917897076  23.05452130611152  -21.98592490471592  21.60035155769789  0.000000
0.7129999999999995  0.000000  0.000000  0.000000  -30.987189407708883  -0.1978318854106569  8.85206481459659  53.20934598434747  -0.1906870288104686  -13.21289958254721  35.08301352628589  24.89463348923779  -21.26098553263643  21.590238777605443  0.000000
0.7439999999999996  0.000000  0.000000  0.000000  -31.094344057643596  0.002524462397590416  8.663068803926746  53.38984479580972  0.10286470282753972  -12.764731622256793  33.75499923982819  26.756061086854565  -20.673209653615334  21.559533415651398  0.000000
0.7749999999999995  0.000000  0.000000  0.000000  -31.178210098230554  0.2152003049627944  8.53305275586403  53.585533443944364  0.4428338724968306  -12.328501644605701  32.564258816398784  28.60937502794206  -20.20649048135189  21.51052927878915  0.000000
0.8059999999999995  0.000000  0.000000  0.000000  -31.22636299462412  0.4371641377477534  8.485055463754692  53.79763677739563  0.821384920337785  -11.915423048080363  31.487305284194633  30.42419775241948  -19.84642433583164  21.444037971065956  0.000000
0.8369999999999994  0.000000  0.000000  0.000000  -31.230058047821718  0.6660177714403773  8.53790898270339  54.025596246159644  1.228473281831779  -11.534852420399115  30.50605881842036  32.17228438165303  -19.58130333603531  21.358070692938533  0.000000
0.8679999999999994  0.000000  0.000000  0.000000  -31.186331648704154  0.8998336532065392  8.703725220827852  54.26599215497499  1.6524932272813222  -11.193924688013643  29.6071063013999  33.83088362485469  -19.40122784994124  21.249327384370215  0.000000
0.8989999999999994  0.000000  0.000000  0.000000  -31.09884730790784  1.1374591054909788  8.986724965267857  54.513168616411775  2.0808899825812204  -10.896607801422807  28.78111811539017  35.38548508464795  -19.297622296387928  21.11436502378089  0.000000
0.9299999999999994  0.000000  0.000000  0.000000  -30.977499704092885  1.378617975282563  9.383003604810943  54.76048980626451  2.5016202161702683  -10.642937332076018  28.02227680696539  36.831356055556455  -19.263119481921283  20.951365540014255  0.000000
0.9609999999999993  0.000000  0.000000  0.000000  -30.83680911008191  1.6238810164533768  9.881819725087237  55.00197993497918  2.904779393679131  -10.428744217494982  27.32672971289956  38.17284584367805  -19.29052308913633  20.760053467402216  0.000000
0.9919999999999993  0.000000  0.000000  0.000000  -30.693638676417244  1.8746320102473115  10.467115927093335  55.23324352429048  3.284133047512567  -10.24586478306979  26.690840533018015  39.42124987018916  -19.371921905842733  20.54127948087506  0.000000
1.0229999999999992  0.000000  0.000000  0.000000  -30.565293200355818  2.1329174060922287  11.119335763005042  55.4522131491522  3.6376670512761846  -10.082578849102001  26.109361662417417  40.59204374603107  -19.497447849562693  20.297893855522698  0.000000
1.0539999999999994  0.000000  0.000000  0.000000  -30.467244884758088  2.400989309629122  11.817623860643112  55.659693677705754  3.9669329665103774  -9.924445958366634  25.57341238140981  41.702270378711816  -19.653389995865034  20.034838046977576  0.000000
1.0849999999999993  0.000000  0.000000  0.000000  -30.41122093876695  2.6804669177921476  12.54148207264002  55.85921826441509  4.2763640897973065  -9.755784279135238  25.068616705429967  42.76832025789337  -19.820827552315148  19.759664508125592  0.000000
1.1159999999999992  0.000000  0.000000  0.000000  -30.404514849745063  2.9717971861574504  13.271634859535492  56.056343966842675  4.572651973294043  -9.561043955622399  24.57528784966892  43.80449210698847  -19.975961870525804  19.482513045849803  0.000000
1.1469999999999991  0.000000  0.000000  0.000000  -30.450368393319632  3.2743782634193748  13.990620615328174  56.25728625398575  4.863755014211911  -9.326123043962468  24.071779335445765  44.822339987946336  -20.093585406727556  19.214947170718432  0.000000
1.1779999999999993  0.000000  0.000000  0.000000  -30.549019974452065  3.586862928944828  14.683496186602335  56.46727643949797  5.157775479058193  -9.039863024225289  23.53971016258854  45.83062978260665  -20.15238812625535  18.96836087434374  0.000000
1.2089999999999992  0.000000  0.000000  0.000000  -30.699035509341222  3.9075734020469066  15.338590132840244  56.68909785624287  5.461771124666191  -8.69531349182387  22.968505347910792  46.83547306321582  -20.13963980143515  18.751710087617994  0.000000
1.239999999999999  0.000000  0.000000  0.000000  -30.898212397315195  4.235024059338545  15.947972732903144  56.92230002872798  5.78080625544032  -8.290629845399138  22.357189238135074  47.840388268861716  -20.05326527445096  18.56976820702879  0.000000
1.2709999999999992  0.000000  0.000000  0.000000  -31.143655587915713  4.567860328596051  16.50767312053885  57.16351004971011  6.117363933221798  -7.829149571259165  21.71238785058709  48.84623521588377  -19.900380206321458  18.423051839598145  0.000000
1.3019999999999992  0.000000  0.000000  0.000000  -31.431133058488538  4.904390019339722  17.017427126786238  57.407715085567354  6.471187455649937  -7.318397699913824  21.044358153394793  49.85129928865022  -19.69391982316227  18.3085341075087  0.000000
1.332999999999999  0.000000  0.000000  0.000000  -31.754569420306417  5.242372628131589  17.479795271017352  57.64966329992566  6.8395740853158005  -6.7684878244633255  20.36351918460292  50.85149455726494  -19.449365125524547  18.220919870453905  0.000000
1.363999999999999  0.000000  0.000000  0.000000  -32.106175419568224  5.579162883776471  17.89897815362202  57.884808052007266  7.217949537863938  -6.190492339727074  19.679265770337977  51.84072575651659  -19.18271685801327  18.154051302858683  0.000000
1.3949999999999991  0.000000  0.000000  0.000000  -32.47737377858864  5.912129498396822  18.279832908185305  58.1096068818993  7.600381456009201  -5.595409843837133  19.000891616036707  52.81127606577783  -18.909701631943456  18.101988011662346  0.000000
1.425999999999999  0.000000  0.000000  0.000000  -32.8598524757672  6.238945191869455  18.626996656097358  58.321226101108216  7.980229698350889  -4.993744570841275  18.33854635215152  53.754175530490535  -18.644770183370113  18.059895933493813  0.000000
1.456999999999999  0.000000  0.000000  0.000000  -33.24610478609927  6.55745802892853  18.94405918486367  58.51725863232618  8.350929716414353  -4.39542792661434  17.70299983886051  54.65963870109967  -18.39942079051821  18.024271975725092  0.000000
1.487999999999999  0.000000  0.000000  0.000000  -33.6291515231098  6.865157694010248  19.233094006482432  58.695913223536145  8.706528499508131  -3.8100072620160286  17.104327001613267  55.51768056666884  -18.180413760038782  17.992918443482495  0.000000
1.518999999999999  0.000000  0.000000  0.000000  -34.00203062847159  7.1585862863480685  19.49471337607073  58.856307068415994  9.04190782838375  -3.2470520480313354  16.550587478045824  56.31852962799346  -17.989170892400306  17.96511733246528  0.000000
1.549999999999999  0.000000  0.000000  0.000000  -34.357572912727996  7.4328322635878346  19.728396425536808  58.998626589370616  9.35296194285506  -2.716358253931274  16.047330202120733  57.05276389447755  -17.823104646175512  17.941657479805226  0.000000
1.5809999999999989  0.000000  0.000000  0.000000  -34.68922528845249  7.682063524117211  19.933055859124945  59.12396729836648  9.636595072502049  -2.22770812503059  15.598497649735101  57.71082315848259  -17.678578344421737  17.924499301766055  0.000000
1.611999999999999  0.000000  0.000000  0.000000  -34.99222153175371  7.900936495950555  20.10777353769343  59.23376808702296  9.890336839916097  -1.7903037739862786  15.208106221255408  58.28238476748832  -17.55342132615975  17.915944436044494  0.000000
1.642999999999999  0.000000  0.000000  0.000000  -35.26399855864435  8.085752714214433  20.252219382517914  59.32885166005922  10.111997018633916  -1.4120684539040107  14.8816637532152  58.7561244233482  -17.447736202847473  17.91751332371826  0.000000
1.6739999999999988  0.000000  0.000000  0.000000  -35.50350419990917  8.235132200456233  20.366204733330882  59.40878418272322  10.299423010632163  -1.0990230341638647  14.626407186019357  59.12041404648173  -17.363510793722355  17.929093042013612  0.000000
1.7049999999999987  0.000000  0.000000  0.000000  -35.70984613372729  8.349723881884849  20.448974714382814  59.47185056624084  10.450429175965718  -0.8552411442032654  14.450284936623294  59.36452230965736  -17.30396884400194  17.948800736181237  0.000000
1.7359999999999989  0.000000  0.000000  0.000000  -35.880675940447155  8.431022980456873  20.49861390110383  59.51560997958023  10.562886349243264  -0.6833227557025483  14.360196573801844  59.48001729012495  -17.2734920087948  17.973493386276786  0.000000
1.7669999999999988  0.000000  0.000000  0.000000  -36.01136245763673  8.480107536679174  20.512083433522093  59.537669652653236  10.634965952551362  -0.5849738769857313  14.36056403297536  59.46147499895151  -17.277956060585385  17.999512544277618  0.000000
1.7979999999999987  0.000000  0.000000  0.000000  -36.09527082244279  8.496685913442473  20.48593009376266  59.53648068914295  10.66546285303406  -0.5614635700378063  14.45270153310143  59.30646196264139  -17.325072345339397  18.023432879846908  0.000000
1.8289999999999988  0.000000  0.000000  0.000000  -36.12519377582044  8.478749755753418  20.417516423701205  59.511894854926965  10.654069999310053  -0.613828465228742  14.635095383702774  59.014778770717434  -17.42437181847963  18.042659852435758  0.000000
1.8599999999999988  0.000000  0.000000  0.000000  -36.09509590726133  8.422798510739298  20.30606910927699  59.465306816751166  10.601402980636895  -0.7429054884077351  14.90417339725261  58.58786282498463  -17.5862966272455  18.055974933605658  0.000000
1.8909999999999987  0.000000  0.000000  0.000000  -36.001658687343166  8.324773757569204  20.153080611972555  59.39925738595573  10.50855612784901  -0.9491297382508486  15.255234506097043  58.028735731350615  -17.820390790423374  18.06395877080142  0.000000
1.9219999999999986  0.000000  0.000000  0.000000  -35.84502912223062  8.181310940101527  19.961823370946163  59.316554711438705  10.376391559841222  -1.2322549977853927  15.68319684929749  57.342751583114485  -18.13259713291359  18.069266741159186  0.000000
1.9529999999999987  0.000000  0.000000  0.000000  -35.62891463589639  7.991043398643396  19.736380770136666  59.21907072644814  10.204942087656976  -1.590986538918591  16.183189212502796  56.53831945512096  -18.52275085296399  18.07674369255345  0.000000
1.9839999999999987  0.000000  0.000000  0.000000  -35.35996114174362  7.755189938446689  19.480680582030356  59.10710393576039  9.99327257509106  -2.0226427932880338  16.7508114585431  55.62727504624013  -18.983846780710202  18.092806188441223  0.000000
2.014999999999999  0.000000  0.000000  0.000000  -35.04680159725071  7.476844627268239  19.19800408274807  58.97958740806501  9.74010675259966  -2.522933896327312  17.38184373079826  54.62446214189125  -19.50329226840547  18.12401524968961  0.000000
2.0459999999999985  0.000000  0.000000  0.000000  -34.699392006498186  7.160286993225179  18.891126857682952  58.834995247172955  9.444452451896941  -3.086116481302251  18.071924657546496  53.54669255756361  -20.06578137181785  18.175293335401612  0.000000
2.0769999999999986  0.000000  0.000000  0.000000  -34.32851461012868  6.810006484242796  18.562977810519072  58.67242539694429  9.105807928460688  -3.705509050431913  18.81623647318281  52.41165612036856  -20.656251275773823  18.248588958629394  0.000000
2.1079999999999988  0.000000  0.000000  0.000000  -33.94505261899035  6.429743700575913  18.216619697758823  58.492210378158475  8.724178968349227  -4.373625575924101  19.6091774300819  51.237448629491155  -21.261723557480146  18.342444546119836  0.000000
2.1389999999999985  0.000000  0.000000  0.000000  -33.5596428649232  6.02274532344571  17.854393181575674  58.29608281321464  8.299795844990417  -5.081730019019419  20.443788838979277  50.04237142437658  -21.871222271217135  18.45255894167939  0.000000
2.1699999999999986  0.000000  0.000000  0.000000  -33.182576695742355  5.592114806924223  17.476834488192665  58.08699734007862  7.833001311057959  -5.819242807287812  21.311068154005486  48.84477412273306  -22.474419645350476  18.573003941858527  0.000000
2.2009999999999983  0.000000  0.000000  0.000000  -32.82383758027507  5.141186728197414  17.08169041465328  57.868768657242704  7.324497681303821  -6.5731391011663725  22.19933189262067  47.66249062704955  -23.05997113228774  18.697391655246197  0.000000
2.2319999999999984  0.000000  0.000000  0.000000  -32.492869438380644  4.673772130869798  16.663456692324576  57.64549997162169  6.776102611433444  -7.327666466368404  23.09406883433689  46.51157871955803  -23.614343561968784  18.819635393748516  0.000000
2.2629999999999986  0.000000  0.000000  0.000000  -32.198544593355926  4.194194604364702  16.213677645777697  57.420942326531375  6.191693826286752  -8.064751234352055  23.978851519644873  45.404554014253875  -24.121813071988573  18.934750320540008  0.000000
2.2939999999999983  0.000000  0.000000  0.000000  -31.94891345675888  3.707258596508179  15.721921870599584  57.1976667016009  5.578122188850211  -8.765259254077757  24.8372253035776  44.3484485455995  -24.56576770889332  19.039706799016408  0.000000
2.3249999999999984  0.000000  0.000000  0.000000  -31.749837989985267  3.2178414298774194  15.177385257453453  56.976295604882296  4.94590849742124  -9.41088127512358  25.654548278018527  43.34303515461855  -24.931141837856067  19.132643758420592  0.000000
2.3559999999999985  0.000000  0.000000  0.000000  -31.60358355693464  2.7305748900141116  14.570643271169956  56.755261777343215  4.309316474933418  -9.985960237585429  26.41972744460898  42.37979036551926  -25.207146420417683  19.212579520588882  0.000000
2.3869999999999982  0.000000  0.000000  0.000000  -31.508376779121413  2.24992645571238  13.895244146156552  56.53129836394912  3.6856714749028012  -10.478788503986875  27.12689512586462  41.44189637746457  -25.389700389805206  19.280292182442935  0.000000
2.4179999999999984  0.000000  0.000000  0.000000  -31.457762791034916  1.7802669182441693  13.149141592029881  56.30047786174022  3.0942247220379144  -10.88224437883851  27.775953365118106  40.50537713644212  -25.482948082641677  19.337815905115804  0.000000
2.4489999999999985  0.000000  0.000000  0.000000  -31.440296160740505  1.3259752546554098  12.336044641076299  56.05972466441655  2.5547954889231654  -11.193872094616685  28.371716507505703  39.540931976342335  -25.499267042197943  19.387497378800436  0.000000
2.479999999999998  0.000000  0.000000  0.000000  -31.44016655278516  0.8915232366975566  11.466365460303837  55.80842022489619  2.086108849999463  -11.415478002771112  28.922618328636094  38.516958994369965  -25.457890838827705  19.431176615258877  0.000000
2.5109999999999983  0.000000  0.000000  0.000000  -31.438659816884407  0.48150989790675985  10.557543565468956  55.54934923640174  1.7041552205327202  -11.552493546852178  29.43947589440131  37.40318840914827  -25.382801230441494  19.469774848476572  0.000000
2.5419999999999985  0.000000  0.000000  0.000000  -31.41682338779285  0.10074986145789737  9.63316891634274  55.28877309520754  1.4203936718561925  -11.613429576359055  29.93489678626058  36.175251811238645  -25.300154540150373  19.503422664412753  0.000000
2.572999999999998  0.000000  0.000000  0.000000  -31.35896783476524  -0.24579409912004765  8.720799139645841  55.035437087569846  1.2403758147630946  -11.609391709273986  30.42336632197356  34.81886461326423  -25.235970540396536  19.53223028205592  0.000000
2.6039999999999983  0.000000  0.000000  0.000000  -31.255611983863012  -0.5531889059460864  7.847899740143046  54.79869943405682  1.1633396774945548  -11.55313400047695  30.921423710537642  33.33271935300091  -25.213895076433236  19.556861558274584  0.000000
2.634999999999998  0.000000  0.000000  0.000000  -31.10561645230731  -0.81723635611015  7.037641077130258  54.586377175734704  1.1822894052404385  -11.457740483294392  31.447501792517926  31.72869712090339  -25.253702240977102  19.579190514825882  0.000000
2.665999999999998  0.000000  0.000000  0.000000  -30.9160163119228  -1.035629230175553  6.306585159109678  54.40286275400724  1.2842575634267193  -11.3359983084286  32.02118069987292  30.029111142506814  -25.37059336540223  19.602237519368472  0.000000
2.6969999999999983  0.000000  0.000000  0.000000  -30.699200614942328  -1.2087163426781007  5.664242417666259  54.24873041186102  1.451735878069937  -11.200360493722979  32.66222492336165  28.261730696111456  -25.575253856602416  19.62903967659737  0.000000
2.727999999999998  0.000000  0.000000  0.000000  -30.469631110586057  -1.3395774268424916  5.114085408008453  54.121606025874634  1.6650909360867676  -11.062363265507738  33.39012254771697  26.4541095680893  -25.874344103087168  19.663829521901015  0.000000
2.758999999999998  0.000000  0.000000  0.000000  -30.24103567517103  -1.4334747286192213  4.6560022807797345  54.017788301784  1.9044657567673964  -10.932007832603931  34.224006749208364  24.628821416910718  -26.27143264183348  19.712741489733276  0.000000
2.7899999999999983  0.000000  0.000000  0.000000  -30.023766670160835  -1.49699917613165  4.288610841377346  53.93340273615271  2.15162725225211  -10.818237921583982  35.18315366626629  22.800600480724103  -26.768695662074993  19.782636330161885  0.000000
2.820999999999998  0.000000  0.000000  0.000000  -29.82355505361182  -1.5370627357677233  4.010041462819237  53.8647980502978  2.3918290376890865  -10.729311447705417  36.289024378196736  20.97535652174717  -27.370348532096436  19.880980579675313  0.000000
2.851999999999998  0.000000  0.000000  0.000000  -29.64272892039525  -1.5606185917310185  3.817844165489705  53.80867886929578  2.6147421651555627  -10.67225385104063  37.56976861588714  19.151291740472768  -28.088604891430645  20.015494082895195  0.000000
2.8829999999999982  0.000000  0.000000  0.000000  -29.48200377247812  -1.5738318311933008  3.7088728378641966  53.7620217848139  2.8135841051284314  -10.65232918311012  39.06996015683215  17.321484766408204  -28.95442544759743  20.193507635854697  0.000000
2.913999999999998  0.000000  0.000000  0.000000  -29.34105566319144  -1.5823223010195184  3.676832796483652  53.72223898917584  2.9847721132622596  -10.672493536256203  40.866896473278786  15.477347835522492  -30.0353555455207  20.420670013060473  0.000000
2.944999999999998  0.000000  0.000000  0.000000  -29.217526168685566  -1.5930186153610002  3.7101610050323877  53.687483885190204  3.1267333355492712  -10.73335459336487  43.09335225786135  13.611853205717837  -31.459403142891134  20.697438295414848  0.000000
2.975999999999998  0.000000  0.000000  0.000000  -29.10767703908243  -1.6134640821369903  3.7931651486254534  53.65453466549512  3.2369273454442165  -10.833299664998378  45.98401035013774  11.722394935823502  -33.46370431245088  21.020177053786803  0.000000
3.006999999999998  0.000000  0.000000  0.000000  -29.007608301546924  -1.6513603289868575  3.906371110295456  53.620397242408906  3.3117734966367274  -10.968672460520823  49.96543144164006  9.81688940838146  -36.4831475105903  21.382020582253894  0.000000
3.037999999999998  0.000000  0.000000  0.000000  -28.90730483541689  -1.7135088378071142  4.029706244630951  53.58149930944914  3.347057275800655  -11.134309716679915  55.867161911278274  7.920484532036954  -41.36163261495958  21.77233930494952  0.000000
3.0689999999999977  0.000000  0.000000  0.000000  -28.80368221314042  -1.8048717872582636  4.144751119392539  53.53535160180235  3.3387013239910077  -11.323271370873417  65.43770320432725  6.102735789398586  -49.866263227151144  22.180955901987222  0.000000
3.099999999999998  0.000000  0.000000  0.000000  -28.68060144110141  -1.9287940202932206  4.236794157601089  53.484961926327856  3.2878518023072667  -11.529091026633013  82.43022776597252  4.538260305601281  -65.76732117296912  22.595626459696224  0.000000
