Simulation
nRows=101
nColumns=15
endheader
time  TH_x TH_y TH_z SC_y  SC_z  SC_x  AC_y  AC_z  AC_x  GH_y  GH_z  GH_yy  EL_x  PS_y
0.0  0.000000  0.000000  0.000000  -29.69818503551944  0.15190428488351  -4.3456108692117965  52.57164459343036  10.249714903245243  -4.727307612390326  80.78123857410664  3.3154347146926035  -53.04877446118097  22.809442697888  0.000000
0.03099999999999998  0.000000  0.000000  0.000000  -29.691361338380464  0.034561309916868864  -3.307531417940267  52.534290019408154  9.567048333733732  -5.578369355030067  79.70169262227505  3.44684511927196  -51.977014144061016  22.769231575367005  0.000000
0.06199999999999996  0.000000  0.000000  0.000000  -29.661596342664005  -0.0922500041935802  -2.3053334546201265  52.51115217945199  8.882178346456188  -6.40284115967088  78.97877511418434  3.6038277036521613  -51.26731528873773  22.72983379648384  0.000000
0.09299999999999994  0.000000  0.000000  0.000000  -29.628210305653518  -0.22395832045302488  -1.3466324209336507  52.49694785090319  8.209419453250208  -7.192226100914621  78.31620670623336  3.797689881766006  -50.64496749665348  22.672922800541357  0.000000
0.12399999999999992  0.000000  0.000000  0.000000  -29.596482856647736  -0.3537885994084535  -0.43714431641958096  52.488650309064084  7.560126283871083  -7.939565061763146  77.48610535304066  4.0385540321734  -49.90082945261864  22.587093222942425  0.000000
0.1549999999999999  0.000000  0.000000  0.000000  -29.57812999100033  -0.47760523104373864  0.4188266843372079  52.485052601601026  6.9436289238131765  -8.639478690930712  76.30208204161467  4.338990156524064  -48.869737954357944  22.4670884110951  0.000000
0.1859999999999999  0.000000  0.000000  0.000000  -29.577308758168588  -0.5910511906631519  1.2185211921983572  52.48495259607866  6.366739609546082  -9.287209372084988  74.68838405507844  4.708793364226232  -47.494276736599595  22.313759501636774  0.000000
0.21699999999999986  0.000000  0.000000  0.000000  -29.597119408955045  -0.691168153333357  1.9601981097071175  52.48941772800024  5.834169322635585  -9.878952125428022  72.64643550252231  5.156450246972856  -45.78968007547314  22.133143925927403  0.000000
0.24799999999999983  0.000000  0.000000  0.000000  -29.636977462876725  -0.7758486307649357  2.6431439312692895  52.49935450818204  5.348687477569342  -10.411494592046004  70.25258714773042  5.688124372433286  -43.842287467401924  21.934276213649763  0.000000
0.2789999999999998  0.000000  0.000000  0.000000  -29.693871180585116  -0.8441335177196546  3.2673071782642222  52.51702626488176  4.911371115264711  -10.882304855178537  67.61064752627357  6.307554323980176  -41.76004002875946  21.728746218801753  0.000000
0.3099999999999998  0.000000  0.000000  0.000000  -29.76338448171286  -0.8961432122950261  3.8331728013078705  52.54481800710222  4.5218320141204735  -11.28924174985564  64.82636776999875  7.016206480663152  -39.64877861107525  21.530475243436776  0.000000
0.34099999999999975  0.000000  0.000000  0.000000  -29.840662544924346  -0.9329552161018567  4.3415635538429465  52.58588065804688  4.178076938166824  -11.63040707410975  61.9834767458285  7.813908059533108  -37.58829158006934  21.355048083571784  0.000000
0.3719999999999998  0.000000  0.000000  0.000000  -29.921601029050628  -0.956191413468922  4.7936171191863055  52.64358661100785  3.876746410503146  -11.904122145888945  59.1378565604025  8.699641253207988  -35.627051990725896  21.218808020396906  0.000000
0.40299999999999975  0.000000  0.000000  0.000000  -30.002632773319046  -0.9671959707433823  5.190960994489104  52.72120702934149  3.6133192704117962  -12.109064512025736  56.32072202234868  9.67227205531856  -33.78477399925773  21.135468816798095  0.000000
0.4339999999999997  0.000000  0.000000  0.000000  -30.080476108220065  -0.9665014861014104  5.5360255657752955  52.8209706757719  3.38296367154454  -12.24494546337161  53.548757267977294  10.730813344767316  -32.061334924270774  21.112422493799038  0.000000
0.4649999999999997  0.000000  0.000000  0.000000  -30.151672752351303  -0.953109444223777  5.832190756869931  52.94339997359554  3.1810991877256436  -12.313373765745748  50.83643244361818  11.87450299112475  -30.44893609881116  21.147068976290424  0.000000
0.49599999999999966  0.000000  0.000000  0.000000  -30.212944039878398  -0.9245926110362029  6.084244066426495  53.08664131614377  3.004621755784331  -12.31877169798619  48.20260157770591  13.102492784447302  -28.939461905405523  21.226466120913503  0.000000
0.5269999999999997  0.000000  0.000000  0.000000  -30.26227577361534  -0.877568573421068  6.2990344128626  53.245530351206156  2.852641966936039  -12.268655419520073  45.671691463777655  14.413452203508802  -27.52887100287448  21.330769337370686  0.000000
0.5579999999999996  0.000000  0.000000  0.000000  -30.300043016685247  -0.8085309389502887  6.484996508071276  53.41243786349185  2.7266293246095916  -12.173395250960011  43.27283769795584  15.805380509608073  -26.22065356115497  21.438551110373915  0.000000
0.5889999999999996  0.000000  0.000000  0.000000  -30.32917703178  -0.715305878606394  6.652394200581332  53.57885170724858  2.629300687802144  -12.045928317121957  41.03560301819584  17.274919640318753  -25.024988009692372  21.531998323758142  0.000000
0.6199999999999996  0.000000  0.000000  0.000000  -30.353842599038874  -0.5976901008202817  6.811871287167563  53.73744334849766  2.5640206803432193  -11.899679606379083  38.9839644146597  18.816997327022257  -23.954234312681084  21.599660042830404  0.000000
0.6509999999999996  0.000000  0.000000  0.000000  -30.37759725652379  -0.45757558637117823  6.971259601134979  53.883799852370544  2.535112452896373  -11.744829395063384  37.12871736323681  20.424779257988522  -23.01548169443757  21.636702170857497  0.000000
0.6819999999999995  0.000000  0.000000  0.000000  -30.40201055430816  -0.2985253558188988  7.139545588015527  54.017700520328845  2.543430659139148  -11.589264983795971  35.464038835550255  22.090383890730624  -22.2059852859717  21.643391475255005  0.000000
0.7129999999999995  0.000000  0.000000  0.000000  -30.425690324274672  -0.12459688355825238  7.330537964356554  54.142698585750786  2.5844322178807873  -11.440754553328732  33.97292209590011  23.804721476423744  -21.516151302000498  21.6234144916413  0.000000
0.7439999999999996  0.000000  0.000000  0.000000  -30.44495251163565  0.05967525185380944  7.559041401673307  54.26452796153122  2.651763334836834  -11.306099371037456  32.635549955921434  25.55651666505799  -20.9351727721443  21.581740469127407  0.000000
0.7749999999999995  0.000000  0.000000  0.000000  -30.455267901432368  0.24938520895590915  7.838425324052872  54.389205447088315  2.73855427482688  -11.190759372585928  31.435138192610296  27.330832111151466  -20.454786151338762  21.522311116399546  0.000000
0.8059999999999995  0.000000  0.000000  0.000000  -30.452314129728904  0.44034837704906676  8.180369381598238  54.521421779026355  2.837430316835032  -11.099416851954665  30.359897337534925  29.108851335536027  -20.069903513190575  21.44667899619536  0.000000
0.8369999999999994  0.000000  0.000000  0.000000  -30.43356103600215  0.6298093353529265  8.594201240263258  54.66362056856187  2.9413263788011066  -11.035911591478525  29.401888973873948  30.869381741311173  -19.777315846478402  21.353866644259103  0.000000
0.8679999999999994  0.000000  0.000000  0.000000  -30.3987960401271  0.8165894768295321  9.085459596309654  54.81592027163956  3.044496142593796  -11.002477925439068  28.554286105411016  32.59113880345473  -19.57376624746266  21.24116427143421  0.000000
0.8989999999999994  0.000000  0.000000  0.000000  -30.35029159690063  1.0009435475662902  9.654853578219925  54.976573382878875  3.142653854374764  -10.998619542763482  27.809199239340906  34.25532759019164  -19.454372930937687  21.10531657051471  0.000000
0.9299999999999994  0.000000  0.000000  0.000000  -30.292736642546544  1.1846878746055827  10.299296682532695  55.142843953003165  3.231733165168859  -11.021317661802014  27.157262311201617  35.84782916000495  -19.41289916591334  20.94354668039103  0.000000
0.9609999999999993  0.000000  0.000000  0.000000  -30.233091585640143  1.3711212081889737  11.01323651928854  55.311624049762976  3.3078393024730257  -11.065460992827015  26.58790640155841  37.36007245772794  -19.441944862800185  20.754151807580016  0.000000
0.9919999999999993  0.000000  0.000000  0.000000  -30.180309672134662  1.5646444407106197  11.788882146142011  55.48012464932614  3.3684605012608695  -11.123596120281826  26.089680711218456  38.78905617065668  -19.5330438727871  20.53682800947453  0.000000
1.0229999999999992  0.000000  0.000000  0.000000  -30.144358188622046  1.7702919282248466  12.61653657347786  55.64678182326246  3.413336287997788  -11.185715742237424  25.649856886786285  40.136659532205854  -19.67567752271784  20.29315492268934  0.000000
1.0539999999999994  0.000000  0.000000  0.000000  -30.134617208013697  1.9928730184434902  13.484987269081696  55.812237794057644  3.44476675439333  -11.239186780984278  25.252980970339664  41.408698107262246  -19.855342152003132  20.02735681581951  0.000000
1.0849999999999993  0.000000  0.000000  0.000000  -30.1582905274259  2.236073303471704  14.381701572421573  55.979844159340985  3.467604274954904  -11.269079356941823  24.87969900714834  42.61374731377526  -20.052000520687763  19.747041176603904  0.000000
1.1159999999999992  0.000000  0.000000  0.000000  -30.219488863044212  2.501794064003723  15.292807247418336  56.15511846943629  3.489012656882538  -11.259078725395582  24.507123809954734  43.76189166279559  -20.240365141378668  19.463323334663226  0.000000
1.1469999999999991  0.000000  0.000000  0.000000  -30.319656833829185  2.790031022487547  16.2031747519822  56.34401405548021  3.5179450647128023  -11.193219780624103  24.111907246911542  44.86355576737027  -20.393396434215614  19.189500466297307  0.000000
1.1779999999999993  0.000000  0.000000  0.000000  -30.45897995316218  3.099428310771054  17.09693324620543  56.55064044228996  3.5641395264891926  -11.058161423755719  23.675020445045607  45.92852006286141  -20.487727315654062  18.938497447651866  0.000000
1.2089999999999992  0.000000  0.000000  0.000000  -30.637911974809725  3.4279101979241666  17.958482201179944  56.77547559353237  3.6367736751363644  -10.845264959567183  23.186005294619516  46.96520331490101  -20.508774613166256  18.720014330117664  0.000000
1.239999999999999  0.000000  0.000000  0.000000  -30.85763292199238  3.773053636012101  18.773737749224516  57.01507542250278  3.74318845567067  -10.55158045836383  22.644287257766322  47.98020744559443  -20.452912230400504  18.538729778931657  0.000000
1.2709999999999992  0.000000  0.000000  0.000000  -31.119218143081945  4.132308435021787  19.53137600130159  57.26337387466878  3.887988675756327  -10.179605001092892  22.05711376784328  48.97803674627654  -20.326292824310244  18.394263836784198  0.000000
1.3019999999999992  0.000000  0.000000  0.000000  -31.422054305314106  4.502819947648379  20.223743552444347  57.51365549241371  4.072777967021833  -9.73608896899303  21.43569162847371  49.96098443169875  -20.141560596657776  18.282519750750513  0.000000
1.332999999999999  0.000000  0.000000  0.000000  -31.762651843438118  4.881157434022363  20.847052146706385  57.76004570479491  4.29649435463801  -9.230534433309082  20.791962697697645  50.92911619240979  -19.914682221278696  18.197504420898515  0.000000
1.363999999999999  0.000000  0.000000  0.000000  -32.13462733132774  5.263418140877583  21.400852952540287  57.99809976704373  4.555970719793582  -8.673855381668504  20.137308684830256  51.88033226222121  -19.662784579825047  18.13284215629671  0.000000
1.3949999999999991  0.000000  0.000000  0.000000  -32.52986898273983  5.6456455784475645  21.887284551117585  58.22455714130335  4.8462473310526235  -8.077627179949031  19.482872331758486  52.810425673325014  -19.4028780131388  18.082700415138873  0.000000
1.425999999999999  0.000000  0.000000  0.000000  -32.9400035290923  6.024108387436703  22.310084874690773  58.43682843909325  5.160851707099649  -7.453821623493097  18.84036066453589  53.71325182603472  -19.15055283041494  18.042278319543943  0.000000
1.456999999999999  0.000000  0.000000  0.000000  -33.357116909830644  6.395209096124747  22.673305051479513  58.632660877810444  5.492496473496626  -6.814641794927898  18.221929736378375  54.58107823532429  -18.91812064479569  18.00802796678753  0.000000
1.487999999999999  0.000000  0.000000  0.000000  -33.77335018605737  6.755022879563499  22.980506999170217  58.81026722696291  5.833706155387406  -6.172528900848038  17.6388491803956  55.40522342122185  -18.7125692390631  17.977745755481784  0.000000
1.518999999999999  0.000000  0.000000  0.000000  -34.18038604688384  7.098578939021151  23.234756720725656  58.968773902284646  6.177145729174535  -5.5404139390749565  17.099925725794606  56.17673524043572  -18.534770808742746  17.95079190331575  0.000000
1.549999999999999  0.000000  0.000000  0.000000  -34.5695410604408  7.419570087478012  23.43890640679374  59.108555814747135  6.515834232271239  -4.931726115587231  16.610839502277138  56.886744305369234  -18.381051975055076  17.928169893203634  0.000000
1.5809999999999989  0.000000  0.000000  0.000000  -34.93295882713525  7.710931005794076  23.596127875796203  59.23114485498052  6.843182209195683  -4.359883346177931  16.174924824318296  57.526256027451446  -18.24656669903531  17.9121549973995  0.000000
1.611999999999999  0.000000  0.000000  0.000000  -35.26505575959198  7.966211943457313  23.710331401839802  59.33858815121877  7.153039391209047  -3.8373932593794193  15.795054247550864  58.08570184468928  -18.128300444723077  17.905315767379776  0.000000
1.642999999999999  0.000000  0.000000  0.000000  -35.56305147061777  8.18128144104629  23.78648283195253  59.43231059287528  7.439313097302639  -3.3751233311787074  15.475457233935565  58.55452018097159  -18.026063492789234  17.9091494594206  0.000000
1.6739999999999988  0.000000  0.000000  0.000000  -35.82611177156532  8.354826996473081  23.8298979967844  59.51230278302748  7.695655214815627  -2.9821302424626768  15.222514410533725  58.92151743583994  -17.941790045923053  17.923296823949798  0.000000
1.7049999999999987  0.000000  0.000000  0.000000  -36.053444163533364  8.487738137909595  23.844439274375883  59.57687272421054  7.915827527603218  -2.6655496111839265  15.044098664230193  59.17576259509919  -17.87885178149809  17.945566482756437  0.000000
1.7359999999999989  0.000000  0.000000  0.000000  -36.242144268706305  8.581882688571673  23.83147234168063  59.62307904679078  8.0938890303998  -2.43091192435089  14.947895390681069  59.30772915524374  -17.842006610217094  17.97244002400708  0.000000
1.7669999999999988  0.000000  0.000000  0.000000  -36.386277442030426  8.638476349052953  23.79006871296022  59.64770967989001  8.224358748835051  -2.28289657867949  14.939724462536281  59.31015506120335  -17.837723674648036  17.99997465173548  0.000000
1.7979999999999987  0.000000  0.000000  0.000000  -36.47749768282467  8.657012445610217  23.717637240812444  59.648314666662316  8.303020148818751  -2.2254575296557473  15.022575506453986  59.178315139501805  -17.874645728760843  18.024603396184116  0.000000
1.8289999999999988  0.000000  0.000000  0.000000  -36.50697280788053  8.635024055108474  23.611370904677347  59.624043392822564  8.32785548779726  -2.261390610729445  15.196437936501523  58.90980540153493  -17.96357051074644  18.04366117093313  0.000000
1.8599999999999988  0.000000  0.000000  0.000000  -36.467665576741716  8.56856156296586  23.470208313489298  59.576165485933124  8.299066468972136  -2.3920206851287773  15.458692367918657  58.504424494108086  -18.116447634362657  18.05581738350515  0.000000
1.8909999999999987  0.000000  0.000000  0.000000  -36.35618263675318  8.453243741192097  23.29600261212351  59.507725685311385  8.218128356955875  -2.617219332579458  15.8049334043464  57.96434567464945  -18.344136699634415  18.0615461786715  0.000000
1.9219999999999986  0.000000  0.000000  0.000000  -36.173602255496775  8.285535286536147  23.092706807197388  59.42241676283778  8.086868440010289  -2.9353518909922736  16.229908218655265  57.29478008531139  -18.653251791912773  18.063622070859182  0.000000
1.9529999999999987  0.000000  0.000000  0.000000  -35.925298314783234  8.064236936424013  22.864722561299676  59.32305382572227  7.906738594977664  -3.343011336345377  16.7282422726598  56.50449288914712  -19.04340246923797  18.06718232169618  0.000000
1.9839999999999987  0.000000  0.000000  0.000000  -35.62001375108499  7.791114537232587  22.615793393745623  59.21068505361306  7.678286420239053  -3.8350680367942  17.294712466840263  55.60587567711664  -19.50618859180864  18.07913359744315  0.000000
2.014999999999999  0.000000  0.000000  0.000000  -35.26872492640299  7.470270107748521  22.348203633266102  59.08466145524177  7.401782854067493  -4.404646661328788  17.924104695055444  54.61430269203994  -20.02683715223647  18.10674999039236  0.000000
2.0459999999999985  0.000000  0.000000  0.000000  -34.88340280906395  7.107130800089688  22.06256083746654  58.94347119815552  7.078542413034929  -5.04288974832365  18.61076950465012  53.54696581162469  -20.587854733388617  18.15559587252493  0.000000
2.0769999999999986  0.000000  0.000000  0.000000  -34.476162236456624  6.707383943165611  21.758609010688062  58.78585157207733  6.71159679178665  -5.739179397792604  19.348176649604362  52.42167134607914  -21.1726168855043  18.22781231766064  0.000000
2.1079999999999988  0.000000  0.000000  0.000000  -34.05871602989278  6.2762685441271655  21.435815510355763  58.61154879764784  6.305575221354427  -6.481607601867141  20.128673058527845  51.25589862558517  -21.767508476458815  18.321725121613532  0.000000
2.1389999999999985  0.000000  0.000000  0.000000  -33.64199493422611  5.818535597230497  21.093161419938596  58.421372632123656  5.866140215770533  -7.25720604327951  20.943343118986654  50.06604222782769  -22.36199135568706  18.432605373512278  0.000000
2.1699999999999986  0.000000  0.000000  0.000000  -33.2356520624944  5.338737490101777  20.72859477043736  58.21691459670779  5.399301936916759  -8.05202390728234  21.78182848346445  48.86679341970834  -22.94726269400574  18.55401893514588  0.000000
2.2009999999999983  0.000000  0.000000  0.000000  -32.84782493029838  4.841510923852025  20.33849899456006  58.00023946349294  4.911172872279662  -8.850954663366286  22.63235461126256  47.670485042252054  -23.514620747725896  18.679175000255572  0.000000
2.2319999999999984  0.000000  0.000000  0.000000  -32.4850090987835  4.331803794171834  19.91722570182239  57.773843112148164  4.408515884884027  -9.637318220570123  23.48190377750885  46.48648530935392  -24.054249671667282  18.801904314384245  0.000000
2.2629999999999986  0.000000  0.000000  0.000000  -32.15209896151811  3.815112569077724  19.45753234165772  57.54078602476834  3.8993503582286158  -10.392759489365469  24.31655050071115  45.320509738532486  -24.554768524135277  18.91724581060893  0.000000
2.2939999999999983  0.000000  0.000000  0.000000  -31.852457623237058  3.297484491586055  18.95165571860114  57.30478473225231  3.393300698879048  -11.098041959466684  25.122275257100394  44.17405668013492  -25.003731132797977  19.021746606178947  0.000000
2.3249999999999984  0.000000  0.000000  0.000000  -31.587824981453736  2.7852910131856534  18.391896894424697  57.06986353502977  2.9020887906737287  -11.73418631533577  25.88627381489772  43.043825085132326  -25.389157307269166  19.113644100222352  0.000000
2.3559999999999985  0.000000  0.000000  0.000000  -31.3580596042798  2.284935292829595  17.771335873568578  56.83990684598758  2.438963266588318  -12.284028225320132  26.59868095193836  41.921728625334104  -25.701780265957595  19.192747114991764  0.000000
2.3869999999999982  0.000000  0.000000  0.000000  -31.16103490562487  1.8024477823531964  17.085965701172046  56.61812123639779  2.0167150518850043  -12.734499709508082  27.25396410676088  40.79545009257692  -25.937231170079762  19.260238402763964  0.000000
2.4179999999999984  0.000000  0.000000  0.000000  -30.992787976632695  1.343000157985757  16.336046810239974  56.40665609617231  1.646455571828083  -13.078225189767357  27.851429111219534  39.64977097386215  -26.097339015399704  19.318245772296493  0.000000
2.4489999999999985  0.000000  0.000000  0.000000  -30.848061096917252  0.910676370934626  15.526415784666062  56.206697838776584  1.3372813179824685  -13.313816842792084  28.395154088172287  38.468238610569635  -26.19039437390473  19.36917124033659  0.000000
2.479999999999998  0.000000  0.000000  0.000000  -30.721197950759073  0.508344908887549  14.666266079145972  56.0189524518312  1.0960191672810797  -13.445298521033125  28.89352247085065  37.235419153718034  -26.23053873841434  19.415140372536335  0.000000
2.5109999999999983  0.000000  0.000000  0.000000  -30.606905674587193  0.13814711715738873  13.76865897873878  55.84413679003768  0.9270885573561074  -13.48091369704723  29.358265581653566  35.93892528098402  -26.236024447289697  19.457590346454722  0.000000
2.5419999999999985  0.000000  0.000000  0.000000  -30.50056929743665  -0.19795911921678808  12.850064439685628  55.683048293446966  0.831895515007658  -13.43235809152599  29.80331480971723  34.57106590439182  -26.226822605497542  19.49708600033322  0.000000
2.572999999999998  0.000000  0.000000  0.000000  -30.398733048093657  -0.4981358555031485  11.928732044415167  55.53586201462361  0.8086994938682511  -13.313497682940984  30.24436181241387  33.12957650054997  -26.222399061266973  19.533759156770383  0.000000
2.6039999999999983  0.000000  0.000000  0.000000  -30.29824675466449  -0.7608914387910392  11.021785043939213  55.40172281165855  0.8530283842047922  -13.138861580392877  30.699155913892735  31.61747646990107  -26.24043877644496  19.56772490415891  0.000000
2.634999999999998  0.000000  0.000000  0.000000  -30.195875086812602  -0.9860139588217102  10.143305586944903  55.278684353254576  0.9577667321433241  -12.922723824874346  31.187720126500587  30.04221023807076  -26.296432762646646  19.599491329864122  0.000000
2.665999999999998  0.000000  0.000000  0.000000  -30.089447190237564  -1.1744425384012684  9.302024104549524  55.16399224027856  1.1144971360412756  -12.677644642475299  31.731514011227596  28.414417894841538  -26.403575113268815  19.630440855242  0.000000
2.6969999999999983  0.000000  0.000000  0.000000  -29.97883897127778  -1.3281320587689154  8.501896136956779  55.054664674399525  1.3138935410711707  -12.414184870772981  32.35053388584774  26.746862038896545  -26.571764812961995  19.662825586440256  0.000000
2.727999999999998  0.000000  0.000000  0.000000  -29.866084043256286  -1.4503823721002775  7.746257224765311  54.947747140667474  1.5447435138152834  -12.142148300042265  33.0617100044771  25.053408369471573  -26.807287351784936  19.699966307626497  0.000000
2.758999999999998  0.000000  0.000000  0.000000  -29.754286271299684  -1.544908924017015  7.038692248165475  54.84098751492367  1.7955939429274455  -11.870739850180168  33.88006531195089  23.348074274414827  -27.114759480429363  19.746916641140043  0.000000
2.7899999999999983  0.000000  0.000000  0.000000  -29.646421928120777  -1.615231900722405  6.38272215253362  54.73304875819823  2.0566273638525177  -11.60808893473576  34.819502324895204  21.643797895214586  -27.49806971829784  19.81095141525217  0.000000
2.820999999999998  0.000000  0.000000  0.000000  -29.54425662261827  -1.664170343951678  5.782037321764213  54.62309278923257  2.319900254420954  -11.360818523336683  35.894024880972786  19.951167551250265  -27.962062877986526  19.90120233195615  0.000000
2.851999999999998  0.000000  0.000000  0.000000  -29.448002094246394  -1.6938345083687771  5.240337973602562  54.510836988919  2.579355736367978  -11.134140388735783  37.12067868184876  18.278008514497586  -28.515929156760773  20.027783115258057  0.000000
2.8829999999999982  0.000000  0.000000  0.000000  -29.35627463137536  -1.7058520335920686  4.760614389511305  54.39657461866091  2.8308067180898537  -10.931790012949996  38.523891321365724  16.62953971875661  -29.178249371194198  20.199832747293897  0.000000
2.913999999999998  0.000000  0.000000  0.000000  -29.26741750791907  -1.7017778793081246  4.344432850747716  54.28082351705149  3.071638910720782  -10.755952330215463  40.143007507106205  15.009171396981882  -29.985845580784712  20.423720087757413  0.000000
2.944999999999998  0.000000  0.000000  0.000000  -29.179582956592416  -1.6836561592888077  3.9909029122210975  54.16466735070146  3.300308407260557  -10.607432757381309  42.041984292988545  13.419206259331004  -31.003728043440045  20.701439410992506  0.000000
2.975999999999998  0.000000  0.000000  0.000000  -29.090374148276684  -1.6542391892260073  3.6963614336766026  54.048802309654114  3.515342599283912  -10.485540800000631  44.32722961070474  11.861049793253798  -32.343934100546846  21.030384968568374  0.000000
3.006999999999998  0.000000  0.000000  0.000000  -28.997910218933445  -1.617498195275404  3.45359555957368  53.93436889122793  3.71492290079279  -10.38822306160877  47.17463791660376  10.337029565485059  -34.19145320756193  21.404416391591035  0.000000
3.037999999999998  0.000000  0.000000  0.000000  -28.895215371164465  -1.577339417450077  3.2522672348803248  53.82178832155083  3.896605136623984  -10.31166685417128  50.88249521847864  8.850205250994371  -36.85674458908108  21.81465059472457  0.000000
3.0689999999999977  0.000000  0.000000  0.000000  -28.7789723163925  -1.5390582726156194  3.079571181138927  53.71285475892231  4.0580884675029205  -10.250047885341502  55.97014088277691  7.413788552679699  -40.873125555740835  22.251894616647085  0.000000
3.099999999999998  0.000000  0.000000  0.000000  -28.634414482086697  -1.506406061339175  2.9222200593018095  53.61246771765863  4.19860560760802  -10.195020021860008  63.37719916432256  6.056779276089532  -47.191395513659906  22.708436673769107  0.000000
