Simulation
nRows=101
nColumns=15
endheader
time  TH_x TH_y TH_z SC_y  SC_z  SC_x  AC_y  AC_z  AC_x  GH_y  GH_z  GH_yy  EL_x  PS_y
0.0  0.000000  0.000000  0.000000  -29.937820847521234  -0.012610632182231497  -4.508532797222186  52.841108695706225  10.232993613217701  -4.593030891520522  106.16346199142116  2.317874248796908  -78.27092172192597  22.799690826330167  0.000000
0.03099999999999998  0.000000  0.000000  0.000000  -29.891883092086097  -0.0852455076748351  -3.155574518526052  52.78425003713418  9.3748420951006  -5.625779674928422  95.40519907404052  2.6328761335955  -67.553199289224  22.76518790875123  0.000000
0.06199999999999996  0.000000  0.000000  0.000000  -29.829415040029918  -0.17469630426963412  -1.8543339830196743  52.72297894060082  8.499756941788744  -6.644564632021163  87.84040788988204  3.009157229909804  -60.026740629302964  22.72434613540764  0.000000
0.09299999999999994  0.000000  0.000000  0.000000  -29.770133753847098  -0.2785091878458395  -0.6150333379101338  52.657069846663354  7.624089743511154  -7.634821307806878  82.48969378923267  3.424890468690382  -54.732019044040726  22.663359932723637  0.000000
0.12399999999999992  0.000000  0.000000  0.000000  -29.715909352013078  -0.39115090140266157  0.5558259339543834  52.590815706094766  6.7638527839786775  -8.584673239876668  78.57939545667146  3.8701399381554746  -50.911710081251414  22.572427142051836  0.000000
0.1549999999999999  0.000000  0.000000  0.000000  -29.679453238350455  -0.506007360670326  1.653300902916033  52.527707632912566  5.932673608865089  -9.482071712347683  75.53228110798857  4.346706570170911  -48.00947791906299  22.448733476573576  0.000000
0.1859999999999999  0.000000  0.000000  0.000000  -29.666301586453244  -0.6157483402782715  2.673679511803178  52.46959265334988  5.14154976161877  -10.31727060904046  72.97362768767093  4.860534376641555  -45.670308817189756  22.29336726041424  0.000000
0.21699999999999986  0.000000  0.000000  0.000000  -29.67984642270251  -0.7148625689154582  3.6139854069046886  52.41928661299984  4.399216494762134  -11.081739007263511  70.64226956123107  5.418625900189792  -43.646979939998644  22.112409974452415  0.000000
0.24799999999999983  0.000000  0.000000  0.000000  -29.71846646925347  -0.7995222440759928  4.471843565998981  52.37847153210797  3.7120534572530923  -11.767995528507944  68.38242165137386  6.0277679613591415  -41.79469299574896  21.914426368164857  0.000000
0.2789999999999998  0.000000  0.000000  0.000000  -29.7780669967355  -0.8676530486003119  5.246142873140359  52.349310424475725  3.0838787235455043  -12.370410661449853  66.10123008128816  6.694167471228227  -40.02601609220417  21.710446299564648  0.000000
0.3099999999999998  0.000000  0.000000  0.000000  -29.853515438093808  -0.9183663531731997  5.935766504345717  52.333212497156616  2.517280847907133  -12.885066470171877  63.75408022635894  7.424195610174528  -38.29811329544723  21.514141285056915  0.000000
0.34099999999999975  0.000000  0.000000  0.000000  -29.93999824027743  -0.9519473350396587  6.5390679109786145  52.33231857454179  2.0136788406585513  -13.308335691832632  61.31908613614017  8.224175897363992  -36.586709666865424  21.340862499981437  0.000000
0.3719999999999998  0.000000  0.000000  0.000000  -30.034058733156023  -0.9697925900521931  7.054002663948653  52.349397074046685  1.5732934501498834  -13.63665440346747  58.78833762643977  9.10021290823001  -34.8782074808893  21.206672396475593  0.000000
0.40299999999999975  0.000000  0.000000  0.000000  -30.133472959260608  -0.9738026892869991  7.478133608075098  52.387590437306386  1.195591465836462  -13.867473099179886  56.167577883463814  10.058466000229938  -33.16862751318092  21.12447038417878  0.000000
0.4339999999999997  0.000000  0.000000  0.000000  -30.236228297166175  -0.9656354480237428  7.8086167543969305  52.449366057368785  0.880709349363243  -14.000444009940345  53.47912431894097  11.105106841507098  -31.464977150599978  21.100673072015255  0.000000
0.4649999999999997  0.000000  0.000000  0.000000  -30.339593908959397  -0.9456530824275688  8.043317200949971  52.53553837880876  0.6295305124284439  -14.037044101086884  50.76204945295971  12.245729692068585  -29.784885431787284  21.132247214522664  0.000000
0.49599999999999966  0.000000  0.000000  0.000000  -30.440885807348966  -0.91284896033911  8.183511227838425  52.64487589467312  0.44275198543360217  -13.981054432899755  48.06884788284097  13.484823953224678  -28.154489465588938  21.20665133252205  0.000000
0.5269999999999997  0.000000  0.000000  0.000000  -30.538303976159312  -0.8651442129163868  8.23513555096769  52.77428676326203  0.3209919641457924  -13.839602017729364  45.46041384256632  14.825628847791407  -26.60659080273674  21.304795788427736  0.000000
0.5579999999999996  0.000000  0.000000  0.000000  -30.631783606686643  -0.799757045035  8.20823167476082  52.919258074681906  0.26527376796748176  -13.6226887626492  42.996369695447115  16.26901107206202  -25.175394662528582  21.40630351853959  0.000000
0.5889999999999996  0.000000  0.000000  0.000000  -30.72385504097836  -0.7138664761710027  8.116914214556383  53.07441028565284  0.2759860351329464  -13.342898340621893  40.725735601765756  17.812204783736938  -23.891137703776934  21.494639349908827  0.000000
0.6199999999999996  0.000000  0.000000  0.000000  -30.818112723460718  -0.6051427034519917  7.9793904977474615  53.234668071998115  0.35160063558368077  -13.0148734999054  38.68050875209331  19.44777458352482  -22.775387730136963  21.559608860430057  0.000000
0.6509999999999996  0.000000  0.000000  0.000000  -30.91639475302993  -0.47239022973916944  7.8174490949802085  53.39669657879789  0.4881452255360172  -12.654249271854665  36.871073344541834  21.163180341100144  -21.836350383486522  21.597690586427543  0.000000
0.6819999999999995  0.000000  0.000000  0.000000  -31.016800521138876  -0.3165579569821852  7.655592046515136  53.55980237681579  0.6795954002899035  -12.276816347789154  35.28561867642576  22.940838832411085  -21.06711596005451  21.609882914063146  0.000000
0.7129999999999995  0.000000  0.000000  0.000000  -31.112415729720567  -0.14098379332622718  7.519215934277119  53.72552030111709  0.9190473683174077  -11.898143753231997  33.8956209885715  24.75860563852098  -20.449311843150376  21.598692963369384  0.000000
0.7439999999999996  0.000000  0.000000  0.000000  -31.192493385485786  0.04955538851480056  7.432860570479975  53.89685843416419  1.1992071197647376  -11.532608822726045  32.665604709411056  26.590825133249048  -19.960001435264523  21.566449044694508  0.000000
0.7749999999999995  0.000000  0.000000  0.000000  -31.24563065621084  0.25014563920475313  7.419234148070522  54.07692101028729  1.51193100023664  -11.192269472647387  31.56309480297572  28.40988288551153  -19.578650295712777  21.515324563710596  0.000000
0.8059999999999995  0.000000  0.000000  0.000000  -31.26269690280782  0.45689391082833775  7.498083766298142  54.26808388361009  1.8477458815559673  -10.88644195698059  30.563741657918328  30.188363439085823  -19.28998461883784  21.446416856853926  0.000000
0.8369999999999994  0.000000  0.000000  0.000000  -31.238718788140215  0.6669715014746455  7.684024849090949  54.470824052414  2.1964995299022974  -10.622033436160393  29.651644906259406  31.901788056031076  -19.08379385671715  21.35833204292374  0.000000
0.8679999999999994  0.000000  0.000000  0.000000  -31.173727833096578  0.8783597397684131  7.984581893345081  54.682896257078056  2.548077836488393  -10.403267938554855  28.81681896041719  33.53130684609033  -18.95281481030936  21.247578427721656  0.000000
0.8989999999999994  0.000000  0.000000  0.000000  -31.073377525159007  1.0904634687996178  8.399497016611255  54.899960765911594  2.8926835510530085  -10.230770603528061  28.05371474699421  35.06581674355595  -18.891564168349273  21.111217957138855  0.000000
0.9299999999999994  0.000000  0.000000  0.000000  -30.948292669872057  1.3040756878606292  8.921401788519127  55.116947558442234  3.221538304764515  -10.101140112054777  27.359476675807738  36.50277558431007  -18.89541745059776  20.948160215190416  0.000000
0.9609999999999993  0.000000  0.000000  0.000000  -30.81191619293726  1.52082575330676  9.537136032028219  55.32915816972002  3.5283721185864216  -10.007369854809365  26.731712556090603  37.84717297913957  -18.959359773640905  20.75763013574784  0.000000
0.9919999999999993  0.000000  0.000000  0.000000  -30.6790571028717  1.7432302305399014  10.229250951789144  55.53290758274334  3.81043951355314  -9.939181264044597  26.166935369165728  39.109384733810344  -19.077176264519185  20.53978616367993  0.000000
1.0229999999999992  0.000000  0.000000  0.000000  -30.56494884129811  1.974508444252823  10.977991551048225  55.72654236405907  4.068466336533714  -9.883413445411254  25.659165914344126  40.30288227123316  -19.2401179800256  20.2967950640841  0.000000
1.0539999999999994  0.000000  0.000000  0.000000  -30.483041800837384  2.217660326028141  11.762881713938848  55.91106659795688  4.306484469044512  -9.82467714317123  25.19750298729278  41.441970091599046  -19.434488146164956  20.0331165156731  0.000000
1.0849999999999993  0.000000  0.000000  0.000000  -30.44337016303742  2.4747390832684446  12.563626867108137  56.09044592516444  4.531248266933719  -9.74619887089784  24.764570440906958  42.54014811566996  -19.640099312118625  19.75610676881599  0.000000
1.1159999999999992  0.000000  0.000000  0.000000  -30.451882171672793  2.746450460511513  13.361025577825194  56.27096593628814  4.751172566085905  -9.631100465503788  24.337408810812413  43.60910359749078  -19.8310623517987  19.47613136118964  0.000000
1.1469999999999991  0.000000  0.000000  0.000000  -30.51067579406998  3.0320891570749495  14.137643142217375  56.45954776326732  4.975453435870872  -9.464160253196663  23.89114985945053  44.658231029219266  -19.979576467818017  19.205510243907863  0.000000
1.1779999999999993  0.000000  0.000000  0.000000  -30.6194478805427  3.3301043989555277  14.878500891417655  56.66184224622727  5.213030344865676  -9.233472204668914  23.405127509200025  45.69468763632694  -20.06206282926628  18.956430861627794  0.000000
1.2089999999999992  0.000000  0.000000  0.000000  -30.776976879172864  3.63873140605927  15.572009202637293  56.88056287822751  5.471320532690804  -8.932055064190756  22.86817967526245  46.72358734227575  -20.0647941400994  18.738482397438677  0.000000
1.239999999999999  0.000000  0.000000  0.000000  -30.981714224527693  3.9563283435813266  16.21074790204979  57.11459384878465  5.755213705748203  -8.55885613970953  22.28044500394187  47.74800256354248  -19.98606710883158  18.556657265681036  0.000000
1.2709999999999992  0.000000  0.000000  0.000000  -31.231516684780463  4.281328251032358  16.791688277343457  57.359429032071844  6.066482392133946  -8.118681549346094  21.65085972410633  48.768811612242054  -19.834578207298073  18.411215235654048  0.000000
1.3019999999999992  0.000000  0.000000  0.000000  -31.52280662141717  4.611859014923318  17.31578163824854  57.608814999512596  6.403718069357772  -7.620920498846316  20.992204421321137  49.784655822089896  -19.62528473769683  18.29863322616627  0.000000
1.332999999999999  0.000000  0.000000  0.000000  -31.84983259274793  4.9454840858493165  17.786888860400705  57.856414249123176  6.762812256720585  -7.077560455616952  20.316857649995125  50.79200213188412  -19.37557989643632  18.213115287664415  0.000000
1.363999999999999  0.000000  0.000000  0.000000  -32.204831300163576  5.279379648015955  18.21045444120827  58.09693701375604  7.137659811203698  -6.501301515090747  19.635603403229617  51.78544456634051  -19.103176131855847  18.148116472794975  0.000000
1.3949999999999991  0.000000  0.000000  0.000000  -32.57911676256376  5.6108442393997136  18.59245329078568  58.326356544311174  7.520778309448486  -5.90441551378879  18.958758903736797  52.75799012313278  -18.82530544497689  18.097509432819454  0.000000
1.425999999999999  0.000000  0.000000  0.000000  -32.96428483466524  5.937561032074385  18.938391982058274  58.54148367333899  7.904165188178535  -5.298327613789554  18.297333154607138  53.701362501556325  -18.557657533131177  18.056405997782942  0.000000
1.456999999999999  0.000000  0.000000  0.000000  -33.352879284416005  6.257515323422301  19.252425062705402  58.739682331555635  8.280120268877422  -4.693540914379452  17.66299277228841  54.606432912670314  -18.312555591096668  18.021312032650055  0.000000
1.487999999999999  0.000000  0.000000  0.000000  -33.737883190766446  6.568265317204247  19.53689915591951  58.91904181497853  8.64183664251533  -4.099952739751115  17.066557799017215  55.46386710167709  -18.096930121773525  17.990078524449963  0.000000
1.518999999999999  0.000000  0.000000  0.000000  -34.112100720646865  6.865936694977412  19.792430593872574  59.07871496312039  8.983858146596463  -3.5274230660570254  16.51622714950423  56.264561956215154  -17.911440537146422  17.962049540076336  0.000000
1.549999999999999  0.000000  0.000000  0.000000  -34.46832920323175  7.145098232482015  20.018521047914426  59.21924057702264  9.302017040428165  -2.986252121453482  16.01700187331444  56.999647212195676  -17.752068919175755  17.938158677534762  0.000000
1.5809999999999989  0.000000  0.000000  0.000000  -34.80021864370004  7.399249335134411  20.21468711270627  59.34243012186769  9.592995549559589  -2.487149266233648  15.571772640547628  57.65989176908763  -17.613612994307204  17.92060198755387  0.000000
1.611999999999999  0.000000  0.000000  0.000000  -35.103165579871565  7.622031342646093  20.381048724774015  59.45053510533625  9.853998267145133  -2.0403522045406315  15.183555142786227  58.2350860046693  -17.492871072964093  17.911935515596603  0.000000
1.642999999999999  0.000000  0.000000  0.000000  -35.374882591203885  7.80911008158892  20.518209984595885  59.54497901346102  10.082528793934065  -1.6544014769692734  14.857479649022299  58.71370960966383  -17.389585120056417  17.91386525223493  0.000000
1.6739999999999988  0.000000  0.000000  0.000000  -35.614773446486865  7.959096121703637  20.626610326277895  59.62552967900797  10.276232353952423  -1.3354750462175689  14.601124026598647  59.083647973634825  -17.305736929126983  17.92631173495745  0.000000
1.7049999999999987  0.000000  0.000000  0.000000  -35.82238748214466  8.073118656663526  20.70569155246801  59.69022249351751  10.432803232853809  -1.0874496599536099  14.423234532181308  59.33357908669557  -17.244658522433173  17.94724395524683  0.000000
1.7359999999999989  0.000000  0.000000  0.000000  -35.99560957793491  8.15343062097309  20.753361932790153  59.73603756148146  10.549893385451936  -0.9126085302809226  14.33164101453018  59.45458158239074  -17.210872831873008  17.97329557179585  0.000000
1.7669999999999988  0.000000  0.000000  0.000000  -36.12959487131965  8.201791842082  20.766222277576542  59.75988580709238  10.625297311757768  -0.8124784875188461  14.331451743957395  59.44097236739258  -17.21048729961226  18.00058573273752  0.000000
1.7979999999999987  0.000000  0.000000  0.000000  -36.21707777413389  8.218303890157546  20.74038601964385  59.7596649735669  10.65743393289255  -0.7883252078464972  14.424242007798723  59.29023982165222  -17.251685883034593  18.025476961670147  0.000000
1.8289999999999988  0.000000  0.000000  0.000000  -36.25006771624244  8.200876458611123  20.672894251884657  59.735052093436366  10.64579474989355  -0.8413268468455849  14.608343999288326  59.002156858270894  -17.344798338612904  18.045200702743262  0.000000
1.8599999999999988  0.000000  0.000000  0.000000  -36.22183964140785  8.145524721999909  20.562875837019774  59.687719450812395  10.591110085385345  -0.9724976514048468  14.879689366633865  58.577969984552006  -17.501377720686296  18.058355134351164  0.000000
1.8909999999999987  0.000000  0.000000  0.000000  -36.128693119679454  8.047458207135973  20.411867618278098  59.62079752965412  10.494941631894754  -1.18235656802583  15.232882432459904  58.020307347746105  -17.732071263863652  18.06537656513082  0.000000
1.9219999999999986  0.000000  0.000000  0.000000  -35.97087474642395  7.9026615003333704  20.223333998223055  59.53777096147898  10.358667827309466  -1.470627725423239  15.662152736230189  57.334018180038946  -18.043549378281355  18.068945693844174  0.000000
1.9529999999999987  0.000000  0.000000  0.000000  -35.75255619400345  7.709466913305465  20.001667961520905  59.441000556286674  10.182608386680203  -1.835886834740671  16.16199654708477  56.52707783875145  -18.435572559932005  18.074088517679275  0.000000
1.9839999999999987  0.000000  0.000000  0.000000  -35.48107117738111  7.469166490717185  19.751071575294112  59.3309257745297  9.965965322279366  -2.275270299765183  16.72744983044257  55.61104397922983  -18.900058663916006  18.087621381731903  0.000000
2.014999999999999  0.000000  0.000000  0.000000  -35.16584490314817  7.185586093477829  19.475046601405857  59.20631485806391  9.70731556419133  -2.784217683568073  17.354003659821934  54.600590729078945  -19.42273500655042  18.116652464258188  0.000000
2.0459999999999985  0.000000  0.000000  0.000000  -34.81711313635022  6.863741090878435  19.17649556544626  59.06530642867966  9.40546914768457  -3.3565351287715313  18.037231701868244  53.512453579528405  -19.986713577600337  18.166543331252985  0.000000
2.0769999999999986  0.000000  0.000000  0.000000  -34.44530907547696  6.508454163345672  18.8580938081658  58.90653503164993  9.060201816835342  -3.9847303244707977  18.772434208835424  52.36421481999638  -20.576059164078725  18.239387046927966  0.000000
2.1079999999999988  0.000000  0.000000  0.000000  -34.06096403898066  6.124017684574265  18.522503617553895  58.7299545717808  8.672218022668591  -4.6604466608674135  19.554312997687553  51.173520062878005  -21.177842191664592  18.333601904950047  0.000000
2.1389999999999985  0.000000  0.000000  0.000000  -33.67440094876899  5.714069379973468  18.172128824520524  58.537092618782005  8.242612197771201  -5.374518550101233  20.37620921382402  49.9579153637497  -21.781930557721704  18.444548581104144  0.000000
2.1699999999999986  0.000000  0.000000  0.000000  -33.295449708952475  5.281801563310911  17.808012771016852  58.3308203088222  7.772563814787474  -6.116352558679687  21.229420071493344  48.7349391321631  -22.379367697646554  18.565959127794848  0.000000
2.2009999999999983  0.000000  0.000000  0.000000  -32.93324170330271  4.83064621018236  17.42855340556105  58.11490584121023  7.263498333746817  -6.873080586178667  22.102520833382354  47.521714784626134  -22.960303275339264  18.691172940938902  0.000000
2.2319999999999984  0.000000  0.000000  0.000000  -32.596162179952806  4.364534689945324  17.02886706768886  57.89360288739327  6.717760847039305  -7.629036067595594  22.981237596480923  46.33395767944471  -23.512454274516852  18.81391391710919  0.000000
2.2629999999999986  0.000000  0.000000  0.000000  -32.29242299184158  3.8881160092958615  16.60083880352627  57.671160130322406  6.139453211642976  -8.365987104551794  23.849324273033524  45.184465548039945  -24.02075046952782  18.929694682157507  0.000000
2.2939999999999983  0.000000  0.000000  0.000000  -32.02950968469508  3.406590503287331  16.13398646397623  57.45101137800629  5.535449572401863  -9.064283158573087  24.689830752006646  44.08125192288778  -24.468340097107355  19.035449284497474  0.000000
2.3249999999999984  0.000000  0.000000  0.000000  -31.812783643056598  2.9252037478719592  15.616995746086717  57.234965810716105  4.9161616053255885  -9.704730031682441  25.48664246398906  43.02571584324761  -24.838860260778297  19.128563333740978  0.000000
2.3559999999999985  0.000000  0.000000  0.000000  -31.64491774261473  2.4490318902909207  15.039366705092089  57.02279029133494  4.2954945898417565  -10.270545510400984  26.227010441181424  42.01166004825816  -25.119371341674956  19.208016625244156  0.000000
2.3869999999999982  0.000000  0.000000  0.000000  -31.525406307878512  1.9828594077418482  14.393056061270515  56.81223372039624  3.690148432791016  -10.748940929688365  26.904008269054987  41.02532938267816  -25.303537199886684  19.274794434643397  0.000000
2.4179999999999984  0.000000  0.000000  0.000000  -31.44968381619137  1.5310821523206233  13.673958244989379  56.59973425738683  3.118499444460136  -11.132118284813803  27.51719221258306  40.04638557897104  -25.393582197863033  19.331178530701006  0.000000
2.4489999999999985  0.000000  0.000000  0.000000  -31.4090560703831  1.09773362244437  12.88327921808128  56.38185022160622  2.5991655736705503  -11.417441285524166  28.07190170432628  39.04954779934007  -25.40051804619768  19.379911592300004  0.000000
2.479999999999998  0.000000  0.000000  0.000000  -31.391183146739685  0.6865522582093413  12.028505806007328  56.15677381015229  2.149427720024634  -11.606977889187258  28.57788980770844  38.00706030810896  -25.342969107536582  19.42332436280303  0.000000
2.5109999999999983  0.000000  0.000000  0.000000  -31.381062038168476  0.3011253782513324  11.123729899867419  55.92544679388613  1.7838435836042577  -11.706731375243297  29.047865994859656  36.89159692312994  -25.24507294907212  19.462807774508263  0.000000
2.5419999999999985  0.000000  0.000000  0.000000  -31.362665489097072  -0.05502753259494418  10.189067389655332  55.691747468066964  1.5127968990599419  -11.725719485346364  29.49630964807093  35.679898823556215  -25.133547786405465  19.498759825559308  0.000000
2.572999999999998  0.000000  0.000000  0.000000  -31.3213140359128  -0.3783313204388437  9.249132110962675  55.46180461028158  1.341350287992491  -11.675354891401234  29.938935587685176  34.35630440996238  -25.034948585096323  19.531152628328222  0.000000
2.6039999999999983  0.000000  0.000000  0.000000  -31.246110084061282  -0.6650286439546594  8.329845943177181  55.24266931740039  1.2689584456694056  -11.568604966736322  30.392340273412447  32.91557811550505  -24.972936164548578  19.56003864810309  0.000000
2.634999999999998  0.000000  0.000000  0.000000  -31.132209179061704  -0.9116447124878867  7.454832743833255  55.04059978938007  1.2896679028837001  -11.419022306845978  30.87382401279474  31.363841130140226  -24.966756321623638  19.586455255427506  0.000000
2.665999999999998  0.000000  0.000000  0.000000  -30.981739746519235  -1.1160086084830396  6.642708072757839  54.859681577187104  1.3924656993366544  -11.24004583117623  31.40122652731631  29.71739410877338  -25.030899917772118  19.612483857294688  0.000000
2.6969999999999983  0.000000  0.000000  0.000000  -30.80239986353249  -1.278200930444488  5.905816777121608  54.701302143870855  1.562543319567823  -11.04462760359672  31.992295254167157  27.99930934170539  -25.175405725843788  19.64059862123931  0.000000
2.727999999999998  0.000000  0.000000  0.000000  -30.605307286060693  -1.400763145277887  5.250755177417585  54.564659012797456  1.7828874195381315  -10.844641713950987  32.664111583617014  26.234822378964232  -25.40609716195605  19.674874379418828  0.000000
2.758999999999998  0.000000  0.000000  0.000000  -30.4026521471857  -1.4881968164849848  4.68038611654688  54.44789444833891  2.0355431485980042  -10.650276320208372  33.43291307183656  24.44660647561699  -25.72528397732901  19.72151225157454  0.000000
2.7899999999999983  0.000000  0.000000  0.000000  -30.20483272036142  -1.5462644172176403  4.1959327395205115  54.34873674986856  2.3032620597094535  -10.470539124415152  34.314081087045444  22.65111534598585  -26.13269910224501  19.78782381935894  0.000000
2.820999999999998  0.000000  0.000000  0.000000  -30.01853968866868  -1.5809144611931873  3.797935466793471  54.264738269432144  2.5713508485312957  -10.3137227151826  35.32351580086482  20.856534206279658  -26.62794277559037  19.881945993838407  0.000000
2.851999999999998  0.000000  0.000000  0.000000  -29.847414669470357  -1.598137677521486  3.486346540241128  54.19339200215513  2.8289018497692315  -10.187142992834113  36.481583523777104  19.06312018657699  -27.215804229146002  20.012385548755763  0.000000
2.8829999999999982  0.000000  0.000000  0.000000  -29.693459570288216  -1.6032639318017823  3.2603055662613802  54.13222937440557  3.0683539585415813  -10.096561117231632  37.822323116966515  17.265224169611656  -27.916265208644425  20.187275722211876  0.000000
2.913999999999998  0.000000  0.000000  0.000000  -29.557260501671486  -1.6012869000860983  3.114967914364902  54.079070048853396  3.2856043378743323  -10.045230856157858  39.40883161658868  15.454365472585714  -28.781666292472796  20.41300862303194  0.000000
2.944999999999998  0.000000  0.000000  0.000000  -29.437158130638238  -1.5990174475111603  3.0396065063621758  54.03234479814175  3.4784734598827156  -10.03403629110707  41.35201040978415  13.622291870421744  -29.91684631260982  20.690433805255164  0.000000
2.975999999999998  0.000000  0.000000  0.000000  -29.329954693778447  -1.6041212705697694  3.019217100338853  53.98874020445234  3.6433875919869068  -10.061866117958647  43.84971288650887  11.763489666252491  -31.52105889629845  21.015848590074658  0.000000
3.006999999999998  0.000000  0.000000  0.000000  -29.232184027586438  -1.6246780381858472  3.0342158842030735  53.94501380140906  3.7758468788132435  -10.1254990640582  47.26005631079492  9.880680892124468  -33.95981240690256  21.382136656951594  0.000000
3.037999999999998  0.000000  0.000000  0.000000  -29.133763050068186  -1.6681004110910893  3.0637727020670025  53.897160725084966  3.870553377045322  -10.220112988653703  52.27963484264634  7.989355330382433  -37.94371697733444  21.778297018284793  0.000000
3.0689999999999977  0.000000  0.000000  0.000000  -29.031848961695548  -1.7402022357805  3.088083575584729  53.84223831690306  3.922077464550964  -10.338921745334696  60.40902885239085  6.139380364233776  -44.99236139630473  22.19371612299169  0.000000
3.099999999999998  0.000000  0.000000  0.000000  -28.90931241011186  -1.8452672794454685  3.0906282469562014  53.78290903745941  3.930412494766512  -10.47553326797179  75.16912727719165  4.460479797839498  -58.64433114856206  22.61556948219986  0.000000
