simulation
nRows=100
nColumns=15
endheader
time  TH_x TH_y TH_z SC_y  SC_z  SC_x  AC_y  AC_z  AC_x  GH_y  GH_z  GH_x  EL_x  PS_y
0.000000  0.000000  0.000000  0.000000  -30.813392  -0.339563  5.256548  53.621930  1.710824  -9.309778  27.981954  2.912333  0.750902  22.668474  122.008067
0.031313  0.000000  0.000000  0.000000  -30.821578  -0.410264  5.273277  53.578626  1.807324  -9.391792  28.076803  2.734548  0.700909  22.758091  122.037272
0.062626  0.000000  0.000000  0.000000  -30.813221  -0.487892  5.287192  53.497420  1.880593  -9.456843  28.181284  2.613623  0.667223  22.774083  122.043410
0.093939  0.000000  0.000000  0.000000  -30.797152  -0.569499  5.295794  53.392969  1.932765  -9.507436  28.263282  2.573048  0.655581  22.727262  122.034656
0.125253  0.000000  0.000000  0.000000  -30.782201  -0.652135  5.296583  53.279934  1.965971  -9.546074  28.290614  2.636271  0.671884  22.628440  122.019190
0.156566  0.000000  0.000000  0.000000  -30.777199  -0.732851  5.287060  53.172973  1.982342  -9.575264  28.230933  2.826655  0.722361  22.488427  122.005188
0.187879  0.000000  0.000000  0.000000  -30.790978  -0.808697  5.264726  53.086745  1.984011  -9.597510  28.051594  3.167434  0.813749  22.318036  122.000828
0.219192  0.000000  0.000000  0.000000  -30.832347  -0.876729  5.227096  53.035878  1.973120  -9.615323  27.719549  3.681592  0.953500  22.128073  122.014235
0.250505  0.000000  0.000000  0.000000  -30.904412  -0.935125  5.176209  53.025314  1.955106  -9.633156  27.222108  4.372000  1.145536  21.927595  122.037270
0.281818  0.000000  0.000000  0.000000  -30.996509  -0.984775  5.125011  53.036636  1.943353  -9.660140  26.596838  5.193180  1.384506  21.721444  122.022576
0.313131  0.000000  0.000000  0.000000  -31.095938  -1.026969  5.088062  53.047976  1.952416  -9.706100  25.888905  6.091874  1.665651  21.513843  121.917000
0.344444  0.000000  0.000000  0.000000  -31.190553  -1.063179  5.078443  53.040165  1.994679  -9.775721  25.137358  7.018360  1.984900  21.311130  121.688931
0.375758  0.000000  0.000000  0.000000  -31.272854  -1.096394  5.096752  53.016847  2.064152  -9.830229  24.327295  7.960085  2.325323  21.137587  121.488957
0.407071  0.000000  0.000000  0.000000  -31.337677  -1.130371  5.137309  52.993140  2.145601  -9.809001  23.417850  8.927184  2.652322  21.026514  121.559278
0.438384  0.000000  0.000000  0.000000  -31.379913  -1.168769  5.194329  52.984145  2.223935  -9.652032  22.371057  9.934987  2.916145  21.010745  122.138667
0.469697  0.000000  0.000000  0.000000  -31.396332  -1.209487  5.258823  52.999234  2.295592  -9.342892  21.196605  11.003547  3.085267  21.093610  123.237892
0.501010  0.000000  0.000000  0.000000  -31.386530  -1.241773  5.316989  53.039164  2.374349  -8.930648  19.971925  12.153534  3.179213  21.234087  124.524977
0.532323  0.000000  0.000000  0.000000  -31.350339  -1.254163  5.354628  53.103984  2.475411  -8.469772  18.777905  13.402827  3.234574  21.387492  125.639675
0.563636  0.000000  0.000000  0.000000  -31.289910  -1.236422  5.364642  53.192168  2.611111  -8.012364  17.679938  14.760628  3.297658  21.514822  126.291700
0.594949  0.000000  0.000000  0.000000  -31.218829  -1.184380  5.374899  53.294445  2.779636  -7.598880  16.680032  16.198566  3.400451  21.605008  126.535111
0.626263  0.000000  0.000000  0.000000  -31.154191  -1.095728  5.424008  53.399168  2.974830  -7.266192  15.758426  17.675630  3.579686  21.655567  126.529739
0.657576  0.000000  0.000000  0.000000  -31.112444  -0.968519  5.548680  53.495690  3.190599  -7.049264  14.890740  19.150791  3.883808  21.664387  126.432179
0.688889  0.000000  0.000000  0.000000  -31.096278  -0.808459  5.745309  53.594728  3.422163  -6.942512  14.037241  20.628875  4.331969  21.637209  126.329701
0.720202  0.000000  0.000000  0.000000  -31.095226  -0.628569  5.971744  53.727418  3.666001  -6.901584  13.147860  22.161875  4.897850  21.587287  126.243302
0.751515  0.000000  0.000000  0.000000  -31.098297  -0.442160  6.184303  53.925703  3.918649  -6.880587  12.175449  23.807803  5.537014  21.528167  126.191316
0.782828  0.000000  0.000000  0.000000  -31.097477  -0.259813  6.355450  54.206709  4.181579  -6.846147  11.096708  25.595710  6.203988  21.468124  126.182329
0.814141  0.000000  0.000000  0.000000  -31.093506  -0.084069  6.505142  54.543989  4.470801  -6.801718  9.948909  27.454014  6.894434  21.399916  126.196251
0.845455  0.000000  0.000000  0.000000  -31.088723  0.083997  6.662027  54.903119  4.804981  -6.757488  8.780831  29.290412  7.616929  21.313465  126.207745
0.876768  0.000000  0.000000  0.000000  -31.085194  0.243310  6.853310  55.252018  5.200268  -6.722808  7.638506  31.016428  8.383608  21.199415  126.193658
0.908081  0.000000  0.000000  0.000000  -31.082009  0.392758  7.090767  55.583642  5.645860  -6.698033  6.532201  32.609269  9.189790  21.056169  126.154228
0.939394  0.000000  0.000000  0.000000  -31.076456  0.531207  7.376818  55.906134  6.114604  -6.678065  5.451870  34.088195  10.014994  20.886837  126.103875
0.970707  0.000000  0.000000  0.000000  -31.065834  0.657543  7.713526  56.227674  6.579488  -6.657807  4.389294  35.474990  10.833712  20.694565  126.056975
1.002020  0.000000  0.000000  0.000000  -31.050802  0.772587  8.081828  56.539221  7.048602  -6.639456  3.331175  36.773061  11.652908  20.479663  126.004441
1.033333  0.000000  0.000000  0.000000  -31.038097  0.880657  8.424425  56.800583  7.593563  -6.638407  2.249189  37.946440  12.551086  20.237304  125.894732
1.064646  0.000000  0.000000  0.000000  -31.035098  0.986441  8.679990  56.968287  8.292674  -6.671450  1.108549  38.947884  13.625090  19.962126  125.671837
1.095960  0.000000  0.000000  0.000000  -31.047984  1.094640  8.806376  57.010734  9.201492  -6.748925  -0.115887  39.736148  14.948397  19.652705  125.297956
1.127273  0.000000  0.000000  0.000000  -31.075651  1.210037  8.877970  56.968496  10.237334  -6.842007  -1.378418  40.363499  16.411994  19.331594  124.845987
1.158586  0.000000  0.000000  0.000000  -31.114253  1.337450  9.012951  56.909260  11.265572  -6.907150  -2.605781  40.935630  17.829850  19.030349  124.430419
1.189899  0.000000  0.000000  0.000000  -31.160269  1.481530  9.326136  56.898986  12.155089  -6.901699  -3.729001  41.576404  19.015824  18.779839  124.162983
1.221212  0.000000  0.000000  0.000000  -31.219844  1.642105  9.830214  56.950837  12.881833  -6.810153  -4.717123  42.329762  19.910405  18.590007  124.071315
1.252525  0.000000  0.000000  0.000000  -31.310192  1.813475  10.420976  57.017542  13.544296  -6.648095  -5.579145  43.127350  20.604123  18.446841  124.086788
1.283838  0.000000  0.000000  0.000000  -31.449133  1.989638  10.987808  57.048522  14.247685  -6.432812  -6.327401  43.884904  21.203147  18.335020  124.135502
1.315152  0.000000  0.000000  0.000000  -31.644977  2.164396  11.466692  57.010027  15.053958  -6.191604  -6.980718  44.536303  21.797415  18.242027  124.159162
1.346465  0.000000  0.000000  0.000000  -31.871742  2.330840  11.961690  56.929021  15.869049  -5.987896  -7.569912  45.102847  22.386934  18.165469  124.155771
1.377778  0.000000  0.000000  0.000000  -32.095714  2.481899  12.614754  56.846152  16.563723  -5.893259  -8.128580  45.627058  22.949816  18.105237  124.136022
1.409091  0.000000  0.000000  0.000000  -32.285365  2.611887  13.542072  56.794586  17.029445  -5.963271  -8.688558  46.149167  23.465899  18.060944  124.110926
1.440404  0.000000  0.000000  0.000000  -32.439330  2.734199  14.504246  56.704165  17.443365  -6.032822  -9.248015  46.662577  23.945210  18.028399  124.095905
1.471717  0.000000  0.000000  0.000000  -32.578238  2.876140  15.002678  56.429421  18.190884  -5.775933  -9.780384  47.125198  24.420965  18.000633  124.109597
1.503030  0.000000  0.000000  0.000000  -32.723154  3.065213  14.534788  55.823807  19.660590  -4.864281  -10.258547  47.492952  24.927908  17.970640  124.170624
1.534343  0.000000  0.000000  0.000000  -32.883945  3.306320  12.967179  54.863119  21.942328  -3.223636  -10.669986  47.748317  25.475304  17.935943  124.280971
1.565657  0.000000  0.000000  0.000000  -33.045954  3.554898  10.974400  53.790907  24.472152  -1.335846  -11.035562  47.934961  26.016045  17.903985  124.406210
1.596970  0.000000  0.000000  0.000000  -33.191283  3.759839  9.337920  52.886151  26.599593  0.243653  -11.381845  48.106495  26.495960  17.883520  124.507092
1.628283  0.000000  0.000000  0.000000  -33.305380  3.877216  8.732881  52.389175  27.763368  1.036451  -11.729250  48.309473  26.866721  17.882072  124.549720
1.659596  0.000000  0.000000  0.000000  -33.398991  3.917377  9.030938  52.248194  28.076106  1.146175  -12.040118  48.525327  27.117386  17.897879  124.540635
1.690909  0.000000  0.000000  0.000000  -33.494417  3.915472  9.736605  52.277942  27.958376  0.942408  -12.249179  48.704724  27.253595  17.924933  124.504856
1.722222  0.000000  0.000000  0.000000  -33.613593  3.906426  10.357953  52.294811  27.827240  0.791612  -12.291953  48.798119  27.281666  17.957236  124.467245
1.753535  0.000000  0.000000  0.000000  -33.759542  3.909688  10.643115  52.218388  27.875460  0.862330  -12.149701  48.788159  27.212544  17.990148  124.441491
1.784848  0.000000  0.000000  0.000000  -33.909345  3.923474  10.669550  52.109837  27.988088  1.051593  -11.866260  48.702105  27.062856  18.020900  124.425959
1.816162  0.000000  0.000000  0.000000  -34.038204  3.944463  10.538578  52.040576  28.027883  1.236759  -11.490343  48.570358  26.849951  18.046854  124.417905
1.847475  0.000000  0.000000  0.000000  -34.125743  3.966226  10.333428  52.069633  27.890050  1.318560  -11.073775  48.411798  26.593875  18.065655  124.413383
1.878788  0.000000  0.000000  0.000000  -34.171195  3.968566  10.057079  52.201072  27.613749  1.301412  -10.682990  48.194611  26.327095  18.076197  124.403116
1.910101  0.000000  0.000000  0.000000  -34.179228  3.927466  9.690261  52.423715  27.278042  1.218475  -10.388712  47.873536  26.085164  18.077719  124.376350
1.941414  0.000000  0.000000  0.000000  -34.154410  3.820165  9.215019  52.725935  26.958444  1.101890  -10.255422  47.406414  25.898603  18.069899  124.323503
1.972727  0.000000  0.000000  0.000000  -34.099431  3.646839  8.637387  53.087819  26.665705  0.965188  -10.244681  46.794344  25.738084  18.060420  124.256354
2.004040  0.000000  0.000000  0.000000  -34.015347  3.427697  7.984359  53.482216  26.353988  0.805641  -10.231217  46.075430  25.526696  18.063959  124.205342
2.035354  0.000000  0.000000  0.000000  -33.903160  3.183618  7.283624  53.881749  25.975587  0.619979  -10.091572  45.288057  25.192478  18.095418  124.201513
2.066667  0.000000  0.000000  0.000000  -33.766668  2.930571  6.557894  54.266055  25.500338  0.408629  -9.753934  44.463366  24.701025  18.163764  124.261295
2.097980  0.000000  0.000000  0.000000  -33.617103  2.671467  5.816636  54.633457  24.944772  0.181857  -9.271504  43.616930  24.099952  18.262172  124.362229
2.129293  0.000000  0.000000  0.000000  -33.466922  2.407066  5.067134  54.985351  24.333104  -0.048455  -8.714087  42.762590  23.445887  18.381215  124.475455
2.160606  0.000000  0.000000  0.000000  -33.327531  2.137673  4.316366  55.322690  23.688176  -0.271616  -8.142876  41.913619  22.786520  18.511616  124.574902
2.191919  0.000000  0.000000  0.000000  -33.200369  1.859229  3.568370  55.642240  23.019802  -0.488286  -7.574402  41.065727  22.127883  18.645502  124.660971
2.223232  0.000000  0.000000  0.000000  -33.081368  1.565268  2.825560  55.938447  22.330593  -0.705392  -7.002721  40.204179  21.455403  18.775771  124.748698
2.254545  0.000000  0.000000  0.000000  -32.966433  1.249384  2.090363  56.205763  21.623129  -0.929865  -6.423157  39.313884  20.755936  18.895374  124.853144
2.285859  0.000000  0.000000  0.000000  -32.853761  0.911464  1.367373  56.440619  20.903066  -1.164030  -5.833337  38.392232  20.027559  19.000172  124.980542
2.317172  0.000000  0.000000  0.000000  -32.745330  0.561766  0.664752  56.642709  20.181130  -1.402622  -5.232093  37.457817  19.284392  19.090824  125.122563
2.348485  0.000000  0.000000  0.000000  -32.643468  0.211515  -0.009003  56.812031  19.468521  -1.639666  -4.616730  36.531450  18.540709  19.168440  125.269518
2.379798  0.000000  0.000000  0.000000  -32.550045  -0.128846  -0.646618  56.948665  18.774288  -1.869615  -3.981920  35.627986  17.805746  19.234345  125.413392
2.411111  0.000000  0.000000  0.000000  -32.464406  -0.453159  -1.247493  57.053144  18.095712  -2.089255  -3.316545  34.728340  17.068410  19.291058  125.555320
2.442424  0.000000  0.000000  0.000000  -32.385045  -0.756721  -1.813299  57.126153  17.426076  -2.296167  -2.609499  33.801453  16.312525  19.341501  125.699543
2.473737  0.000000  0.000000  0.000000  -32.310354  -1.035045  -2.345352  57.168146  16.759007  -2.487890  -1.852325  32.816325  15.524475  19.388540  125.850195
2.505051  0.000000  0.000000  0.000000  -32.236299  -1.288998  -2.836085  57.173785  16.096814  -2.660996  -1.049984  31.756351  14.703593  19.433617  126.008588
2.536364  0.000000  0.000000  0.000000  -32.156307  -1.525047  -3.268637  57.131677  15.450892  -2.811038  -0.219705  30.620652  13.860800  19.476679  126.173081
2.567677  0.000000  0.000000  0.000000  -32.063685  -1.749921  -3.625711  57.030146  14.833059  -2.933525  0.621368  29.409634  13.006508  19.517606  126.341898
2.598990  0.000000  0.000000  0.000000  -31.953486  -1.965696  -3.896069  56.863596  14.250531  -3.025322  1.461752  28.123534  12.149102  19.556486  126.512148
2.630303  0.000000  0.000000  0.000000  -31.826449  -2.159302  -4.088201  56.646234  13.695539  -3.087728  2.306589  26.760616  11.293260  19.594084  126.677327
2.661616  0.000000  0.000000  0.000000  -31.684468  -2.314588  -4.214604  56.396291  13.157267  -3.122938  3.164621  25.318981  10.442361  19.631305  126.830197
2.692929  0.000000  0.000000  0.000000  -31.529930  -2.416895  -4.287991  56.131728  12.625933  -3.133747  4.043443  23.799352  9.599833  19.669143  126.963680
2.724242  0.000000  0.000000  0.000000  -31.371210  -2.469604  -4.323698  55.867279  12.104265  -3.130178  4.933860  22.230598  8.778124  19.709675  127.072642
2.755556  0.000000  0.000000  0.000000  -31.220667  -2.488098  -4.338809  55.615522  11.603320  -3.127067  5.817489  20.660537  7.994274  19.755703  127.153243
2.786869  0.000000  0.000000  0.000000  -31.090672  -2.487934  -4.350368  55.388944  11.134272  -3.139284  6.678590  19.137503  7.263307  19.810075  127.201674
2.818182  0.000000  0.000000  0.000000  -30.985517  -2.478540  -4.366222  55.192657  10.704544  -3.175102  7.518311  17.683428  6.586905  19.880368  127.215285
2.849495  0.000000  0.000000  0.000000  -30.893426  -2.457164  -4.375931  55.017107  10.314094  -3.229672  8.366579  16.266745  5.944317  19.983563  127.193730
2.880808  0.000000  0.000000  0.000000  -30.800726  -2.419615  -4.366891  54.851008  9.961998  -3.296594  9.254249  14.848516  5.315400  20.137753  127.136933
2.912121  0.000000  0.000000  0.000000  -30.695468  -2.362645  -4.328027  54.683861  9.647380  -3.370220  10.207004  13.395442  4.686085  20.358485  127.045275
2.943434  0.000000  0.000000  0.000000  -30.577364  -2.289405  -4.258617  54.510519  9.369702  -3.450002  11.229994  11.918975  4.063092  20.644094  126.922216
2.974747  0.000000  0.000000  0.000000  -30.450969  -2.205700  -4.162232  54.328051  9.128563  -3.537507  12.321403  10.449551  3.460410  20.985775  126.772497
3.006061  0.000000  0.000000  0.000000  -30.320847  -2.117341  -4.042456  54.133533  8.923563  -3.634311  13.480836  9.018037  2.890965  21.374698  126.600861
3.037374  0.000000  0.000000  0.000000  -30.191568  -2.030141  -3.902873  53.924042  8.754301  -3.741986  14.709175  7.655741  2.366467  21.802037  126.412051
3.068687  0.000000  0.000000  0.000000  -30.067698  -1.949913  -3.747068  53.696656  8.620379  -3.862107  16.008358  6.394483  1.897227  22.258961  126.210810
3.100000  0.000000  0.000000  0.000000  -29.953805  -1.882469  -3.578625  53.448449  8.521395  -3.996248  17.381096  5.266666  1.491896  22.736645  126.001883
