simulation
nRows=100
nColumns=15
endheader
time  TH_x TH_y TH_z SC_y  SC_z  SC_x  AC_y  AC_z  AC_x  GH_y  GH_z  GH_yy  EL_x  PS_y
0.000000  0.000000  0.000000  0.000000  -19.997137  7.045069  15.170681  56.426855  14.263130  3.117864  40.204154  60.902069  -43.965107  21.320691  63.116512
0.062626  0.000000  0.000000  0.000000  -20.015218  5.984423  14.368247  56.728072  14.757933  3.070451  39.773384  59.861376  -45.541927  24.530714  65.328504
0.125253  0.000000  0.000000  0.000000  -19.995204  5.168147  13.698760  56.911120  15.094097  3.015770  39.517839  59.007278  -46.860139  26.979117  66.825350
0.187879  0.000000  0.000000  0.000000  -19.942463  4.569958  13.160075  56.994315  15.297499  2.959951  39.403866  58.332962  -47.907459  28.733430  67.716446
0.250505  0.000000  0.000000  0.000000  -19.862363  4.163572  12.755624  56.996411  15.390339  2.904132  39.397811  57.831616  -48.671602  29.861179  68.111187
0.313131  0.000000  0.000000  0.000000  -19.760271  3.922706  12.485438  56.935453  15.398283  2.850223  39.466023  57.496429  -49.140284  30.429894  68.118970
0.375758  0.000000  0.000000  0.000000  -19.641555  3.821075  12.354990  56.830217  15.342751  2.796487  39.574849  57.320587  -49.301222  30.507103  67.849190
0.438384  0.000000  0.000000  0.000000  -19.511584  3.832397  12.361255  56.698207  15.252355  2.745909  39.690636  57.297279  -49.142131  30.160334  67.411243
0.501010  0.000000  0.000000  0.000000  -19.375725  3.930388  12.511615  56.558571  15.146866  2.695835  39.779731  57.419692  -48.650728  29.457116  66.914524
0.563636  0.000000  0.000000  0.000000  -19.239346  4.088765  12.804076  56.429195  15.053618  2.649477  39.808482  57.681014  -47.814729  28.464977  66.468430
0.626263  0.000000  0.000000  0.000000  -19.107815  4.281245  13.245513  56.329472  14.992152  2.605660  39.743236  58.074433  -46.621849  27.251446  66.182356
0.688889  0.000000  0.000000  0.000000  -18.986482  4.483397  13.834883  56.278278  14.986215  2.568295  39.552725  58.593397  -45.062787  25.883605  66.160686
0.751515  0.000000  0.000000  0.000000  -18.880406  4.701002  14.551927  56.299360  15.043378  2.550198  39.244521  59.235599  -43.176813  24.421283  66.426169
0.814141  0.000000  0.000000  0.000000  -18.794410  4.964411  15.355778  56.419397  15.162069  2.574391  38.857794  60.002183  -41.042712  22.918403  66.935141
0.876768  0.000000  0.000000  0.000000  -18.733309  5.304692  16.205792  56.664946  15.339354  2.664120  38.432630  60.894394  -38.740416  21.428719  67.642009
0.939394  0.000000  0.000000  0.000000  -18.701919  5.752911  17.058278  57.061786  15.574616  2.844296  38.009117  61.913479  -36.349858  20.005985  68.501182
1.002020  0.000000  0.000000  0.000000  -18.705013  6.339259  17.870391  57.634688  15.867050  3.138413  37.627390  63.059922  -33.951204  18.703778  69.467701
1.064646  0.000000  0.000000  0.000000  -18.745336  7.052504  18.624286  58.370597  16.215908  3.545464  37.329857  64.298315  -31.635596  17.567365  70.526620
1.127273  0.000000  0.000000  0.000000  -18.822768  7.822931  19.346967  59.204782  16.612500  4.025724  37.162133  65.542566  -29.509680  16.630281  71.705367
1.189899  0.000000  0.000000  0.000000  -18.936975  8.576408  20.074774  60.069630  17.042676  4.534173  37.170075  66.702757  -27.681270  15.925172  73.034568
1.252525  0.000000  0.000000  0.000000  -19.087621  9.238803  20.852784  60.898842  17.484564  5.023086  37.399540  67.688970  -26.258184  15.484687  74.544851
1.315152  0.000000  0.000000  0.000000  -19.274358  9.736060  21.729428  61.626713  17.913045  5.445059  37.896272  68.411406  -25.348062  15.341380  76.266721
1.377778  0.000000  0.000000  0.000000  -19.491662  10.023788  22.718515  62.217326  18.304242  5.767554  38.661451  68.826575  -24.991034  15.491225  78.182543
1.440404  0.000000  0.000000  0.000000  -19.720998  10.132160  23.711632  62.703551  18.668683  6.009247  39.584250  69.007392  -25.057539  15.838254  80.153692
1.503030  0.000000  0.000000  0.000000  -19.941822  10.102877  24.576592  63.127141  19.027059  6.197321  40.536528  69.044765  -25.391780  16.272286  82.022838
1.565657  0.000000  0.000000  0.000000  -20.133587  9.977638  25.181967  63.528849  19.399642  6.357532  41.390140  69.029606  -25.837960  16.683137  83.632648
1.628283  0.000000  0.000000  0.000000  -20.275748  9.798146  25.398632  63.949145  19.805038  6.513297  42.016944  69.052822  -26.240281  16.960625  84.825791
1.690909  0.000000  0.000000  0.000000  -20.352672  9.602306  25.130824  64.414623  20.264976  6.684169  42.321262  69.185287  -26.472204  17.020941  85.489045
1.753535  0.000000  0.000000  0.000000  -20.371744  9.410244  24.501820  64.896184  20.755228  6.853619  42.359533  69.403982  -26.544267  16.903842  85.715851
1.816162  0.000000  0.000000  0.000000  -20.347086  9.236882  23.697421  65.348148  21.237725  6.999563  42.232710  69.658415  -26.507122  16.685245  85.660129
1.878788  0.000000  0.000000  0.000000  -20.292819  9.097143  22.911276  65.725303  21.664892  7.102360  42.041750  69.898091  -26.411426  16.441070  85.475804
1.941414  0.000000  0.000000  0.000000  -20.223065  9.005947  22.338840  65.981651  21.985410  7.147140  41.887610  70.072514  -26.307836  16.247238  85.316804
2.004040  0.000000  0.000000  0.000000  -20.151613  8.975390  22.153287  66.076523  22.151612  7.124054  41.860676  70.136404  -26.246024  16.170676  85.319120
2.066667  0.000000  0.000000  0.000000  -20.089216  8.991829  22.319521  66.022447  22.163504  7.045270  41.955164  70.091917  -26.266717  16.196490  85.455616
2.129293  0.000000  0.000000  0.000000  -20.045012  9.027890  22.684011  65.859533  22.054060  6.935387  42.113957  69.966530  -26.405865  16.266111  85.612080
2.191919  0.000000  0.000000  0.000000  -20.028120  9.056067  23.089413  65.627594  21.859226  6.819716  42.279454  69.787957  -26.699370  16.320561  85.673480
2.254545  0.000000  0.000000  0.000000  -20.047661  9.048855  23.391564  65.368124  21.602330  6.719427  42.394057  69.583915  -27.183140  16.300863  85.524786
2.317172  0.000000  0.000000  0.000000  -20.111815  8.979526  23.442651  65.118706  21.313434  6.660642  42.402923  69.380196  -27.892040  16.150503  85.053542
2.379798  0.000000  0.000000  0.000000  -20.209558  8.837196  23.217377  64.876782  20.997860  6.635239  42.307451  69.163431  -28.839778  15.863249  84.199800
2.442424  0.000000  0.000000  0.000000  -20.311944  8.625771  22.800772  64.601814  20.642194  6.602953  42.161540  68.883685  -30.020306  15.479809  82.952630
2.505051  0.000000  0.000000  0.000000  -20.389335  8.349724  22.280382  64.251477  20.234030  6.522261  42.021104  68.489626  -31.426821  15.042690  81.302981
2.567677  0.000000  0.000000  0.000000  -20.412097  8.013530  21.735139  63.781770  19.768902  6.354640  41.942056  67.929917  -33.052518  14.594400  79.241801
2.630303  0.000000  0.000000  0.000000  -20.350992  7.621768  21.241569  63.148898  19.244610  6.060959  41.979851  67.153964  -34.889857  14.177214  76.760987
2.692929  0.000000  0.000000  0.000000  -20.203920  7.186260  20.826458  62.354802  18.679501  5.639351  42.158828  66.161724  -36.880980  13.817635  73.917059
2.755556  0.000000  0.000000  0.000000  -20.012868  6.730596  20.443323  61.476712  18.116972  5.150659  42.452768  65.035273  -38.886288  13.516543  70.871535
2.818182  0.000000  0.000000  0.000000  -19.823861  6.279445  20.046791  60.599458  17.594404  4.662486  42.830820  63.864215  -40.758691  13.272470  67.795549
2.880808  0.000000  0.000000  0.000000  -19.682925  5.857475  19.614413  59.810932  17.127745  4.235566  43.262132  62.738150  -42.351101  13.083946  64.860235
2.943434  0.000000  0.000000  0.000000  -19.636067  5.489348  19.116357  59.197754  16.738795  3.937151  43.715859  61.746658  -43.516482  12.949504  62.236691
3.006061  0.000000  0.000000  0.000000  -19.708010  5.193374  18.559873  58.816849  16.428722  3.800080  44.164599  60.952030  -44.170595  12.866751  60.053491
3.068687  0.000000  0.000000  0.000000  -19.861195  4.969266  17.998987  58.627627  16.191170  3.787133  44.591042  60.336719  -44.412939  12.830591  58.314779
3.131313  0.000000  0.000000  0.000000  -20.046729  4.813358  17.494847  58.570997  16.019903  3.847662  44.979715  59.868651  -44.376440  12.835438  57.002062
3.193939  0.000000  0.000000  0.000000  -20.215724  4.721982  17.107823  58.586805  15.908844  3.931808  45.315143  59.515753  -44.194024  12.875707  56.096848
3.256566  0.000000  0.000000  0.000000  -20.319287  4.691470  16.896872  58.613695  15.852050  3.992193  45.581850  59.245953  -43.998618  12.945809  55.580644
3.319192  0.000000  0.000000  0.000000  -20.319159  4.714800  16.910253  58.599760  15.838036  3.988586  45.767856  59.030530  -43.903964  13.039424  55.424785
3.381818  0.000000  0.000000  0.000000  -20.235505  4.766506  17.105961  58.544270  15.857281  3.927322  45.880380  58.859202  -43.918353  13.146180  55.544705
3.444444  0.000000  0.000000  0.000000  -20.108459  4.814820  17.411245  58.464537  15.901321  3.829739  45.933203  58.727987  -44.014036  13.254326  55.836731
3.507071  0.000000  0.000000  0.000000  -19.978173  4.827967  17.753904  58.378532  15.961517  3.716322  45.940112  58.632907  -44.163233  13.352109  56.197172
3.569697  0.000000  0.000000  0.000000  -19.884797  4.774173  18.060515  58.304548  16.030424  3.607969  45.914894  58.569985  -44.338166  13.427774  56.522339
3.632323  0.000000  0.000000  0.000000  -19.864665  4.624479  18.257138  58.259232  16.103953  3.526096  45.873612  58.534144  -44.515689  13.469244  56.708447
3.694949  0.000000  0.000000  0.000000  -19.912438  4.380639  18.317848  58.244712  16.169179  3.468053  45.857175  58.508290  -44.723256  13.460909  56.650672
3.757576  0.000000  0.000000  0.000000  -19.997125  4.063317  18.219213  58.249165  16.230684  3.431360  45.921782  58.467933  -45.019465  13.384984  56.243551
3.820202  0.000000  0.000000  0.000000  -20.087362  3.693452  17.949446  58.261267  16.283409  3.407311  46.123860  58.388476  -45.463370  13.223651  55.381613
3.882828  0.000000  0.000000  0.000000  -20.151781  3.291982  17.495018  58.269005  16.323878  3.388018  46.519832  58.245321  -46.114025  12.959092  53.959385
3.945455  0.000000  0.000000  0.000000  -20.160611  2.879157  16.843209  58.262706  16.349882  3.365450  47.164334  58.015001  -47.028273  12.574545  51.876612
4.008081  0.000000  0.000000  0.000000  -20.125686  2.457206  15.992344  58.269845  16.397130  3.341395  48.065277  57.703606  -48.205216  12.080724  49.169297
4.070707  0.000000  0.000000  0.000000  -20.103406  2.009057  14.958559  58.356172  16.537819  3.323451  49.180527  57.348881  -49.582109  11.517783  46.019380
4.133333  0.000000  0.000000  0.000000  -20.152356  1.516693  13.756028  58.585674  16.850294  3.317734  50.465496  56.990123  -51.093174  10.927317  42.615961
4.195960  0.000000  0.000000  0.000000  -20.331121  0.962096  12.402695  59.019101  17.411093  3.325074  51.875594  56.666631  -52.672634  10.350923  39.148140
4.258586  0.000000  0.000000  0.000000  -20.697846  0.327417  10.925175  59.716379  18.288407  3.340077  53.366195  56.417512  -54.254816  9.830092  35.804564
4.321212  0.000000  0.000000  0.000000  -21.263757  -0.387220  9.357676  60.685816  19.493184  3.361662  54.888677  56.261778  -55.785114  9.395328  32.725750
4.383838  0.000000  0.000000  0.000000  -21.952182  -1.148020  7.778637  61.842274  20.907772  3.378608  56.386930  56.180788  -57.229659  9.056545  29.962043
4.446465  0.000000  0.000000  0.000000  -22.676785  -1.917485  6.255555  63.085909  22.417896  3.381579  57.804019  56.151761  -58.556861  8.821396  27.553877
4.509091  0.000000  0.000000  0.000000  -23.351232  -2.658119  4.859741  64.314368  23.911175  3.352708  59.083013  56.151916  -59.735129  8.697530  25.541687
4.571717  0.000000  0.000000  0.000000  -23.889193  -3.332425  3.658957  65.424059  25.282664  3.272037  60.166980  56.158474  -60.732876  8.692600  23.965903
4.634343  0.000000  0.000000  0.000000  -24.233482  -3.912838  2.690639  66.343964  26.466061  3.125857  61.018297  56.154215  -61.532062  8.804271  22.838042
4.696970  0.000000  0.000000  0.000000  -24.426524  -4.405731  1.914345  67.105874  27.493813  2.915617  61.665318  56.140915  -62.160957  8.996089  22.070821
4.759596  0.000000  0.000000  0.000000  -24.531999  -4.824721  1.278756  67.755476  28.406598  2.660681  62.150478  56.124407  -62.657713  9.224321  21.555869
4.822222  0.000000  0.000000  0.000000  -24.613591  -5.183423  0.749220  68.328394  29.223183  2.389295  62.516214  56.110522  -63.060481  9.445229  21.184812
4.884848  0.000000  0.000000  0.000000  -24.734980  -5.495453  0.300676  68.851133  29.948874  2.137160  62.804961  56.105093  -63.407413  9.615080  20.849280
4.947475  0.000000  0.000000  0.000000  -24.946850  -5.769440  -0.086553  69.337414  30.580781  1.945354  63.051387  56.111036  -63.728442  9.697528  20.462493
5.010101  0.000000  0.000000  0.000000  -25.215818  -5.981762  -0.381228  69.746469  31.065413  1.839198  63.239911  56.112411  -64.000340  9.704030  20.077317
5.072727  0.000000  0.000000  0.000000  -25.475052  -6.095965  -0.548329  70.014995  31.349651  1.832741  63.334961  56.085776  -64.178728  9.665060  19.802179
5.135354  0.000000  0.000000  0.000000  -25.657632  -6.075562  -0.529097  70.083056  31.363306  1.915143  63.300911  56.007670  -64.219176  9.611140  19.745649
5.197980  0.000000  0.000000  0.000000  -25.696642  -5.884065  -0.293724  69.880969  31.066888  2.071841  63.102140  55.854633  -64.077249  9.572794  20.016296
5.260606  0.000000  0.000000  0.000000  -25.530115  -5.487953  0.221122  69.350978  30.394143  2.260641  62.702458  55.606906  -63.705727  9.578786  20.718507
5.323232  0.000000  0.000000  0.000000  -25.161623  -4.892981  1.018020  68.515040  29.379784  2.447993  62.058212  55.293785  -63.020468  9.634599  21.901283
5.385859  0.000000  0.000000  0.000000  -24.641164  -4.132717  2.070901  67.454857  28.115703  2.611284  61.120460  54.979304  -61.911178  9.729229  23.574398
5.448485  0.000000  0.000000  0.000000  -24.019712  -3.241321  3.355666  66.251653  26.691803  2.739087  59.840148  54.728233  -60.267011  9.851319  25.746794
5.511111  0.000000  0.000000  0.000000  -23.348247  -2.252951  4.855867  64.984090  25.190187  2.830699  58.168222  54.605340  -57.977121  9.989516  28.427416
5.573737  0.000000  0.000000  0.000000  -22.677292  -1.201803  6.555592  63.726618  23.689993  2.898280  56.058273  54.674073  -54.935653  10.132723  31.622817
5.636364  0.000000  0.000000  0.000000  -22.041814  -0.123384  8.420504  62.536544  22.241721  2.947099  53.555013  54.952339  -51.208645  10.278732  35.257239
5.698990  0.000000  0.000000  0.000000  -21.457648  0.945186  10.354117  61.445037  20.895544  2.986989  50.815150  55.402063  -47.073419  10.436259  39.153748
5.761616  0.000000  0.000000  0.000000  -20.939459  1.966692  12.276106  60.485974  19.680626  3.024067  48.002271  55.981737  -42.820270  10.614690  43.129198
5.824242  0.000000  0.000000  0.000000  -20.501909  2.903916  14.101784  59.693217  18.627010  3.070836  45.279963  56.649851  -38.739495  10.823415  47.000446
5.886869  0.000000  0.000000  0.000000  -20.159661  3.719641  15.737704  59.100226  17.769967  3.146587  42.811813  57.364894  -35.121387  11.071819  50.584343
5.949495  0.000000  0.000000  0.000000  -19.927378  4.376650  17.098951  58.743047  17.136299  3.265595  40.761408  58.085357  -32.256244  11.369289  53.697747
6.012121  0.000000  0.000000  0.000000  -19.819724  4.837726  18.093113  58.657450  16.759979  3.442521  39.292334  58.769731  -30.434361  11.725214  56.157510
6.074747  0.000000  0.000000  0.000000  -19.851361  5.065652  18.621017  58.878965  16.683652  3.688332  38.568179  59.376505  -29.946033  12.148980  57.780487
6.137374  0.000000  0.000000  0.000000  -20.036952  5.023210  18.571595  59.441908  16.965620  4.008212  38.752528  59.864170  -31.081555  12.649975  58.383533
6.200000  0.000000  0.000000  0.000000  -20.391161  4.673184  17.826463  60.379965  17.678739  4.392566  40.008968  60.191216  -34.131224  13.237585  57.783502
