Simulation
nRows=154
nColumns=15
endheader
time  TH_x TH_y TH_z SC_y  SC_z  SC_x  AC_y  AC_z  AC_x  GH_y  GH_z  GH_yy  EL_x  PS_y
0.0  0.000000  0.000000  0.000000  -20.696164362432857  6.940444672409836  16.077963171953062  56.45322733214296  11.701796691332682  3.515944932478812  40.60031833315832  59.24629222519636  -42.596700628263065  21.382489125993484  120.000000
0.04052287581699346  0.000000  0.000000  0.000000  -20.65517145204668  6.94748369366288  16.13304676278873  56.33914505044756  12.239311509967955  4.0176740423928345  40.019220317383876  59.685220806919965  -43.71656082938085  23.41993681900321  120.000000
0.08104575163398692  0.000000  0.000000  0.000000  -20.573958831671654  6.857030623758705  15.787545670700121  56.336022682632674  12.590068235018805  4.242986640913996  39.56986229447744  59.73150430695478  -44.81456173385374  25.26039566170243  120.000000
0.12156862745098038  0.000000  0.000000  0.000000  -20.441067394056233  6.6642169347689615  15.216755047464181  56.38030495321036  12.892304555493011  4.297618286017198  39.24577359617012  59.50251885444447  -45.837673490637485  26.82753091860332  120.000000
0.16209150326797384  0.000000  0.000000  0.000000  -20.294140262595867  6.404874959532602  14.543187755863485  56.44003704551069  13.203530359141354  4.268416662539251  39.052729073426754  59.107756767412255  -46.751807135165315  28.097347539453448  120.000000
0.2026143790849673  0.000000  0.000000  0.000000  -20.149138889663558  6.119524809551606  13.853383255224806  56.48828934741827  13.54532909650834  4.216771784849872  38.972000198872145  58.64620628839689  -47.53593232259695  29.073082149985776  120.000000
0.24313725490196075  0.000000  0.000000  0.000000  -20.024787534241515  5.853764740044037  13.197488568101026  56.51106672256793  13.909342229465143  4.186687090112226  38.97971587060382  58.196278872218684  -48.17838252179698  29.777531215591832  120.000000
0.28366013071895424  0.000000  0.000000  0.000000  -19.9274591983735  5.634328592714369  12.600786571472007  56.50354656741665  14.277864401225013  4.197433131166504  39.045921921575584  57.81060175075919  -48.67145358313485  30.238910220573665  120.000000
0.32418300653594767  0.000000  0.000000  0.000000  -19.852491019321747  5.474309404380569  12.074713778392505  56.465373352075424  14.631644595168892  4.253372013465649  39.14203389162574  57.515487079927865  -49.00917713151156  30.481185467820197  120.000000
0.3647058823529411  0.000000  0.000000  0.000000  -19.792114570294117  5.374477071779216  11.622774542460029  56.400851890622405  14.956431789658645  4.349753325950846  39.24547266795945  57.3191301647757  -49.1860877992478  30.524835810348073  120.000000
0.4052287581699346  0.000000  0.000000  0.000000  -19.73775201476863  5.328296777783696  11.245643223814717  56.31531309419473  15.244511566356982  4.477882286287255  39.33942715607186  57.2182214010069  -49.197644770218105  30.38892367005391  120.000000
0.4457516339869281  0.000000  0.000000  0.000000  -19.683746434024435  5.327130624172288  10.943995598891588  56.214205093217586  15.493295513055092  4.629371583962147  39.41236948124756  57.20423018049035  -49.03952638209853  30.090693676320846  120.000000
0.4862745098039215  0.000000  0.000000  0.000000  -19.62792697246055  5.362347550034312  10.719526157321855  56.102684744052  15.703567452093916  4.797243091475616  39.45625842463515  57.26774174097561  -48.70861487929616  29.647744091132285  120.000000
0.5267973856209149  0.000000  0.000000  0.000000  -19.571412559873448  5.426856912217764  10.575136255222173  55.98573122628319  15.877522162085778  4.9770010994759595  39.46532280554559  57.400720932602624  -48.2026854898912  29.0778478285993  120.000000
0.5673202614379085  0.000000  0.000000  0.000000  -19.51753366531879  5.5156620645378025  10.514441065170978  55.86836846420811  16.017453225497224  5.166512122191301  39.435234163931504  57.59754645933462  -47.52081865557408  28.39900377447416  120.000000
0.6078431372549019  0.000000  0.000000  0.000000  -19.470957732129623  5.625533343087882  10.54109452988718  55.75609459395149  16.124938078124533  5.3656455567760215  39.362819120360875  57.855020639724366  -46.66329428253335  27.62923945932954  120.000000
0.6483660130718953  0.000000  0.000000  0.000000  -19.436991426270502  5.754723833041585  10.657810095769207  55.65520871344267  16.200101814089447  5.575781791599245  39.24675643941109  58.17223599480416  -45.63241951953254  26.786264903953825  120.000000
0.6888888888888888  0.000000  0.000000  0.000000  -19.420717477624347  5.90321208372256  10.865471019038969  55.57256275799887  16.24108229475422  5.8000651182567005  39.08821545199591  58.549846346472556  -44.43300678884468  25.88719427632269  120.000000
0.7294117647058822  0.000000  0.000000  0.000000  -19.426419649946112  6.0727862269974775  11.162562495534022  55.515597991970786  16.244215071004117  6.043235172920978  38.89166280478009  58.989571781744296  -43.072906024479565  24.94816435370047  120.000000
0.7699346405228757  0.000000  0.000000  0.000000  -19.457359030793814  6.2669506466564044  11.545135000311712  55.49210152381471  16.20458415550098  6.311682785951193  38.665170335464964  59.49327712238522  -41.56307628192253  23.984590954909635  120.000000
0.8104575163398692  0.000000  0.000000  0.000000  -19.51575107355591  6.490511383985  12.007051349223943  55.509928206354665  16.117003092951112  6.612940859975373  38.420229954441446  60.06228125034445  -39.917571972386405  23.011404174168383  120.000000
0.8509803921568626  0.000000  0.000000  0.000000  -19.60307954156046  6.749047330287244  12.540454532735193  55.57639033219435  15.977066638678334  6.955473960059497  38.17099103372593  60.69630954020289  -38.15316311381735  22.04330950570864  120.000000
0.8915032679738562  0.000000  0.000000  0.000000  -19.720408956914195  7.048162247404107  13.136183987185108  55.697831899847735  15.78222957120193  7.347828605077027  37.933365549867  61.39282847120183  -36.28980125771386  21.094824157700845  120.000000
0.9320261437908496  0.000000  0.000000  0.000000  -19.86873455378002  7.392581580545994  13.784285524913972  55.87884932885539  15.53276230809056  7.797934167449035  37.72394865116154  62.14610233288656  -34.35102482064182  20.180057600177566  120.000000
0.972549019607843  0.000000  0.000000  0.000000  -20.049361876673455  7.785052729432168  14.474463387179695  56.121680360780054  15.232618692506191  8.311780839084825  37.55912686992767  62.946551434743995  -32.36512785875447  19.31237228850444  120.000000
1.0130718954248366  0.000000  0.000000  0.000000  -20.26418204894034  8.224958381906077  15.196757865042342  56.42551751012052  14.889851465732095  8.892177222761086  37.454128029381806  63.78026148744818  -30.36567884626053  18.504207582056512  120.000000
1.0535947712418299  0.000000  0.000000  0.000000  -20.515551139299603  8.707619079679452  15.942368816218615  56.78623293004477  14.516291741703126  9.537416929139445  37.422424919262774  64.62915460992977  -28.391866150460178  17.766922413634045  120.000000
1.0941176470588234  0.000000  0.000000  0.000000  -20.805795553328785  9.223836454932515  16.70382056532196  57.196533802171025  14.126848712241411  10.240825156100682  37.474856022650066  65.47166478675959  -26.486875885984183  17.11094394733725  120.000000
1.134640522875817  0.000000  0.000000  0.000000  -21.13645039694902  9.760075347599454  17.47384889986093  57.64631317931129  13.738767753466176  10.991061085742842  37.61880161645265  66.28426174963643  -24.69561544543211  16.546379136865163  120.000000
1.1751633986928103  0.000000  0.000000  0.000000  -21.50751035192499  10.299809125172183  18.24471059633022  58.12303432439594  13.370197222972077  11.773380775476046  37.85720090759613  67.04313664569577  -23.061630357030975  16.083378576880676  120.000000
1.2156862745098038  0.000000  0.000000  0.000000  -21.916755277337277  10.82480209261416  19.00856891270619  58.61284781156458  13.038427455344534  12.570515504289137  38.188095477050446  67.72646660193111  -21.6238418033388  15.731746291325413  120.000000
1.2562091503267971  0.000000  0.000000  0.000000  -22.359410507076763  11.31648307645334  19.75795083837822  59.10177344171641  12.757864558681161  13.36386339437297  38.604685067124414  68.3169352829906  -20.412947956085738  15.499845497627396  120.000000
1.2967320261437907  0.000000  0.000000  0.000000  -22.82775437019894  11.758030431733062  20.485396880152443  59.57670879410383  12.538408368364117  14.134965789020985  39.09576204922452  68.80395606513915  -19.447649431200503  15.3919306913164  120.000000
1.3372549019607842  0.000000  0.000000  0.000000  -23.310714582630784  12.136371220664502  21.182468599251283  60.02652919054658  12.384433565064494  14.867343309547222  39.646285314759055  69.18485728165167  -18.731311723754498  15.40452944986923  120.000000
1.3777777777777775  0.000000  0.000000  0.000000  -23.794119110280004  12.443837020221881  21.838965907644035  60.44316399385009  12.294358778267847  15.547595135217234  40.238256302614666  69.46507729188605  -18.25098138957228  15.523975033906535  120.000000
1.418300653594771  0.000000  0.000000  0.000000  -24.261731457330875  12.679120735696605  22.443743398152904  60.82204954910986  12.26075929340905  16.165540759763633  40.851180026949685  69.6566161173178  -17.979111012632817  15.72717188725071  120.000000
1.4588235294117644  0.000000  0.000000  0.000000  -24.696759982355644  12.846281524971586  22.986552616150604  61.16250164695943  12.271114105612206  16.71317622038552  41.46275545927793  69.77587086849731  -17.877898009931283  15.984813505918611  120.000000
1.499346405228758  0.000000  0.000000  0.000000  -25.083251613949525  12.953103273021835  23.45888748049828  61.467465024958415  12.309819990366599  17.18419333596374  42.05010855204321  69.84144572728349  -17.904517902844415  16.264782532221275  120.000000
1.5398692810457515  0.000000  0.000000  0.000000  -25.40725533123916  13.010170217829346  23.853987991726594  61.74226768212638  12.360634769833329  17.57449948948817  42.59119109953296  69.87245387430862  -18.015710140432684  16.534696512834905  120.000000
1.5803921568627448  0.000000  0.000000  0.000000  -25.658147912905452  13.029298840370725  24.16762209026344  61.99333854377618  12.408886042400702  17.882674533385778  43.06652363147147  69.88669932362663  -18.17147891278789  16.764238358157854  120.000000
1.6209150326797384  0.000000  0.000000  0.000000  -25.829705977079218  13.021630062681059  24.399016897777404  62.226852677348234  12.442789982626364  18.11014446251956  43.46127796756293  69.89920214717566  -18.338081117521003  16.928698558800832  120.000000
1.661437908496732  0.000000  0.000000  0.000000  -25.921537948920395  12.996790789251575  24.55195546311521  62.4472952406021  12.454210753113978  18.261565304366453  43.76730538111225  69.92063679081282  -18.49013262110063  17.013541935451883  120.000000
1.7019607843137252  0.000000  0.000000  0.000000  -25.93993146410167  12.96257914691988  24.635322294061844  62.65650743804264  12.439070588760735  18.345085873499162  43.98431308835147  69.95661038597784  -18.61123513361991  17.017418019397798  120.000000
1.7424836601307188  0.000000  0.000000  0.000000  -25.897176257571363  12.924787184817673  24.662552391989305  62.85366043343989  12.397512663456753  18.372174548793875  44.11984795603616  70.00799057490913  -18.693309554877892  16.95109715841376  120.000000
1.7830065359477123  0.000000  0.000000  0.000000  -25.809986968789858  12.887767836312856  24.650137854073318  63.03594304751444  12.333261892672793  18.3570634933101  44.18804994775219  70.07214606815367  -18.73482315425712  16.833340000395882  120.000000
1.8235294117647056  0.000000  0.000000  0.000000  -25.697580977961273  12.855008211075235  24.615809757642236  63.199381184090484  12.252892216485042  18.315511759134427  44.207488828316  70.14410689728669  -18.738792708039252  16.68659078040249  120.000000
1.8640522875816992  0.000000  0.000000  0.000000  -25.579630351151405  12.829226913109201  24.576601533394264  63.33947338712817  12.16492698175804  18.263105521509093  44.19842923879168  70.21749470471067  -18.711026686859512  16.5339939793158  120.000000
1.9045751633986925  0.000000  0.000000  0.000000  -25.474277991198168  12.812267015304162  24.547047743120476  63.45178957503726  12.078844348225145  18.213409530910123  44.18003563285509  70.28525383302285  -18.659203928418602  16.397089024499515  120.000000
1.945098039215686  0.000000  0.000000  0.000000  -25.395917793851375  12.804796899963632  24.537419458628154  63.53266949588169  12.003745645734819  18.1763891762192  44.16787320299326  70.34060004394358  -18.59279873510839  16.293154417869825  120.000000
1.9856209150326796  0.000000  0.000000  0.000000  -25.352980125742487  12.805905597579498  24.552278307646848  63.58010828224021  11.946922342320322  18.157175478110666  44.17201654531811  70.37817092308437  -18.52386927220589  16.232051740175756  120.000000
2.026143790849673  0.000000  0.000000  0.000000  -25.34670746358393  12.812991981776946  24.589891671425082  63.594234662448194  11.912613918379868  18.15545065393422  44.19617973736055  70.39489329345763  -18.46764937503918  16.21418072017549  120.000000
2.0666666666666664  0.000000  0.000000  0.000000  -25.37147247571664  12.82175014320814  24.642890939692133  63.577106789125686  11.901645008694675  18.165363571382674  44.237913062389  70.38993349827757  -18.44240194563852  16.231198490525955  120.000000
2.1071895424836597  0.000000  0.000000  0.000000  -25.416413033592445  12.826446336565558  24.699900092134815  63.531954055478856  11.911765295146878  18.176127166941924  44.28981360366598  70.36404923878014  -18.468377411213943  16.268825278492223  120.000000
2.1477124183006535  0.000000  0.000000  0.000000  -25.46754286959963  12.82049655482614  24.747622459008678  63.46252848989083  11.938462313558935  18.173369797160962  44.34124480498999  70.31872764106743  -18.56663221565942  16.309909902922158  120.000000
2.188235294117647  0.000000  0.000000  0.000000  -25.509563572692233  12.79706513460509  24.77269736325658  63.37261357036508  11.975921709420579  18.140898773866226  44.380325854532934  70.25562593042422  -18.757801361930206  16.336632544865076  120.000000
2.22875816993464  0.000000  0.000000  0.000000  -25.527559926121597  12.749745958036236  24.763253433224182  63.26560531293425  12.018000629734102  18.062672754370702  44.39582751524994  70.1758818662681  -19.060956747373726  16.33215096333872  120.000000
2.269281045751634  0.000000  0.000000  0.000000  -25.508648547799694  12.67294072708352  24.7101067518404  63.14384597605293  12.05906033831179  17.924387061305026  44.37890612833159  70.07941042998067  -19.492105592267926  16.282606284576147  120.000000
2.3098039215686272  0.000000  0.000000  0.000000  -25.44378000783021  12.562420411138623  24.607879221687945  63.0077983245025  12.094646561384735  17.7149338739137  44.32448117400345  69.96393138816126  -20.062533470567743  16.179629481608465  120.000000
2.3503267973856206  0.000000  0.000000  0.000000  -25.32875796306531  12.415762080358991  24.455482685473022  62.85553101997051  12.122067032783377  17.42734838468341  44.23207692221214  69.82446131809358  -20.777894722876198  16.021872676990863  120.000000
2.390849673202614  0.000000  0.000000  0.000000  -25.16377851318075  12.232091321620706  24.255627692432565  62.682875259836585  12.140731797840767  17.058996000953325  44.10578896340763  69.65339866307487  -21.638371733871285  15.814620766832634  120.000000
2.4313725490196076  0.000000  0.000000  0.000000  -24.952238865826615  12.011935158308951  24.013666176517418  62.48414573204245  12.151914723607998  16.611105359735042  43.953440555925276  69.44128334884402  -22.639867971119514  15.567799967290437  120.000000
2.471895424836601  0.000000  0.000000  0.000000  -24.699468453107688  11.757105214839926  23.73620190048381  62.253133772210475  12.15834280511402  16.088026276549563  43.7853456762441  69.1778703739954  -23.775447493659705  15.293614815836131  120.000000
2.5124183006535943  0.000000  0.000000  0.000000  -24.41160524072631  11.470412946406377  23.429860196701107  61.98414534207708  12.163846948676179  15.496379408696669  43.613002462193826  68.85330288144159  -25.036074864869914  15.004890185096952  120.000000
2.552941176470588  0.000000  0.000000  0.000000  -24.09515577349132  11.155581487125914  23.100532124833205  61.67313316233102  12.172793508385398  14.844457321752765  43.44809890843473  68.45946135582936  -26.410437680390125  14.714098818668448  120.000000
2.5934640522875814  0.000000  0.000000  0.000000  -23.75705204110551  10.817279013371643  22.75306601294231  61.31896386384476  12.189481632302757  14.141978776304141  43.3017347116636  67.99145506378268  -27.883844352890396  14.432394297854904  120.000000
2.6339869281045747  0.000000  0.000000  0.000000  -23.40459558904987  10.460924329749995  22.39124136759137  60.92453423093696  12.217590900971054  13.400127212626206  43.18368713457898  67.4490806994343  -29.436726193543226  14.16851499819561  120.000000
2.6745098039215685  0.000000  0.000000  0.000000  -23.04563254086297  10.092544128847436  22.01803179640315  60.49749251518056  12.259732673718272  12.63172694379351  43.10179309522307  66.83783028271307  -31.04359755373711  13.927939554944931  120.000000
2.7150326797385618  0.000000  0.000000  0.000000  -22.688614596908785  9.71856371933628  21.635860394649868  60.050025271951036  12.31725817274711  11.851249307328173  43.06158710436335  66.16903824776604  -32.67268604818974  13.71295423461403  120.000000
2.755555555555555  0.000000  0.000000  0.000000  -22.342208686511352  9.345498750998642  21.246858602907945  59.59775996552017  12.390141079141832  11.074381496660878  43.066067965034854  65.4589918383491  -34.28679963524414  13.523711442882886  120.000000
2.796078431372549  0.000000  0.000000  0.000000  -22.015133499098173  8.979871739377039  20.853308507432857  59.158234566106316  12.476782161835727  10.317323640268356  43.115943695947976  64.72735807526158  -35.84520988143979  13.359453989430925  120.000000
2.836601307189542  0.000000  0.000000  0.000000  -21.715784743478206  8.628072901565762  20.457954259900767  58.74918076296907  12.574131362322742  9.59599888092247  43.209861521266895  63.995380410077665  -37.30619906056912  13.219379149885047  120.000000
2.8771241830065355  0.000000  0.000000  0.000000  -21.45122576781537  8.296093475114958  20.064251123720407  58.38663393867958  12.67798818171386  8.92527063187743  43.34459910581084  63.28401420160819  -38.630450913915354  13.102678331018828  120.000000
2.917647058823529  0.000000  0.000000  0.000000  -21.22648880153816  7.989189898226575  19.676451499141162  58.083233586115924  12.783537677413822  8.317783073115432  43.5151859593822  62.61202290795945  -39.785064992731435  13.008892019585783  120.000000
2.9581699346405226  0.000000  0.000000  0.000000  -21.044241968200296  7.711667495122407  19.298846190934402  57.84631600613064  12.886596770555528  7.7829882137707305  43.714811357399476  61.99413380252607  -40.747816621138185  12.93768918616239  120.000000
2.998692810457516  0.000000  0.000000  0.000000  -20.904420687774063  7.466934118556125  18.935304593435983  57.676391405377075  12.984349157358812  7.327121853213794  43.934560244059696  61.439718805999654  -41.51052846076639  12.887027098907678  120.000000
3.039215686274509  0.000000  0.000000  0.000000  -20.80460585952907  7.257463403778128  18.58983890655612  57.56755357249961  13.07540003746525  6.952938927639811  44.164083285775845  60.9526312782828  -42.07919200037325  12.854389289274502  120.000000
3.079738562091503  0.000000  0.000000  0.000000  -20.740609639034115  7.08470894721228  18.267002079358186  57.509368757611234  13.159846220110175  6.659808966350086  44.393359569204556  60.53246066561555  -42.471149123271964  12.838853352729975  120.000000
3.1202614379084963  0.000000  0.000000  0.000000  -20.706476462343613  6.94924273578732  17.971961366169683  57.4888457307206  13.238909226327609  6.444965901984389  44.61391235310425  60.17607822599735  -42.711952774672454  12.839784445966234  120.000000
3.1607843137254896  0.000000  0.000000  0.000000  -20.695070098454433  6.850749598984444  17.710517612328182  57.49218025985119  13.314327210369823  6.303925481844035  44.81915042166479  59.87861308315783  -42.831831500740165  12.856468692836435  120.000000
3.2013071895424834  0.000000  0.000000  0.000000  -20.69921168176267  6.787767916948614  17.48845038452429  57.506366959193635  13.38799114675217  6.230340430218484  45.004235490995306  59.63415102757376  -42.86217674693347  12.88834780151359  120.000000
3.2418300653594767  0.000000  0.000000  0.000000  -20.712394553537447  6.757608320646529  17.31036625162207  57.520213284168456  13.461590775275148  6.2163774532073  45.165590048105145  59.43625129015021  -42.83301341252776  12.93367427676653  120.000000
3.28235294117647  0.000000  0.000000  0.000000  -20.729465820113216  6.75624396573153  17.17887773937132  57.52523937273981  13.536114306118606  6.252775630098945  45.300441334163814  59.278423068360055  -42.770514868773155  12.989637866567106  120.000000
3.322875816993464  0.000000  0.000000  0.000000  -20.74712167728801  6.778161208227937  17.09407944276888  57.5165138786783  13.611632848702822  6.3287820942601165  45.40702641785325  59.15482488015392  -42.69536951163928  13.053435726120373  120.000000
3.363398692810457  0.000000  0.000000  0.000000  -20.76369703882016  6.816500406294833  17.053345534115348  57.49276820588498  13.687441587899638  6.432646544452926  45.484925727804736  59.06065919107612  -42.62285755156514  13.122150971880012  120.000000
3.4039215686274504  0.000000  0.000000  0.000000  -20.778775695362896  6.863379923599404  17.051601027511662  57.45575307317256  13.762439717232581  6.552062769758325  45.53511156111057  58.992027776953286  -42.56401111113363  13.19268767178797  120.000000
3.444444444444444  0.000000  0.000000  0.000000  -20.792949990656723  6.910403441821992  17.08196487409659  57.40923940547218  13.835562287225367  6.674512817470864  45.559931029112484  58.9454951745438  -42.52707467712171  13.26194501766884  120.000000
3.4849673202614375  0.000000  0.000000  0.000000  -20.807502310852442  6.949223683340033  17.136382562332816  57.357985990721325  13.906136341130553  6.787719511542375  45.56304481007495  58.91770952479449  -42.518973250171705  13.326824165807277  120.000000
3.525490196078431  0.000000  0.000000  0.000000  -20.82391293540419  6.97231771250783  17.20650682193926  57.30676916386324  13.973647895661907  6.880129461024513  45.54954411944425  58.90495205691423  -42.546344600162605  13.384258096390646  120.000000
3.5660130718954246  0.000000  0.000000  0.000000  -20.843202627594458  6.9736187962014675  17.284395243893275  57.25986137782544  14.037237132891516  6.941372896572708  45.52626518780804  58.90280367202502  -42.616307514053965  13.431126863495923  120.000000
3.606535947712418  0.000000  0.000000  0.000000  -20.865177295173073  6.9488588995328  17.36250756551278  57.22068058534688  14.095713938019442  6.963035650364909  45.50197798840548  58.90591237379695  -42.73694042083498  13.464055649176286  120.000000
3.6470588235294112  0.000000  0.000000  0.000000  -20.887807361410747  6.896091531266275  17.433755214513212  57.191427654596396  14.14756898233537  6.939415121595746  45.487142685237714  58.907786361960824  -42.91724046034031  13.47904660162339  120.000000
3.6875816993464046  0.000000  0.000000  0.000000  -20.907397215880742  6.815066208317685  17.491400146339643  57.17353818751185  14.191192543145025  6.867172700966756  45.49347471928611  58.90117993998303  -43.16692978360526  13.471286373216403  120.000000
3.7281045751633983  0.000000  0.000000  0.000000  -20.91924690778471  6.706715494360386  17.528666269237192  57.1680091680826  14.224692088348453  6.744888801048009  45.533548833505925  58.87868883675607  -43.49616568969621  13.435430273330931  120.000000
3.7686274509803916  0.000000  0.000000  0.000000  -20.918336209902446  6.573171245526787  17.538730526291157  57.175584129880015  14.245455634738091  6.572691294702991  45.62029685349183  58.83351063905265  -43.91495057763853  13.365764503048567  120.000000
3.809150326797385  0.000000  0.000000  0.000000  -20.900076683165924  6.417202853136097  17.51474455985581  57.19714207715146  14.250549738418874  6.352077582519802  45.766375929067515  58.76059239504183  -44.43211968216586  13.256781631397708  120.000000
3.8496732026143787  0.000000  0.000000  0.000000  -20.86069686463241  6.24225605860722  17.4508899560728  57.23403264855117  14.236590009864672  6.086366552344516  45.98386179786523  58.65775159395683  -45.05441643666712  13.10333205036231  120.000000
3.890196078431372  0.000000  0.000000  0.000000  -20.798012802870463  6.051798997558107  17.343700909044184  57.28877864395586  14.199681979615674  5.780454129408066  46.28415982840519  58.52653209596693  -45.784779723442774  12.90282701718363  120.000000
3.9307189542483654  0.000000  0.000000  0.000000  -20.712819094023498  5.848994899137313  17.191317427064785  57.36459364721557  14.137212951483573  5.440929985969307  46.67725836957249  58.372067486516954  -46.6205519185947  12.657696740264981  120.000000
3.971241830065359  0.000000  0.000000  0.000000  -20.609568498159334  5.637337539263143  16.993675105306565  57.46371635119881  14.048716710235837  5.0772690218605305  47.16954600830303  58.20186893642054  -47.552765562134844  12.371531864001623  120.000000
4.011764705882352  0.000000  0.000000  0.000000  -20.49671419557619  5.420133599549986  16.754214715665505  57.587079754390594  13.935970789030229  4.700910801701981  47.76197186001821  58.024297997148444  -48.56592336531437  12.049117126325358  120.000000
4.052287581699346  0.000000  0.000000  0.000000  -20.38621914528004  5.199919293912966  16.480302556092784  57.73523205216266  13.803355222765822  4.3236850591614795  48.45070608447982  57.84806775113173  -49.63830179152896  11.699859885562775  120.000000
4.0928104575163395  0.000000  0.000000  0.000000  -20.291099558854647  4.978854133058125  16.182765220209255  57.90881125635814  13.657163624031488  3.9578787228315084  49.228598552982255  57.68209037375051  -50.74480592348693  11.335107442572529  120.000000
4.133333333333333  0.000000  0.000000  0.000000  -20.223119585588087  4.75917656648451  15.874964717995361  58.108306857317444  13.504591329389964  3.6154068010004425  50.08592661216709  57.5344589530537  -51.85995550415945  10.966247936980396  120.000000
4.173856209150326  0.000000  0.000000  0.000000  -20.191604108664627  4.5433897900636175  15.571402754342387  58.33379298076867  13.35281644981908  3.3065109191244675  51.01104020297086  57.41151446892104  -52.959842073950036  10.604577761798293  120.000000
4.2143790849673195  0.000000  0.000000  0.000000  -20.20203336334197  4.334488037489907  15.286396935097349  58.584631024311086  13.208020009116012  3.0390147114627455  51.99073581186598  57.31737297160967  -54.024541334518155  10.26003209532659  120.000000
4.254901960784313  0.000000  0.000000  0.000000  -20.254928176227494  4.135785866136884  15.032745111283417  58.85909907980867  13.074313188477971  2.8175869894684045  53.01021438784688  57.25386549614854  -55.03934965096742  9.940791971715031  120.000000
4.295424836601307  0.000000  0.000000  0.000000  -20.34574749283854  3.9506693426750243  14.820284374180188  59.15398362122156  12.952856960497343  2.643521241957015  54.05323642406047  57.22095400067353  -55.995262476313194  9.653378968145777  120.000000
4.3359477124183  0.000000  0.000000  0.000000  -20.4652675174668  3.7825645684027216  14.65502316515414  59.46408733465851  12.841778776429393  2.515307612027467  55.10228969703837  57.2170170682799  -56.888265383449024  9.402318699654995  120.000000
4.376470588235294  0.000000  0.000000  0.000000  -20.60105106797162  3.634370159347404  14.539476327080115  59.782475210830206  12.737119918083458  2.4290396837402963  56.13889044367272  57.23863729313294  -57.71720728406884  9.190596009563988  120.000000
4.416993464052287  0.000000  0.000000  0.000000  -20.73995348889303  3.5077355601624847  14.473588524789768  60.10123790007743  12.634073569716683  2.3785699225841395  57.144548931464264  57.28061339670352  -58.48157312185415  9.02082385482454  120.000000
4.45751633986928  0.000000  0.000000  0.000000  -20.87013614545933  3.402870960218312  14.455644444924596  60.41220255962295  12.527930107781586  2.356055961485943  58.10183584969687  57.33626423190535  -59.1800412867732  8.895669601633179  120.000000
4.498039215686274  0.000000  0.000000  0.000000  -20.98233374340728  3.3186599650028983  14.482980775375172  60.70766411467258  12.4146865974351  2.3527162872147405  58.99543297360424  57.39790382296088  -59.81006453474346  8.817678409203504  120.000000
4.538562091503268  0.000000  0.000000  0.000000  -21.070572061956096  3.2529894061466575  14.55240142174711  60.981126017953365  12.29131740827855  2.359699508707544  59.81328982584541  57.45764545296481  -60.368395608975774  8.788592100617663  120.000000
4.579084967320261  0.000000  0.000000  0.000000  -21.132335215429006  3.2031669941382277  14.660484655967187  61.228006496972526  12.155897324303625  2.369045550600657  60.547667060860554  57.508378580147465  -60.85233680729773  8.80800662384669  120.000000
4.6196078431372545  0.000000  0.000000  0.000000  -21.16845179107219  3.1662919111176353  14.803812172080157  61.446123506156546  12.007676114830252  2.3744467503404696  61.19579998690038  57.544834301275294  -61.261248901278165  8.872059627287284  120.000000
4.660130718954248  0.000000  0.000000  0.000000  -21.18269993056756  3.1396406308640863  14.979031494181589  61.63572861009966  11.847079286248277  2.371653719206616  61.75978351931851  57.56439818323687  -61.597798487845445  8.973088044476395  120.000000
4.700653594771241  0.000000  0.000000  0.000000  -21.180915378166453  3.1209392586835047  15.182685745074393  61.798970493953014  11.67554096421453  2.3584787894392507  62.245589385299  57.567389152179466  -61.868559209324154  9.100483475862262  120.000000
4.741176470588234  0.000000  0.000000  0.000000  -21.17002407016257  3.1084827102712373  15.410980775650344  61.939114560508216  11.495223055517254  2.3345082597995988  62.66174081553321  57.55681732768398  -62.08387842967823  9.24204238656008  120.000000
4.781699346405228  0.000000  0.000000  0.000000  -21.15730255345881  3.1011257652797735  15.659673504655515  62.05990254068336  11.308785081800583  2.300630900954765  63.01797108621491  57.537754808049364  -62.25700941105687  9.385104739445518  120.000000
4.822222222222222  0.000000  0.000000  0.000000  -21.14957619563308  3.09812563453235  15.924080414682088  62.16504227701415  11.119205200938238  2.25855926239502  63.323841669291376  57.516305767070534  -62.40252892347203  9.517408052056672  120.000000
4.862745098039215  0.000000  0.000000  0.000000  -21.152363367754344  3.0989260221974635  16.19910500192891  62.25779516764929  10.929621614839075  2.2103588852897573  63.587428664337324  57.49823264536521  -62.534228257560294  9.628105277848016  120.000000
4.903267973856209  0.000000  0.000000  0.000000  -21.169064417548167  3.1029999540012234  16.47917552923948  62.34054432112186  10.743146235949398  2.1580334326099173  63.81409733215674  57.487344572866604  -62.66271931409834  9.709315040856495  120.000000
4.943790849673202  0.000000  0.000000  0.000000  -21.20037281280238  3.1097922897665655  16.75810206286944  62.41433856660663  10.56272199289527  2.1031622917882262  64.00560872142646  57.48406479576804  -62.793335593408884  9.757676835460446  120.000000
4.984313725490195  0.000000  0.000000  0.000000  -21.244222917327193  3.1186964230562215  17.028972581459737  62.47866229448991  10.391073617147274  2.0466680862615894  64.15988292006176  57.484772298556756  -62.9250609983395  9.774823820608692  120.000000
5.024836601307189  0.000000  0.000000  0.000000  -21.29630654879702  3.1290430444012283  17.28417287949715  62.53151064926794  10.230790035410076  1.9887303761869741  64.27151630833961  57.48222685545354  -63.05076530566627  9.766419469292373  120.000000
5.065359477124183  0.000000  0.000000  0.000000  -21.350911696610467  3.14020068337138  17.515526352446315  62.569604303831014  10.084433302658804  1.928894315695779  64.33267154785506  57.46682988997077  -63.158282237771544  9.740598115569211  120.000000
5.105882352941176  0.000000  0.000000  0.000000  -21.401813229094145  3.1518493043702156  17.714562174095203  62.58858061322777  9.954648652461398  1.8663841999492843  64.33394195811363  57.42829258753367  -63.231692764696824  9.706674186218361  120.000000
5.146405228758169  0.000000  0.000000  0.000000  -21.443079455770388  3.164370302842846  17.87298723796375  62.583199771084175  9.844296618932242  1.800654589374339  64.2649482792426  57.35739048484957  -63.25227851159449  9.674235598187366  120.000000
5.186928104575163  0.000000  0.000000  0.000000  -21.46975447733527  3.1791857347939243  17.98346499988879  62.54774832929868  9.756681895032518  1.7321552612936133  64.11466222142333  57.247603164888524  -63.19901047063981  9.652186571686677  120.000000
5.227450980392156  0.000000  0.000000  0.000000  -21.478387712011976  3.198867342670597  18.040731275327094  62.47675285723922  9.695895024782294  1.6631939164580463  63.87154414078637  57.096390475238046  -63.048492225447944  9.647389313517804  120.000000
5.267973856209149  0.000000  0.000000  0.000000  -21.467380443407  3.227011406754359  18.042739031033022  62.365858169863515  9.667065859877798  1.5986017755800979  63.52353006594192  56.90597675425926  -62.77469617786736  9.663382189595364  120.000000
5.308496732026143  0.000000  0.000000  0.000000  -21.43703445272704  3.268092229068346  17.991373862862975  62.21247737761149  9.676210263808052  1.5459644108689867  63.05790378469487  56.683486587835795  -62.34885572985983  9.700056873704977  120.000000
5.349019607843137  0.000000  0.000000  0.000000  -21.389238000097063  3.3272542740832636  17.89244415985386  62.015987801526514  9.729638033199999  1.5152896777792497  62.46120292894444  56.44039224250967  -61.739901818215344  9.754539987125042  120.000000
5.38954248366013  0.000000  0.000000  0.000000  -21.32712898638707  3.4098815792625055  17.755219219140603  61.77764606142256  9.833087795436713  1.5181116246069326  61.71952918366424  56.191428593109904  -60.915559800342514  9.822558942609005  120.000000
5.4300653594771235  0.000000  0.000000  0.000000  -21.2549072899496  3.5208464198546165  17.591699861257286  61.5004410381937  9.991115071041467  1.5662654043351407  60.819491997553165  55.95308826154628  -59.84425646603804  9.899552350371438  120.000000
5.470588235294117  0.000000  0.000000  0.000000  -21.177754642584958  3.6632922816314015  17.415894068404313  61.189100103635184  10.206421198831814  1.6702076891972863  59.7498357929277  55.74226007929122  -58.498038903563426  9.981199163521342  120.000000
5.51111111111111  0.000000  0.000000  0.000000  -21.10140997560873  3.837806698848128  17.242219768798932  60.85005528977139  10.47926640947293  1.837806987696759  58.50390514642104  55.574940778025734  -56.856886557356795  10.063684546920435  120.000000
5.5516339869281035  0.000000  0.000000  0.000000  -21.031222200989898  4.042119951352099  17.08377762452735  60.491122969588716  10.805784808771138  2.0728431868513684  57.08266886161605  55.4656719757778  -54.91435507369358  10.144564654165002  120.000000
5.592156862745098  0.000000  0.000000  0.000000  -20.97155131331402  4.272079647558498  16.95076677390139  60.120696641709166  11.176076665875318  2.3744193838419423  55.497229104630215  55.427549930984675  -52.682642700877906  10.224092976557136  120.000000
5.632679738562091  0.000000  0.000000  0.000000  -20.92488307637192  4.523807634585441  16.850139374757575  59.746348085571015  11.573830867101776  2.737768922952067  53.77009424857742  55.47202422133943  -50.19537663799305  10.304877814285161  120.000000
5.673202614379084  0.000000  0.000000  0.000000  -20.891341600645703  4.794275788632289  16.786472244762493  59.37479845351781  11.978367634512399  3.154873491196296  51.93457259494189  55.60832007524814  -47.50698006535776  10.390467961173584  120.000000
5.713725490196078  0.000000  0.000000  0.000000  -20.87038307841419  5.081409229804159  16.76075468062255  59.01217072876774  12.369693328971422  3.6164288040397627  50.03398244737193  55.84290243667724  -44.68918788833556  10.48477621544564  120.000000
5.754248366013071  0.000000  0.000000  0.000000  -20.86283348585247  5.384045671493094  16.77177855979126  58.66454191078858  12.730943022959046  4.112815936567244  48.120095391364494  56.178947353161554  -41.827034809014684  10.591206451657316  120.000000
5.794771241830064  0.000000  0.000000  0.000000  -20.8717868906648  5.700855535846803  16.818882637043167  58.3390633736011  13.049104522501496  4.634078300533647  46.25063922225344  56.61517900010853  -39.01498170865088  10.712248700294346  120.000000
5.835294117647058  0.000000  0.000000  0.000000  -20.90282124112187  6.0289865553592685  16.90337648897142  58.04491313153427  13.315734742027917  5.170435236519232  44.48694740357438  57.1442055785473  -36.3528518224608  10.850902291666642  120.000000
5.875816993464052  0.000000  0.000000  0.000000  -20.963335917361167  6.362409266103999  17.03044024155453  57.794061113967516  13.527044484786034  5.7115081105637815  42.89107487624992  57.74989388229276  -33.94174062797743  11.012096618243312  120.000000
5.916339869281045  0.000000  0.000000  0.000000  -21.060241949906633  6.689627070770502  17.20851691971463  57.60125645675341  13.684918049877924  6.245290732897777  41.52017683334393  58.40298538277027  -31.878477414661717  11.200628609940303  120.000000
5.9568627450980385  0.000000  0.000000  0.000000  -21.196307500952994  6.991124196254141  17.446972689939955  57.48424804813108  13.795052212513  6.756092571413049  40.4199773544441  59.057266441541316  -30.249665345553094  11.417565192954173  120.000000
5.997385620915032  0.000000  0.000000  0.000000  -21.365159882760178  7.240418070644692  17.751429428569075  57.46374486114696  13.862408667239277  7.222716386071924  39.619731668546834  59.64609621830859  -29.121494261216636  11.662243943738078  120.000000
6.037908496732025  0.000000  0.000000  0.000000  -21.548053182001834  7.40703240887647  18.11506999354913  57.56403479694005  13.885543311879982  7.6141978050894625  39.129647504660355  60.084391748832296  -28.5294894104774  11.93470611003599  120.000000
6.078431372549018  0.000000  0.000000  0.000000  -21.716745725320752  7.467399180160355  18.509810856336394  57.81269501330305  13.84458536020941  7.886182413347133  38.93994576756522  60.27445551904186  -28.467621842483886  12.22945728091142  120.000000
6.118954248366013  0.000000  0.000000  0.000000  -21.836862425086927  7.421360055553387  18.86588377900652  58.23099082305983  13.695669563015318  7.981766664869786  39.01848407457689  60.118017232615145  -28.876677764025963  12.532198140770022  120.000000
6.159477124183006  0.000000  0.000000  0.000000  -21.895533105857915  7.297188174660257  19.06331566634977  58.83708105063531  13.366051199762026  7.831021422804894  39.32256439507521  59.539784491729186  -29.645989970558187  12.82445029001626  120.000000
6.199999999999999  0.000000  0.000000  0.000000  -21.91093547466309  7.148239065230966  18.940289882216483  59.63190222658131  12.753610633492924  7.380154100243621  39.81851410803254  58.50534070706309  -30.63470505923646  13.093514619574325  120.000000
