Simulation
nRows=154
nColumns=15
endheader
time  TH_x TH_y TH_z SC_y  SC_z  SC_x  AC_y  AC_z  AC_x  GH_y  GH_z  GH_yy  EL_x  PS_y
0.0  0.000000  0.000000  0.000000  -29.91085210336659  10.503631796340327  22.421977250894432  60.57077978930051  3.8251396363530894  3.9327144228247626  41.81680674357172  61.484913003623646  -43.96892403311397  21.188961442700315  120.000000
0.04052287581699346  0.000000  0.000000  0.000000  -30.027520639715615  10.574108398956296  22.663062700548274  61.14626662433032  3.7240290415708093  4.460876857690057  42.743228737217436  61.916172419891026  -45.49661071965581  23.382078630163363  120.000000
0.08104575163398692  0.000000  0.000000  0.000000  -30.278792330536188  10.54829091767155  22.63475455211889  61.533298768137925  3.6117809036991972  4.661661158631925  43.25164145706945  61.999095125092666  -46.81121313833901  25.30100519853293  120.000000
0.12156862745098038  0.000000  0.000000  0.000000  -30.45613559089564  10.41011503251456  22.39916432030277  61.75746768029785  3.587792612059455  4.663283685051266  43.419385577954664  61.801968780496054  -47.90535437582094  26.878225719843456  120.000000
0.16209150326797384  0.000000  0.000000  0.000000  -30.543106000706423  10.19595622015167  22.01537868308544  61.89021659315666  3.655000505386285  4.573850504073161  43.39746870617509  61.430276858973485  -48.79830236886763  28.131151010940343  120.000000
0.2026143790849673  0.000000  0.000000  0.000000  -30.53637827492176  9.951684091041553  21.545868710532154  61.9690340518235  3.7982447991553188  4.468037348144117  43.299557635916365  60.98558779087286  -49.50494205681614  29.08519445680629  120.000000
0.24313725490196075  0.000000  0.000000  0.000000  -30.484396245580427  9.72417995987465  21.050506446528196  62.017857283747325  3.9868864962564756  4.392223371520026  43.212330492222904  60.54927589414544  -50.04803154676203  29.77266892079384  120.000000
0.28366013071895424  0.000000  0.000000  0.000000  -30.425511541937716  9.537606104828567  20.57034740882005  62.04756254771743  4.198701350408216  4.360408643798604  43.16884465211796  60.176440482141984  -50.438961363616734  30.225467952066403  120.000000
0.32418300653594767  0.000000  0.000000  0.000000  -30.376101814239195  9.404243087639903  20.131580176144556  62.05779873847445  4.417865493093122  4.372711398848137  43.17256485428396  59.894326596581664  -50.686128192703244  30.464654243269507  120.000000
0.3647058823529411  0.000000  0.000000  0.000000  -30.339828266707215  9.32543412440092  19.747756192778272  62.04968722130361  4.634301991637305  4.423240790231953  43.21115903642667  59.7114156833452  -50.79308612127657  30.507710896759825  120.000000
0.4052287581699346  0.000000  0.000000  0.000000  -30.312060293542373  9.296128330072275  19.424123179691836  62.02326061697414  4.843232635062516  4.504123261572419  43.268125549364015  59.62445839628722  -50.75981388082215  30.372385705179713  120.000000
0.4457516339869281  0.000000  0.000000  0.000000  -30.288809090266728  9.310173181477907  19.16285488884956  61.98096051858106  5.042732394279136  4.609292585442171  43.32732246826808  59.62457311897641  -50.58525989430013  30.07502549029406  120.000000
0.4862745098039215  0.000000  0.000000  0.000000  -30.268571195909125  9.360791072812932  18.964829498791243  61.92580013176665  5.233264399126614  4.734311381367017  43.374797328591036  59.7021195850957  -50.26694357821007  29.63275483188325  120.000000
0.5267973856209149  0.000000  0.000000  0.000000  -30.253146955832342  9.44232842182173  18.83160413007223  61.86256576758486  5.416613110633654  4.876801744773627  43.39843858911536  59.84833969151006  -49.802667061158466  29.063396791473227  120.000000
0.5673202614379085  0.000000  0.000000  0.000000  -30.246454680795757  9.549999617920893  18.76524998243856  61.796554984606615  5.594695851566372  5.036348402701614  43.38873187754086  60.057015725431356  -49.19021352917963  28.38488443914801  120.000000
0.6078431372549019  0.000000  0.000000  0.000000  -30.25337482884782  9.68023888941482  18.76837030787538  61.73399244538041  5.769014940603479  5.2140523571834425  43.33850422650165  60.323790431659525  -48.42909269458006  27.61542201835628  120.000000
0.6483660130718953  0.000000  0.000000  0.000000  -30.278946237711978  9.830643891275916  18.843264353992424  61.68109877129368  5.939672949446292  5.412700385513041  43.24410394926896  60.646185604944854  -47.52023358585228  26.772695242626487  120.000000
0.6888888888888888  0.000000  0.000000  0.000000  -30.32758999375323  10.000263828863027  18.991405123242707  61.64436043763629  6.105316015439746  5.636496595286645  43.10561378284699  61.02263709554731  -46.467511062694435  25.87381390256516  120.000000
0.7294117647058822  0.000000  0.000000  0.000000  -30.402828777585217  10.189549206681118  19.212795203331538  61.629992239799556  6.263012751661853  5.891317925407366  42.92754431776542  61.45216772135311  -45.2772065745771  24.93488978027406  120.000000
0.7699346405228757  0.000000  0.000000  0.000000  -30.50731946661575  10.400292292976397  19.505837432461604  61.64418776744019  6.408957689030612  6.184303933028581  42.7185536171773  61.93356433794593  -43.95868988566704  23.971333481783777  120.000000
0.8104575163398692  0.000000  0.000000  0.000000  -30.64307801308686  10.63513655494635  19.867348088388795  61.69283500451749  6.53912091335623  6.5236311427917695  42.49107875247587  62.465040118121784  -42.523557479477596  22.998054506081136  120.000000
0.8509803921568626  0.000000  0.000000  0.000000  -30.81165826263777  10.897131365286347  20.29285713322373  61.7814973382153  6.650155618592669  6.917735132667785  42.2602549581663  63.04359609373953  -40.98595440419208  22.029808089169116  120.000000
0.8915032679738562  0.000000  0.000000  0.000000  -31.014117800252247  11.189036661018461  20.776810537401516  61.915076137586965  6.739972414449303  7.3746258368120285  42.04266243461993  63.6648001806062  -39.36241641508706  21.081144953075032  120.000000
0.9320261437908496  0.000000  0.000000  0.000000  -31.250921271264158  11.512731601538714  21.31275030244396  62.097188376187745  6.808361382981059  7.900760624717702  41.85483786233947  64.32223711463772  -37.67274406764133  20.16624200925966  120.000000
0.972549019607843  0.000000  0.000000  0.000000  -31.521942104848016  11.868353222770281  21.893442210433417  62.32955970712868  6.8573583090363766  8.499804402600006  41.711930938571435  65.00742781706666  -35.94085647264812  19.298535963946104  120.000000
1.0130718954248366  0.000000  0.000000  0.000000  -31.826389135826503  12.253738349548785  22.511043121932808  62.61100320045629  6.891428851485906  9.17144570473548  41.62656521064438  65.70955903905393  -34.19575041216018  18.49034386200955  120.000000
1.0535947712418299  0.000000  0.000000  0.000000  -32.162804353898835  12.663947512477451  23.15729636040942  62.937039104123215  6.917369369731175  9.910528703843893  41.608086708862515  66.41584332038985  -32.47165063324774  17.752829287054176  120.000000
1.0941176470588234  0.000000  0.000000  0.000000  -32.529042644092506  13.09119207197284  23.823899334883954  63.299712106209164  6.943233225112051  10.706925536887614  41.66253168392421  67.11185445271707  -30.807040711942808  17.096514927855118  120.000000
1.134640522875817  0.000000  0.000000  0.000000  -32.9211954111323  13.525591889324085  24.502556541001237  63.68825246696944  6.977051270197434  11.54593544765918  41.79278663965911  67.78229838537385  -29.242740569691716  16.53146454151376  120.000000
1.1751633986928103  0.000000  0.000000  0.000000  -33.33337948578035  13.955262713761309  25.185113983656898  64.09018195871994  7.026476248437453  12.409504484805348  41.99881010245124  68.41108913296284  -27.81893037760504  16.067555167685803  120.000000
1.2156862745098038  0.000000  0.000000  0.000000  -33.75860915139759  14.36681729330556  25.863890738619133  64.49274633395522  7.0979139436555485  13.277300848537156  42.277767732443806  68.98304820407813  -26.57226190689345  15.714628473354107  120.000000
1.2562091503267971  0.000000  0.000000  0.000000  -34.1891559608632  14.747309762379421  26.531936042772195  64.88332272058739  7.194938212593443  14.12873712891255  42.62381676325534  69.48557364912918  -25.531924595529016  15.4812938031006  120.000000
1.2967320261437907  0.000000  0.000000  0.000000  -34.61673423273526  15.085750665094324  27.18290885414927  65.25085568659465  7.3176474679972  14.944521430017252  43.02816504499673  69.91032319475786  -24.716075439745456  15.371885414551393  120.000000
1.3372549019607842  0.000000  0.000000  0.000000  -35.03301593694272  15.374436758575222  27.810658865623456  65.58705497037383  7.4622183497361965  15.708568877909407  43.4795779517255  70.2541953595284  -24.128449138500415  15.38301732392332  120.000000
1.3777777777777775  0.000000  0.000000  0.000000  -35.4300882016126  15.60977389304577  28.408830326774734  65.88783798583059  7.6214609212631785  16.408736160037037  43.964735780185094  70.51984163064506  -23.757359069858428  15.50103610116748  120.000000
1.418300653594771  0.000000  0.000000  0.000000  -35.800954976088825  15.792192282291419  28.970428079247664  66.1535386597837  7.785789371926183  17.037152992995534  44.46863304921337  70.71503159043564  -23.57725845796742  15.702881830564177  120.000000
1.4588235294117644  0.000000  0.000000  0.000000  -36.139806102542856  15.925431231827696  29.48766777924767  66.38878355514314  7.944865810894883  17.589224871386804  44.974686707907914  70.8515803596464  -23.55320466418053  15.959251078006721  120.000000
1.499346405228758  0.000000  0.000000  0.000000  -36.44208919386355  16.015621229567238  29.951955408371813  66.60121535497497  8.088888048605638  18.06322167736436  45.46550996246979  70.9438090227329  -23.64535043717914  16.23801547539932  120.000000
1.5398692810457515  0.000000  0.000000  0.000000  -36.70446762555537  16.070440126070007  30.354388840139823  66.80040951294849  8.209751600539551  18.459550274915145  45.924009608243736  71.00720004508355  -23.8136191351685  16.506746992095398  120.000000
1.5803921568627448  0.000000  0.000000  0.000000  -36.92479605092847  16.098367640802355  30.6865762404266  66.99603936962173  8.301672850863266  18.78097550164019  46.335277478235156  71.05672321770005  -24.020934461869786  16.735194250492118  120.000000
1.6209150326797384  0.000000  0.000000  0.000000  -37.10237206319774  16.107658615378504  30.94208040458119  67.19634531185362  8.362116088742207  19.032346922389085  46.68810446237857  71.10516191361785  -24.236248441115954  16.898768673140005  120.000000
1.661437908496732  0.000000  0.000000  0.000000  -37.23860876290341  16.105129279226137  31.118073966570705  67.40609168971324  8.392220316799566  19.220754003686388  46.97639066110478  71.1614420796553  -24.43593430023597  16.983106720593298  120.000000
1.7019607843137252  0.000000  0.000000  0.000000  -37.337226307380334  16.09577101829078  31.21675185625027  67.62538527643181  8.396672826633583  19.3550937546  47.19944864998582  71.2299091580758  -24.604631981755958  16.986987569472262  120.000000
1.7424836601307188  0.000000  0.000000  0.000000  -37.403761844357525  16.083016005638218  31.24568451276579  67.84948724705451  8.382739202075498  19.446052878661064  47.3618991372533  71.31042583700024  -24.734171351488204  16.92118763831878  120.000000
1.7830065359477123  0.000000  0.000000  0.000000  -37.44491815593773  16.069376993081693  31.21738046205835  68.07029121507139  8.359075814752863  19.505289524188676  47.47264263089502  71.39951639948694  -24.822272352537876  16.804357340577603  120.000000
1.8235294117647056  0.000000  0.000000  0.000000  -37.46794757047412  16.056926796736477  31.148158194830657  68.27779102230221  8.334368901812054  19.54462673014964  47.5434771762714  71.49149793233481  -24.87050921162449  16.658813377673845  120.000000
1.8640522875816992  0.000000  0.000000  0.000000  -37.48017902182301  16.047424235609448  31.056682083726727  68.46175947197581  8.316363912946931  19.5745488997193  47.58711416684289  71.57956589855581  -24.8830972777917  16.507502238619495  120.000000
1.9045751633986925  0.000000  0.000000  0.000000  -37.488482120147346  16.042029568627903  30.96199400284928  68.61288915728635  8.310885592090742  19.60300607996499  47.615515290145616  71.6565958748288  -24.865984544380638  16.371745058331953  120.000000
1.945098039215686  0.000000  0.000000  0.000000  -37.49835870116264  16.041051932322134  30.881088148291187  68.72415512820463  8.320971376941609  19.63432301616868  47.638256687044574  71.71620899853563  -24.827206655430935  16.268615817485035  120.000000
1.9856209150326796  0.000000  0.000000  0.000000  -37.5127455134475  16.04375539046342  30.826308540021564  68.79176170368632  8.346041709174157  19.66888400318937  47.66166238015864  71.75382961665255  -24.777629591308624  16.207831981274825  120.000000
2.026143790849673  0.000000  0.000000  0.000000  -37.531202341262706  16.048350031410884  30.803443082200786  68.81577920381652  8.381749385930252  19.703116055040223  47.68827591263212  71.76748751591111  -24.73176105224247  16.189795895528498  120.000000
2.0666666666666664  0.000000  0.000000  0.000000  -37.55019270976268  16.051993441097654  30.811313137991284  68.79962083876929  8.420808315745159  19.729926206478574  47.717233288477935  71.75755919419011  -24.707532734655977  16.20625795736726  120.000000
2.1071895424836597  0.000000  0.000000  0.000000  -37.56411500359183  16.050928823171535  30.84269661246637  68.74909381632098  8.454465362546152  19.739302096188577  47.74486006745693  71.72603285149773  -24.72529884713037  16.24310098944948  120.000000
2.1477124183006535  0.000000  0.000000  0.000000  -37.566448194613834  16.040766701789554  30.886028564538847  68.67128686275197  8.473995247914146  19.719339852289313  47.76572903904038  71.67558852900227  -24.80650531594221  16.2833085642262  120.000000
2.188235294117647  0.000000  0.000000  0.000000  -37.55048727977669  16.016981200617252  30.927231725036787  68.57378264001747  8.471634435762875  19.657501368582363  47.773687378504334  71.60907829553608  -24.972387194360284  16.30919211718486  120.000000
2.22875816993464  0.000000  0.000000  0.000000  -37.50986153243208  15.975375153798062  30.951636131694165  68.46383755146019  8.441205917000202  19.54199968562177  47.76300744708367  71.52891121417443  -25.24262576146542  16.304054847048178  120.000000
2.269281045751634  0.000000  0.000000  0.000000  -37.43909737231628  15.912409536573078  30.94589310755797  68.34730356107892  8.378455354244773  19.362991654416362  47.72939918929756  71.4363324009398  -25.63361575292044  16.254208664606566  120.000000
2.3098039215686272  0.000000  0.000000  0.000000  -37.33434307830857  15.825284445071897  30.89982501947721  68.22733075033555  8.28148941945397  19.113391126797897  47.670887302666635  71.33030218046088  -26.156703279894643  16.1513214297836  120.000000
2.3503267973856206  0.000000  0.000000  0.000000  -37.19378175582187  15.711946546623686  30.807556643947798  68.10341150708679  8.150817632660983  18.789221221430534  47.58831383833204  71.20674252092053  -26.816993391334297  15.994015916040919  120.000000
2.390849673202614  0.000000  0.000000  0.000000  -37.01740611595899  15.571116146204938  30.667664685142277  67.97140161064881  7.989094351080515  18.38945342664258  47.485374876522236  71.0584571973815  -27.613712577416607  15.78751264746482  120.000000
2.4313725490196076  0.000000  0.000000  0.000000  -36.80621865573989  15.4024136256152  30.482267401088613  67.82442729174632  7.800326062190435  17.915555206987005  47.368129927963814  70.8760464780144  -28.541544887449167  15.541611143971972  120.000000
2.471895424836601  0.000000  0.000000  0.000000  -36.56154988734663  15.206410252506242  30.255829243168694  67.65425374280717  7.589274442411916  17.370788811014002  47.24423716562641  70.6491692124716  -29.59238369361212  15.268331098622054  120.000000
2.5124183006535943  0.000000  0.000000  0.000000  -36.28484733879313  14.984571989900193  29.993923000792755  67.45260979928062  7.361005186153449  16.759679363476728  47.12198217164647  70.36803641686235  -30.756004494851805  14.980298585133577  120.000000
2.552941176470588  0.000000  0.000000  0.000000  -35.977982809310085  14.739154946198056  29.702425548602076  67.21247144761374  7.120897206111516  16.087755279026602  47.009412797091045  70.02481363671679  -32.02009691932888  14.689618200337218  120.000000
2.5934640522875814  0.000000  0.000000  0.000000  -35.6440178870782  14.473064832405125  29.386909707489796  66.92952321943675  6.8745135121617365  15.361838288063693  46.91375911245852  69.61523584528315  -33.36900597020746  14.406965672856384  120.000000
2.6339869281045747  0.000000  0.000000  0.000000  -35.28791814182871  14.189876429499808  29.05245856384536  66.6036545645999  6.627420108280126  14.590687346196734  46.841678067829065  69.13994916839005  -34.78250913674362  14.141031630350357  120.000000
2.6745098039215685  0.000000  0.000000  0.000000  -34.91616981464559  13.894155802891248  28.703444586738296  66.24042605407118  6.384465719117125  13.786501127788062  46.79985743430345  68.60559480254949  -36.23490610604484  13.89764498335163  120.000000
2.7150326797385618  0.000000  0.000000  0.000000  -34.53628687307204  13.590953141140286  28.344088868431285  65.85159059700165  6.149218295717652  12.964560098524812  46.79530297367523  68.02480539347768  -37.69465390935096  13.681826131273551  120.000000
2.755555555555555  0.000000  0.000000  0.000000  -34.1566013650304  13.28519473971891  27.979039486305354  65.45293104497676  5.923789850255979  12.1414129984615  46.83368436238705  67.41465084996798  -39.12537491758497  13.498273077780363  120.000000
2.796078431372549  0.000000  0.000000  0.000000  -33.785955852133256  12.982060557146193  27.613144129984377  65.06074852727728  5.709171037963624  11.334654338192193  46.9163367836347  66.79386876161581  -40.489361161974216  13.34499878533945  120.000000
2.836601307189542  0.000000  0.000000  0.000000  -33.43373566990482  12.686625135829232  27.250704882572695  64.68991593481879  5.506245909651887  10.561891196753574  47.03869096057692  66.17986751075124  -41.74896110702581  13.216037662496296  120.000000
2.8771241830065355  0.000000  0.000000  0.000000  -33.109040645960995  12.40298992737221  26.895246940290114  64.35377733614611  5.3168104336730275  9.838795489590611  47.192653073689634  65.58729545632877  -42.86772035222928  13.108555681162269  120.000000
2.917647058823529  0.000000  0.000000  0.000000  -32.81856144208328  12.13499919900074  26.54966047872001  64.0634179458962  5.1428408341854635  9.179599901838165  47.36954528480821  65.02807489167253  -43.815637733277384  13.020952309908903  120.000000
2.9581699346405226  0.000000  0.000000  0.000000  -32.56607225022924  11.886705426381392  26.21663379914153  63.82617610773087  4.986047695799088  8.596356499455634  47.561265343563115  64.51112637806479  -44.57440086707064  12.951598931708693  120.000000
2.998692810457516  0.000000  0.000000  0.000000  -32.35320971699888  11.661882489483755  25.89883580010321  63.644658567406125  4.848192534470643  8.097278055413907  47.76073298178756  64.04230328658022  -45.13984729543381  12.899840374208903  120.000000
3.039215686274509  0.000000  0.000000  0.000000  -32.1797053065408  11.463946176136693  25.599237142508265  63.51662216273239  4.731131474807215  7.686218446502652  47.96191392888663  63.62467123392732  -45.52265056157935  12.865446879812021  120.000000
3.079738562091503  0.000000  0.000000  0.000000  -32.04364325035965  11.29583719051718  25.32145551519541  63.43559705035847  4.636806312143761  7.36280399297596  48.15967611106146  63.25881462866294  -45.74550535727104  12.848106540532841  120.000000
3.1202614379084963  0.000000  0.000000  0.000000  -31.94202105231891  11.15982311671845  25.07000888545102  63.3922148726318  4.567025136957079  7.123025289413521  48.34969684738938  62.94324276211255  -45.83915640013049  12.847327982512285  120.000000
3.1607843137254896  0.000000  0.000000  0.000000  -31.871164423166984  11.057238038299795  24.850313966547485  63.375740473608445  4.523031147407983  6.959948216236268  48.52833822727366  62.67498225500153  -45.83815441919606  12.862241775082774  120.000000
3.2013071895424834  0.000000  0.000000  0.000000  -31.827063062706408  10.988197540370997  24.668288810688292  63.375484095283525  4.504974482850564  6.864477075122755  48.69254201671224  62.45009681666727  -45.777192727011204  12.891637198066347  120.000000
3.2418300653594767  0.000000  0.000000  0.000000  -31.805590634743673  10.95126678609449  24.529614050830705  63.38202817255299  4.511424146060439  6.8259322196099586  48.839702705775956  62.26423503371097  -45.687824473961854  12.933914676279784  120.000000
3.28235294117647  0.000000  0.000000  0.000000  -31.802615196101765  10.943282467506561  24.43868173844237  63.38805259247136  4.539082739096117  6.832629086427615  48.967556523527435  62.11310732338446  -45.595924384905636  12.987053109791074  120.000000
3.322875816993464  0.000000  0.000000  0.000000  -31.81408788767316  10.959330545495314  24.39761469141029  63.38879960899072  4.582845802087131  6.872342215326234  49.074105381657006  61.992856829448186  -45.5201270111565  13.04854253065337  120.000000
3.363398692810457  0.000000  0.000000  0.000000  -31.836127208501587  10.992913357705293  24.405571419401966  63.382082943729046  4.636347429173746  6.93274289138022  49.15766795807387  61.90018349765795  -45.47180246462267  13.115433668960698  120.000000
3.4039215686274504  0.000000  0.000000  0.000000  -31.865141838501195  11.036288144847438  24.458606329208894  63.367989189801925  4.692757215236748  7.001737036276597  49.21700906871969  61.83226181689447  -45.45637072471993  13.18452874674097  120.000000
3.444444444444444  0.000000  0.000000  0.000000  -31.898030548938227  11.080936149269476  24.54997682812869  63.348378012476964  4.745631803551609  7.0677503682208425  49.251622895103296  61.78656581681225  -45.475225452702176  13.252592232451962  120.000000
3.4849673202614375  0.000000  0.000000  0.000000  -31.932351604123312  11.118168488613305  24.67072902023954  63.326315661698104  4.789502127255378  7.120018381748009  49.26209479606653  61.76072334411907  -45.52773031186516  13.316508287791239  120.000000
3.525490196078431  0.000000  0.000000  0.000000  -31.966385525129393  11.139760416577701  24.81043591128369  63.305533881946076  4.8202177517602935  7.1489517128816935  49.25059238679504  61.752274793303144  -45.61285491000767  13.373252536949115  120.000000
3.5660130718954246  0.000000  0.000000  0.000000  -31.99897723522294  11.138632712563764  24.957909559745485  63.28990981304103  4.834961632126213  7.146601109916904  49.221400513957086  61.75839018004534  -45.730450886445965  13.419749501125827  120.000000
3.606535947712418  0.000000  0.000000  0.000000  -32.029197418967065  11.10943455509791  25.10190502532808  63.283028793650814  4.832077634958571  7.107165463751909  49.18141465890885  61.775442642936476  -45.88204135937894  13.452548213258671  120.000000
3.6470588235294112  0.000000  0.000000  0.000000  -32.055937433690325  11.048973553276946  25.23161290945115  63.28781119573632  4.810703052305345  7.0273499279420175  49.140399580760146  61.79873135909088  -46.07121511913129  13.467570372583577  120.000000
3.6875816993464046  0.000000  0.000000  0.000000  -32.07765864576609  10.956331824302339  25.336949711997903  63.30628357172935  4.770330289575411  6.906431005229015  49.11089150250352  61.822433273627006  -46.3035697548344  13.460083646729139  120.000000
3.7281045751633983  0.000000  0.000000  0.000000  -32.09230932166929  10.832714815619624  25.40855799899681  63.33947789828663  4.71039840482267  6.746015785714309  49.107691927963856  61.839978825058644  -46.58631499829006  13.424915698394637  120.000000
3.7686274509803916  0.000000  0.000000  0.000000  -32.097357312688544  10.68109128098836  25.437733825778935  63.38745642849674  4.6300594081929045  6.549725055495539  49.14701065083175  61.844663062891556  -46.927528002511814  13.35674002560385  120.000000
3.809150326797385  0.000000  0.000000  0.000000  -32.089904175569046  10.505739983116703  25.41644450019983  63.449437505543415  4.52824415245686  6.322924669647967  49.2453563003123  61.8304259399734  -47.3351727515928  13.250366616035004  120.000000
3.8496732026143787  0.000000  0.000000  0.000000  -32.06703954195094  10.311710607984462  25.337682993064213  63.52399869688522  4.404056160308142  6.072564228023192  49.418299167132616  61.79260912045347  -47.81585787856209  13.101202408278352  120.000000
3.890196078431372  0.000000  0.000000  0.000000  -32.026622446201415  10.104171408852011  25.196303265956125  63.60936268741356  4.257533947583351  5.806891436611075  49.679237066202724  61.728479182099406  -48.37341812279715  12.9061658964957  120.000000
3.9307189542483654  0.000000  0.000000  0.000000  -31.968407723526887  9.88774714976182  24.99019379879957  63.703685925802304  4.0904949387972165  5.534967007871327  50.03832158357243  61.63742299880832  -49.007495359115836  12.664963620825247  120.000000
3.971241830065359  0.000000  0.000000  0.000000  -31.894922629317527  9.666066137283385  24.72143247613965  63.80540514005505  3.907193276776989  5.2660509765311  50.50160570752824  61.52079465312408  -49.712730541198674  12.380918590740777  120.000000
4.011764705882352  0.000000  0.000000  0.000000  -31.811483182536147  9.44186250777072  24.396751314953306  63.91352136864642  3.714274890642989  5.009147423233687  51.070453574573804  61.381784249697404  -50.4788178687471  12.06094903765555  120.000000
4.052287581699346  0.000000  0.000000  0.000000  -31.725364819271306  9.21747565790599  24.027229316097717  64.02790223038252  3.520125387055083  4.772699234862432  51.74135628187909  61.225312114288165  -51.291564705429344  11.714687562228624  120.000000
4.0928104575163395  0.000000  0.000000  0.000000  -31.644251299717805  8.995636287508251  23.627317087660437  64.1490682806681  3.333836761974058  4.564389157019363  52.506115372863675  61.05791800140921  -52.13443000764888  11.353146151037194  120.000000
4.133333333333333  0.000000  0.000000  0.000000  -31.57537085095572  8.779840281690516  23.21362970646974  64.2780921433725  3.1641270200142864  4.390757342644229  53.352455341110364  60.88742216686897  -52.99017766178867  10.987706819584258  120.000000
4.173856209150326  0.000000  0.000000  0.000000  -31.525236116859638  8.57400935376992  22.803760172476668  64.41664043633013  3.017977287877568  4.256562816484263  54.26547845260224  60.72216291887819  -53.84256578823635  10.629329683900307  120.000000
4.2143790849673195  0.000000  0.000000  0.000000  -31.498904485315023  8.381856351618922  22.41471523546666  64.56710273333503  2.8995646347697646  4.1642201904532  55.22929164561548  60.56973965548938  -54.67795636822354  10.287712974985963  120.000000
4.254901960784313  0.000000  0.000000  0.000000  -31.50040243835145  8.205406959355688  22.06115771824245  64.73332675838462  2.809903657290877  4.113507810030503  56.22876544758023  60.43615432059723  -55.48683170112249  9.970890206290887  120.000000
4.295424836601307  0.000000  0.000000  0.000000  -31.532272223736783  8.044624205676394  21.753867875753315  64.91997460891352  2.7467097694036156  4.101977070861241  57.25013626871676  60.325713557572925  -56.26427135341534  9.684927086414138  120.000000
4.3359477124183  0.000000  0.000000  0.000000  -31.593831384516246  7.898525026020465  21.49895163915886  65.1300995072928  2.7055748891807854  4.125692937151461  58.27975418212106  60.24084561699307  -57.00857022992204  9.433954635527472  120.000000
4.376470588235294  0.000000  0.000000  0.000000  -31.681747662907522  7.766219233211884  21.298382345221068  65.36321381569049  2.681022685406852  4.179300439444657  59.30276854308567  60.18260688783551  -57.71879671535841  9.221505860091218  120.000000
4.416993464052287  0.000000  0.000000  0.000000  -31.790126197198596  7.6484309800892625  21.151232903244463  65.61423466755154  2.666107041182018  4.256618973348625  60.30290681614459  60.15067101392423  -58.392668170190554  9.051116911815749  120.000000
4.45751633986928  0.000000  0.000000  0.000000  -31.91023926558166  7.54731108675228  21.05465511070924  65.8743141718722  2.6532837690032567  4.351347455701696  61.263959144871755  60.14222497445566  -59.026162503951774  8.925507941024241  120.000000
4.498039215686274  0.000000  0.000000  0.000000  -32.03317814231565  7.464681569686871  21.004759364193514  66.13327603292561  2.636093514550557  4.456845457696037  62.17155361165649  60.15196938967382  -59.614091291086744  8.84699276261718  120.000000
4.538562091503268  0.000000  0.000000  0.000000  -32.151540881567605  7.401722681719012  20.99750607450122  66.38098446287054  2.6094511596860728  4.566368549921818  63.01372126934347  60.17310104604853  -60.15046077094217  8.817590010096598  120.000000
4.579084967320261  0.000000  0.000000  0.000000  -32.25937161133151  7.358917405257535  21.029390425841974  66.60863713281493  2.5698566752271077  4.673801888910187  63.781758208728746  60.19819751350884  -60.629896352299724  8.83695524313711  120.000000
4.6196078431372545  0.000000  0.000000  0.000000  -32.35318963220193  7.335212098463122  21.097389560814502  66.8107607597617  2.515861480742209  4.7741020769637705  64.47130203741487  60.220494972407714  -61.04940542135168  8.90090154233442  120.000000
4.660130718954248  0.000000  0.000000  0.000000  -32.432562124828486  7.327846177276199  21.1985158281705  66.98571664087099  2.447959382763616  4.8635281450903705  65.08238280241942  60.235218591068076  -61.40935771789595  9.001630565952258  120.000000
4.700653594771241  0.000000  0.000000  0.000000  -32.499127832717406  7.333115405468948  21.329486800703823  67.13472018698778  2.36795518100355  4.9397427204289714  65.61834840395083  60.2402837222748  -61.71377639075671  9.12859553639246  120.000000
4.741176470588234  0.000000  0.000000  0.000000  -32.55558344319531  7.347083807957019  21.48644409465103  67.26065980781343  2.278358937769861  5.001663094716866  66.08461039564243  60.23639274489593  -61.97006105313747  9.269643910446334  120.000000
4.781699346405228  0.000000  0.000000  0.000000  -32.6050697657242  7.365988467095709  21.664808390669  67.3672094512837  2.1819446269229172  5.049158790971647  66.487449895126  60.22660052277863  -62.18811147698353  9.412144685684403  120.000000
4.822222222222222  0.000000  0.000000  0.000000  -32.65062812762635  7.3865091201899755  21.859360568061824  67.45811280716518  2.081425154171898  5.0827671959207175  66.83301221883808  60.21539924782393  -62.37893419808268  9.54384775676918  120.000000
4.862745098039215  0.000000  0.000000  0.000000  -32.6947246084135  7.405939541154382  22.064425520089312  67.53670478078439  1.9792628640521186  5.103449882852106  67.12642753507338  60.20735735453953  -62.55288276006844  9.653920072234822  120.000000
4.903267973856209  0.000000  0.000000  0.000000  -32.73879573483595  7.422312263040772  22.274059483950236  67.60542520375871  1.8775650814566998  5.112351566707796  67.37108129858399  60.205419944742154  -62.71768219197921  9.734504356561049  120.000000
4.943790849673202  0.000000  0.000000  0.000000  -32.782879863806606  7.434526496065941  22.482187070702572  67.66536882496138  1.7780873235763341  5.1105590649420805  67.56807256214029  60.20932190258795  -62.87672120284691  9.782260055532742  120.000000
4.984313725490195  0.000000  0.000000  0.000000  -32.825553128905575  7.442326816621967  22.68268607301082  67.71604180961025  1.6823145941902593  5.098905270028834  67.71608274109923  60.214797191211595  -63.02819180700472  9.79883026962131  120.000000
5.024836601307189  0.000000  0.000000  0.000000  -32.864176780570794  7.446134249403591  22.869431015963215  67.75544078606089  1.5916121703817538  5.077799422191127  67.81164662479365  60.2139780509415  -63.16528048369738  9.789895354881358  120.000000
5.065359477124183  0.000000  0.000000  0.000000  -32.895287133214154  7.4468633839033185  23.03630232439678  67.78025882444955  1.5073957662031046  5.047197903974912  67.8496119709901  60.196666180184266  -63.27705697818829  9.763620849872158  120.000000
5.105882352941176  0.000000  0.000000  0.000000  -32.91495986897966  7.445864285199399  23.177212672552347  67.78609766698042  1.4313245158499217  5.006675323411193  67.82348683937448  60.1521036344591  -63.349485569609406  9.729339516445659  120.000000
5.146405228758169  0.000000  0.000000  0.000000  -32.91922382928856  7.445020545169435  23.286300488176824  67.76772852869894  1.3655595684173483  4.955768428662168  67.72559534845769  60.07081339869601  -63.366142481575764  9.696633314047775  120.000000
5.186928104575163  0.000000  0.000000  0.000000  -32.904535489542695  7.4468677766992615  23.35838342291517  67.71959520011082  1.313097848682048  4.894484933072782  67.54703626412336  59.94650051491427  -63.30854769577411  9.674349954767937  120.000000
5.227450980392156  0.000000  0.000000  0.000000  -32.8683340648394  7.454722531732492  23.389810017380654  67.63661079113187  1.2781903874008738  4.824113085028365  67.27761173316135  59.777479374813  -63.15596657874875  9.669295813970901  120.000000
5.267973856209149  0.000000  0.000000  0.000000  -32.80963032846703  7.4725590222882765  23.379354789125465  67.51517583827601  1.2665210500996211  4.747807879545353  66.90581849647099  59.56774862272974  -62.885210734507986  9.685021483614356  120.000000
5.308496732026143  0.000000  0.000000  0.000000  -32.72911100038457  7.505089591332365  23.32889079681794  67.35381664367966  1.284938343647033  4.6711292819489  66.41883078362656  59.326985946244875  -62.470566307391  9.72137042093031  120.000000
5.349019607843137  0.000000  0.000000  0.000000  -32.629033829287884  7.5578023942433585  23.24337629743766  67.15317420844852  1.3408719255576422  4.6019590655023865  65.80272026604507  59.06982559367785  -61.88443089209603  9.775399592480639  120.000000
5.38954248366013  0.000000  0.000000  0.000000  -32.5135038714181  7.636318020079614  23.13076182039562  66.91589447275565  1.4413349662363746  4.549746285188474  65.04327942130298  58.814227632744405  -61.09846882217588  9.843049186843855  120.000000
5.4300653594771235  0.000000  0.000000  0.000000  -32.38855200965516  7.745629185837674  23.00212488181552  66.64661605386578  1.5921954393948758  4.524282959601119  64.12825803822015  58.579081617640476  -60.086029929163054  9.919867962507837  120.000000
5.470588235294117  0.000000  0.000000  0.000000  -32.26235681086382  7.888494789439196  22.870633612882663  66.35270289381761  1.7978760252590287  4.534509088119137  63.04948219965368  58.382071566477975  -58.82510078217825  10.001128279715465  120.000000
5.51111111111111  0.000000  0.000000  0.000000  -32.14488805247162  8.064429644795839  22.7498645880147  66.04338334004375  2.060947971892388  4.5871959840787575  61.80522099042548  58.23816151109468  -57.3020101415769  10.082977931310413  120.000000
5.5516339869281035  0.000000  0.000000  0.000000  -32.046324615218786  8.270156156026635  22.652004027531046  65.7282351702417  2.3800781187957636  4.686180956560838  60.401752030689465  58.1592005845501  -55.51569523825992  10.163835274855634  120.000000
5.592156862745098  0.000000  0.000000  0.000000  -31.973434817512498  8.501135594378077  22.585927086207512  65.415370761883  2.74834803226805  4.832663144655684  58.85475236515768  58.15397884092407  -53.481740476564084  10.24372835301229  120.000000
5.632679738562091  0.000000  0.000000  0.000000  -31.92697872789183  8.753057408988429  22.5562559874445  65.11000358667889  3.1542911859085017  5.0261728004397  57.18854252761212  58.2278332635279  -51.23409215570785  10.32409722273756  120.000000
5.673202614379084  0.000000  0.000000  0.000000  -31.90433209712588  9.022234341762276  22.564560042569234  64.8142220130451  3.583608335489437  5.264068069176756  55.434897542215815  58.38425371452445  -48.82321390352104  10.408853094083979  120.000000
5.713725490196078  0.000000  0.000000  0.000000  -31.900604323117854  9.306910292014772  22.610966291983146  64.52799440388927  4.018893590775775  5.542173847449547  53.63155591855242  58.62561116177907  -46.312136164070154  10.503032032077217  120.000000
5.754248366013071  0.000000  0.000000  0.000000  -31.91040349974888  9.605303955130172  22.694947688651776  64.25269225661144  4.442209202026902  5.8554172795546995  51.82358043414228  58.95162557192982  -43.77475619154572  10.609634265989742  120.000000
5.794771241830064  0.000000  0.000000  0.000000  -31.933962671452456  9.912116064791253  22.816654810765677  63.995950950973835  4.838963502622053  6.197657322610647  50.0635364919728  59.357667257600625  -41.293464850423696  10.73070696174553  120.000000
5.835294117647058  0.000000  0.000000  0.000000  -31.978368705875113  10.21883381969312  22.977840517304937  63.77127965948835  5.1983113572273485  6.56189325983319  48.408358236466356  59.83495637861513  -38.95557981778055  10.869527209649508  120.000000
5.875816993464052  0.000000  0.000000  0.000000  -32.05415567642285  10.515419831032954  23.18194521367298  63.5968741361557  5.512256770292223  6.94155191250232  46.91458329853631  60.36882641733963  -36.848715339439984  11.029375213440202  120.000000
5.916339869281045  0.000000  0.000000  0.000000  -32.170805148642984  10.790096009059452  23.432237642454044  63.49350406246216  5.774269956116201  7.329275149079644  45.63404084102034  60.93627413970154  -35.05719787012991  11.214689189115525  120.000000
5.9568627450980385  0.000000  0.000000  0.000000  -32.33148660121657  11.02848487522053  23.728551909188777  63.484191970760804  5.976649245186057  7.715737798972606  44.60537199441859  61.50266392712066  -33.65398925643561  11.429703871450366  120.000000
5.997385620915032  0.000000  0.000000  0.000000  -32.52297040057296  11.215731912715528  24.0618828888523  63.587056161153356  6.109525645831668  8.088255516486306  43.845055403213735  62.01819915711364  -32.69394108606845  11.674574141756862  120.000000
6.037908496732025  0.000000  0.000000  0.000000  -32.71524138858918  11.332101052277817  24.409655755920063  63.81281056007284  6.16039755242127  8.42211478813883  43.33179314147423  62.41873478831853  -32.19792335138699  11.94883454092772  120.000000
6.078431372549018  0.000000  0.000000  0.000000  -32.879775292287725  11.363665606121529  24.732991900150164  64.14894668573668  6.113546595143509  8.67697643927682  43.00921101865767  62.62865915237913  -32.14599455832391  12.245191012482556  120.000000
6.118954248366013  0.000000  0.000000  0.000000  -32.991367192152154  11.30500398318266  24.969627028508192  64.54480857453778  5.956604316943492  8.798123026975272  42.78029443215394  62.572251660748734  -32.46954015116876  12.53140256273891  120.000000
6.159477124183006  0.000000  0.000000  0.000000  -33.09464951971446  11.165212226648952  25.03952252778669  64.9443862746934  5.6659075287092024  8.7212348073874  42.55329760915469  62.197732465380454  -33.06033316053558  12.770523589070647  120.000000
6.199999999999999  0.000000  0.000000  0.000000  -33.293337584489535  10.971189165943112  24.825678669074897  65.30786983868677  5.201329299509867  8.40346176545587  42.281358070205904  61.47403573382584  -33.777866159011126  12.952158828491532  120.000000
