Simulation
nRows=154
nColumns=15
endheader
time  TH_x TH_y TH_z SC_y  SC_z  SC_x  AC_y  AC_z  AC_x  GH_y  GH_z  GH_yy  EL_x  PS_y
0.0  0.000000  0.000000  0.000000  -20.595819757704394  6.382920389871568  16.515809431400477  56.47954212660791  11.015020813260383  2.221030832712583  41.199943694435525  57.61364837821625  -42.653665390684814  21.334767377286905  120.000000
0.04052287581699346  0.000000  0.000000  0.000000  -20.563487465710743  6.584164293055614  16.857372939341474  56.4358113528221  11.476676667295429  3.012328991439549  40.587758218169085  58.631173961173396  -43.749001082918234  23.461769948315766  120.000000
0.08104575163398692  0.000000  0.000000  0.000000  -20.565402079354048  6.666323142975695  16.74399368217099  56.48873182953139  11.691293687779199  3.4097200426429737  40.042988140255424  59.098118340554265  -44.80172939920156  25.353650846387126  120.000000
0.12156862745098038  0.000000  0.000000  0.000000  -20.53481812401888  6.598538711541037  16.37549962661552  56.596389731959995  11.815506219327292  3.5262695936717554  39.59375658189906  59.12884827251603  -45.76684244959784  26.939567220835308  120.000000
0.16209150326797384  0.000000  0.000000  0.000000  -20.467927806533986  6.395496967318153  15.885973851860633  56.73644780625902  11.93553435373318  3.467519626714859  39.27859166907498  58.853195797787066  -46.62027798286341  28.210080878055454  120.000000
0.2026143790849673  0.000000  0.000000  0.000000  -20.374304516715608  6.1069178427583815  15.3664517838464  56.88060845903276  12.09082316251747  3.325551204788491  39.10695669112598  58.407588537466005  -47.349627362266475  29.178372601321673  120.000000
0.24313725490196075  0.000000  0.000000  0.000000  -20.27803118673641  5.793942035828463  14.870373685608183  57.00531746783455  12.285222664734391  3.167090348601155  39.061522000966164  57.9123300743941  -47.94690214700242  29.875244376938277  120.000000
0.28366013071895424  0.000000  0.000000  0.000000  -20.193801086894936  5.504325971474262  14.424468867175339  57.094472433754206  12.506341385462926  3.031210382459935  39.10814896758474  57.45416479927529  -48.4070248028836  30.330534285983603  120.000000
0.32418300653594767  0.000000  0.000000  0.000000  -20.12351923345107  5.269906502812126  14.038700667085719  57.139077403500565  12.734782518499824  2.9393795682632846  39.20931679174214  57.08382942190664  -48.72388946271847  30.56848736307025  120.000000
0.3647058823529411  0.000000  0.000000  0.000000  -20.063300378201568  5.1053440875817335  13.714952500428982  57.138847591667606  12.953207631995872  2.8995365991945943  39.33241089215334  56.82361679584762  -48.891044127616915  30.60970057637413  120.000000
0.4052287581699346  0.000000  0.000000  0.000000  -20.00701141389568  5.0126072695326735  13.452625762513225  57.09823054844701  13.149419276706046  2.911385207601589  39.451833221302216  56.67678567871297  -48.90109271207026  30.472501428203405  120.000000
0.4457516339869281  0.000000  0.000000  0.000000  -19.950589800936076  4.986060394438829  13.251567037573144  57.0252370011963  13.317160629492093  2.9700782877310368  39.54934578901133  56.63594418895117  -48.747409988476235  30.173978408656154  120.000000
0.4862745098039215  0.000000  0.000000  0.000000  -19.89342874092804  5.016192548129988  13.112867099560873  56.929251848056985  13.454612981166607  3.068966092679474  39.612939530439206  56.6899552763211  -48.42431122920701  29.731371088599964  120.000000
0.5267973856209149  0.000000  0.000000  0.000000  -19.838325400347955  5.092699893488264  13.039046909818865  56.82037990663903  13.562994466579319  3.20143477310427  39.63507385097914  56.82750409141972  -47.92803058082836  29.16222042029701  120.000000
0.5673202614379085  0.000000  0.000000  0.000000  -19.790532949152364  5.206191337741045  13.033330564963094  56.708272923134636  13.644537233108423  3.3622012930172143  39.61160103173863  57.03960283184734  -47.25654723518014  28.484344087250008  120.000000
0.6078431372549019  0.000000  0.000000  0.000000  -19.75657457094796  5.349271402834228  13.099071908828893  56.60218246257018  13.701378393241301  3.5478563575263293  39.54078613505604  57.31985879294735  -46.410244545023055  27.715724152767045  120.000000
0.6483660130718953  0.000000  0.000000  0.000000  -19.742996571184836  5.51710461598477  13.238803224410978  56.51041444974284  13.734284843005991  3.75736836890163  39.42344980862179  57.66471457673184  -45.39184498463691  26.874022170839883  120.000000
0.6888888888888888  0.000000  0.000000  0.000000  -19.755420577925875  5.70771156317274  13.453601385394208  56.44067523905662  13.742264136530466  3.9922358670454874  39.26295996014058  58.07266622514178  -44.20714416831649  25.97625405002976  120.000000
0.7294117647058822  0.000000  0.000000  0.000000  -19.797931585936933  5.921833664879392  13.742462037646838  56.399931648747675  13.722427638050412  4.256471833201072  39.06578038822885  58.543773273512286  -42.864911751733516  25.038493318669158  120.000000
0.7699346405228757  0.000000  0.000000  0.000000  -19.87295853625058  6.162581841444051  14.10222379319287  56.39467470748511  13.670538665660043  4.556292382627417  38.84132629220525  59.078524977330375  -41.376813126838215  24.076142897192852  120.000000
0.8104575163398692  0.000000  0.000000  0.000000  -19.981437493386604  6.434652689283697  14.527721008914158  56.43086002385665  13.581844750862738  4.899440668913451  38.60187450724351  59.67708077686137  -39.75723138671201  23.104197904349263  120.000000
0.8509803921568626  0.000000  0.000000  0.000000  -20.123171337933634  6.743562075447802  15.012183781151567  56.51381486141328  13.4522690883595  5.294597200005537  38.36160923728354  60.338165658824316  -38.02313951226139  22.137436800079605  120.000000
0.8915032679738562  0.000000  0.000000  0.000000  -20.297201515735665  7.094707743491532  15.547560907609094  56.64783647808266  13.279616228035371  5.750424109942123  38.135865188966086  61.05828671427803  -36.19420470333853  21.19040976407093  120.000000
0.9320261437908496  0.000000  0.000000  0.000000  -20.502212331131478  7.49215159985037  16.12480002930631  56.8357341906045  13.064674407046322  6.274670363376735  37.94001055162575  61.83077912917556  -34.293291380720206  20.277276582505245  120.000000
0.972549019607843  0.000000  0.000000  0.000000  -20.736864432054915  7.937613331912335  16.734163410791002  57.07815251321224  12.812026524640121  6.8726536468947055  37.78888786600321  62.64530964289287  -32.34752197464821  19.41132006809557  120.000000
1.0130718954248366  0.000000  0.000000  0.000000  -21.000532057981964  8.42926889973376  17.36596683940574  57.37328321176569  12.5303342193024  7.54600522378813  37.69611797049996  63.487350972936056  -30.388895687247206  18.604798243034423  120.000000
1.0535947712418299  0.000000  0.000000  0.000000  -21.29367088319064  8.960814735792386  18.011211841424423  57.71715020212146  12.232058780474668  8.291193110742237  37.67386346351033  64.33870832209517  -28.454996911147227  17.86892101370661  120.000000
1.0941176470588234  0.000000  0.000000  0.000000  -21.617377786517835  9.521619250009277  18.66226716706913  58.103437130916376  11.932149162955955  9.099319699275792  37.73188151031092  65.17825160860056  -26.58762075973851  17.214145870621067  120.000000
1.134640522875817  0.000000  0.000000  0.000000  -21.972939334181543  10.09706323331242  19.31327507783238  58.5239325322615  11.646623038100719  9.956134116512446  37.87663193449451  65.9834904958493  -24.830834982395853  16.65062280446148  120.000000
1.1751633986928103  0.000000  0.000000  0.000000  -22.36135198970575  10.669403160154753  19.959807527140672  58.968969607463315  11.391029486423145  10.843412879091328  38.11049956376269  66.73249204308955  -23.227820850143317  16.188528502358103  120.000000
1.2156862745098038  0.000000  0.000000  0.000000  -22.782243124509893  11.219366200227066  20.598179245340162  59.427936687460395  11.179182571146988  11.740289370305891  38.43152710114716  67.40586107918847  -21.81770387962475  15.837728884203154  120.000000
1.2562091503267971  0.000000  0.000000  0.000000  -23.232989607611188  11.727849263855273  21.224904690112705  59.88986714596974  11.021480740804826  12.62509601758064  38.833319460371776  67.98843355800685  -20.631296258299376  15.606626070821013  120.000000
1.2967320261437907  0.000000  0.000000  0.000000  -23.708222272311893  12.177942424345066  21.836057363586622  60.3446303695883  10.923659927670027  13.476796803091444  39.305484706976294  68.47092787430553  -19.687701605377555  15.499467951151212  120.000000
1.3372549019607842  0.000000  0.000000  0.000000  -24.199416849743894  12.557067736373162  22.42639309960607  60.78375222292316  10.885812223859675  14.27707097027279  39.834112022902495  68.8510574565754  -18.990736402538957  15.512795757574414  120.000000
1.3777777777777775  0.000000  0.000000  0.000000  -24.69490035228965  12.858487133617405  22.988899330554244  61.20131921092827  10.902542861472739  15.011275876639784  40.402371782254306  69.13372948992674  -18.528025497841067  15.632957505846022  120.000000
1.418300653594771  0.000000  0.000000  0.000000  -25.18045473630402  13.08169382312696  23.5149143242757  61.594083408021206  10.963683877535301  15.669034184547083  40.99100006838967  69.32994446766189  -18.272507218056198  15.836935711029401  120.000000
1.4588235294117644  0.000000  0.000000  0.000000  -25.640371208052944  13.231686403102307  23.994852604969594  61.961327922495755  11.055952756866294  16.243562661947653  41.57885798945399  69.45494904343411  -18.18702960356436  16.095513211483528  120.000000
1.499346405228758  0.000000  0.000000  0.000000  -26.05879821623448  13.317699991248357  24.419163119769113  62.30425419445556  11.164432992906171  16.73133499125577  42.14387613663351  69.52621719464484  -18.229024559007023  16.376665375044528  120.000000
1.5398692810457515  0.000000  0.000000  0.000000  -26.42119577620783  13.35172763502455  24.77947343031524  62.62551625741516  11.274164081702356  17.131420916976214  42.66454537771648  69.56186010778492  -18.355404069955785  16.647976401834473  120.000000
1.5803921568627448  0.000000  0.000000  0.000000  -26.71592515414104  13.346968228708375  25.069786320438002  62.928406111556875  11.371385922634168  17.445529857515126  43.12182558408764  69.57913760180719  -18.526143556593265  16.879068525216596  120.000000
1.6209150326797384  0.000000  0.000000  0.000000  -26.9359250671409  13.316391526757647  25.288082618261647  63.21589190104126  11.444548569021217  17.67778057315821  43.50135322451269  69.59295628873792  -18.707498621379735  17.045188103518665  120.000000
1.661437908496732  0.000000  0.000000  0.000000  -27.079929960437937  13.271247169773726  25.43758617212191  63.48970889391539  11.485079982868076  17.834645846246193  43.795532090730205  69.61426377343612  -18.87382303915515  17.131789464561145  120.000000
1.7019607843137252  0.000000  0.000000  0.000000  -27.15301666419593  13.220457106087464  25.52636540247831  63.749803606864106  11.488792259528568  17.925082623389834  44.004859809723555  69.64917260058562  -19.008800899655707  17.13752490194177  120.000000
1.7424836601307188  0.000000  0.000000  0.000000  -27.166144141235492  13.170837841385747  25.56596795432632  63.99402472835926  11.456548488387098  17.960978933498502  44.13766348141186  69.69919862588385  -19.104519343049482  17.07325859397737  120.000000
1.7830065359477123  0.000000  0.000000  0.000000  -27.134570401392466  13.127210486293867  25.570362295987596  64.21856770583008  11.393707638412096  17.956480150246175  44.20827492455005  69.76234433491976  -19.15955915215013  16.957874903843532  120.000000
1.8235294117647056  0.000000  0.000000  0.000000  -27.075808977853875  13.092656646272218  25.554702535570424  64.4187175312168  11.309091498266042  17.926695595739385  44.23455736854347  69.8341567368953  -19.176806378749735  16.813831192328202  120.000000
1.8640522875816992  0.000000  0.000000  0.000000  -27.007452169381697  13.068858527439009  25.533641284825016  64.58946255720417  11.213745328712582  17.88618558638949  44.23531385034555  69.90856756850722  -19.16170418615463  16.66417061120639  120.000000
1.9045751633986925  0.000000  0.000000  0.000000  -26.9452810774069  13.056174582520418  25.519737317602836  64.72608331580273  11.119554072633887  17.84728860759952  44.22797501657362  69.97851525956831  -19.121391184331358  16.530296211917573  120.000000
1.945098039215686  0.000000  0.000000  0.000000  -26.901515922132976  13.053771412871239  25.521877314420205  64.82484457404072  11.037442435231142  17.818719783694256  44.22645107134313  70.0369874127851  -19.064734601733246  16.429395584301343  120.000000
1.9856209150326796  0.000000  0.000000  0.000000  -26.8830468871189  13.059581093082063  25.543985549674467  64.88373214776911  10.97576430560936  17.80460498648732  44.23952454357046  70.07813841730446  -19.003181291241052  16.37125195141736  120.000000
2.026143790849673  0.000000  0.000000  0.000000  -26.890390184464597  13.070298983154812  25.584351933826426  64.90292373136195  10.938961782009063  17.804071405704555  44.27007295804565  70.09834322224484  -18.951405894899214  16.35623226420247  120.000000
2.0666666666666664  0.000000  0.000000  0.000000  -26.91818057944516  13.081493340261645  25.636283516525374  64.88465301370103  10.92732647057716  17.811290555911807  44.31543831059437  70.09621140096321  -18.927310911080454  16.375976904811928  120.000000
2.1071895424836597  0.000000  0.000000  0.000000  -26.956666725213733  13.087720276709591  25.689546029028836  64.83255168662728  10.937551683694283  17.816085821414575  44.36862875792347  70.0720638501854  -18.950973634002633  16.4162444139434  120.000000
2.1477124183006535  0.000000  0.000000  0.000000  -26.99356177088756  13.08284737145718  25.73219464930919  64.75104675704856  10.963943291517275  17.805011353786472  44.419923552312945  70.02711350775719  -19.04354280338704  16.45994305917792  120.000000
2.188235294117647  0.000000  0.000000  0.000000  -27.015655652173006  13.060597267609646  25.752100317885585  64.64476138736258  10.999558092817175  17.76300137075609  44.458649958240436  69.96281029289426  -19.225919449274826  16.489304860029776  120.000000
2.22875816993464  0.000000  0.000000  0.000000  -27.01021888108907  13.015024261592336  25.738265616783018  64.51806002758305  11.037260561482453  17.674921845301675  44.4748681314105  69.88021828839098  -19.517661406086603  16.48756213620901  120.000000
2.269281045751634  0.000000  0.000000  0.000000  -26.966614022522815  12.94115856906079  25.682124111870465  64.37429207010433  11.070341406706763  17.527202579959578  44.46098615294675  69.77933243402988  -19.935362653238546  16.440968829114514  120.000000
2.3098039215686272  0.000000  0.000000  0.000000  -26.87784920657126  12.835543160201297  25.57882886011975  64.21499571349892  11.093342180932153  17.309105478562294  44.41296910326367  69.65822368693243  -20.491004251485215  16.341170819084613  120.000000
2.3503267973856206  0.000000  0.000000  0.000000  -26.74117925619227  12.6961611445646  25.42769697135432  64.03922888358858  11.102842109214691  17.013666702838023  44.330970471312625  69.51248504741798  -21.19065033732403  16.186836812351263  120.000000
2.390849673202614  0.000000  0.000000  0.000000  -26.55751422232432  12.522193966516017  25.231614702503904  63.8435722535327  11.098030713685096  16.637949866004927  44.21917995114156  69.33523523330021  -22.034712242040634  15.9832866621915  120.000000
2.4313725490196076  0.000000  0.000000  0.000000  -26.330035320101466  12.313769739365885  24.99564766608469  63.62275518570113  11.080525126010404  16.18274901245231  44.084987506558754  69.117845120863  -23.019062136733826  15.740486568343089  120.000000
2.471895424836601  0.000000  0.000000  0.000000  -26.063050561901495  12.071900860174  24.72570172183819  63.37077205347534  11.053876128530614  15.651828772791777  43.93791446002122  68.8509158705648  -24.136703556997816  15.470690254540937  120.000000
2.5124183006535943  0.000000  0.000000  0.000000  -25.76132219431058  11.798567602292527  24.42754301470156  63.08201273817296  11.022796236725963  15.05114908400017  43.788414416905034  68.52548775746419  -25.378360007836996  15.18673674402895  120.000000
2.552941176470588  0.000000  0.000000  0.000000  -25.430039458610846  11.496518328876462  24.106493159809073  62.752532743481936  10.992512750566055  14.388124310741803  43.646864318378974  68.13421835010567  -26.73226450896976  14.90112008236475  120.000000
2.5934640522875814  0.000000  0.000000  0.000000  -25.075105114684714  11.16911667084846  23.76738274686966  62.38137679325468  10.96805733843242  13.671439867499576  43.522749662899884  67.67280124539656  -28.183152413095065  14.625040474067795  120.000000
2.6339869281045747  0.000000  0.000000  0.000000  -24.70315111837956  10.820339690438093  23.4146364795773  61.97164199698509  10.953726347805523  12.91126418409867  43.42405499465543  67.14121708422346  -29.710891596878355  14.367184074368657  120.000000
2.6745098039215685  0.000000  0.000000  0.000000  -24.321434702173956  10.454707482808923  23.05241614243182  61.531083619169515  10.9525761392574  12.119433038834904  43.35691050005662  66.54452100875747  -31.28923045794148  14.132905563036394  120.000000
2.7150326797385618  0.000000  0.000000  0.000000  -23.93788427355179  10.077326766016764  22.684512494559055  61.0719882008995  10.966170019365679  11.30949986674202  43.32565119464679  65.89290435563342  -32.885889175951526  13.924365460839923  120.000000
2.755555555555555  0.000000  0.000000  0.000000  -23.56119090078201  9.694015535487045  22.314083319285693  60.610137767978976  10.994511923290107  10.496628426144289  43.333146279010656  65.20103491910731  -34.46365861713193  13.74170604724478  120.000000
2.796078431372549  0.000000  0.000000  0.000000  -23.200399647382092  9.311324589631054  21.943888107040813  60.163231741128236  11.035830099744086  9.697167583064944  43.381053377658006  64.4869225825791  -35.98229290954026  13.584360569604256  120.000000
2.836601307189542  0.000000  0.000000  0.000000  -22.864130025496742  8.936320798621395  21.577016889246615  59.749214394807865  11.086630953799043  8.928096042098343  43.4697641641244  63.770536625584654  -37.40110526814107  13.451599309947229  120.000000
2.8771241830065355  0.000000  0.000000  0.000000  -22.560209437228327  8.575943454004546  21.217393146205946  59.38445292566149  11.142554350629807  8.205797359577998  43.598002048298504  63.07211788888473  -38.681808643263814  13.343583468680748  120.000000
2.917647058823529  0.000000  0.000000  0.000000  -22.29492877136391  8.236341761769916  20.869546268538258  59.08126438768271  11.199531723538174  7.544318348818053  43.76205855499111  62.409924711745944  -39.79247923178027  13.260555550914829  120.000000
2.9581699346405226  0.000000  0.000000  0.000000  -22.071784215448133  7.922819169200135  20.5378377234586  58.84568593003077  11.254085200984132  6.954478938367229  43.95503518067208  61.7979958499941  -40.71236158698636  13.19973126600798  120.000000
2.998692810457516  0.000000  0.000000  0.000000  -21.891666938081038  7.640251418944231  20.22592428750042  58.6770402394848  11.303416584668678  6.443378460200427  44.167372401577474  61.24502327492724  -41.434727633277845  13.15697358286879  120.000000
3.039215686274509  0.000000  0.000000  0.000000  -21.753854503349018  7.393083789308642  19.936865191408213  58.56920634629974  11.346022166246847  6.014521944166843  44.388782828081446  60.754937141107234  -41.96623751400951  13.130415238780547  120.000000
3.079738562091503  0.000000  0.000000  0.000000  -21.655661654250082  7.184671581205087  19.67371387010578  58.512240629110174  11.382197259116216  5.668516830971484  44.60978266745502  60.3282919893699  -42.32495887671572  13.119594488401587  120.000000
3.1202614379084963  0.000000  0.000000  0.000000  -21.592113534931144  7.016988905170083  19.43979848357684  58.493664063403166  11.413717984595896  5.403607838821676  44.82222450962486  59.963240927092656  -42.53715934153552  13.123988082938546  120.000000
3.1607843137254896  0.000000  0.000000  0.000000  -21.55697048592405  6.890821149897078  19.238503964971265  58.49992246341764  11.443174979902533  5.215902958677003  45.019729943403355  59.65623906990793  -42.63349927340367  13.142909597335626  120.000000
3.2013071895424834  0.000000  0.000000  0.000000  -21.543708189000828  6.805651204075439  19.072912751749957  58.517959568525036  11.473345329754991  5.09965372383081  45.19777822638637  59.40268297905834  -42.645746073032015  13.175425059137666  120.000000
3.2418300653594767  0.000000  0.000000  0.000000  -21.54606477487888  6.759351801053412  18.945368360057472  58.53659132466942  11.5067132810114  5.047410269957898  45.35351921367978  59.19751735062589  -42.603921899618896  13.220356978233166  120.000000
3.28235294117647  0.000000  0.000000  0.000000  -21.5585981307283  6.747958058111021  18.856918025794716  58.54753318446837  11.545054381413332  5.050164166210787  45.48549684312824  59.03569663619257  -42.53391011133332  13.276445714936553  120.000000
3.322875816993464  0.000000  0.000000  0.000000  -21.57703635163888  6.765561211588695  18.806750287822446  58.545871691865486  11.589239519271164  5.097401216979067  45.59320594518263  58.91244765703551  -42.45614096332774  13.341844846374272  120.000000
3.363398692810457  0.000000  0.000000  0.000000  -21.598494245478438  6.80457108987329  18.791885207012818  58.52986267471021  11.639225741602207  5.1773846302703435  45.676669213008005  58.82317873585497  -42.38556233541272  13.413520596097449  120.000000
3.4039215686274504  0.000000  0.000000  0.000000  -21.621586447408877  6.856122160595171  18.807327708376242  58.50048387718683  11.694377727589341  5.277421991514859  45.73635643076257  58.76326082316064  -42.3325964319323  13.487777494674813  120.000000
3.444444444444444  0.000000  0.000000  0.000000  -21.646193934816267  6.9104471490304  18.84652407302001  58.46087955566061  11.753942537532971  5.38425941654701  45.773597697417834  58.72796872173436  -42.30457060129445  13.561078295383805  120.000000
3.4849673202614375  0.000000  0.000000  0.000000  -21.672960868931067  6.957644485103598  18.901901666058034  58.41566973949236  11.817235954257956  5.4847787115071975  45.791206306295315  58.712503238017725  -42.30738641826721  13.630209139044489  120.000000
3.525490196078431  0.000000  0.000000  0.000000  -21.702606108257804  6.988383024654148  18.965406540421032  58.37009611710129  11.88368016881737  5.566640558182163  45.7937989416004  58.71194763507212  -42.346727800608974  13.69216268005315  120.000000
3.5660130718954246  0.000000  0.000000  0.000000  -21.735427449883204  6.9945115385611585  19.029049080553587  58.32923249000277  11.952837463695749  5.618910719776261  45.78764497907598  58.72115228803171  -42.428745115022004  13.743966019305052  120.000000
3.606535947712418  0.000000  0.000000  0.000000  -21.77101611847742  6.969855386729927  19.085489939468367  58.29731057184012  12.024232509682664  5.632741279449396  45.78055979475539  58.734426374787056  -42.56029809005273  13.782287519762496  120.000000
3.6470588235294112  0.000000  0.000000  0.000000  -21.807250286499166  6.9100635590688615  19.12810235818939  58.27740065995662  12.097180504505351  5.60146713077579  45.78171387029673  58.74533815743689  -42.749003297687736  13.803038104912028  120.000000
3.6875816993464046  0.000000  0.000000  0.000000  -21.83993048783322  6.812806469577148  19.150546617604913  58.271418065685765  12.170257913676313  5.520763437616441  45.80169526450646  58.746851486611874  -43.00337595187432  13.801306243245206  120.000000
3.7281045751633983  0.000000  0.000000  0.000000  -21.864028160804924  6.6786215622927765  19.146797665632736  58.28039178872882  12.240537607143509  5.388851323124413  45.85257159492383  58.731852163282916  -43.33262344998283  13.771742907418671  120.000000
3.7686274509803916  0.000000  0.000000  0.000000  -21.874404793283507  6.51033434086172  19.11149281056988  58.30477597703967  12.303621485932815  5.206077490432113  45.9472572704968  58.69409910625576  -43.74601088063638  13.70874827790798  120.000000
3.809150326797385  0.000000  0.000000  0.000000  -21.866005309250173  6.312219859649606  19.04057772419597  58.34503539655246  12.353486272225052  4.974598161371292  46.09890511953234  58.62927921377265  -44.251976567674035  13.606971738886637  120.000000
3.8496732026143787  0.000000  0.000000  0.000000  -21.83499564856195  6.089406854750548  18.93169587366591  58.4026702387081  12.382791948970933  4.698024772666487  46.320798390119634  58.53594256831172  -44.85687698602768  13.46298877768412  120.000000
3.890196078431372  0.000000  0.000000  0.000000  -21.77992758624812  5.847310480648977  18.783438905438114  58.480092609275715  12.384781311061909  4.3817362089005  46.625263352223406  58.41575116231626  -45.563768101484705  13.27504297972803  120.000000
3.9307189542483654  0.000000  0.000000  0.000000  -21.70265261529068  5.5911771868607065  18.595533195501563  58.57954317298307  12.35475731785163  4.033378304515456  47.021306913329646  58.27269186103047  -46.370969051010924  13.041630892023788  120.000000
3.971241830065359  0.000000  0.000000  0.000000  -21.60965271494577  5.325264156440522  18.370340912511526  58.70316046050271  12.290704387334108  3.6620212734250392  47.51322455957148  58.112190130111564  -47.27017358764506  12.76418433698149  120.000000
4.011764705882352  0.000000  0.000000  0.000000  -21.512039722230895  5.052344996391944  18.11358467809944  58.85370412593194  12.193758845305517  3.277514558879887  48.101111766783795  57.940920782342516  -48.24595126681963  12.449407208408239  120.000000
4.052287581699346  0.000000  0.000000  0.000000  -21.423530282890763  4.774041486300696  17.834137259275373  59.03454603480788  12.068098857354144  2.8907192935300796  48.781660430238546  57.76658326492675  -49.277602051694885  12.107332386574104  120.000000
4.0928104575163395  0.000000  0.000000  0.000000  -21.35853677840566  4.4916419170814805  17.543352358680906  59.24916464736807  11.920328578127345  2.513209280967573  49.548648421700356  57.597231161553715  -50.341589240288116  11.749348051019746  120.000000
4.133333333333333  0.000000  0.000000  0.000000  -21.33076469793268  4.206682046576784  17.254081021036868  59.500646024785624  11.758641736528219  2.1562954266494363  50.39357149042281  57.440458694402025  -51.41377670539241  11.387319201143018  120.000000
4.173856209150326  0.000000  0.000000  0.000000  -21.351254726739086  3.921253663638089  16.97940541370151  59.79109139366064  11.591625919869369  1.8298755714526254  51.30626663476038  57.302626400690805  -52.47185076287368  11.0325556681473  120.000000
4.2143790849673195  0.000000  0.000000  0.000000  -21.426495444143956  3.6382936509128423  16.731112324428825  60.12093430497794  11.426833127297273  1.541767889204802  52.27516819106141  57.188323375994315  -53.49739898513026  10.694763836199671  120.000000
4.254901960784313  0.000000  0.000000  0.000000  -21.557544666690536  3.362065646448489  16.518285502900316  60.488333093541364  11.269640436481215  1.2977262069155104  53.28712355197035  57.100199201123985  -54.47716175325872  10.381711849172222  120.000000
4.295424836601307  0.000000  0.000000  0.000000  -21.739630448523982  3.098031109662632  16.346550579023255  60.88856746538257  11.122588199204653  1.1013048365230595  54.32699066846255  57.03932033022413  -55.40300639147443  10.099504544297027  120.000000
4.3359477124183  0.000000  0.000000  0.000000  -21.9621995637931  2.851833784225917  16.218246597956664  61.313779441634374  10.985348150184276  0.9534616832348786  55.37750585271505  57.00552446327936  -56.27098995277843  9.852737232268117  120.000000
4.376470588235294  0.000000  0.000000  0.000000  -22.210331393481912  2.6288443888427215  16.133198762075818  61.75322562883558  10.855392808717149  0.8526528816327371  56.41986750924014  56.99718053467252  -57.079541704056474  9.644757477836777  120.000000
4.416993464052287  0.000000  0.000000  0.000000  -22.467361806039047  2.4332656388926983  16.089527958904487  62.19453946137116  10.729434418945047  0.7947068422670284  57.43479538257917  57.01096781657019  -57.82748798197496  9.478233426994528  120.000000
4.45751633986928  0.000000  0.000000  0.000000  -22.717438562515216  2.2670236194893834  16.08420695205981  62.62522650192781  10.60452510304827  0.7727734489239432  58.40380973443831  57.042026482886506  -58.51279286776329  9.35580661789494  120.000000
4.498039215686274  0.000000  0.000000  0.000000  -22.947224775339926  2.1301014748156835  16.113548381453732  63.03355112123361  10.47824532591289  0.7783015872789668  59.31070092449501  57.08417237604882  -59.13228415498395  9.28019432307971  120.000000
4.538562091503268  0.000000  0.000000  0.000000  -23.146907762103098  2.020980466874393  16.173677457958707  63.40951960266418  10.3488042060745  0.8021507718256727  60.142742785535944  57.1305142058329  -59.68223798083783  9.25327397656666  120.000000
4.579084967320261  0.000000  0.000000  0.000000  -23.310907126037453  1.936944361709799  16.260867944828156  63.74597233260599  10.215301990386186  0.8356596070229665  60.891550524687126  57.1743905160699  -60.15957661100714  9.274731460507404  120.000000
4.6196078431372545  0.000000  0.000000  0.000000  -23.438267923014926  1.874635336210732  16.37188616555434  64.0393489248906  10.077830302315798  0.8716564123315862  61.5536536072513  57.21032626474187  -60.5632624334117  9.340824699230248  120.000000
4.660130718954248  0.000000  0.000000  0.000000  -23.53219887048856  1.8302410082753722  16.50412532428918  64.2899669301854  9.93730000458325  0.9048474348799037  62.13041718123191  57.234887904237254  -60.89556056106766  9.443870854482883  120.000000
4.700653594771241  0.000000  0.000000  0.000000  -23.598947474782484  1.7998852514523924  16.655089909848755  64.50141246635432  9.79514094945305  0.9319700895903666  62.62733011444119  57.247142954732354  -61.16279324412438  9.57308607060859  120.000000
4.741176470588234  0.000000  0.000000  0.000000  -23.646735689046885  1.780188177083134  16.82185042439054  64.6793843272343  9.653128514772362  0.9517551741176037  63.05281113203045  57.2486030406709  -61.37522166712611  9.716128740555687  120.000000
4.781699346405228  0.000000  0.000000  0.000000  -23.684670176070032  1.7683563495130714  17.001032630737935  64.83053966920839  9.513283888417162  0.9644026638715396  63.41662390733839  57.24276214629342  -61.54602503625113  9.860287631216426  120.000000
4.822222222222222  0.000000  0.000000  0.000000  -23.72151236511781  1.7621221992752958  17.188998812387258  64.96146672932761  9.377700616733396  0.9709637669511676  63.72832512006313  57.2342658158834  -61.68964704844142  9.993280108067761  120.000000
4.862745098039215  0.000000  0.000000  0.000000  -23.764452506326037  1.7597177402135549  17.381914133702892  65.07782839295648  9.248403443139944  0.972840915759131  63.995957343603706  57.227643992084566  -61.819712237043944  10.104250391757127  120.000000
4.903267973856209  0.000000  0.000000  0.000000  -23.817961818644918  1.7598406587125976  17.575788089542193  65.18356287222657  9.127112837970413  0.9712856711042428  64.22494970855428  57.22573679748811  -61.94671129596867  10.185311735385607  120.000000
4.943790849673202  0.000000  0.000000  0.000000  -23.882960127705196  1.7616414051680525  17.76632847390251  65.28019318877654  9.015141194610619  0.9669998081193065  64.41734686697649  57.228226790209845  -62.07601771722049  10.233110954676556  120.000000
4.984313725490195  0.000000  0.000000  0.000000  -23.956679767133615  1.7647357019522296  17.948501565859864  65.36646793343014  8.913685419325125  0.9600544047402149  64.57163208583758  57.23094830505446  -62.20684937049483  10.24930386319572  120.000000
5.024836601307189  0.000000  0.000000  0.000000  -24.033277834852058  1.7691411553307268  18.11650323805953  65.43855767780734  8.8240268311431  0.9498368525239397  64.68315123055545  57.22631961732145  -62.33245970984944  10.239585236877106  120.000000
5.065359477124183  0.000000  0.000000  0.000000  -24.104814086167437  1.7751715553297345  18.264094137750874  65.49057949108195  8.747526464103565  0.935038970104053  64.74477623668419  57.20462830935249  -62.441144743969254  10.212125917928907  120.000000
5.105882352941176  0.000000  0.000000  0.000000  -24.162374803834055  1.7835368187226202  18.385092362463052  65.51518319236833  8.685512622137022  0.913853506023934  64.74754206511706  57.15573165109731  -62.517423726204235  10.176291199347897  120.000000
5.146405228758169  0.000000  0.000000  0.000000  -24.197168463458663  1.7956250965552765  18.47409312700796  65.50417729296343  8.639107679345447  0.8844422154361281  64.68101904999314  57.070831671466195  -62.54292715094294  10.141730394446148  120.000000
5.186928104575163  0.000000  0.000000  0.000000  -24.201463214310362  1.8136957951107704  18.52705824028424  65.44925477664695  8.609646577210176  0.8457406877817557  64.5333499776992  56.944169963993275  -62.49675065741516  10.117397028454818  120.000000
5.227450980392156  0.000000  0.000000  0.000000  -24.16964081622892  1.8409066065776234  18.542021373751723  65.34303420364428  8.599401817914787  0.7985102660556973  64.29121894243794  56.77433831551675  -62.355186725562625  10.110347996773113  120.000000
5.267973856209149  0.000000  0.000000  0.000000  -24.098989651774666  1.8812294730821972  18.520184003717656  65.18037365791602  8.61167302602721  0.7459867142135309  63.94022953111603  56.56510832924669  -62.091499307221035  10.12430545673  120.000000
5.308496732026143  0.000000  0.000000  0.000000  -23.989698322896867  1.9392677049660572  18.466213145408172  64.95920958352048  8.65072899882941  0.6941889305498659  63.465234435809855  56.325496073456115  -61.676052522982445  10.158931302748421  120.000000
5.349019607843137  0.000000  0.000000  0.000000  -23.84513975075906  2.020243957561903  18.38733105763613  64.68030753576058  8.721836803213376  0.6521435078354507  62.850799545957024  56.06906938117635  -61.076875213802396  10.21123497603144  120.000000
5.38954248366013  0.000000  0.000000  0.000000  -23.671918582833673  2.130054850580307  18.292608121929252  64.34707999893342  8.830111376813568  0.631505004551724  62.082672136374114  55.812543159607664  -60.26073367341962  10.27708522868946  120.000000
5.4300653594771235  0.000000  0.000000  0.000000  -23.478257930012845  2.274357817105237  18.192022030688754  63.965609918619066  8.978775705480015  0.6447778868065775  61.15017443704411  55.57432790964993  -59.19602820577783  10.351558786851358  120.000000
5.470588235294117  0.000000  0.000000  0.000000  -23.272665484962662  2.4580715838968006  18.095522579675748  63.54328499316508  9.167840909881013  0.7040801680967173  60.04782366647069  55.37235284105797  -57.85654594994634  10.430288513827513  120.000000
5.51111111111111  0.000000  0.000000  0.000000  -23.06349571451374  2.6854505477846793  18.01292109309163  63.08760712382079  9.394312242277703  0.820287066979639  58.77538884911467  55.22194302127855  -56.22478144185119  10.510092094423358  120.000000
5.5516339869281035  0.000000  0.000000  0.000000  -22.858530110242242  2.9578914790518103  17.952820161609495  62.60703409813296  9.653289310532612  1.0010423420467986  57.33758654181326  55.13582225733813  -54.29617318786105  10.588633275868311  120.000000
5.592156862745098  0.000000  0.000000  0.000000  -22.6646110263321  3.2730243549795133  17.920752395234278  62.1109145212617  9.937553787122846  1.249854443921133  55.74564268876162  55.12521925019884  -52.08404458462313  10.665473474959256  120.000000
5.632679738562091  0.000000  0.000000  0.000000  -22.487227885031643  3.62641556450702  17.91851688869887  61.60879709930283  10.237015073580686  1.5667003981442063  54.019227147605676  55.20026442137272  -49.62214191486282  10.742491253008206  120.000000
5.673202614379084  0.000000  0.000000  0.000000  -22.330617711755526  4.012451706130366  17.944960548002516  61.110156380906474  10.539705402866344  1.948160726118586  52.187993316975366  55.3701163955628  -46.964346216227035  10.822879786835504  120.000000
5.713725490196078  0.000000  0.000000  0.000000  -22.198743441919753  4.4251235130361755  17.997604729926408  60.624478441690826  10.833263938745885  2.387887749676513  50.29213019750964  55.64227447738245  -44.181861595943765  10.910230723196072  120.000000
5.754248366013071  0.000000  0.000000  0.000000  -22.096705516058254  4.858474178595149  18.074163397459017  60.16117689627614  11.106589279964467  2.87710976645152  48.382370799596586  56.02154939877367  -41.35975948771331  11.008319977147917  120.000000
5.794771241830064  0.000000  0.000000  0.000000  -22.031806429754752  5.306223001265635  18.173796100739228  59.730030024108636  11.351261240320595  3.4050375675469904  46.518632028703664  56.50801192037561  -38.593040282502784  11.121054820314189  120.000000
5.835294117647058  0.000000  0.000000  0.000000  -22.012939174210572  5.760348395451734  18.297588856329064  59.34146943393849  11.562865771069559  3.958850892803675  44.76754848564419  57.09417965706543  -35.983166217890684  11.252184913520836  120.000000
5.875816993464052  0.000000  0.000000  0.000000  -22.04801000658056  6.2090237106815  18.448470479849153  59.00807501499385  11.741630566791503  4.524388396728866  43.19744358465057  57.76053139192636  -33.6325494383717  11.4051420048238  120.000000
5.916339869281045  0.000000  0.000000  0.000000  -22.13949938407815  6.6332408706993755  18.63054479053191  58.746125873144045  11.892651705981605  5.085437303811945  41.872499185083264  58.47122208596289  -31.6381683131575  11.584613528746111  120.000000
5.9568627450980385  0.000000  0.000000  0.000000  -22.279744371964767  7.003030785719109  18.847153509585027  58.576545363059935  12.026235466158363  5.621623480715317  40.843278509043124  59.16969974441199  -30.082607419063162  11.79718687391339  120.000000
5.997385620915032  0.000000  0.000000  0.000000  -22.447973786799537  7.279187867817548  19.098025585550275  58.52132292486305  12.15378723633977  6.105144992137623  40.136680180817436  59.77452603157259  -29.024995632785952  12.045607498360344  120.000000
6.037908496732025  0.000000  0.000000  0.000000  -22.611469509522895  7.4172181729236675  19.375735785075136  58.60248809911248  12.273871157289651  6.491504477073957  39.74851770551136  60.17977853417718  -28.490720410908956  12.323618216310003  120.000000
6.078431372549018  0.000000  0.000000  0.000000  -22.73239349438267  7.382099299037359  19.648607584211792  58.83915833202989  12.359993455336646  6.71486920028365  39.64631320177695  60.264825626255885  -28.46284346662603  12.615334051063114  120.000000
6.118954248366013  0.000000  0.000000  0.000000  -22.784540593506872  7.172191063865125  19.839840264835964  59.24132111975424  12.35185974104907  6.695067744020432  39.77733997798524  59.91589510843886  -28.877229655146195  12.898506107353406  120.000000
6.159477124183006  0.000000  0.000000  0.000000  -22.78911105737154  6.832839045640455  19.82648503691885  59.81373194114122  12.143509057088597  6.350400315396064  40.095352224238596  59.060972079773585  -29.625482624753193  13.152616016675502  120.000000
6.199999999999999  0.000000  0.000000  0.000000  -22.787546446783526  6.42661412920909  19.441237052718183  60.53822214852949  11.608996594482841  5.6317858453892935  40.57570844011544  57.68627620417611  -30.579547402193146  13.364320359304765  120.000000
