Simulation
nRows=201
nColumns=15
endheader
time  TH_x TH_y TH_z SC_y  SC_z  SC_x  AC_y  AC_z  AC_x  GH_y  GH_z  GH_yy  EL_x  PS_y
0.0  0.000000  0.000000  0.000000  -21.481837363305974  5.049547332879065  0.3347068766571287  50.326796664871644  7.384311604463073  -0.7031871319514813  143.6792808713789  2.5220795483781777  -99.3925389501171  20.939747132382166  120.000000
0.05362  0.000000  0.000000  0.000000  -21.057343514524923  5.310480468578014  -0.5051307360405577  50.015918834898855  7.51271137340346  -0.14570711908209524  69.76078911119359  0.8746367795610505  -26.47925861239142  20.26184452727445  120.000000
0.10724  0.000000  0.000000  0.000000  -20.761546931609413  5.556343386434748  -1.283505223537649  49.700125173691575  7.536021826433895  0.37474000449957057  5.48524459172496  2.582157799525297  36.67972365892431  19.581555613949327  120.000000
0.16086  0.000000  0.000000  0.000000  -20.690927900898046  5.820479153207679  -2.001611044735663  49.38047649062669  7.507228127965416  0.841000953855046  -2.249213484466834  4.76728422241208  43.066876678741984  18.87200573925255  120.000000
0.21448  0.000000  0.000000  0.000000  -20.909526672428374  6.132545685439591  -2.6359491722277517  49.05365541052386  7.496685395187723  1.2563417108911146  -4.114650005491795  6.9138658857554995  43.273499967534164  18.12009257349707  120.000000
0.2681  0.000000  0.000000  0.000000  -21.431544308566984  6.508760164728919  -3.1399916504923655  48.72713266202436  7.57706904926879  1.6323569417654724  -4.64244526399149  9.034938070037906  41.806807919795915  17.323571248354426  120.000000
0.32172  0.000000  0.000000  0.000000  -22.241230096300466  6.9627507733604705  -3.464981793972845  48.41697898118961  7.795158449184543  1.9815946078703002  -4.896546951630651  11.178586670355836  39.7519422201046  16.494633678533155  120.000000
0.37534  0.000000  0.000000  0.000000  -23.303743391059818  7.49658792849965  -3.5740200210027573  48.13797184724514  8.159616094421878  2.3111042498134906  -5.2838213753479835  13.395654416128545  37.568777812864795  15.651793674016277  120.000000
0.42896  0.000000  0.000000  0.000000  -24.578129538589657  8.103825429457597  -3.445646111956432  47.8977909288839  8.640263297186497  2.6230144190665836  -5.958712724828428  15.72940166381746  35.48353513548626  14.818723789147835  120.000000
0.48258  0.000000  0.000000  0.000000  -26.01328789898253  8.76711129119978  -3.076259098455353  47.702859001894176  9.182363898768804  2.9143089567178393  -6.944903052563331  18.211554776590333  33.60502665938733  14.018547329499524  120.000000
0.5362  0.000000  0.000000  0.000000  -27.55360992604099  9.463366130950504  -2.4801924849261274  47.55991560593736  9.723630658630098  3.1822298413492107  -8.170050190569503  20.859496790372503  31.948994555017805  13.270842263222283  120.000000
0.58982  0.000000  0.000000  0.000000  -29.13893140983184  10.165453769094212  -1.6883003764119338  47.47895265883838  10.210559605163096  3.4255610607825906  -9.513105137128873  23.67521623247576  30.476673355109835  12.587932310723831  120.000000
0.64344  0.000000  0.000000  0.000000  -30.71298962028835  10.848819359240178  -0.7427824618878297  47.47063428492573  10.605730173891681  3.64525491355761  -10.835060905782926  26.64410400981661  29.113509313803817  11.975752599212404  120.000000
0.69706  0.000000  0.000000  0.000000  -32.22755178068818  11.491910133819466  0.30895738442129067  47.542609767926514  10.89220397548837  3.844558430240345  -12.014363783511532  29.73591870167287  27.776266737164157  11.430805007411927  120.000000
0.75068  0.000000  0.000000  0.000000  -33.64850104309779  12.080610354689147  1.422162389630781  47.69727414848499  11.072558535388223  4.027963033030068  -12.958757693856212  32.90702036100999  26.37993631921726  10.938652720996476  120.000000
0.8043  0.000000  0.000000  0.000000  -34.95509473188939  12.606046017583775  2.562481600405801  47.93034564517249  11.165446189054459  4.200690434911477  -13.61512608752705  36.10786651972663  24.852581330311267  10.473282042431807  120.000000
0.85792  0.000000  0.000000  0.000000  -36.13810287968217  13.064934832819944  3.7069624284107796  48.231221246282075  11.198726959618673  4.367414807611186  -13.969585440304064  39.28851894080793  23.14725747623739  10.004316109929347  120.000000
0.91154  0.000000  0.000000  0.000000  -37.195115341110984  13.456851882204116  4.840168496151292  48.5829572158779  11.201906161068775  4.531612774126683  -14.046684950650874  42.40480981046623  21.256916334228162  9.508086238946134  120.000000
0.96516  0.000000  0.000000  0.000000  -38.12801792698975  13.785338222584533  5.945600316013952  48.9619735465076  11.201225818361015  4.6956417083809106  -13.902190222451209  45.42035731545858  19.21990190465871  8.980460993945169  120.000000
1.01878  0.000000  0.000000  0.000000  -38.939973708454495  14.056785598096129  7.008298626065048  49.34013669787042  11.212228398607213  4.855992559655617  -13.612986422436133  48.30587922773797  17.116585735724716  8.440465514514871  120.000000
1.0724  0.000000  0.000000  0.000000  -39.63402008125293  14.278973468695618  8.011399728728279  49.68834039424189  11.239289538857234  5.003458972316078  -13.263765466279304  51.03079885271421  15.053152415911377  7.923039451857766  120.000000
1.12602  0.000000  0.000000  0.000000  -40.211802685943695  14.457023215711317  8.932883095219672  49.98285665781562  11.277477500576977  5.126334590692132  -12.931868518288661  53.55638543642408  13.139932123832933  7.466999167173797  120.000000
1.17964  0.000000  0.000000  0.000000  -40.6778521145855  14.594712566358604  9.746400587639254  50.20939832530121  11.316869486800734  5.216205124668275  -12.673941964966165  55.83755212385362  11.469739419657193  7.104786062432244  120.000000
1.23326  0.000000  0.000000  0.000000  -41.04433932933151  14.696992676603957  10.42567000582197  50.36711428649656  11.345486754314772  5.269481273874645  -12.519285125438719  57.83396824806741  10.106504803695866  6.857975389957415  120.000000
1.28688  0.000000  0.000000  0.000000  -41.329481099884525  14.77119520185874  10.954153224919112  50.46747812807826  11.349388141347593  5.286493400247399  -12.471111548522156  59.51841238184551  9.081923189494656  6.737678231108899  120.000000
1.3405  0.000000  0.000000  0.000000  -41.55214870335512  14.826543991210858  11.329455693141304  50.52766073357342  11.315726211522286  5.270703812173201  -12.51457432829666  60.88119757341988  8.397184161149953  6.743116089790127  120.000000
1.39412  0.000000  0.000000  0.000000  -41.728830782712706  14.871402346166866  11.564680878849197  50.56051975962575  11.240928474392879  5.230831526654651  -12.62718590796158  61.92974518699748  8.024705309079303  6.8551890507347535  120.000000
1.44774  0.000000  0.000000  0.000000  -41.87201455796185  14.913044616207367  11.688497125447213  50.572361773494315  11.13673918877986  5.178655991255074  -12.785968606514134  62.68647061017252  7.911673153247433  7.031053103079351  120.000000
1.50136  0.000000  0.000000  0.000000  -41.991053376214566  14.956752750598087  11.74234801679604  50.563682453599355  11.026858580795613  5.126746183372894  -12.96861335785836  63.18515938649412  7.989101121300183  7.211309867951682  120.000000
1.55498  0.000000  0.000000  0.000000  -42.091398212410645  15.005672531435254  11.771171481889894  50.53220354698913  10.937509043424642  5.085209993997006  -13.152518868118795  63.46163379123411  8.186429508300558  7.336455149481248  120.000000
1.6086  0.000000  0.000000  0.000000  -42.17487647180659  15.06138186030966  11.812140988227391  50.47662499116663  10.885848170591983  5.057750246060493  -13.312591837317957  63.54335902504485  8.445375052932846  7.367962227908865  120.000000
1.66222  0.000000  0.000000  0.000000  -42.23818249606052  15.123359309537737  11.886961606807658  50.39819872685369  10.87316378471417  5.04142786004978  -13.420978211315933  63.438522959525784  8.72793723075588  7.301540774516066  120.000000
1.71584  0.000000  0.000000  0.000000  -42.271770951135856  15.18800940413329  12.000026046876034  50.30237377143651  10.885605553807574  5.027288972646176  -13.448798662566997  63.12728903348395  9.013270319827571  7.166125927115772  120.000000
1.76946  0.000000  0.000000  0.000000  -42.259012863872485  15.24788354776387  12.141162824231843  50.19945438388084  10.900197106468907  5.00214516384351  -13.370309214815107  62.55668930269568  9.287058107242794  7.011195377817814  120.000000
1.82308  0.000000  0.000000  0.000000  -42.17928758092086  15.290968453651145  12.29093723739587  50.10340642115825  10.891269980666241  4.950464132944798  -13.167576616644151  61.64023232076075  9.529836049885187  6.8959048073277325  120.000000
1.8767  0.000000  0.000000  0.000000  -42.01315053997796  15.302430231702138  12.421906103659682  50.029524246641586  10.834005823819874  4.854058377875246  -12.834256978930327  60.265073021689645  9.71272171940054  6.882208179173148  120.000000
1.93032  0.000000  0.000000  0.000000  -41.74679815261154  15.265837527795064  12.49942352399642  49.98791754000383  10.706364036047006  4.695173452768912  -12.373731968174193  58.310150892467135  9.80332516578692  7.029673070355216  120.000000
1.98394  0.000000  0.000000  0.000000  -41.37029360237214  15.167870713781856  12.47826467793889  49.97726240388273  10.493533911505304  4.460358417935267  -11.790236627381086  55.676279039095455  9.782917493415699  7.3842689336709055  120.000000
2.03756  0.000000  0.000000  0.000000  -40.87107363648417  15.001045552543399  12.30751033667466  49.980474932302506  10.19009255755943  4.143824356404485  -11.078038890613575  52.31971560617598  9.668959068600492  7.956912670559718  120.000000
2.09118  0.000000  0.000000  0.000000  -40.22773143047335  14.762814048814509  11.939372541970794  49.96642746371993  9.798110368111736  3.746185998860756  -10.219869371803023  48.27713106683601  9.537132767077425  8.698529393656983  120.000000
2.1448  0.000000  0.000000  0.000000  -39.407295785424324  14.452321627711191  11.337462828098507  49.89995246958599  9.328239675931819  3.277909907637435  -9.196668153905755  43.670367621766914  9.526574239413131  9.496714565407249  120.000000
2.19842  0.000000  0.000000  0.000000  -38.368951120220295  14.067398695971741  10.485661774279484  49.75596743490604  8.802139168626649  2.7650313750164175  -8.006399211720941  38.68779805560491  9.823757370706877  10.208490624300294  120.000000
2.25204  0.000000  0.000000  0.000000  -37.07769280185444  13.604358011569794  9.398761795778016  49.53306715736486  8.249500192237344  2.2466319019882652  -6.68696525111024  33.55213607099567  10.632367018123114  10.721051913007996  120.000000
2.30566  0.000000  0.000000  0.000000  -35.5232702503937  13.061177481852619  8.125286640098588  49.25586387355402  7.704815106974888  1.7683531170876916  -5.334921111788768  28.486057344046127  12.141675911289402  11.01365092127256  120.000000
2.35928  0.000000  0.000000  0.000000  -33.73680225264718  12.441411660268791  6.735532524873497  48.96683226030446  7.205272854692121  1.3735886455405686  -4.113713159383973  23.685463062841162  14.505167260170625  11.18093255880138  120.000000
2.4129  0.000000  0.000000  0.000000  -31.79333181037345  11.758253109116524  5.306258835989697  48.71403986629076  6.785126330400746  1.0928480687676076  -3.2419975289014342  19.303269839298014  17.830599219443936  11.39295900411053  120.000000
2.46652  0.000000  0.000000  0.000000  -29.79989968214124  11.03217750317064  3.9123958762088695  48.539194887609035  6.4741454184993055  0.9398737204036394  -2.9478000899414716  15.44278679297358  22.153511459797382  11.817174872279189  120.000000
2.52014  0.000000  0.000000  0.000000  -27.878057073251675  10.290662769338393  2.6244838241762087  48.472531015458515  6.296144796683726  0.9098909666586428  -3.3538639655246794  12.151140346930264  27.345983449482283  12.543081512873737  120.000000
2.57376  0.000000  0.000000  0.000000  -26.149628124874305  9.565022591218003  1.5030926075155981  48.52766142153018  6.266902418955922  0.9814071312251177  -4.290728461171475  9.413788112142893  32.95762211442562  13.546179976794614  120.000000
2.62738  0.000000  0.000000  0.000000  -24.72412060594442  8.887200705117587  0.5874529446129433  48.69617668897973  6.393098486203657  1.1216583891644163  -5.077253391490411  7.160322449210569  38.03279824559522  14.71190014892322  120.000000
2.681  0.000000  0.000000  0.000000  -23.682305745652002  8.286222458308789  -0.11006023508560794  48.947014065421236  6.670458352009178  1.2936998496728462  -4.3158504858047575  5.293997421179459  40.9495184378985  15.892215798288396  120.000000
2.73462  0.000000  0.000000  0.000000  -23.055403580245876  7.782328106257595  -0.6005635036908594  49.23518725100562  7.080965863231696  1.463615917953243  0.5052816926189321  3.7496427193725563  39.0627945917638  16.956206399823454  120.000000
2.78824  0.000000  0.000000  0.000000  -22.80988226048685  7.382266345202934  -0.9135647299478024  49.51844091244491  7.595096359458864  1.608745584083271  13.963306551297222  2.5689250767437994  27.77583482645788  17.81803670437391  120.000000
2.84186  0.000000  0.000000  0.000000  -22.855639518341686  7.0772119785727945  -1.0870167467493264  49.76982439236479  8.17530126015135  1.7205184095536845  40.594358631946804  1.9582357517621771  2.6314756367195438  18.43780130877543  120.000000
2.89548  0.000000  0.000000  0.000000  -23.074624998080733  6.847430671285265  -1.1592649244063609  49.98211094319297  8.781192974689562  1.8010171109877355  69.15165834595511  2.0326992907941177  -24.98904953561917  18.809666825007085  120.000000
2.9491  0.000000  0.000000  0.000000  -23.35479093778391  6.669398418524587  -1.1650361989447022  50.16287642186498  9.374198177346436  1.8572070161910146  85.39864848935234  2.4309095627782313  -40.704704800806915  18.953433346046157  120.000000
3.00272  0.000000  0.000000  0.000000  -23.61357016585936  6.521816401740567  -1.135101105037021  50.32581742978632  9.922186882620984  1.8973985709885837  92.31583028353779  2.8133963419867993  -47.37201349385038  18.912403832921672  120.000000
3.05634  0.000000  0.000000  0.000000  -23.80464633648757  6.388593376638522  -1.0971052445701044  50.48347956007848  10.40264971531784  1.9304544010668199  94.2407198236957  3.076669793011002  -49.23516483488379  18.74747042818288  120.000000
3.10996  0.000000  0.000000  0.000000  -23.910925505227155  6.259832062716453  -1.0742576895448828  50.64409779036321  10.802037841922392  1.9645055276304417  93.17494923060266  3.229150470155669  -48.228565887041526  18.5243543728407  120.000000
3.16358  0.000000  0.000000  0.000000  -23.933541419259004  6.130854443438525  -1.0864948988941687  50.8102175110884  11.116207990248268  2.008309655756382  90.06338282175072  3.3178987218839238  -45.248078184159645  18.29772285663799  120.000000
3.2172  0.000000  0.000000  0.000000  -23.883569705125954  6.001124685964208  -1.1472238868940705  50.97916305585418  11.347369523916525  2.0690403550706673  85.56274182682337  3.3963067792173214  -40.91544951523182  18.09884800857749  120.000000
3.27082  0.000000  0.000000  0.000000  -23.776302573378114  5.873206382034969  -1.259866519695999  51.14501440480636  11.500469846827054  2.1493053253624472  80.31650901838617  3.5074310152432044  -35.85065318689004  17.933318059209284  120.000000
3.32444  0.000000  0.000000  0.000000  -23.62682278268237  5.752814005192661  -1.4215308112099425  51.30066134415489  11.584400076639676  2.2491182028728076  74.94828105969142  3.6780183615629154  -30.663427318053593  17.79043286696431  120.000000
3.37806  0.000000  0.000000  0.000000  -23.447173753743673  5.647323283814329  -1.6267122276362185  51.43971838105773  11.611019502973889  2.366597171389674  69.93854587439402  3.919779217325886  -25.827627433891017  17.655711107691896  120.000000
3.43168  0.000000  0.000000  0.000000  -23.245782670244914  5.5627643207414765  -1.8700940770856787  51.55577925548925  11.591956299216566  2.4984883683508414  65.54408410176755  4.233388540443699  -21.598214319745164  17.520239584544868  120.000000
3.4853  0.000000  0.000000  0.000000  -23.027195492522306  5.501344118055705  -2.1480372531745635  51.641461232709645  11.535616377039977  2.641112357923345  61.80652438225341  4.612995538242409  -18.01677193639478  17.383949352598506  120.000000
3.53892  0.000000  0.000000  0.000000  -22.791842816976327  5.460643813353138  -2.458984385024695  51.68883040070344  11.445872651229223  2.7905677131047546  58.621576736588835  5.050260484180191  -14.978472527690883  17.25288010131604  120.000000
3.59254  0.000000  0.000000  0.000000  -22.53535001201266  5.434321763333104  -2.803316032831108  51.6915018723795  11.322793930414061  2.942454655827309  55.80878273531706  5.537250804931474  -12.299787035891566  17.13255509565609  120.000000
3.64616  0.000000  0.000000  0.000000  -22.24844414641484  5.4136157144404065  -3.1828263975924243  51.64666273099302  11.164836648191294  3.0920250126651303  53.16094403343282  6.06881613260341  -9.767362101715776  17.021141356933025  120.000000
3.69978  0.000000  0.000000  0.000000  -21.91808612966532  5.388716739965024  -3.6001614994346394  51.556533114577405  10.971571720673644  3.234481673709682  50.47729318149853  6.6453557638560765  -7.172716611822736  16.905754983282304  120.000000
3.7534  0.000000  0.000000  0.000000  -21.53180509479559  5.349126662119525  -4.05766046776603  51.426758712593326  10.74555814334523  3.3656699006449933  47.59155389774766  7.275570323518845  -4.345716758930828  16.764114557866318  120.000000
3.80702  0.000000  0.000000  0.000000  -21.084499230072392  5.28410366741919  -4.556427589391595  51.26370263652892  10.492992070671733  3.482559585561001  44.40274328934097  7.979346276594708  -1.1932987764161374  16.569700062037395  120.000000
3.86064  0.000000  0.000000  0.000000  -20.585130345144034  5.183736494615981  -5.096455723615578  51.07270548063524  10.223596118565672  3.5828583092424853  40.90726498187259  8.78998304917078  2.25986284699089  16.29758011188539  120.000000
3.91426  0.000000  0.000000  0.000000  -20.059695783760496  5.040153118049149  -5.677084013953693  50.858541094673406  9.950548744673407  3.6648826077265744  37.20563518898002  9.75338283089538  5.861076415719699  15.928484074495875  120.000000
3.96788  0.000000  0.000000  0.000000  -19.547556212879783  4.8490573637797425  -6.296739613255034  50.627302984254406  9.69108844272977  3.7292012686515443  33.46453876220023  10.922764724123075  9.373271602744286  15.451153356102223  120.000000
4.0215  0.000000  0.000000  0.000000  -19.092982707986458  4.610456555478621  -6.951289629758619  50.38898627297133  9.468668381640878  3.780867085556088  29.845744944687503  12.352403340993122  12.560447950666978  14.86608485270768  120.000000
4.07512  0.000000  0.000000  0.000000  -18.73631165723169  4.329113730453446  -7.6320308977781695  50.15918771463958  9.314136418815284  3.8306368136108837  26.447893487673383  14.092965821039071  15.263422970209277  14.193976081593854  120.000000
4.1287400000000005  0.000000  0.000000  0.000000  -18.508472815903723  4.014342616200839  -8.325673894684508  49.9602931202717  9.26390618196996  3.8933263407752907  23.29476361547759  16.188386346997884  17.42461729380988  13.483514291064859  120.000000
4.18236  0.000000  0.000000  0.000000  -18.431487190471728  3.6780088391314933  -9.01450178849537  49.81858898393509  9.355077188039623  3.986061652524647  20.365379062863223  18.672274276691322  19.05701437590777  12.80673181389253  120.000000
4.23598  0.000000  0.000000  0.000000  -18.52089574461417  3.333539547313867  -9.676487010383445  49.762989998104665  9.619711232941336  4.1240944320913435  17.638436185000405  21.562364120666278  20.187684332522778  12.239512465310272  120.000000
4.2896  0.000000  0.000000  0.000000  -18.784183554438375  2.9944695665257877  -10.281688027185119  49.82275029868767  10.077759613949308  4.315400905985965  15.109342605293435  24.8486813098446  20.82628663960696  11.833505107708907  120.000000
4.3432200000000005  0.000000  0.000000  0.000000  -19.213948997256544  2.6751882174944  -10.787997834331483  50.02387197044264  10.733767568610494  4.556693484482167  12.778640608550983  28.47885060922662  20.968053132125373  11.593248514036983  120.000000
4.39684  0.000000  0.000000  0.000000  -19.77566019556393  2.3938515745989486  -11.146914744119279  50.38756744604662  11.586744368016976  4.834823389587996  10.637002825544114  32.351396657361164  20.611273096984842  11.475210197967908  120.000000
4.45046  0.000000  0.000000  0.000000  -20.407706992385766  2.1618949401631005  -11.310270331051266  50.912804955839285  12.634718297195356  5.142217234730267  8.650079965184373  36.317467834106246  19.785763708558274  11.409539823156585  120.000000
4.50408  0.000000  0.000000  0.000000  -21.032833951543942  1.985310491628221  -11.2437747642221  51.575578347914515  13.870229313497338  5.4742492769700775  6.766523012663292  40.20088771214991  18.564673315063747  11.331297934539872  120.000000
4.5577000000000005  0.000000  0.000000  0.000000  -21.576797924909656  1.879749814999508  -10.92989982443761  52.34027685627066  15.268353709034765  5.814942121850958  4.940564194227898  43.83953832018249  17.059462257235797  11.204088004339392  120.000000
4.61132  0.000000  0.000000  0.000000  -21.992749326713195  1.8620070239974085  -10.351011023144537  53.15334735850259  16.76998960177768  6.150621434814509  3.1471736306900557  47.11991881504669  15.412750595426974  11.027852826536101  120.000000
4.66494  0.000000  0.000000  0.000000  -22.26676139123353  1.94490013420984  -9.486518011161719  53.95350232973067  18.282887865544904  6.47746871238387  1.3935629276100503  49.99015967612913  13.776142806139063  10.8293597191827  120.000000
4.71856  0.000000  0.000000  0.000000  -22.416464003282176  2.138198442013047  -8.318155283552626  54.68518748378807  19.698854009176394  6.797916571958905  -0.2853930543045106  52.45704012343175  12.285430901364597  10.645801478330474  120.000000
4.7721800000000005  0.000000  0.000000  0.000000  -22.487704913579165  2.44300375367876  -6.837777421254461  55.303444861827316  20.91554331580689  7.121675033990057  -1.844380618854389  54.567941583888086  11.03971436304436  10.510181947107307  120.000000
4.8258  0.000000  0.000000  0.000000  -22.54203745040063  2.8500499133807558  -5.057130211521968  55.78233620945603  21.85621047270192  7.459265858473008  -3.2406707006731934  56.388349637719195  10.08628231506503  10.445322682205175  120.000000
4.87942  0.000000  0.000000  0.000000  -22.640289220405656  3.3382755204568313  -3.010784345625081  56.11743455552228  22.481017411510024  7.817278634469113  -4.442997215891986  57.983816513705456  9.420324156198046  10.464891643790068  120.000000
4.93304  0.000000  0.000000  0.000000  -22.827842193364724  3.878109236769888  -0.7555298000303363  56.32411081064259  22.788384584329176  8.194302780884666  -5.436145110971539  59.40776945242228  8.995529656912295  10.576599710688386  120.000000
4.9866600000000005  0.000000  0.000000  0.000000  -23.12655613163905  4.4354472441465225  1.6345325672859081  56.431009134173266  22.80929087286802  8.580889624237743  -6.220605781386844  60.696566406788435  8.738518278309073  10.784128128656894  120.000000
5.04028  0.000000  0.000000  0.000000  -23.53315415205197  4.975735087662518  4.075234676580627  56.47126221739621  22.59672896803962  8.960876188084196  -6.810440087965643  61.86903149512205  8.56419901412342  11.086564560573693  120.000000
5.0939  0.000000  0.000000  0.000000  -24.023898687334793  5.466994170317112  6.481073922529871  56.476231118344664  22.212553534358957  9.31225604805851  -7.2292174508386315  62.929859383543054  8.391371925395855  11.477306840247541  120.000000
5.14752  0.000000  0.000000  0.000000  -24.560331442798727  5.883343825332756  8.772489097584511  56.473274401768  21.71534868399891  9.608007241063987  -7.502988588726172  63.87547599853734  8.157246427376785  11.94071472969252  120.000000
5.2011400000000005  0.000000  0.000000  0.000000  -25.097798214375764  6.20836962676404  10.877906766901614  56.48582158618921  21.150751908200316  9.81534036046967  -7.653550743682501  64.70023329747673  7.830223236743232  12.445210844973039  120.000000
5.25476  0.000000  0.000000  0.000000  -25.59443795424802  6.438379164449431  12.73023233801074  56.533165707129655  20.547225599755688  9.893734552422703  -7.695792771532074  65.39792497415944  7.415495067332113  12.936805803480821  120.000000
5.30838  0.000000  0.000000  0.000000  -26.016282179082534  6.582196141713016  14.264102423473371  56.63074098454563  19.918212274110527  9.79738894567428  -7.6369622264582535  65.959411255141  6.946787205823098  13.344078586812405  120.000000
5.362  0.000000  0.000000  0.000000  -26.337829666869883  6.6555607805007595  15.418610664085065  56.78939889248707  19.267369409708706  9.486498407708051  -7.478822920972848  66.36783909761438  6.466716742270758  13.596944818106046  120.000000
5.4156200000000005  0.000000  0.000000  0.000000  -26.541929486674036  6.672578120162701  16.14347325547513  57.013565345354685  18.59257056614038  8.94124989148972  -7.222484661449318  66.5940816215818  6.004914668867888  13.653399890406076  120.000000
5.46924  0.000000  0.000000  0.000000  -26.619271554985207  6.637236016509556  16.405326344451318  57.29797239279329  17.88808685879317  8.1737334474704  -6.871901514503061  66.59561683721356  5.563872512859545  13.521424281283855  120.000000
5.52286  0.000000  0.000000  0.000000  -26.56880905478797  6.541311493000239  16.189362176314976  57.625634260663574  17.145661439895328  7.229592108911567  -6.431913776265938  66.32136669979593  5.121887561735086  13.259138294662762  120.000000
5.57648  0.000000  0.000000  0.000000  -26.399062570997188  6.368217403030081  15.496101564575678  57.96601794851394  16.357312461814004  6.181339997701798  -5.901693088748596  65.72300156852835  4.6518493307309345  12.951224638252132  120.000000
5.6301000000000005  0.000000  0.000000  0.000000  -26.129503660349602  6.100511058762061  14.337435897005355  58.27415891143916  15.521513351204744  5.1167903106186  -5.269491224626386  64.76838570880747  4.145139793748242  12.676561955871408  120.000000
5.68372  0.000000  0.000000  0.000000  -25.78878740131011  5.726720088479476  12.736177223023617  58.49245102986679  14.651624475060316  4.1275817425289665  -4.513253956709105  63.45016795246341  3.627966823764318  12.482299496555191  120.000000
5.73734  0.000000  0.000000  0.000000  -25.408524238968987  5.247682475902166  10.728808295394934  58.559153168576024  13.78119340444613  3.2973205892813664  -3.607210599606658  61.78324455809357  3.1615073652994825  12.376038123497352  120.000000
5.79096  0.000000  0.000000  0.000000  -25.013089957583862  4.679352590560573  8.372120705467017  58.422373667097325  12.959720169762369  2.690652498694124  -2.530864009324172  59.79113586998377  2.825010470697046  12.337175585445628  120.000000
5.8445800000000006  0.000000  0.000000  0.000000  -24.611491422451884  4.052818690977418  5.748310471820658  58.053963745571956  12.240002272979398  2.343155325558615  -1.2762027105174165  57.489852108129  2.6923405839259815  12.334481113649206  120.000000
5.8982  0.000000  0.000000  0.000000  -24.195380092189836  3.411120951768853  2.9643981087598283  57.456818308428595  11.665136187113188  2.2550702683666515  0.14865747533493906  54.87853124823662  2.8130797243981416  12.33903635071574  120.000000
5.95182  0.000000  0.000000  0.000000  -23.744808392279435  2.8021189421039745  0.1456521774718112  56.66193145368116  11.262693984331587  2.3941901222296944  1.7196759738529985  51.94288807504787  3.204931301654453  12.329856474001012  120.000000
6.00544  0.000000  0.000000  0.000000  -23.23960739613782  2.273556364112618  -2.5762989855579237  55.720984023410104  11.045584725113109  2.7045357275888646  3.401135935579445  48.671748722752966  3.8566018968579403  12.293920168926144  120.000000
6.059060000000001  0.000000  0.000000  0.000000  -22.670621568438538  1.8675213688091137  -5.075667007006288  54.698681536482475  11.015382391937424  3.1232657480073347  5.157823187975422  45.08250983738734  4.733596654062731  12.227080295947715  120.000000
6.11268  0.000000  0.000000  0.000000  -22.04926211204897  1.6171274410508194  -7.2501523961756895  53.66885251888992  11.162409700386368  3.594855139965552  6.97066967328583  41.2434619819464  5.781718813898853  12.137992799056118  120.000000
6.1663  0.000000  0.000000  0.000000  -21.414461951164693  1.536060870219044  -9.0367588334007  52.70221644080748  11.463134824943788  4.084121726141246  8.842007224143652  37.275037143625134  6.933649741831619  12.049150964980019  120.000000
6.21992  0.000000  0.000000  0.000000  -20.828358774347187  1.6141127017373578  -10.419665475989856  51.858070229053254  11.880139885132673  4.576534025193097  10.790257097807634  33.329398008616366  8.119418171768347  11.993425708599066  120.000000
6.273540000000001  0.000000  0.000000  0.000000  -20.352232007814937  1.8225981391000958  -11.42324483664308  51.1881842184817  12.363818071718974  5.056078228188417  12.83448854186379  29.55307948261829  9.281811177097952  12.007350858020468  120.000000
6.32716  0.000000  0.000000  0.000000  -20.02602913736675  2.114208357157592  -12.08479923845054  50.72638649735006  12.85707371256683  5.503167722572561  14.970982180505457  26.05063647267986  10.39640860285525  12.125548994687863  120.000000
6.38078  0.000000  0.000000  0.000000  -19.85585974861058  2.437864147325191  -12.441983341202818  50.482754072092455  13.314729736673124  5.901928004793544  17.157736014627577  22.87563940371562  11.480777080051988  12.376878694659833  120.000000
6.4344  0.000000  0.000000  0.000000  -19.816646078115376  2.7552672497716695  -12.535303936954959  50.45139540649593  13.716693313857416  6.238876428833979  19.318364389687986  20.041302097491783  12.582832365677074  12.781888576137248  120.000000
6.488020000000001  0.000000  0.000000  0.000000  -19.867058046959254  3.0417215760746568  -12.403824161750755  50.61227976026128  14.064078127395895  6.505867362032697  21.362427732465832  17.532676841506998  13.750282498028742  13.346840111931668  120.000000
6.54164  0.000000  0.000000  0.000000  -19.968657519478334  3.2825830711959125  -12.081461105624701  50.93005259841987  14.371398789816375  6.702827384964444  23.221542542916907  15.319335227573973  14.985115866281413  14.051873252801387  120.000000
6.59526  0.000000  0.000000  0.000000  -20.102272697934907  3.4728073184361676  -11.600021593816114  51.35631202565837  14.65770043325307  6.835401470052971  24.895195308774348  13.36562099181606  16.196166380889572  14.841752831415873  120.000000
6.64888  0.000000  0.000000  0.000000  -20.271350045528262  3.6174228274515126  -10.992887497337959  51.83888121906402  14.939543635197591  6.906802094588128  26.496894877470865  11.63826809894921  17.163236111643215  15.631358812620006  120.000000
6.702500000000001  0.000000  0.000000  0.000000  -20.492360983215406  3.7285942273268526  -10.295986563662714  52.33099107184973  15.227344425307642  6.914974482039248  28.277079496918418  10.1085640336896  17.539321172380244  16.32829819797774  120.000000
6.75612  0.000000  0.000000  0.000000  -20.778856218137797  3.819204312217458  -9.543983161172312  52.79239296775547  15.524745777207439  6.858236022909119  30.57661627204799  8.750149074723833  16.92802002698461  16.861812807499078  120.000000
6.80974  0.000000  0.000000  0.000000  -21.125195859011367  3.899360703857887  -8.761593426322976  53.192960245106256  15.82831748271986  6.739484918555718  33.73151152032727  7.53852932540426  15.003039367956575  17.206220629759105  120.000000
6.86336  0.000000  0.000000  0.000000  -21.50082221910771  3.975762045049267  -7.962862231079926  53.51619699999975  16.1310534376901  6.5700673894534365  38.00366162353667  6.451673115724119  11.578683716834727  17.384731189913165  120.000000
6.916980000000001  0.000000  0.000000  0.000000  -21.860708290100018  4.051937053780565  -7.155862928684072  53.75811836569194  16.425279821826056  6.3704443862697895  43.59691541737467  5.470382392203382  6.569450591956027  17.451171280653025  120.000000
6.9706  0.000000  0.000000  0.000000  -22.16370885986886  4.1299575092562115  -6.344188135644474  53.92473308733693  16.70068147639971  6.162607572886934  50.79349103752602  4.581385955152398  -0.183386862672354  17.463825181724758  120.000000
7.02422  0.000000  0.000000  0.000000  -22.3859235477985  4.211404436916145  -5.529675533218207  54.03056929635983  16.943561325464348  5.962437887713784  60.22280956617002  3.78832603135492  -9.211736017556492  17.46657749796104  120.000000
7.07784  0.000000  0.000000  0.000000  -22.52458660598145  4.2971912933141025  -4.716329707563757  54.09683186934341  17.139259108743808  5.7778282504756415  73.06263835731927  3.1310502335372443  -21.637320985520795  17.483181030673208  120.000000
7.131460000000001  0.000000  0.000000  0.000000  -22.595566958466048  4.387456683495831  -3.9111751342915198  54.144479722404476  17.277661482041477  5.608798902027955  90.29309551543632  2.694976337949967  -38.42251425873275  17.519010018279833  120.000000
7.18508  0.000000  0.000000  0.000000  -22.62583604801327  4.48234373581431  -3.1231656085405337  54.18515329308129  17.355931810797525  5.450362349889805  110.27906367851222  2.566913356114054  -57.93705572314334  17.567682847527873  120.000000
7.2387  0.000000  0.000000  0.000000  -22.64392426405546  4.580788705019  -2.363310438614989  54.22218808779312  17.375060764872003  5.2975728071219725  128.39576590008872  2.738116611040024  -75.56802247006073  17.619452560992016  120.000000
7.29232  0.000000  0.000000  0.000000  -22.67017995239566  4.679580746124566  -1.6454275499679452  54.258470944972224  17.337068264702786  5.145971489947318  141.70418733588332  3.0925015471298445  -88.38621271395488  17.667494742573545  120.000000
7.345940000000001  0.000000  0.000000  0.000000  -22.714385515658904  4.773476978450237  -0.9858624562489362  54.29902764280206  17.24295880614079  4.991413736905128  150.50537388281205  3.5009923250078914  -96.69786519352454  17.709146382136336  120.000000
7.39956  0.000000  0.000000  0.000000  -22.777133890982267  4.855406114578235  -0.40363549522896697  54.34976503405955  17.09215821893312  4.830791045527873  156.07435962171095  3.872134923570668  -101.77957991584817  17.7452777756759  120.000000
7.45318  0.000000  0.000000  0.000000  -22.852937821774212  4.917606395681162  0.07988137409565646  54.41562225893541  16.882843466749698  4.662504665238985  159.4127208395677  4.1478590522589665  -104.63259862509386  17.779340031958277  120.000000
7.5068  0.000000  0.000000  0.000000  -22.93180784168557  4.953057314721228  0.44281295536263576  54.49909276665945  16.61315273702082  4.487001901204896  161.10235427479927  4.290623735165489  -105.8380528690018  17.81680756966541  120.000000
7.560420000000001  0.000000  0.000000  0.000000  -23.00105282224177  4.956480493964391  0.6654138283607655  54.59911150589313  16.28251850766954  4.307721261461019  161.3880378691189  4.27593882248243  -105.64095097272947  17.86373873196105  120.000000
7.61404  0.000000  0.000000  0.000000  -23.04748255904053  4.925228774529194  0.7321346447300107  54.70990077182285  15.892259206453877  4.130786337260989  160.23402378348172  4.089757879904919  -104.00878646077902  17.92426894703728  120.000000
7.66766  0.000000  0.000000  0.000000  -23.06013601522314  4.859832646454571  0.6328325787360665  54.81887087842776  15.445554748402962  3.9641237383041585  157.273782267437  3.7293037560071376  -100.58356081138082  17.996760303223123  120.000000
7.72128  0.000000  0.000000  0.000000  -23.030895564513262  4.764186312928031  0.36339642117427384  54.906995198121095  14.94799750165753  3.815697581272772  151.50627260714867  3.210284505428405  -94.38073395350582  18.071216814669263  120.000000
7.774900000000001  0.000000  0.000000  0.000000  -22.95334396104258  4.6439956589909865  -0.07383716418310857  54.9514112048343  14.407449882815978  3.692976341056331  140.42981838067251  2.5898308372164287  -82.92302824902953  18.129472072112765  120.000000
7.82852  0.000000  0.000000  0.000000  -22.817992312829634  4.5045645419715346  -0.6704063995531632  54.92923998214703  13.834088176635374  3.603515165796952  118.51494841044357  2.0402817396994406  -60.70972841606414  18.147955574449057  120.000000
7.88214  0.000000  0.000000  0.000000  -22.611922702418422  4.349911047117802  -1.4122742216481685  54.823944355249715  13.238895648916523  3.554257632463065  83.32147038813768  1.9795824281602452  -25.329829182883774  18.09952055423685  120.000000
7.93576  0.000000  0.000000  0.000000  -22.3208376844385  4.179570976019305  -2.281147917202133  54.62973849750727  12.635039223789022  3.5529540039307275  53.83783733011142  2.7081476220372456  4.201852909395427  17.953326269938387  120.000000
7.989380000000001  0.000000  0.000000  0.000000  -21.933447111762018  3.985367451424747  -3.2592376654906117  54.35445216222497  12.046221309712294  3.6152762676393526  38.53813475262544  3.981610421826656  19.389942154956895  17.67555340911396  120.000000
8.043  0.000000  0.000000  0.000000  -21.449358099296212  3.760376858268651  -4.328469395119566  54.031837529574894  11.50701454941913  3.761455164159926  31.226002519832626  5.582106854601536  26.410962244250186  17.238386777246372  120.000000
8.09662  0.000000  0.000000  0.000000  -20.885282225090855  3.5044339969445346  -5.464467899029942  53.720588013659444  11.05443765183651  4.004201374653642  27.873172851397293  7.446770012315855  29.270173218688743  16.632928938247574  120.000000
8.15024  0.000000  0.000000  0.000000  -20.283056977227723  3.2252536845772255  -6.635498950782793  53.48166318317101  10.723896460350973  4.3477453546642915  26.597832115829576  9.580516152839476  29.821149145882558  15.882004570600099  120.000000
8.20386  0.000000  0.000000  0.000000  -19.710396770603367  2.9390438259930027  -7.803597691991097  53.36356678730238  10.549087104182986  4.790430759498268  26.410173149617243  12.017699631422866  29.021882654212206  15.04328889975487  120.000000
8.257480000000001  0.000000  0.000000  0.000000  -19.248703713147055  2.669130283193451  -8.925963963667963  53.39589364887378  10.56158677476322  5.3271077701677045  26.727473493365363  14.799724729591883  27.425321229199653  14.194036094810228  120.000000
8.3111  0.000000  0.000000  0.000000  -18.97094268712928  2.4455277795027457  -9.958374272783418  53.593730136596655  10.787635737400961  5.943699467927372  27.199985631781136  17.953190853517583  25.36866372458975  13.40618223378292  120.000000
8.36472  0.000000  0.000000  0.000000  -18.913620093587788  2.296657742937678  -10.855078370972718  53.9671815810402  11.240341735524698  6.61574108710155  27.650440371215147  21.46903819029494  23.049242787855302  12.725685392748504  120.000000
8.41834  0.000000  0.000000  0.000000  -19.0556729724347  2.237811779798296  -11.567288258344433  54.51631860576011  11.913902323072278  7.321784429000177  28.021902618696615  25.28451422060654  20.581281431249803  12.16781756626752  120.000000
8.47196  0.000000  0.000000  0.000000  -19.32875953685064  2.259908927651841  -12.04742585719299  55.21502748558686  12.786133736037542  8.048954437416876  28.30089651740285  29.277776025532013  18.054407656688966  11.722947879123286  120.000000
8.52558  0.000000  0.000000  0.000000  -19.640826133917123  2.34844539651817  -12.256608749097722  56.02126737727056  13.826992678756012  8.781428039882524  28.489858549989375  33.29431614402882  15.53794903620926  11.369990665580968  120.000000
8.5792  0.000000  0.000000  0.000000  -19.907265952346496  2.5080591332103586  -12.170973601018847  56.90377496319998  15.001464964601341  9.4825713416004  28.602912964959675  37.19551475718522  13.069712131182223  11.087997765050934  120.000000
8.63282  0.000000  0.000000  0.000000  -20.088475445326495  2.7467812975611317  -11.774968412575305  57.82775521469203  16.2581968338663  10.113867856910339  28.64397651403217  40.8803907935448  10.674183924994828  10.859937598265798  120.000000
8.686440000000001  0.000000  0.000000  0.000000  -20.195236474736504  3.0634926477370668  -11.055975271874612  58.7437984135434  17.52418848729775  10.659662247711353  28.607634667780143  44.28707563417278  8.372105912478515  10.675163193266132  120.000000
8.74006  0.000000  0.000000  0.000000  -20.267308928853723  3.450166612839575  -10.011661469467242  59.6036300177841  18.713502669935867  11.122770383491714  28.490544166167602  47.39011877639206  6.179964308524777  10.5269656270437  120.000000
8.79368  0.000000  0.000000  0.000000  -20.349580525606054  3.894990543465786  -8.655561505162902  60.37173629916767  19.74155153325561  11.51506680350336  28.296049882581343  50.18534199229809  4.111768359428647  10.413148916951197  120.000000
8.8473  0.000000  0.000000  0.000000  -20.479413897308188  4.384127091246209  -7.020918568602298  61.025867059685766  20.539331490468594  11.852274944013415  28.03121583440856  52.67869344639285  2.178261980821895  10.334003426451039  120.000000
8.90092  0.000000  0.000000  0.000000  -20.679896167503227  4.901627915898739  -5.161461879263422  61.553554811634605  21.06587977417437  12.149886386309433  27.702695206570585  54.8785453576606  0.38562250014808575  10.289908125822201  120.000000
8.95454  0.000000  0.000000  0.000000  -20.955292002385004  5.431177267534003  -3.147693154298264  61.95647518079173  21.31312358333364  12.415935671423828  27.321629000147553  56.794961139087356  -1.2676019758840862  10.280638539974163  120.000000
9.00816  0.000000  0.000000  0.000000  -21.295104505146323  5.955389271962956  -1.0543045110081628  62.2470284597853  21.30098856939117  12.651483914561798  26.90377252033282  58.44170336392815  -2.7850745351975386  10.302495222536203  120.000000
9.06178  0.000000  0.000000  0.000000  -21.68377847662559  6.45980320842166  1.0515295294412705  62.442066756979486  21.07197903465799  12.850431653347545  26.469259903843284  59.838697591565605  -4.163475294935092  10.345594301500972  120.000000
9.115400000000001  0.000000  0.000000  0.000000  -22.107264920629923  6.9309725835070894  3.114231938899662  62.556462299149494  20.681524032785404  13.00563289615893  26.042430816557022  61.01279215911624  -5.3886714700334615  10.393605807757554  120.000000
9.16902  0.000000  0.000000  0.000000  -22.55483163814843  7.357447081082067  5.088182357557473  62.602893343488304  20.188471599077182  13.110125596931834  25.651939731481956  61.99274787137693  -6.440184240810052  10.428606219876078  120.000000
9.22264  0.000000  0.000000  0.000000  -23.01550961812564  7.729059400725705  6.934155121900075  62.59513564964231  19.643355876682847  13.157422906978503  25.32961789145773  62.80291362140223  -7.302097604246273  10.437639689285788  120.000000
9.27626  0.000000  0.000000  0.000000  -23.473999437964785  8.037489315685628  8.618155011564086  62.549921891914295  19.080278934597573  13.139197135634593  25.10710120826928  63.45552066667352  -7.972614200281362  10.41820244070426  120.000000
9.32988  0.000000  0.000000  0.000000  -23.9074110285994  8.276910206992467  10.10822898336703  62.48746761431036  18.51667579759741  13.04553005427151  25.013293687329963  63.94815221313877  -8.468296742684227  10.378886510310837  120.000000
9.3835  0.000000  0.000000  0.000000  -24.285029376479184  8.44304419866519  11.3743575060408  62.42863549495285  17.95740980826898  12.866079426073753  25.0731010826121  64.26474978395412  -8.818034735805718  10.334734028622943  120.000000
9.43712  0.000000  0.000000  0.000000  -24.573498551530854  8.533847418823997  12.389260901671696  62.390862863150254  17.400385208259518  12.590948104373027  25.305164846683727  64.38138072044488  -9.052132296705485  10.298620425965026  120.000000
9.49074  0.000000  0.000000  0.000000  -24.74281001635961  8.547845550005045  13.129478743928974  62.38255301779539  16.841158120216473  12.212736293387556  25.72024588378099  64.27129743442858  -9.190304711135065  10.27347532488913  120.000000
9.544360000000001  0.000000  0.000000  0.000000  -24.771014267968177  8.484328534727739  13.574639670626405  62.40122799433585  16.27567552283972  11.727458299600444  26.320506453603674  63.9088246169017  -9.235650807921614  10.249380373852972  120.000000
9.59798  0.000000  0.000000  0.000000  -24.645564701469617  8.342493712441282  13.706507496486822  62.43367511970426  15.700467040998946  11.135688490614903  27.09956183929161  63.269521515541946  -9.17396791339747  10.208073799036942  120.000000
9.6516  0.000000  0.000000  0.000000  -24.36484023574968  8.121614373570155  13.507467731060784  62.4574145147076  15.111275962685026  10.443881247159624  28.042124783790243  62.32870589307201  -8.977721337011758  10.133655306037147  120.000000
9.70522  0.000000  0.000000  0.000000  -23.939849471486237  7.821657334112156  12.961013844376748  62.44157995216669  14.503470499621141  9.664471844133374  29.121027423842445  61.05967280070561  -8.608823459100934  10.023936065515551  120.000000
9.75884  0.000000  0.000000  0.000000  -23.397105097972176  7.442758440255291  12.054392620569692  62.34746584800604  13.873652708938861  8.819954809463718  30.295627482864333  59.434424118988204  -8.020311788264436  9.898492995466425  120.000000
9.81246  0.000000  0.000000  0.000000  -22.777453261758115  6.987230640169268  10.784011040881921  62.13277266835575  13.225636480721807  7.94447011880885  31.50928502277576  57.428268325161966  -7.155622912077892  9.794696962591553  120.000000
9.86608  0.000000  0.000000  0.000000  -22.133642953227092  6.45986563261554  9.162455911352286  61.75656099429619  12.576180147046477  7.0861383850278505  32.68856389580082  55.025817579766446  -5.948375497733709  9.75924080182954  120.000000
9.9197  0.000000  0.000000  0.000000  -21.521390595717953  5.871748231861431  7.224167489398686  61.1904348682693  11.958853121446301  6.300935977774942  33.74246624727633  52.23195534893518  -4.3253599535840745  9.838182732308022  120.000000
9.973320000000001  0.000000  0.000000  0.000000  -20.989390671508286  5.243285200892618  5.031145705914648  60.42964678872028  11.421173340651862  5.642964583619619  34.568981127394586  49.077836218265965  -2.2170155747829225  10.073299715345458  120.000000
10.02694  0.000000  0.000000  0.000000  -20.567283541392516  4.603223947602793  2.6712358298383245  59.500240508958136  11.013094365133606  5.153172865215125  35.06401138381331  45.62661041300923  0.4270722069575274  10.497711027858182  120.000000
10.08056  0.000000  0.000000  0.000000  -20.26436060318376  3.991454434578917  0.24933309391956174  58.45688913757683  10.773925550129288  4.845711404960567  35.136032388382354  41.96430803130837  3.620178890253782  11.132512377706771  120.000000
10.13418  0.000000  0.000000  0.000000  -20.06669749771471  3.443896907559815  -2.1278216878329186  57.369139184725185  10.722730069927987  4.711065534123008  34.72311294115133  38.18530798565126  7.325594835074961  11.975529070387182  120.000000
10.1878  0.000000  0.000000  0.000000  -19.942900109839826  2.984664506565563  -4.364143944660284  56.31633232895458  10.855916731344125  4.725462550994498  33.81922669101796  34.38049040136433  11.439605735903843  12.995790698793616  120.000000
10.24142  0.000000  0.000000  0.000000  -19.855568607328834  2.6170312007513  -6.379274674747692  55.37153964858585  11.152928701766818  4.863471855273681  32.47087415294212  30.62204937109936  15.806087792565103  14.133237358671078  120.000000
10.29504  0.000000  0.000000  0.000000  -19.786601233678695  2.3345253157387416  -8.110222617566658  54.59318600573425  11.584837429809053  5.09670539867156  30.77571278589126  26.969116335754705  20.223396621183692  15.308533150522244  120.000000
10.34866  0.000000  0.000000  0.000000  -19.736557219676843  2.1324768540877193  -9.505814208889609  54.01927944178214  12.127237579020633  5.39394429914079  28.86851625584368  23.46948130527977  24.47104835658752  16.432384236418603  120.000000
10.402280000000001  0.000000  0.000000  0.000000  -19.73478491589104  2.0126191528538446  -10.522857365287017  53.6564682964192  12.765792436892848  5.724486226622389  26.912573326670746  20.16644535562144  28.31925874928675  17.409287377620995  120.000000
10.4559  0.000000  0.000000  0.000000  -19.820536138987954  1.9860856843860784  -11.130373825222595  53.48694008503124  13.495950050417257  6.0486517878333945  25.06817295974874  17.091009351376723  31.564067387902703  18.138488268495312  120.000000
10.50952  0.000000  0.000000  0.000000  -20.027108073137107  2.0664100412644038  -11.317302958422552  53.477235336669516  14.316413589177513  6.326979482889307  23.509242938055113  14.25489862029995  34.00807077003294  18.52484876923179  120.000000
10.56314  0.000000  0.000000  0.000000  -20.38036561172081  2.2470283393127453  -11.105876760355224  53.5902363474481  15.216702501881286  6.538621263210419  22.475667686488745  11.650387410524914  35.40913849913418  18.492584327126398  120.000000
10.61676  0.000000  0.000000  0.000000  -20.887507799430793  2.4942128324679125  -10.556933920464532  53.77451299897554  16.170137180273112  6.688579093659263  22.30531478768077  9.24123298981843  35.45757712380276  18.017860734654086  120.000000
10.67038  0.000000  0.000000  0.000000  -21.51871634560273  2.769298338901102  -9.769652745272424  54.009990739173276  17.144278136509204  6.78310210398739  23.731297261180814  6.978370827403027  33.49619172671335  17.16964407809314  120.000000
10.724  0.000000  0.000000  0.000000  -22.231395697143384  3.0028956314126796  -8.854736301920893  54.29233103018834  18.093402212449707  6.871291782803153  28.945995146005405  4.823905180073275  27.45503835067457  16.123581293862948  120.000000
