Simulation
nRows=268
nColumns=15
endheader
time  TH_x TH_y TH_z SC_y  SC_z  SC_x  AC_y  AC_z  AC_x  GH_y  GH_z  GH_yy  EL_x  PS_y
0.0  0.000000  0.000000  0.000000  -22.75130714163934  4.591603844858906  -6.325145029520415  56.981820186060375  8.638985547502054  7.525368702344012  -155.55248555364582  4.061549326558475  -166.85995496609203  20.854125550110062  120.000000
0.04016479400749064  0.000000  0.000000  0.000000  -22.775702324716224  4.6114149023425615  -6.304658239687575  56.94931662512438  8.690818533067876  7.510650451739404  -154.56171804230945  3.923663537161247  -167.94441027479527  20.342468916013846  120.000000
0.08032958801498127  0.000000  0.000000  0.000000  -22.85045712007381  4.67088716890115  -6.247740119274432  56.84631370313974  8.838216868400885  7.460738907145372  -151.06156902305693  3.5265849986217117  -171.73014702901935  19.835106748489316  120.000000
0.12049438202247191  0.000000  0.000000  0.000000  -22.985610128817456  4.769688732419631  -6.167119086572865  56.66111522721409  9.061120385244301  7.3732982002770076  -143.1420640178449  2.9301446200351773  179.864963226896  19.31686264245338  120.000000
0.16065917602996255  0.000000  0.000000  0.000000  -23.19237249914129  4.9033693275671  -6.0794819415532775  56.38610549323765  9.336419779572077  7.253611492095162  -126.04649466243421  2.2852437768448026  162.0799413615699  18.77783580727608  120.000000
0.20082397003745317  0.000000  0.000000  0.000000  -23.481746957581574  5.066023029549149  -5.9976482049518385  56.02268474444817  9.643414858585723  7.107587074722102  -93.30166737355894  1.9839007006477842  128.44456702627969  18.212053992513916  120.000000
0.24098876404494382  0.000000  0.000000  0.000000  -23.865364607401037  5.255216618910472  -5.925844713755323  55.578480248054596  9.96515073170305  6.9430314431465625  -58.49072820913988  2.5295571520487536  92.54999371290151  17.620469403844815  120.000000
0.28115355805243447  0.000000  0.000000  0.000000  -24.34719231582595  5.47017121513283  -5.860230532794011  55.067794818906464  10.290629994030462  6.766677282398865  -38.8822522164652  3.781172880749971  71.67840800304744  17.007565508957285  120.000000
0.3213183520599251  0.000000  0.000000  0.000000  -24.926478020555933  5.711742969280686  -5.789479505584939  54.50906728061129  10.613761270097852  6.584473450795728  -29.051666358613385  5.414345385673486  60.42365998391402  16.381255726193743  120.000000
0.3614831460674157  0.000000  0.000000  0.000000  -25.598369531733763  5.982063783223982  -5.6971429868929935  53.92179679023076  10.930999054783568  6.401075521851226  -23.64512554213735  7.28814624380203  53.45314231266141  15.751370354935505  120.000000
0.40164794007490634  0.000000  0.000000  0.000000  -26.35466199594306  6.282611663507177  -5.56669903755263  53.325640924843874  11.240990996103767  6.220844493482866  -20.406315655067488  9.344297440806162  48.5351942123963  15.127602292040812  120.000000
0.441812734082397  0.000000  0.000000  0.000000  -27.18494089015289  6.613761668632565  -5.38302408933884  52.73826977611469  11.542335653011808  6.048067634246856  -18.371986497921178  11.549537057411266  44.732404385971876  14.5190678592268  120.000000
0.48197752808988764  0.000000  0.000000  0.000000  -28.077227006213025  6.975351456455585  -5.129816173341941  52.17609501043656  11.83023646499414  5.885374675156118  -17.081537338415853  13.878166600728159  41.61169198710201  13.933542789332357  120.000000
0.5221423220973783  0.000000  0.000000  0.000000  -29.018644208961504  7.366371741317339  -4.78894241023531  51.65430866972257  12.095993861971037  5.732736616399255  -16.286447583606588  16.306012878909698  38.95203347563759  13.37706199901323  120.000000
0.5623071161048689  0.000000  0.000000  0.000000  -29.99603274268559  7.784500984227479  -4.347111500356671  51.186456197894664  12.332662744125894  5.591190261215897  -15.836422976061021  18.808548626505992  36.63008671016531  12.853351762357578  120.000000
0.6024719101123596  0.000000  0.000000  0.000000  -30.996338274083044  8.226816693276124  -3.800390954160122  50.78356449802498  12.538944990268822  5.466200095909313  -15.630227193387075  21.360771745394313  34.569608348931396  12.363988006290935  120.000000
0.6426367041198502  0.000000  0.000000  0.000000  -32.00699013440504  8.69000701662971  -3.1495166531204024  50.45422859268197  12.716526475066498  5.365136197103296  -15.59321554984509  23.93817276204761  32.71802387871739  11.908302458264039  120.000000
0.6828014981273408  0.000000  0.000000  0.000000  -33.01571866186285  9.170288781914495  -2.397975598031746  50.20449254084383  12.869622160626879  5.29602365407281  -15.668278224813276  26.51726026083881  31.036391402562806  11.483329940711739  120.000000
0.7229662921348314  0.000000  0.000000  0.000000  -34.010254782123994  9.663334404239423  -1.5504212567302433  50.0374651668989  13.004307820922033  5.266529005551878  -15.811360743964604  29.075639041836983  29.494264685906117  11.0838132230293  120.000000
0.7631310861423221  0.000000  0.000000  0.000000  -34.97829738350943  10.163954730782509  -0.6113646196261032  49.95293372019365  13.127657608901123  5.282820788798611  -15.98998988340776  31.59206583614336  28.068115182332956  10.70261492389425  120.000000
0.8032958801498127  0.000000  0.000000  0.000000  -35.9075273437827  10.666102189798664  0.4138640668536007  49.94683158315729  13.247789254529353  5.349504455275953  -16.182264594670702  34.04666367585755  26.740682549295187  10.331573575246631  120.000000
0.8434606741573034  0.000000  0.000000  0.000000  -36.78640347285856  11.162988308601062  1.5187456875540488  50.011584006608324  13.372436150754382  5.469054428012926  -16.375248908164558  36.421409946882456  25.50045600414643  9.962685896090589  120.000000
0.883625468164794  0.000000  0.000000  0.000000  -37.604981213587706  11.647272600410727  2.6946908565242476  50.136545792024386  13.50753762423808  5.641735644260636  -16.563074870897903  38.7003568432782  24.341137814265885  9.589824143538845  120.000000
0.9237902621722847  0.000000  0.000000  0.000000  -38.355583780038145  12.111379162238919  3.9301584017796967  50.30889031320179  13.656321821717643  5.865443627545223  -16.745492029330116  40.869853512118205  23.261538396651158  9.210277613019999  120.000000
0.9639550561797753  0.000000  0.000000  0.000000  -39.033500938297244  12.54787718657648  5.210278697763186  50.51454368363602  13.819028637483004  6.135545028450113  -16.925753209824666  42.91921993751212  22.264729901124735  8.825907416984567  120.000000
1.004119850187266  0.000000  0.000000  0.000000  -39.637498815981154  12.950160735940585  6.517251120123673  50.73942861907991  13.992720653355866  6.445231444644432  -17.108617382996083  44.84131981114659  21.35684577322828  8.443208090216734  120.000000
1.0442846441947566  0.000000  0.000000  0.000000  -40.16944057818543  13.313414550551284  7.8308196866953805  50.970446837623584  14.171457367651676  6.78600438154617  -17.298246905705504  46.63239604057919  20.54520006972828  8.07236411797035  120.000000
1.0844494382022472  0.000000  0.000000  0.000000  -40.6333777081843  13.635123483543088  9.128892245536402  51.19621096225533  14.347094717399722  7.147969865064896  -17.49749330324748  48.29143594475481  19.837212923256576  7.725874245251791  120.000000
1.1246142322097379  0.000000  0.000000  0.000000  -41.03502645567427  13.915113411934195  10.38849347374531  51.40794971630911  14.510334051042568  7.519917232765455  -17.70746327986365  49.8191728866091  19.23905293829834  7.416739170970445  120.000000
1.1647790262172284  0.000000  0.000000  0.000000  -41.38116345809694  14.15539917579913  11.586810112600034  51.59982970044419  14.651690033707196  7.889568232438253  -17.927533043072593  51.21711910771338  18.754589279257633  7.156727784569767  120.000000
1.2049438202247191  0.000000  0.000000  0.000000  -41.678967090596736  14.359733177666106  12.7023367803715  51.768961769022546  14.76260899535489  8.243747414936756  -18.155424232527636  52.48690126296184  18.384358021676466  6.9549166497274335  120.000000
1.2451086142322096  0.000000  0.000000  0.000000  -41.93558536623481  14.533054621229619  13.71629516660496  51.914952238223556  14.83635577954521  8.569170269226078  -18.387520603440546  53.630094148882755  18.125015369587235  6.816691896774941  120.000000
1.2852734082397004  0.000000  0.000000  0.000000  -42.15772994090032  14.680865141437883  14.613914911201357  52.03907383492801  14.8687384315736  8.853341713509128  -18.618919827523822  54.64844889765605  17.968760906383203  6.743049148240451  120.000000
1.325438202247191  0.000000  0.000000  0.000000  -42.35140380693615  14.808442967261696  15.38565956514128  52.14316451348675  14.858559349503514  9.085854487816572  -18.8435529188062  55.54444624558538  17.90326157056942  6.730144045515888  120.000000
1.3656029962546816  0.000000  0.000000  0.000000  -42.52172204995805  14.920139455285954  16.027944189695006  52.22868736764274  14.807798154026782  9.259389364134417  -19.054104667496  56.321766785452276  17.911553522226185  6.769003609547139  120.000000
1.4057677902621724  0.000000  0.000000  0.000000  -42.67282020610656  15.018798450660228  16.54328926900512  52.2960376046753  14.721362322412492  9.370452686191937  -19.242152889559907  56.98557850616679  17.972660002677586  6.845823033604595  120.000000
1.4459325842696629  0.000000  0.000000  0.000000  -42.807832999812355  15.105567093893827  16.939614650674244  52.34444070929594  14.606491528645693  9.419211732923701  -19.398436168810633  57.542161836707  18.06258340422912  6.943062930857528  120.000000
1.4860973782771536  0.000000  0.000000  0.000000  -42.92882487392526  15.180068273278852  17.228747197004168  52.37222202605224  14.471685948961936  9.408799069995029  -19.513379365023034  57.998100632919225  18.156049016463513  7.041523260984824  120.000000
1.5262621722846441  0.000000  0.000000  0.000000  -43.03664438260096  15.240829056941282  17.424428731320262  52.3774792395901  14.325602962436761  9.344003771327806  -19.577747189207177  58.35873763877558  18.228362630595687  7.123008649476969  120.000000
1.5664269662921348  0.000000  0.000000  0.000000  -43.13066030628631  15.285770565888207  17.5401154359882  52.35873897906809  14.175850143537476  9.230030617010156  -19.583292304434302  58.62657920656295  18.25733347536794  7.173190460740539  120.000000
1.6065917602996254  0.000000  0.000000  0.000000  -43.20850176662248  15.31259590071255  17.58708223376584  52.315587262497345  14.028131572292915  9.071366761857641  -19.523377027913135  58.79955015472331  18.224755029849874  7.184081768153779  120.000000
1.646756554307116  0.000000  0.000000  0.000000  -43.26578096140271  15.319013805980259  17.57297417373706  52.24895799877844  13.885621043417554  8.871204555572767  -19.39341057909592  58.869774411688674  18.11735797743964  7.155528267717253  120.000000
1.6869213483146068  0.000000  0.000000  0.000000  -43.295969869867236  15.302754056529647  17.501081183891344  52.16131397197257  13.748874143120284  8.631212007573213  -19.191104911935586  58.8227079405727  17.92695826804254  7.095286947228158  120.000000
1.7270861423220973  0.000000  0.000000  0.000000  -43.29042729693811  15.261433585636844  17.37019725930178  52.05654262071915  13.61600244707574  8.35176349720938  -18.916477018139652  58.63710878775607  17.65013384219981  7.017913104628836  120.000000
1.767250936329588  0.000000  0.000000  0.000000  -43.23873887008618  15.192417978792731  17.174945318182257  51.93983343157738  13.483055728062556  8.032309690877925  -18.57172695968899  58.285685660975936  17.287656670586298  6.9429055925621626  120.000000
1.8074157303370786  0.000000  0.000000  0.000000  -43.12933824789988  15.092717950593054  16.90637274473072  51.81733486959578  13.344327059494148  7.671962329797361  -18.16092259926181  57.73662398365132  16.844125535813177  6.892579965093436  120.000000
1.8475805243445693  0.000000  0.000000  0.000000  -42.95036239331924  14.958906443019231  16.552734652737897  51.69580794659948  13.19264701346182  7.2700421292602915  -17.68948318311636  56.95584603867804  16.32789993644144  6.889705106077511  120.000000
1.8877453183520598  0.000000  0.000000  0.000000  -42.69053527376583  14.78704239945651  16.100487881181213  51.582134634867295  13.019571572721052  6.826777827235872  -17.163458557319075  55.91007354358596  15.751598351105603  6.955033385449616  120.000000
1.9279101123595506  0.000000  0.000000  0.000000  -42.33982647533438  14.572598556935057  15.535512882064257  51.48279326851342  12.815667272515515  6.344051392581846  -16.58864419580058  54.57035438093292  15.133017871378238  7.104663921245515  120.000000
1.9680749063670413  0.000000  0.000000  0.000000  -41.889649854765544  14.310378562185706  14.844667025597154  51.40323588973901  12.570994308426267  5.826378743906737  -15.969686592646942  52.915737276020096  14.496222138459675  7.347337955437954  120.000000
2.008239700374532  0.000000  0.000000  0.000000  -41.33264319413422  13.994503019857815  14.017669594817836  51.34733627920945  12.276069057384612  5.281941391701102  -15.309452797281812  50.93656802554373  13.872560299391836  7.681922161838727  120.000000
2.0484044943820225  0.000000  0.000000  0.000000  -40.66237465276707  13.618551349823482  13.049149379123838  51.31717663761392  11.92327474851884  4.723383743261888  -14.609113467253882  48.637068739016314  13.301214148038467  8.0957430716156  120.000000
2.0885692883895133  0.000000  0.000000  0.000000  -39.87360126217562  13.176073911755784  11.940737726478709  51.313386193988244  11.508618746229248  4.16808432423613  -13.869315119932608  46.03646251521147  12.828785011532682  8.564726001639048  120.000000
2.1287340823970036  0.000000  0.000000  0.000000  -38.963330778335894  12.661477604360305  10.70285728087031  51.33609135955623  11.033480293320629  3.637410020553709  -13.092726459206329  43.16849683504456  12.508102322269833  9.056318210701855  120.000000
2.1688988764044943  0.000000  0.000000  0.000000  -37.93269302377596  12.071579564507342  9.355778112292107  51.38613224866405  10.505842732582515  3.1551023875109676  -12.28738609941967  40.079355236903325  12.396022331265343  9.534985502756406  120.000000
2.209063670411985  0.000000  0.000000  0.000000  -36.78895887311882  11.407494096067568  7.929347098001334  51.466200157665874  9.940853603950087  2.744984339831134  -11.470299473774212  36.82465786272587  12.55101292304926  9.969515840873225  120.000000
2.2492284644194758  0.000000  0.000000  0.000000  -35.54661413587419  10.676202315434235  6.461658680720495  51.58164954283484  9.360183897834697  2.4282394244074204  -10.669939498266022  33.466153105094385  13.030240535592515  10.340926487141312  120.000000
2.2893932584269665  0.000000  0.000000  0.000000  -34.22690842545341  9.892027561399644  4.9961377715420525  51.74113050135912  8.790069006051006  2.2213077892567825  -9.925687380084295  30.068018949765687  13.885140021127487  10.648027641518935  120.000000
2.329558052434457  0.000000  0.000000  0.000000  -32.85614722478292  9.076603717478317  3.576904694883275  51.95572358866443  8.259269806945275  2.1344758818084326  -9.28463364730073  26.693542002326556  15.15622077138436  10.909409437745346  120.000000
2.3697228464419475  0.000000  0.000000  0.000000  -31.464451408924145  8.2568201643655  2.243941896634042  52.23687713480417  7.797175445748198  2.1711132662558863  -8.796636152647064  23.40240197279256  16.86793277093824  11.160118967272648  120.000000
2.4098876404494383  0.000000  0.000000  0.000000  -30.084788068518737  7.462151185419874  1.0293963617274333  52.59405259395112  7.430775944359169  2.327749257012517  -8.50571034183083  20.248446257243593  19.02172484966938  11.443407432638297  120.000000
2.450052434456929  0.000000  0.000000  0.000000  -28.751145881426627  6.72167037537555  -0.046153111858389516  53.032349701765874  7.183065818891049  2.5956922509870024  -8.435339502601915  17.276914440527246  21.584061142302136  11.800873510020434  120.000000
2.4902172284644193  0.000000  0.000000  0.000000  -27.49664574246243  6.060787039865218  -0.9702349766825945  53.5512122598319  7.067527311523365  2.959599292753616  -8.565004113293876  14.521577835836812  24.46645732848868  12.262445610057704  120.000000
2.53038202247191  0.000000  0.000000  0.000000  -26.352680062644882  5.498860074437049  -1.7286910040747332  54.14315684310723  7.080503564522008  3.393234379369586  -8.800665851231802  12.001455478823564  27.49975550823417  12.839798871959374  120.000000
2.5705468164794008  0.000000  0.000000  0.000000  -25.348370770141383  5.048702247413911  -2.3098600231694713  54.79187133947253  7.206101064685051  3.8644366221269997  -8.937362016536337  9.719700457404779  30.40126902582547  13.524282625733214  120.000000
2.6107116104868915  0.000000  0.000000  0.000000  -24.509766610259355  4.716623647385415  -2.712566647587272  55.472202743171  7.424258910468359  4.342717375576754  -8.596376839600248  7.666538939632598  32.71733338949364  14.288722396572469  120.000000
2.650876404494382  0.000000  0.000000  0.000000  -23.8585514965798  4.501306989687404  -2.9462494104454766  56.1514703256613  7.712993805823977  4.802380676556071  -7.087043046618922  5.826298450312844  33.69057136086325  15.093235156187287  120.000000
2.6910411985018725  0.000000  0.000000  0.000000  -23.407322051756992  4.393039887986376  -3.0309766701115914  56.79191214965285  8.051274828057018  5.226136977609698  -3.0305221757240486  4.189827057120596  31.889351332053764  15.891788135202079  120.000000
2.7312059925093632  0.000000  0.000000  0.000000  -23.154685733068927  4.377130532951148  -2.993573256297103  57.35822637986203  8.419562621612792  5.603330931543831  6.95655928856268  2.782422308016957  23.89579342642112  16.639864331410294  120.000000
2.771370786516854  0.000000  0.000000  0.000000  -23.08342756619787  4.439146642174312  -2.862658915720037  57.8286315950942  8.799699222782914  5.923954252966606  32.18234210462062  1.763061989352197  0.3864004856378586  17.301819901480787  120.000000
2.8115355805243447  0.000000  0.000000  0.000000  -23.161606544452372  4.56501513350457  -2.666153174314616  58.194404607379006  9.176422947593055  6.181065517195161  77.19510645277774  1.5996297026294728  -43.18336175405656  17.852965037198334  120.000000
2.851700374531835  0.000000  0.000000  0.000000  -23.35153189329844  4.7388714669627925  -2.4282761663465133  58.453794807755656  9.537280948693603  6.374378916391328  107.10204272102347  2.2701817479115816  -71.90092854205696  18.27887538453281  120.000000
2.8918651685393257  0.000000  0.000000  0.000000  -23.61801225156041  4.944441512693159  -2.167965667803025  58.61190167704235  9.872402346387496  6.507904797201336  120.07090579596255  3.167531456226828  -83.90430159076816  18.575635190754586  120.000000
2.9320299625468165  0.000000  0.000000  0.000000  -23.929463794274334  5.1672316909009925  -1.898986665163323  58.67906835748847  10.174266505314593  6.5888049371346815  126.60434296267822  4.049525011941158  -89.66066105322291  18.748907418691314  120.000000
2.972194756554307  0.000000  0.000000  0.000000  -24.259188036929903  5.394785242158331  -1.6305964520264602  58.669206164231895  10.437170698524803  6.6255654757454625  130.62620824322008  4.851892712955609  -93.0572369721007  18.81209079405601  120.000000
3.012359550561798  0.000000  0.000000  0.000000  -24.586095050831133  5.616648877305293  -1.368521782860799  58.59873681946238  10.657181038297187  6.626277827555427  133.53801983754806  5.557882077537422  -95.46137999366076  18.785014221359535  120.000000
3.0525243445692882  0.000000  0.000000  0.000000  -24.89374402273869  5.824748363994414  -1.1160801474900581  58.48561390503892  10.83250778656307  6.598711688369335  135.90114217655452  6.167431614570727  -97.40480641630472  18.691308274239393  120.000000
3.092689138576779  0.000000  0.000000  0.000000  -25.170119439239674  6.013517019007888  -0.8751234949771023  58.347679413345936  10.96348433868373  6.549838252132014  137.95351485359797  6.687583433123874  -99.1011500241063  18.554948703894553  120.000000
3.1328539325842697  0.000000  0.000000  0.000000  -25.40779815298516  6.179554414356075  -0.6467619584340217  58.20063840999766  11.05179115384545  6.485580761359312  139.79614826860575  7.127994679659799  -100.63265578271516  18.397383034264976  120.000000
3.1730187265917604  0.000000  0.000000  0.000000  -25.60353376881608  6.320955573824199  -0.43189212910696234  58.05708295818086  11.099749772776123  6.410780030812165  141.47053033000458  7.49811241609992  -102.02733740645819  18.235453253911924  120.000000
3.2131835205992507  0.000000  0.000000  0.000000  -25.75755431602739  6.437146091407569  -0.23134284250795337  57.92588286911122  11.10990713153164  6.3290822963635875  142.9929700955065  7.805790660907068  -103.29256207360135  18.080331576835455  120.000000
3.2533483146067415  0.000000  0.000000  0.000000  -25.872810159536787  6.528955319350849  -0.04594534993623896  57.81238529969328  11.08483895340265  6.243067584365713  144.37085073228394  8.05662238311634  -104.43047443598628  17.93762193715266  120.000000
3.293513108614232  0.000000  0.000000  0.000000  -25.95382106989035  6.598215122925012  0.12338700388927729  57.71882599633477  11.027091841695444  6.1543273235214695  145.61053057623482  8.253868614809656  -105.44480092703581  17.80847806186381  120.000000
3.333677902621723  0.000000  0.000000  0.000000  -26.005668655941495  6.647241641131544  0.27561603520659766  57.64524948695845  10.939093837982922  6.0637260990990836  146.72002880650243  8.398880320887015  -106.34265461565036  17.691241520908857  120.000000
3.3738426966292137  0.000000  0.000000  0.000000  -26.033163345709383  6.678385105598198  0.4095531854758112  57.590218907045475  10.823030510303624  5.971873413274307  147.70968644431193  8.491711472499402  -107.13436457850521  17.583139682081814  120.000000
3.414007490636704  0.000000  0.000000  0.000000  -26.040254842422137  6.693545120835932  0.5239224777920507  57.55119705809639  10.680681294471027  5.87958353285468  148.59291381995035  8.531561358563124  -107.83367209337996  17.481602720515575  120.000000
3.4541722846441947  0.000000  0.000000  0.000000  -26.029698401309805  6.693836623936115  0.617337393849606  57.524848347412735  10.513321146399889  5.788173418034149  149.38665945245197  8.517047825895254  -108.45771488447731  17.384983618491447  120.000000
3.4943370786516854  0.000000  0.000000  0.000000  -26.002636278523635  6.679730272899625  0.6881106988762931  57.50783454055001  10.32181013333451  5.699177910399083  150.10909110946196  8.44663085526871  -109.02471320018157  17.292582443512824  120.000000
3.534501872659176  0.000000  0.000000  0.000000  -25.958610266654375  6.651374958613763  0.7343476739673951  57.497497536576475  10.106877495502216  5.613978561364376  150.7791546407575  8.31880804401313  -109.553483195959  17.204129890166026  120.000000
3.574666666666667  0.000000  0.000000  0.000000  -25.895893603719557  6.608861057453254  0.7541563189497157  57.49169110963143  9.869383117269832  5.5337029856341005  151.41827735571076  8.131827556425831  -110.06526995258723  17.11892765546385  120.000000
3.614831460674157  0.000000  0.000000  0.000000  -25.811920486267223  6.552472365290138  0.7458995817202276  57.48847999274174  9.610589212655398  5.459124423164724  152.0510019884593  7.883390272895103  -110.58475160927378  17.03481424891485  120.000000
3.654996254681648  0.000000  0.000000  0.000000  -25.703703521644403  6.482965921475822  0.7084498284048782  57.48606762447152  9.332505568160041  5.390490049321782  152.70379752565574  7.570613598993791  -111.13934906566034  16.947466412067545  120.000000
3.6951610486891386  0.000000  0.000000  0.000000  -25.568408637165593  6.40178591285233  0.6414184358152812  57.48283840455449  9.03807747791649  5.3274404711455965  153.40157090413754  7.190215337863517  -111.756441714669  16.850349746717825  120.000000
3.7353258426966294  0.000000  0.000000  0.000000  -25.403846960507064  6.310730077864016  0.5455100583335557  57.47734805393473  8.731140758903368  5.269133702281073  154.1618729172138  6.739021928075125  -112.45839916673502  16.735187365365224  120.000000
3.7754906367041197  0.000000  0.000000  0.000000  -25.2093099626502  6.211272926518012  0.42291243797211814  57.467253871704926  8.416238303302793  5.215233153392868  154.98859714748042  6.2144933425673905  -113.25700390052891  16.592701797809358  120.000000
3.8156554307116104  0.000000  0.000000  0.000000  -24.986087118030646  6.104416727284563  0.27751711088356856  57.449272050220685  8.099093876790315  5.166226184346745  155.86264463194027  5.614429605249914  -114.1448625176696  16.413584685954696  120.000000
3.855820224719101  0.000000  0.000000  0.000000  -24.736027871161134  5.9919002591977675  0.11485243364847213  57.42044239719251  7.787760257594841  5.122109045571569  156.72371818157563  4.936563669364272  -115.07742524574931  16.189643319013825  120.000000
3.895985018726592  0.000000  0.000000  0.000000  -24.461548995880452  5.8775518795893955  -0.058039849270518175  57.378038354412546  7.492982074889814  5.082148520910792  157.43177017154045  4.17854139446327  -115.9338351077749  15.914783100941316  120.000000
3.9361498127340826  0.000000  0.000000  0.000000  -24.165450354681543  5.766641737531098  -0.23316125244819605  57.31901447760763  7.2280863119872745  5.045793019026795  157.67545736070065  3.337360358917464  -116.42431737027962  15.58584652072086  120.000000
3.976314606741573  0.000000  0.000000  0.000000  -23.849126668557986  5.664921977442061  -0.40188864662011897  57.24039419695569  7.008786810186317  5.012868755759563  156.63983108545585  2.409725740587725  -115.75548675985443  15.203640225328737  120.000000
4.016479400749064  0.000000  0.000000  0.000000  -23.513439230031782  5.578943506537644  -0.5545647887160547  57.14006495241654  6.852263893196812  4.983377612057374  151.0297458970663  1.3989409490434237  -110.65134938290372  14.773921099915698  120.000000
4.056644194756554  0.000000  0.000000  0.000000  -23.159666016129183  5.516370895124865  -0.680427449632071  57.01656958404776  6.776591146070816  4.957476042529223  104.18937848136527  0.45465687253549475  -64.47095155469422  14.30803769460086  120.000000
4.096808988764045  0.000000  0.000000  0.000000  -22.789650753858332  5.485880211994662  -0.767913892809335  56.86852453613605  6.799766581406478  4.935974699613967  12.204452908497354  1.16324530921299  26.691343063294525  13.822642339428098  120.000000
4.136973782771536  0.000000  0.000000  0.000000  -22.406798359395076  5.496144019587998  -0.8054089801037259  56.69425796167052  6.938021845230316  4.920905377047117  1.9737761600291244  2.5344684528898367  35.935180868005496  13.338233734908089  120.000000
4.177138576779027  0.000000  0.000000  0.000000  -22.017717251978475  5.5541700133204355  -0.7831674626016248  56.49245482159528  7.203689683600895  4.915876510965183  -0.6361876919748617  4.086562651849344  37.39940769332419  12.87731734224415  120.000000
4.217303370786517  0.000000  0.000000  0.000000  -21.63274997029581  5.664427568838126  -0.6934579135418049  56.262946702798445  7.600858049705296  4.925921015039252  -1.6200281493656152  5.804494419265903  37.09019448328943  12.461289387860385  120.000000
4.257468164794007  0.000000  0.000000  0.000000  -21.265911659151627  5.827936722285887  -0.5280312965957048  56.00684249087627  8.122093836415685  4.955910128576453  -2.091872466969328  7.683890142760475  36.138310994709094  12.106759902877691  120.000000
4.297632958801498  0.000000  0.000000  0.000000  -20.935950034835084  6.041705256859075  -0.2773073974425613  55.72658184235933  8.750070170246541  5.009520147932699  -2.383476396814532  9.716406307361101  34.895272399212814  11.82282751856186  120.000000
4.337797752808989  0.000000  0.000000  0.000000  -20.663741103503654  6.300591203871223  0.06618011547841103  55.425075102735796  9.462102001450342  5.091288162301257  -2.610939836795024  11.889458139097213  33.49835248472512  11.608685389357998  120.000000
4.377962546816479  0.000000  0.000000  0.000000  -20.46865658201262  6.599176761165726  0.5051405800470545  55.10575040895191  10.233866081595211  5.208005561034654  -2.8137687230679003  14.186679339375901  32.00874058558031  11.453921489851794  120.000000
4.41812734082397  0.000000  0.000000  0.000000  -20.36694726055922  6.93110309247915  1.0383351941023866  54.773684678172245  11.04115277711056  5.367604058423384  -3.000552095171035  16.588895679218812  30.456647824944618  11.34188919162849  120.000000
4.458292134831461  0.000000  0.000000  0.000000  -20.369321554651965  7.288343920666312  1.6604948554204415  54.436083416147746  11.861385692076718  5.578143256187298  -3.166224713625607  19.075235709163366  28.858524928883934  11.25340156710534  120.000000
4.4984569288389515  0.000000  0.000000  0.000000  -20.479778332471568  7.661723820114903  2.363290809564803  54.102319737130685  12.673741672954009  5.846136838619742  -3.3009633029758016  21.624008807161367  27.22616243403501  11.170963453170826  120.000000
4.538621722846442  0.000000  0.000000  0.000000  -20.696161114753075  8.04159968114456  3.13695911370656  53.783037301178574  13.458761577904792  6.174584378973446  -3.3966231990290154  24.213719366730057  25.573184937050602  11.08235799292464  120.000000
4.578786516853933  0.000000  0.000000  0.000000  -21.011678841656405  8.41894836049901  3.9704347332185987  53.48889987412706  14.199021312372542  6.562432216046867  -3.449221223810421  26.82386915772606  23.917096053674907  10.981869983632176  120.000000
4.618951310861423  0.000000  0.000000  0.000000  -21.41686522928558  8.786459199831448  4.851528668173328  53.229378346217246  14.879839315354662  7.004590816877316  -3.4589563286478184  29.43550806681772  22.278356246189333  10.870211227391724  120.000000
4.659116104868914  0.000000  0.000000  0.000000  -21.901299057092764  9.139042388543356  5.767459417343663  53.01183208574697  15.48990404543034  7.492098999209462  -3.4296275378197536  32.03143663942787  20.678518865941392  10.753290173554205  120.000000
4.699280898876404  0.000000  0.000000  0.000000  -22.45498111815149  9.474034893240677  6.705422650542997  52.84118229019607  16.021551293187024  8.012902718145103  -3.3670066835905477  34.59596701719582  19.13716222695895  10.640017171202393  120.000000
4.739445692883895  0.000000  0.000000  0.000000  -23.068545702121977  9.790518456862618  7.653222281100802  52.71965897662218  16.471015235266716  8.552792719549327  -3.277092534328287  37.11467859707483  17.669176855375362  10.541038080888296  120.000000
4.779610486891386  0.000000  0.000000  0.000000  -23.732989292876002  10.088459894426833  8.600166849568518  52.647533764399135  16.8385098007438  9.096931386472953  -3.1659949490510444  39.574077703852566  16.284053399528233  10.467390160515363  120.000000
4.8197752808988765  0.000000  0.000000  0.000000  -24.439486625211433  10.368308267287867  9.537595734414003  52.62336237755959  17.1278064818351  9.63147125509602  -3.039527083261408  41.96135492046357  14.985506248966502  10.42894758083089  120.000000
4.859940074906367  0.000000  0.000000  0.000000  -25.178964971935642  10.630314999660651  10.458875607218994  52.64365349742353  17.34575754676215  10.144411096119489  -2.9033909053253573  44.26450274637972  13.772328510701614  10.434030674967952  120.000000
4.900104868913858  0.000000  0.000000  0.000000  -25.94186259297069  10.874067976439697  11.359124136835895  52.70294740206736  17.5014133588935  10.626257952613479  -2.763250451157972  46.47233910160541  12.639739099661865  10.488999901630816  120.000000
4.940269662921349  0.000000  0.000000  0.000000  -26.717878744637687  11.098312319821947  12.234638603416673  52.79424202441308  17.605033087952798  11.070228404770104  -2.6243448184506093  48.57435890108332  11.580444317579751  10.597875301472982  120.000000
4.980434456928839  0.000000  0.000000  0.000000  -27.495639560951595  11.300912467290054  13.082166679722759  52.90959353666723  17.667205976456238  11.472004161527494  -2.491157753248837  50.560603088465065  10.586037977818659  10.762126916467258  120.000000
5.020599250936329  0.000000  0.000000  0.000000  -28.26266213776853  11.479084279852874  13.898219578506556  53.04083169516907  17.698058054799127  11.829205047415494  -2.3669298330536033  52.42146973112344  9.64818454334846  10.98034791224537  120.000000
5.06076404494382  0.000000  0.000000  0.000000  -29.005493763153424  11.62977409428614  14.678409982647043  53.180141251268424  17.70664667562619  12.140632988149626  -2.253323689787953  54.147613512105686  8.759903624616094  11.24795731887609  120.000000
5.100928838951311  0.000000  0.000000  0.000000  -29.71004052346094  11.750172183333884  15.416900918225547  53.3203889316359  17.700492131880978  12.405422282825215  -2.150225419025541  55.729858535557796  7.916769209394834  11.556818649070415  120.000000
5.1410936329588015  0.000000  0.000000  0.000000  -30.362119483094624  11.838194659338722  16.106064921098625  53.45537873372436  17.685262505998327  12.622170249259657  -2.055699805960592  57.159088834163576  7.1178773619280244  11.894829464095345  120.000000
5.181258426966292  0.000000  0.000000  0.000000  -30.94806820232818  11.892897908564082  16.736334623576912  53.57993680292473  17.664601973814957  12.788221959639932  -1.9660349146783205  58.42608476079054  6.366379343975459  12.245720375652052  120.000000
5.221423220973783  0.000000  0.000000  0.000000  -31.455254142588206  11.91469262218323  17.296328782920025  53.689947102587915  17.64017805039643  12.899252209598636  -1.8759828609041656  59.52119743147451  5.669317307512362  12.5894360923571  120.000000
5.261588014981274  0.000000  0.000000  0.000000  -31.87235760438456  11.905245816013789  17.773287589326653  53.7823269981231  17.611954479430963  12.949299003045347  -1.779172285014262  60.43385019530471  5.036558027008942  12.903522589688773  120.000000
5.301752808988764  0.000000  0.000000  0.000000  -32.18937073177266  11.867066808475803  18.153781188987562  53.8550575365401  17.57866413740494  12.931304575382518  -1.6687498434286725  61.15192193875492  4.478845795626233  13.165627335615474  120.000000
5.341917602996254  0.000000  0.000000  0.000000  -32.397466617546414  11.802899767638621  18.424540053247213  53.907276492814376  17.5382955179282  12.838107761236705  -1.5381397793197762  61.66128338833993  4.005417101713507  13.356723978212113  120.000000
5.382082397003745  0.000000  0.000000  0.000000  -32.48905189263941  11.715121451696554  18.573227967089917  53.939500531437645  17.488492292778375  12.663584115254622  -1.3819946401522936  61.94572001347118  3.62168381505601  13.464425712748024  120.000000
5.422247191011236  0.000000  0.000000  0.000000  -32.45832608644708  11.605303545516035  18.58906916248512  53.95382182966318  17.426741553167556  12.40361468452108  -1.1972574283699189  61.98745194718735  3.327627776064796  13.485554009606119  120.000000
5.4624119850187265  0.000000  0.000000  0.000000  -32.302346946350404  11.474058662338694  18.463308266596638  53.95407694134625  17.350304476148445  12.056563951346032  -0.9840920520764821  61.76835322227649  3.117398476241638  13.427032094502936  120.000000
5.502576779026217  0.000000  0.000000  0.000000  -32.02213052681168  11.32105911131832  18.189618877186284  53.94571903379029  17.255898040898018  11.623454247555852  -0.7459459573656543  61.271781280600855  2.9803432381156756  13.304647244630617  120.000000
5.542741573033708  0.000000  0.000000  0.000000  -31.62322456464208  11.145024546631701  17.764497993500033  53.93526112684032  17.13943348981167  11.108192487814138  -0.488333769021988  60.48467062569729  2.9030493674239697  13.140081134688158  120.000000
5.582906367041199  0.000000  0.000000  0.000000  -31.115597476495644  10.943611919837622  17.187561744376396  53.92918031837243  16.996051923277488  10.517982453334673  -0.2166740539627086  59.399641900511256  2.871866083968941  12.957110886982749  120.000000
5.623071161048689  0.000000  0.000000  0.000000  -30.513183954254586  10.713378871158797  16.461729286267374  53.93273451372307  16.82057775490522  9.863564974383449  0.06576276217696762  58.01684035133819  2.8754622456367516  12.777738065991134  120.000000
5.66323595505618  0.000000  0.000000  0.000000  -29.83339601313237  10.450050950220795  15.593424590550867  53.94912409977383  16.608053675903175  9.159078522429235  0.3590949727832693  56.34528789049139  2.9069774528968013  12.618931660647313  120.000000
5.70340074906367  0.000000  0.000000  0.000000  -29.096601950881116  10.149106187327149  14.592807171157999  53.9792458894854  16.35434259826859  8.421653997958318  0.6670664495823128  54.40323233526048  2.9652029566462597  12.4907271757745  120.000000
5.743565543071161  0.000000  0.000000  0.000000  -28.325297640350115  9.806559635578411  13.473896584574783  54.02185835157272  16.05667571881684  7.670735679414797  0.9964565239613227  52.21738921133096  3.054676267322048  12.396063985756577  120.000000
5.7837303370786515  0.000000  0.000000  0.000000  -27.543066985350066  9.41989099157942  12.254365759751618  54.074168203109025  15.71419671996224  6.927184526636725  1.3558880912704736  49.821088940419784  3.184866517623847  12.331937838691564  120.000000
5.823895131086142  0.000000  0.000000  0.000000  -26.773385741292632  8.98891704063531  10.954940589090294  54.132585230814655  15.32830951247505  6.212087492739514  1.7543223495648412  47.25189784384901  3.3689740045919128  12.291231005046532  120.000000
5.864059925093633  0.000000  0.000000  0.000000  -26.038425069596855  8.516484390408698  9.59850439104805  54.19350157253752  14.902871172555402  5.5454419704005495  2.1993923913616977  44.5490133324653  3.622646705246547  12.264805969427423  120.000000
5.904224719101124  0.000000  0.000000  0.000000  -25.358088738266495  8.008925939337242  8.209029288390704  54.25407492614994  14.444028267636485  4.945056388006758  2.696164988000206  41.750997648512076  3.9626595850066373  12.243339743056621  120.000000
5.944389513108614  0.000000  0.000000  0.000000  -24.748881545008146  7.475856013491757  6.810563240899272  54.31265756182233  13.960087598066726  4.425520823193453  3.2462731741045827  38.894075189992094  4.405758640952333  12.218965055234566  120.000000
5.984554307116105  0.000000  0.000000  0.000000  -24.22312747320884  6.929665333822366  5.426501264940793  54.36918956454314  13.461288643418005  3.997631886528598  3.846577757877771  36.010916388951834  4.968354740971941  12.186325382076667  120.000000
6.024719101123596  0.000000  0.000000  0.000000  -23.788894602153448  6.385030272359829  4.0790058928460935  54.42520961766745  12.959193358064743  3.66806570192361  4.488495769642114  33.13019978243995  5.6661162751888074  12.142936367610934  120.000000
6.064883895131086  0.000000  0.000000  0.000000  -23.449854577118117  5.857941522853836  2.788411769361951  54.48331014196802  12.466331205508371  3.4389905505836778  5.157961755663361  30.27667993176974  6.513450617683388  12.089719867933301  120.000000
6.1050486891385765  0.000000  0.000000  0.000000  -23.20516332429897  5.3643524319764175  1.5729308589959556  54.54680695681413  11.99557542684296  3.3080460678055164  5.835745342306954  27.4715222360968  7.5232186343425385  12.031398579449474  120.000000
6.145213483146067  0.000000  0.000000  0.000000  -23.049661920587663  4.918900084062494  0.44795254050095307  54.619766095379106  11.559607294277061  3.26916697522202  6.498884392647647  24.732654401628885  8.705880744326983  11.976303725803264  120.000000
6.185378277153558  0.000000  0.000000  0.000000  -22.97395885789643  4.53353063981603  -0.5736257710039236  54.707019076709045  11.169671106861081  3.3130602715563016  7.122694535187625  22.07519499395024  10.068595446128365  11.935956732430148  120.000000
6.225543071161049  0.000000  0.000000  0.000000  -22.964859790837558  4.216232514328194  -1.4803492265596712  54.81441178871386  10.834338989643165  3.427568079439427  7.683164764932286  19.51196969748097  11.614174070846286  11.924084133259058  120.000000
6.265707865168539  0.000000  0.000000  0.000000  -23.006529070605822  3.971018092194508  -2.2622668091860527  54.94819351271424  10.559023354929828  3.59911584754095  8.159742890446706  17.05394064011749  13.339740808726232  11.955386116129587  120.000000
6.30587265917603  0.000000  0.000000  0.000000  -23.082423788404977  3.797944637757533  -2.9097983770270766  55.11385023126669  10.344846260358022  3.812664386094691  8.535279634056216  14.710547753392804  15.237694314026252  12.04401550632217  120.000000
6.346037453183521  0.000000  0.000000  0.000000  -23.177733071188072  3.6933816609916357  -3.4156728810014925  55.31425176081446  10.190222752111941  4.052966859756275  8.792875760499442  12.490120048606002  17.299703107412025  12.201692523996675  120.000000
6.386202247191012  0.000000  0.000000  0.000000  -23.280915399663694  3.651384455648286  -3.7770734045410985  55.54881288681358  10.092073642515313  4.306468934684274  8.911310860942047  10.399411511308086  19.521694415166017  12.43661122826827  120.000000
6.426367041198501  0.000000  0.000000  0.000000  -23.383938242616885  3.663507014377513  -3.9970270469454046  55.815201137262434  10.046187267317801  4.561995616817598  8.859748345123768  8.443027052673841  21.909063592980868  12.751818891554842  120.000000
6.466531835205992  0.000000  0.000000  0.000000  -23.481772687422385  3.718702099715612  -4.0844174088899345  56.10855713613844  10.047472766905557  4.811124125885953  8.587972432982799  6.6225210921724305  24.48599719254664  13.144315234130328  120.000000
6.506696629213483  0.000000  0.000000  0.000000  -23.571955293581045  3.8053626895094617  -4.051390589950929  56.41987977049804  10.08970429922018  5.047520664073158  7.989027304556442  4.936286851565731  27.332272194202478  13.605036022521487  120.000000
6.546861423220974  0.000000  0.000000  0.000000  -23.654527375641834  3.9135632035318393  -3.91161454974802  56.73766160974082  10.166683919744106  5.2647680067548785  6.782183086859445  3.3811994103796015  30.700078700784037  14.117887225311007  120.000000
6.587026217228464  0.000000  0.000000  0.000000  -23.73169836677431  4.03672183377372  -3.679760449751547  57.04972222595978  10.273277878121013  5.455173049936079  3.936888064727204  1.9548521326360802  35.59046553685261  14.660286751913912  120.000000
6.627191011235955  0.000000  0.000000  0.000000  -23.807770518472616  4.17152298785961  -3.3706733133866766  57.34279220438769  10.4048776598266  5.610946397695732  -9.182375205461286  0.6694787574088606  50.610510053971375  15.205179798938145  120.000000
6.667355805243446  0.000000  0.000000  0.000000  -23.88916042720141  4.316104630914878  -2.998536511410545  57.602036663631374  10.556800607529585  5.725917677478996  -147.79254908893952  0.6099166337098322  -169.047825834665  15.723876742238806  120.000000
6.707520599250937  0.000000  0.000000  0.000000  -23.982742621755207  4.468908070802854  -2.576316459648156  57.813646233511385  10.724156979807471  5.7961558160803905  -161.70650982323372  1.6702903953055257  -153.5903037746825  16.19008877342129  120.000000
6.747685393258427  0.000000  0.000000  0.000000  -24.093320875679822  4.628318211827852  -2.115203398130874  57.96782468502045  10.901762333125433  5.820109458923812  -164.46938510038552  2.6503280991353746  -149.48144773046917  16.584117931964325  120.000000
6.787850187265918  0.000000  0.000000  0.000000  -24.22195468491825  4.7920905149880015  -1.6251344559655825  58.0605836240258  11.084524970477608  5.799365784632182  -165.4765477006299  3.5372161615233333  -147.32498312081887  16.895560588811524  120.000000
6.828014981273408  0.000000  0.000000  0.000000  -24.365087965882246  4.9570433122104385  -1.1150707087111802  58.0944976228657  11.267749301210818  5.738889676548873  -165.81580003466283  4.335380834208106  -146.0214094374522  17.124091686636334  120.000000
6.868179775280899  0.000000  0.000000  0.000000  -24.515230225311537  5.119177544161689  -0.59267866065628  58.077856832471355  11.446926245386797  5.6461333525079995  -165.7870705060228  5.051278044965273  -145.2506252429838  17.27824059781749  120.000000
6.908344569288389  0.000000  0.000000  0.000000  -24.662736371629673  5.274186322638938  -0.06440831906294017  58.02283418123042  11.61771399427327  5.529753333413868  -165.51479224869666  5.692027265602002  -144.86207056510838  17.37239006829232  120.000000
6.94850936329588  0.000000  0.000000  0.000000  -24.797115222343024  5.418191249650153  0.46395872375691033  57.942944047358715  11.77589316790099  5.398478522508942  -165.0639105266596  6.264984160796444  -144.76191001064075  17.423613786931142  120.000000
6.988674157303371  0.000000  0.000000  0.000000  -24.909014236494762  5.548242193464457  0.9869338223420459  57.850789576580425  11.9174145037137  5.260183474477655  -164.47530046448853  6.777441770280239  -144.88154526260206  17.44850720955977  120.000000
7.028838951310862  0.000000  0.000000  0.000000  -24.992312123465595  5.662589180063373  1.499409605425853  57.75681994992503  12.03865788500718  5.121194396156512  -163.7817346724784  7.2360784225243435  -145.16435452667722  17.46077640880473  120.000000
7.069003745318352  0.000000  0.000000  0.000000  -25.044688941036682  5.760739426376043  1.996857351406477  57.668956399542395  12.136832945317806  4.985870365467412  -163.0131405851415  7.6464199914794655  -145.56181534643696  17.47018993977107  120.000000
7.109168539325843  0.000000  0.000000  0.000000  -25.06745232707813  5.843356499346368  2.475614822075366  57.59252010991409  12.210176402854385  4.856755698934548  -162.19604763931522  8.012702416010994  -146.0339501098522  17.48252017514718  120.000000
7.149333333333334  0.000000  0.000000  0.000000  -25.06486124860426  5.911960119859517  2.9330271250156588  57.53044447464046  12.257816879063526  4.735031792568305  -161.35146514282428  8.337826093595131  -146.5507220871668  17.500240716697316  120.000000
7.189498127340824  0.000000  0.000000  0.000000  -25.042843879130615  5.968420511145405  3.3673889807669584  57.483886661034305  12.279674260162547  4.620850106288206  -160.49399646549813  8.62344898264594  -147.0918693876015  17.523444610968628  120.000000
7.229662921348314  0.000000  0.000000  0.000000  -25.00780263497299  6.014684543045046  3.7778279247787405  57.452854293552264  12.276297582360906  4.513794218366419  -159.63169174568796  8.870217798995121  -147.64585901719192  17.55087556575876  120.000000
7.269827715355805  0.000000  0.000000  0.000000  -24.9657426411844  6.052669645079175  4.164099344913095  57.43678092874526  12.248632620906001  4.413243558432783  -158.7669070213449  9.077959056666792  -148.20812681454652  17.580845618048272  120.000000
7.309992509363296  0.000000  0.000000  0.000000  -24.9216082621043  6.084074388162679  4.526290854801763  57.434938164882105  12.197851292093754  4.31855771795173  -157.8969686460044  9.245915820311136  -148.7797561882759  17.61183978841195  120.000000
7.3501573033707865  0.000000  0.000000  0.000000  -24.879072059454515  6.110289459908039  4.86460125033947  57.446585850425194  12.12511826083308  4.229264450415592  -157.01435432413658  9.373081556710058  -149.36683994158003  17.64291944495225  120.000000
7.390322097378277  0.000000  0.000000  0.000000  -24.840652817107827  6.132443161967444  5.1791334196412775  57.47104330519459  12.031343254670704  4.145104774062879  -156.10774833105503  9.45845354784169  -149.97928007800692  17.673959229203334  120.000000
7.430486891385768  0.000000  0.000000  0.000000  -24.80779297391887  6.151442687318945  5.469686310506092  57.50769006852197  11.916996505451982  4.065982130956722  -155.1630406463359  9.501261613846914  -150.629844787932  17.705694076469292  120.000000
7.470651685393259  0.000000  0.000000  0.000000  -24.78097050759141  6.168001370310967  5.735575652737447  57.55588763040494  11.781950417995386  3.9918699454114885  -154.16470035525074  9.5011609993931  -151.33299215301835  17.73957104365955  120.000000
7.5108164794007495  0.000000  0.000000  0.000000  -24.759862634802545  6.1826633447840935  5.975504604780384  57.61487020812067  11.625346149373362  3.9227287993021833  -153.09776458809907  9.458395903455838  -152.10320972413692  17.77741447532562  120.000000
7.550981273408239  0.000000  0.000000  0.000000  -24.743437186604762  6.195822857087982  6.187463866186744  57.68361799587897  11.445510724142455  3.8584165554820418  -151.95061523939574  9.37388406669127  -152.9526624871784  17.82087537947248  120.000000
7.59114606741573  0.000000  0.000000  0.000000  -24.730043369211092  6.207720820141713  6.3687194523832105  57.76070123882383  11.239970338411778  3.798650148553508  -150.71791482393488  9.249192020769577  -153.88870644922025  17.870770734661924  120.000000
7.631310861423221  0.000000  0.000000  0.000000  -24.717453420159316  6.218454848675829  6.515932948294483  57.84416080082439  11.005593684065568  3.7430013240756606  -149.40349267461505  9.086334682524294  -154.91139628511004  17.926353486595247  120.000000
7.6714756554307115  0.000000  0.000000  0.000000  -24.702926080949204  6.228012001682356  6.625467889930645  57.93139524353479  10.738906073183262  3.6909654602213418  -148.02249877521905  8.887382604105078  -156.01164152917258  17.984651905260694  120.000000
7.711640449438202  0.000000  0.000000  0.000000  -24.68336860009772  6.236275870021363  6.693888921322725  58.0191463770813  10.436594342445325  3.6421449604007443  -146.6013715376233  8.653871883686826  -157.1712139818731  18.04014197180841  120.000000
7.751805243445693  0.000000  0.000000  0.000000  -24.65527398866669  6.243147543270421  6.7185716335940056  58.103733612778235  10.096149183033093  3.596435827530513  -145.176381060798  8.386112936774152  -158.3639766515475  18.084818631556086  120.000000
7.791970037453184  0.000000  0.000000  0.000000  -24.61482572016189  6.2486034657844565  6.69855513487398  58.18164711418484  9.716626395933272  3.55418596126284  -143.79060713676068  8.082490741709032  -159.5583576413787  18.108595924121403  120.000000
7.8321348314606745  0.000000  0.000000  0.000000  -24.557980955442698  6.252709982938163  6.635389893590107  58.24994692661566  9.299348545031274  3.516511467103072  -142.4880705018217  7.738958912885915  -160.7225844074124  18.100019508705294  120.000000
7.872299625468165  0.000000  0.000000  0.000000  -24.480436798239996  6.255834873025348  6.533637484575654  58.30666202411552  8.84839044360001  3.485474175032197  -141.3079412531588  7.348863313031395  -161.8299491541771  18.04702795683677  120.000000
7.912464419475655  0.000000  0.000000  0.000000  -24.378203233830778  6.258517104029466  6.400804858875462  58.350937208829556  8.37080303579397  3.463942263858953  -140.27637536445863  6.903254809353214  -162.8667768930409  17.937582048400877  120.000000
7.952629213483146  0.000000  0.000000  0.000000  -24.247706008607672  6.261853347776666  6.246576855623255  58.38245841872707  7.876634153180438  3.455427255715885  -139.3951952102808  6.391994331710754  -163.84355958339077  17.760712481624413  120.000000
7.9927940074906365  0.000000  0.000000  0.000000  -24.085529868331335  6.268809982826593  6.082648363971691  58.402137679405946  7.378320710054529  3.4632239511653578  -138.63672512935685  5.804158644972998  -164.80028921982907  17.50814772832426  120.000000
8.032958801498127  0.000000  0.000000  0.000000  -23.888814992586987  6.2842233848103435  5.922051726345412  58.41253355102248  6.89104830186039  3.4902460950134593  -137.9428419310962  5.126840984576308  -165.80922041537215  17.17549937256243  120.000000
8.073123595505619  0.000000  0.000000  0.000000  -23.655952652348063  6.313626694442579  5.77844012111624  58.41721101515502  6.433660727031636  3.5402697031262056  -137.20839426376338  4.3437990199393  -166.99071515993742  16.763270560185436  120.000000
8.113288389513109  0.000000  0.000000  0.000000  -23.387068036263624  6.363299206115012  5.6671538960350345  58.4208065840119  6.026899961983326  3.618253272264503  -136.21218876868753  3.435445845587983  -168.58025785083964  16.278560070184852  120.000000
8.153453183520599  0.000000  0.000000  0.000000  -23.08472708171359  6.44105327693176  5.605017785689068  58.4289416869333  5.690870406336009  3.729168032216521  -134.31358206243206  2.3806240926897284  -171.23125793249483  15.735574256480804  120.000000
8.19361797752809  0.000000  0.000000  0.000000  -22.754928148114615  6.555275754409687  5.608878800207254  58.447754211730114  5.443308103950719  3.8764657113871155  -127.8681546965672  1.16524079560355  -178.59776896131555  15.154247987756886  120.000000
8.23378277153558  0.000000  0.000000  0.000000  -22.407507248485672  6.713618207493778  5.693435292155611  58.48195578023737  5.298106380697121  4.06270062122917  -3.3539495465290035  0.3840505078230736  55.79307321713355  14.557697249345592  120.000000
8.273947565543072  0.000000  0.000000  0.000000  -22.056076299512117  6.922929683992726  5.868697575240388  58.5339474127159  5.263609932484433  4.291501905325543  30.889648323449997  1.9224773835304365  20.281950625940194  13.969213123076576  120.000000
8.314112359550561  0.000000  0.000000  0.000000  -21.71634192677589  7.187503485376351  6.139481869589047  58.60470678376379  5.340882296250013  4.567750641193191  34.17013788219078  3.7412084041676237  15.571129427168167  13.409641461002114  120.000000
8.354277153558053  0.000000  0.000000  0.000000  -21.403508736218413  7.506457181422575  6.505883679226677  58.69481702573538  5.523029184796828  4.896638166843971  34.99797104238609  5.767738644012474  13.168431657116132  12.895003836410323  120.000000
8.394441947565543  0.000000  0.000000  0.000000  -21.130724715515036  7.874495711916495  6.964002505028189  58.805525618525465  5.796210791407873  5.283439781959716  35.08756929882821  7.986108041174173  11.385507978404378  12.435223760864558  120.000000
8.434606741573035  0.000000  0.000000  0.000000  -20.90801672972561  8.284544278674545  7.507206261187043  58.93828460082401  6.141612175594603  5.733081614526587  34.85087898404293  10.375837080350172  9.842110560614767  12.034377518242652  120.000000
8.474771535580524  0.000000  0.000000  0.000000  -20.74180182632106  8.728475709301483  8.127187006340675  59.0942984546693  6.538213482622516  6.2485621476792375  34.44164835259682  12.911956836662934  8.418651649963225  11.691558346990416  120.000000
8.514936329588014  0.000000  0.000000  0.000000  -20.634891597120852  9.197257159127028  8.814547261445805  59.27388089605594  6.965161893430912  6.830084145666149  33.9313623399922  15.56651494128992  7.077205288552571  11.402160353414356  120.000000
8.555101123595506  0.000000  0.000000  0.000000  -20.58762219650576  9.681776735393312  9.559247984308923  59.47603640095911  7.403095155292249  7.4749324032908335  33.360329609045245  18.310107223789704  5.80756465565629  11.159670925311683  120.000000
8.595265917602996  0.000000  0.000000  0.000000  -20.599265812211577  10.17327712566707  10.35113752760796  59.6988174453256  7.8353062819294825  8.177122368749464  32.75485712009207  21.113210968987186  4.6080660584994595  10.957287439181046  120.000000
8.635430711610487  0.000000  0.000000  0.000000  -20.668851208302428  10.663767915333972  11.180019929179004  59.939339925542996  8.24845694917179  8.927460921232102  32.13151726516805  23.94680408939315  3.4800273247651283  10.788851476024302  120.000000
8.675595505617977  0.000000  0.000000  0.000000  -20.796076518809624  11.146577316526928  12.035669203704412  60.1934583387169  8.63260555644747  9.713829746867152  31.499995471293552  26.782608042922096  2.424928214861634  10.649315467503614  120.000000
8.715760299625469  0.000000  0.000000  0.000000  -20.980926087021558  11.616479252543426  12.907865783090946  60.455259068758174  8.980838436550782  10.521521632184289  30.866613103472012  29.593688344346834  1.441707062561854  10.534814106528136  120.000000
8.755925093632959  0.000000  0.000000  0.000000  -21.222455558707956  12.069204853141922  13.786537198342572  60.717970096477714  9.289234491026061  11.334396179957558  30.23591665904276  32.35487706993783  0.5262446452876046  10.442489702268606  120.000000
8.79608988764045  0.000000  0.000000  0.000000  -21.517901825517033  12.50106412809396  14.661757718618082  60.9751260484423  9.55675532639486  12.136498505093334  29.61139364813848  35.04289064640897  -0.3279289904757628  10.370296155025617  120.000000
8.83625468164794  0.000000  0.000000  0.000000  -21.862347548056395  12.908948107545172  15.523615007024516  61.22089293819993  9.784750099115792  12.91325234369662  28.99619996506363  37.63631589023639  -1.1288991485366073  10.31689232135591  120.000000
8.87641947565543  0.000000  0.000000  0.000000  -22.249030232721296  13.290336994871723  16.36218391374614  61.45032518688258  9.976360636589988  13.652186471238805  28.393541408343584  40.115666656761434  -1.8852607481208392  10.281437745802746  120.000000
8.916584269662922  0.000000  0.000000  0.000000  -22.66978557408115  13.64320288844519  17.167749385746543  61.65935496920835  10.135976711304984  14.3433319917805  27.807158980895117  42.46372453911341  -2.6051562980554253  10.263061024472588  120.000000
8.956749063670411  0.000000  0.000000  0.000000  -23.11574566609801  13.966134493289196  17.931482816642436  61.84464707890331  10.26889635534831  14.979399190648461  27.241475225601995  44.66603311357283  -3.295133396713062  10.26037411518056  120.000000
8.996913857677903  0.000000  0.000000  0.000000  -23.578152052855767  14.25837155773862  18.646198183463678  62.00345654515  10.381237770435387  15.555743911365663  26.701486984990247  46.71135676316531  -3.9589607213015965  10.271109039219622  120.000000
9.037078651685393  0.000000  0.000000  0.000000  -24.048719854407157  14.519349224532561  19.306767829369647  62.1334153486399  10.479743071232125  16.070179646465558  26.192722855842963  48.5918979202841  -4.596960273564712  10.291796937603946  120.000000
9.077243445692885  0.000000  0.000000  0.000000  -24.51981103788561  14.748557656602884  19.91019835271888  62.232438682869855  10.571284610387162  16.522641649159503  25.721379220137763  50.3030885662538  -5.206137666548276  10.317916044014305  120.000000
9.117408239700374  0.000000  0.000000  0.000000  -24.984451022890106  14.945551395127405  20.45537996476156  62.29880772830285  10.662329860056824  16.914685998535912  25.29430965218313  51.842932412747274  -5.780831966469935  10.34448210752959  120.000000
9.157573033707866  0.000000  0.000000  0.000000  -25.435942999575627  15.109821717921701  20.942481561715805  62.3313951258419  10.758415108772395  17.248855753359273  24.91894002052548  53.21102691211472  -6.31392535382052  10.366755823617735  120.000000
9.197737827715356  0.000000  0.000000  0.000000  -25.867309266722256  15.240831652163603  21.372190964816404  62.3299557819288  10.863550310039823  17.528125124292835  24.60317217350933  54.40737235981905  -6.798287127216762  10.381038633846813  120.000000
9.237902621722846  0.000000  0.000000  0.000000  -26.270783969504926  15.338122740524737  21.74501786441702  62.295446672617125  10.97978541870037  17.755350654481404  24.355234253026527  55.431219042116794  -7.228160490135063  10.38533087253922  120.000000
9.278067415730337  0.000000  0.000000  0.000000  -26.63748576300929  15.401421662203344  22.060777069115762  62.23020515608062  11.107022478521136  17.932832523045  24.183403610881307  56.280188585115845  -7.600105645380823  10.379577088084963  120.000000
9.318232209737827  0.000000  0.000000  0.000000  -26.957421951073425  15.43072721914219  22.318323380190034  62.137936716575226  11.24312970792771  18.061965858393016  24.0956656041178  56.949794180879955  -7.913330424674715  10.365356360127116  120.000000
9.358397003745319  0.000000  0.000000  0.000000  -27.219853077214644  15.426361599775419  22.515492556327352  62.023471176293995  11.384294077015815  18.143020174637325  24.09932316896787  57.43341218475545  -8.16936837325765  10.345111912777577  120.000000
9.398561797752809  0.000000  0.000000  0.000000  -27.413950301680078  15.388984583540896  22.649171031768564  61.8923506931985  11.525557796735187  18.17501675030505  24.20060182894777  57.72259863796875  -8.371331118337517  10.321139345148245  120.000000
9.4387265917603  0.000000  0.000000  0.000000  -27.529605012599095  15.319571810306714  22.715392484403743  61.75031431469509  11.661398426668871  18.15573468065416  24.404308479231265  57.80762322627787  -8.522955486147296  10.29464081105546  120.000000
9.47889138576779  0.000000  0.000000  0.000000  -27.558242307345704  15.219373059683432  22.7093895446748  61.602823334535124  11.786264887167581  18.081812217687137  24.71358107307406  57.67809077374127  -8.627655199991093  10.265107619824027  120.000000
9.519056179775282  0.000000  0.000000  0.000000  -27.493523649179934  15.089825733383496  22.625578431609586  61.454681464759375  11.89500068353763  17.948963860574864  25.129768818944903  57.323521751221875  -8.687805642752371  10.23029847655972  120.000000
9.559220973782772  0.000000  0.000000  0.000000  -27.331872980836447  14.932469640016958  22.45750584614624  61.309773934325705  11.98309948030253  17.7522821674295  25.65236665136063  56.73387687210728  -8.704269370470119  10.186909982229048  120.000000
9.599385767790261  0.000000  0.000000  0.000000  -27.072889360995326  14.74882411685571  22.197879180986952  61.170884690485025  12.046800616224427  17.486626113701455  26.27897483326837  55.90002946502431  -8.676161388845408  10.131805453850378  120.000000
9.639550561797753  0.000000  0.000000  0.000000  -26.719749497504818  14.540176883382472  21.838772356606377  61.03952657877496  12.08310159233894  17.147109390996818  27.00517307479141  54.81432665134533  -8.600661115126831  10.063519081626676  120.000000
9.679715355805243  0.000000  0.000000  0.000000  -26.27962511690258  14.30749515932931  21.37206757725943  60.915648621719036  12.089778282022744  16.72968813544184  27.824242883491486  53.47127535896118  -8.472737074280026  9.983774559819214  120.000000
9.719880149812735  0.000000  0.000000  0.000000  -25.76402000716176  14.05115444432584  20.79017180174841  60.797349601643795  12.065463603400827  16.231931626296166  28.726773450015394  51.86840014547722  -8.284824214134263  9.898425070654907  120.000000
9.760044943820224  0.000000  0.000000  0.000000  -25.188882754729462  13.770662696229135  20.087066776456354  60.68053906932153  12.009737635383631  15.653894487225257  29.700172115876416  50.00734765251137  -8.0263270928297  9.81762564396891  120.000000
9.800209737827716  0.000000  0.000000  0.000000  -24.57444563083189  13.464865193757646  19.259576218394326  60.558938879624776  11.923397840452512  14.9989863196494  30.728319962411796  47.894943501117496  -7.6833152719741955  9.755281709713417  120.000000
9.840374531835206  0.000000  0.000000  0.000000  -23.944202009144504  13.132011593825405  18.30848963186953  60.42493889551768  11.80856908408077  14.274839682046004  31.791831930726214  45.54425236085399  -7.2385060524494405  9.727923024064097  120.000000
9.880539325842697  0.000000  0.000000  0.000000  -23.322688328337385  12.769694382353943  17.239455947167304  60.27079710741015  11.668693117630667  13.493742875853076  32.86902774394918  42.97539974389846  -6.67239083910345  9.753644002483737  120.000000
9.920704119850187  0.000000  0.000000  0.000000  -22.733467982365674  12.375281663715445  16.063339731958017  60.09037947987185  11.508956054603532  12.672865627911136  33.93558790941409  40.21542065273702  -5.963719375564945  9.850448053417109  120.000000
9.960868913857677  0.000000  0.000000  0.000000  -22.198072794968322  11.947027053126478  14.795933776756412  59.88037379302812  11.336455319397064  11.833348729680992  34.9636132200158  37.29760419139752  -5.089781898764692  10.034536281717594  120.000000
10.001033707865169  0.000000  0.000000  0.000000  -21.735074733909187  11.484924145777406  13.457103197080649  59.64104012395368  11.159898826687298  10.998008620209694  35.92115056907327  34.260770536025916  -4.027429325308302  10.319124169982182  120.000000
10.041198501872659  0.000000  0.000000  0.000000  -21.35884974162082  10.990974313939555  12.069399103457968  59.37671845420872  10.988739721154358  10.1891621794244  36.77253821642858  31.148292161471073  -2.754646093219889  10.712987903137988  120.000000
10.08136329588015  0.000000  0.000000  0.000000  -21.078531384698792  10.469451080519866  10.656266057506558  59.095768464814206  10.831953228451601  9.426999913592583  37.47963145500456  28.00669947499251  -1.2526436764849658  11.219159297905035  120.000000
10.12152808988764  0.000000  0.000000  0.000000  -20.897752931656726  9.926301772492995  9.240353217619772  58.8098943439658  10.697001854418346  8.728078084243753  38.00314348950343  24.88408989992089  0.492543980460415  11.833462213942044  120.000000
10.161692883895132  0.000000  0.000000  0.000000  -20.815232449929123  9.36842340866678  7.842214543973503  58.532235781772  10.589187398362094  8.104299561289718  38.30339199077948  21.828089298218085  2.489295041957467  12.543381963593074  120.000000
10.201857677902622  0.000000  0.000000  0.000000  -20.826362573466692  8.80362303558719  6.479769044277176  58.27531141283565  10.511302236089515  7.562513200798395  38.34020446901638  18.88391990946334  4.741682219370681  13.328243438621627  120.000000
10.242022471910113  0.000000  0.000000  0.000000  -20.92399256913155  8.239621059921602  5.1683488370700195  58.04924676371826  10.464275944285244  7.103974559229088  38.07483753177436  16.093276501886894  7.249027747896012  14.15976090568831  120.000000
10.282187265917603  0.000000  0.000000  0.000000  -21.097960574331132  7.683264282194725  3.921302240202566  57.86065587824651  10.448468072107715  6.725697886601762  37.46919360736293  13.492779399532484  10.00829700892008  15.003085159466597  120.000000
10.322352059925093  0.000000  0.000000  0.000000  -21.336296637605464  7.141497047936308  2.7511130837026294  57.71219155908373  10.464415913247585  6.42171210624525  36.48556894157674  11.113421295387845  13.016760638828037  15.819463311920387  120.000000
10.362516853932584  0.000000  0.000000  0.000000  -21.626260121523206  6.622012198042285  1.6693846304573092  57.602847725410584  10.513159059997605  6.183174382288827  35.087074397382686  8.980077822335566  16.273896041493206  16.56886424644152  120.000000
10.402681647940074  0.000000  0.000000  0.000000  -21.954351956278373  6.132500865226851  0.686016576671368  57.52862200381744  10.595275327610372  5.998925344008117  33.234409554358415  7.109983562310296  19.786822106073984  17.211680545334673  120.000000
10.442846441947566  0.000000  0.000000  0.000000  -22.307881167455516  5.680302533682081  -0.1913793150176624  57.482600961498754  10.709652251762371  5.857296449560164  30.885734391631203  5.511257193161481  23.572671290929144  17.712152409286038  120.000000
10.483011235955056  0.000000  0.000000  0.000000  -22.676091703966268  5.272789718513572  -0.9571154782247728  57.45615593440207  10.851928490576542  5.74732454402041  28.003395886844626  4.183100607186043  27.653699597366202  18.042206172319077  120.000000
10.523176029962547  0.000000  0.000000  0.000000  -23.049116791985366  4.916830013737444  -1.6074863822659406  57.44026068478103  11.013815893758945  5.659805670831057  24.570101296557834  3.1164679259089505  32.042127852348735  18.18522168590986  120.000000
10.563340823970037  0.000000  0.000000  0.000000  -23.414141206125365  4.618043645009653  -2.1409857710517057  57.427423825285224  11.183684865889754  5.588237113077235  20.62026998241476  2.2948986233321396  36.71086327129311  18.14051036764317  120.000000
10.603505617977529  0.000000  0.000000  0.000000  -23.75294859930836  4.381151765699358  -2.5569779772769543  57.41382078318453  11.345793185026976  5.528639243170265  16.36308050876929  1.6967422002748676  41.46930183331807  17.92564256280509  120.000000
10.643670411985019  0.000000  0.000000  0.000000  -24.041246332253404  4.209195878668451  -2.855650618531624  57.399023758724276  11.482766716696576  5.48098331147847  12.345544564866058  1.297516599280637  45.79928285940177  17.578100084456928  120.000000
10.683835205992509  0.000000  0.000000  0.000000  -24.240216281171165  4.1033546994059575  -3.0348367951034994  57.386345857840354  11.57662890358806  5.447716583119004  9.342775870155958  1.0718502045001823  48.9636891855025  17.15231420026361  120.000000
10.724  0.000000  0.000000  0.000000  -24.31115309149394  4.06705183352245  -3.0939254280498085  57.38124210117826  11.61040215209211  5.435004172278282  8.185737264637222  0.9992593502016377  50.16898085341908  16.706246592933212  120.000000
