Simulation
nRows=201
nColumns=15
endheader
time  TH_x TH_y TH_z SC_y  SC_z  SC_x  AC_y  AC_z  AC_x  GH_y  GH_z  GH_yy  EL_x  PS_y
0.0  0.000000  0.000000  0.000000  -21.481837363305974  5.049547332879065  0.3347068766571287  42.60149365294091  5.577109550453769  -7.38084599456483  86.57025735459284  8.398024285382093  -34.75764173471326  20.797087795689936  120.000000
0.04802000000000001  0.000000  0.000000  0.000000  -21.493282362549163  4.891068862796553  -0.43896085863024376  43.505043307095896  5.6393927588783646  -6.167598417147112  69.43366366519278  7.553499669537175  -19.516384394999793  20.252492972100256  120.000000
0.09604000000000001  0.000000  0.000000  0.000000  -21.462892353587858  4.7503201827095864  -1.196386209648818  44.39900618146179  5.705183679313152  -4.995612791389628  50.769007986188754  7.580782957241528  -2.8443128838200264  19.70074810153501  120.000000
0.14406000000000002  0.000000  0.000000  0.000000  -21.397471922227638  4.634007176568912  -1.9810607418738522  45.20745617432037  5.783493233450669  -3.89478785363359  34.24865945656543  8.411719234939685  11.470894760168438  19.104790531279523  120.000000
0.19208000000000003  0.000000  0.000000  0.000000  -21.330339619527255  4.5458064031799585  -2.7926200018889697  45.89014942111419  5.880328378259288  -2.861927445379295  21.537740748120182  9.837628032041748  21.6762508454558  18.452727731692605  120.000000
0.24010000000000004  0.000000  0.000000  0.000000  -21.2895682552021  4.495680964729314  -3.6099617334572387  46.469462775272284  6.017690671113582  -1.8924116185806263  12.271954475695026  11.670975684045372  28.11298779687008  17.750281472244133  120.000000
0.28812000000000004  0.000000  0.000000  0.000000  -21.33522620214695  4.498813239750932  -4.3945107618447246  46.96441670936383  6.216399166439828  -0.9641661011645336  5.5305085546355945  13.784177052242116  31.735403534634504  17.01265414022454  120.000000
0.33614000000000005  0.000000  0.000000  0.000000  -21.538745163698444  4.5811213556421855  -5.105863027130164  47.40071922421623  6.501214227739732  -0.06526976078268544  0.5422770277996645  16.09736432577758  33.39347216483954  16.25537126948741  120.000000
0.38416000000000006  0.000000  0.000000  0.000000  -21.9681536638932  4.779958701385996  -5.706478000123121  47.79283506435218  6.888838975960823  0.8100453029866026  -3.249499309075064  18.556374761977544  33.7480472483216  15.495399195098468  120.000000
0.43218000000000006  0.000000  0.000000  0.000000  -22.66640923980727  5.121839684951783  -6.160510874625406  48.14414698307544  7.385662220018979  1.663934558289776  -6.220949946638106  21.1235058101342  33.287175103414555  14.747349579549518  120.000000
0.48020000000000007  0.000000  0.000000  0.000000  -23.642957167327424  5.617616026201713  -6.4513418473387665  48.45456466186182  7.986674664465044  2.498929655456511  -8.600663950462405  23.76636817524594  32.34482817644052  14.027687457595958  120.000000
0.5282200000000001  0.000000  0.000000  0.000000  -24.875311121776743  6.246311789657647  -6.580859653817871  48.72029233347045  8.672076333258731  3.3116572297594136  -10.534883152779871  26.4493645464913  31.15618198134189  13.348534448113142  120.000000
0.5762400000000001  0.000000  0.000000  0.000000  -26.31541989840397  6.974361300179734  -6.554114937027122  48.94026336015128  9.407998586133486  4.092325989181625  -12.095393545035936  29.134194374442252  29.85797372579763  12.720050510444743  120.000000
0.62426  0.000000  0.000000  0.000000  -27.894314007188342  7.7627905211355515  -6.376436044206532  49.114267829990155  10.161141906125668  4.830427487771917  -13.314657325469009  31.788293504108942  28.5211638383015  12.148569706534099  120.000000
0.6722800000000001  0.000000  0.000000  0.000000  -29.537176436641953  8.576678497861739  -6.053153381202223  49.24651826126806  10.902983696621739  5.5137941461741065  -14.202651049409308  34.38599257815067  27.167332417696212  11.636683031859453  120.000000
0.7203000000000002  0.000000  0.000000  0.000000  -31.176077447775747  9.382798493155667  -5.586067727826354  49.34177927612928  11.61394056067385  6.133056859587386  -14.77557824193891  36.91025034392196  25.797703439843772  11.178731959892195  120.000000
0.7683200000000001  0.000000  0.000000  0.000000  -32.76020768004022  10.154558630855202  -4.975920252447108  49.41233562975653  12.288164795987917  6.6778392931185016  -15.068932760029217  39.346639209386  24.40971783722585  10.7587333673302  120.000000
0.8163400000000001  0.000000  0.000000  0.000000  -34.25950812633403  10.868041908792291  -4.220490318532461  49.476597119969945  12.937114422059272  7.149119260965825  -15.138922361647051  41.67726913163517  23.00721164122967  10.35277613098265  120.000000
0.8643600000000001  0.000000  0.000000  0.000000  -35.655814657847316  11.504856536365363  -3.316845434968904  49.55498858285473  13.586763823517975  7.562856601965009  -15.052358421680603  43.8768394785922  21.603013508576655  9.937367785420745  120.000000
0.9123800000000002  0.000000  0.000000  0.000000  -36.929881964850736  12.05532368773081  -2.263095496335168  49.66246582460408  14.264988705700652  7.9406611380566465  -14.881335888769918  45.918821305260465  20.22307613415592  9.495291383379357  120.000000
0.9604000000000001  0.000000  0.000000  0.000000  -38.06583304870665  12.519461982852974  -1.0649762748485512  49.8004021341121  14.984670628737927  8.3076314920746  -14.694543973064146  47.78359300198698  18.90762421568321  9.024061636835485  120.000000
1.00842  0.000000  0.000000  0.000000  -39.05124563244862  12.906453490930277  0.25736223686498705  49.95733523007868  15.733347565406278  8.685509979876604  -14.550813026278103  49.462378461789285  17.707220963830938  8.537285892820387  120.000000
1.0564400000000003  0.000000  0.000000  0.000000  -39.883107275854  13.23144547929087  1.6683345143333463  50.11418155143071  16.476064912823198  9.092619730084465  -14.490771126114023  50.95926398608267  16.672832445126527  8.061227065677363  120.000000
1.1044600000000002  0.000000  0.000000  0.000000  -40.56909609123667  13.513001575304202  3.1188171040079453  50.25717222268975  17.1682574279814  9.5344993129317  -14.535583000130169  52.28789678967369  15.84636388592827  7.62578119088773  120.000000
1.1524800000000002  0.000000  0.000000  0.000000  -41.12883128644509  13.76337106928193  4.558957253369473  50.38205827394782  17.770231464838485  10.002900804867409  -14.689582100857775  53.466661477996745  15.255094442906207  7.25767233560645  120.000000
1.2005000000000001  0.000000  0.000000  0.000000  -41.58783530227512  13.989298688943004  5.942217800604568  50.49525072063066  18.25293679406879  10.477680155540344  -14.942329910295193  54.513320071506826  14.906653470043029  6.976107035131865  120.000000
1.24852  0.000000  0.000000  0.000000  -41.96937216350066  14.195387642936332  7.227339911346033  50.60690703268203  18.59910393767402  10.931267727698069  -15.274085554779639  55.43919983573398  14.790616032984415  6.793133142963552  120.000000
1.2965400000000002  0.000000  0.000000  0.000000  -42.29035863976541  14.38549608627285  8.378397448312198  50.7247572567457  18.803547406674195  11.332699787882786  -15.66057158984793  56.24874062341403  14.880697748986748  6.713791631468073  120.000000
1.3445600000000002  0.000000  0.000000  0.000000  -42.56022715583891  14.560943523388497  9.367743359280272  50.84991273162298  18.87365718693077  11.653093586114501  -16.07580754634805  56.942932822053606  15.136688342765538  6.734912054504196  120.000000
1.3925800000000002  0.000000  0.000000  0.000000  -42.782600617154046  14.7178655596246  10.179469493522923  50.97689636526478  18.82901994820925  11.8710530737964  -16.49272222544271  57.52481434540086  15.504716661863045  6.840536714850083  120.000000
1.4406000000000003  0.000000  0.000000  0.000000  -42.95760602230348  14.84696006268449  10.80977167675943  51.09691928521538  18.698521372867297  11.974757489780933  -16.884376064578504  58.00457606392413  15.91944276092547  6.999078221869958  120.000000
1.4886200000000003  0.000000  0.000000  0.000000  -43.084545796102574  14.934078060806241  11.265397351837121  51.20038143735705  18.51578539079976  11.962198280322314  -17.22419585775593  58.40044677922899  16.309624369195422  7.1670269107312246  120.000000
1.5366400000000002  0.000000  0.000000  0.000000  -43.162906046750344  14.964991259049507  11.556552906453206  51.279869570727094  18.312816391952836  11.836858316713105  -17.486059729589233  58.73600047913315  16.605718687122693  7.299041577407709  120.000000
1.5846600000000002  0.000000  0.000000  0.000000  -43.191732281736684  14.928024041401372  11.69186133792289  51.33011687574937  18.11408728130518  11.606208689512021  -17.64403769503155  59.034705685114105  16.748777025615063  7.360640727557664  120.000000
1.6326800000000001  0.000000  0.000000  0.000000  -43.16787976532714  14.818231835907934  11.672108708768516  51.34933679320995  17.932225947476855  11.276849049098885  -17.674497316247614  59.31245910965581  16.69771224647706  7.338856669088816  120.000000
1.6807000000000003  0.000000  0.000000  0.000000  -43.08442018369647  14.636188314908754  11.489468449283974  51.33871070750851  17.76671198509799  10.85524861636542  -17.559433214818124  59.57263297172734  16.433056572388757  7.245155330161439  120.000000
1.7287200000000003  0.000000  0.000000  0.000000  -42.92973518177573  14.386427124980601  11.128743833794731  51.304316671078155  17.606240107040545  10.34858249718283  -17.29049382080807  59.801143956971714  15.954801729438612  7.109156040117411  120.000000
1.7767400000000002  0.000000  0.000000  0.000000  -42.68757329455186  14.073977139512436  10.572076183077908  51.25800373230104  17.43227614666221  9.76775156055995  -16.873052867793163  59.96455465314106  15.278276871131848  6.9698467480179565  120.000000
1.8247600000000004  0.000000  0.000000  0.000000  -42.33930363225116  13.701412344150732  9.804182961307834  51.21693640065152  17.223427554140486  9.13067405519425  -16.328125279669155  60.00898869250042  14.428890629473576  6.869981937148083  120.000000
1.8727800000000003  0.000000  0.000000  0.000000  -41.86594279201259  13.267242285825851  8.81728810080534  51.20125929483239  16.95942219290419  8.462654786736335  -15.691961394704803  59.86094596694639  13.439557410116239  6.853514460014035  120.000000
1.9208000000000003  0.000000  0.000000  0.000000  -41.25069933567643  12.764555163689172  7.6146628628255  51.228184960859885  16.625001983775416  7.795310809561606  -15.011742055250238  59.43179997501087  12.35057097908886  6.963384941415747  120.000000
1.9688200000000002  0.000000  0.000000  0.000000  -40.480124780121116  12.18329021279634  6.209958534740735  51.30565326354781  16.213659574804872  7.16173616690652  -14.338443888126896  58.62669610816351  11.214889893617048  7.235739150025156  120.000000
2.01684  0.000000  0.000000  0.000000  -39.54191304241066  11.513426464455982  4.625299303085797  51.424728900525395  15.729542223110988  6.592864977581569  -13.717435175397954  57.35989113499874  10.105118338661843  7.687557671659887  120.000000
2.0648600000000004  0.000000  0.000000  0.000000  -38.42241180792116  10.751721872256054  2.886839866395777  51.556821682877775  15.187368441523267  6.112404033360222  -13.178830480436462  55.57183924140054  9.12220980915383  8.30046188046766  120.000000
2.1128800000000005  0.000000  0.000000  0.000000  -37.10553372058744  9.904328938007003  1.0232079264942884  51.65584050268848  14.612053154745716  5.736530107343836  -12.731989722050653  53.24472974027786  8.396494288301609  9.010717653721931  120.000000
2.1609000000000003  0.000000  0.000000  0.000000  -35.580432599964695  8.989242329832505  -0.936401828765351  51.67109630987404  14.038480790571194  5.47438270670406  -12.365118832442805  50.40834107773025  8.079085240041739  9.719858435501507  120.000000
2.2089200000000004  0.000000  0.000000  0.000000  -33.85285586059782  8.0329211984146  -2.9573591127821532  51.56525781888904  13.508265146340914  5.327325136080344  -12.052784812384944  47.13584104478525  8.323025879420872  10.322533432733005  120.000000
2.25694  0.000000  0.000000  0.000000  -31.959464348168122  7.065525583438756  -4.99591056169896  51.32562840786152  13.060379324539026  5.2902453367983995  -11.764943632042653  43.532805636377944  9.260197910945378  10.745658734174242  120.000000
2.3049600000000003  0.000000  0.000000  0.000000  -29.97545889872616  6.120080597977368  -6.99953872140837  50.96797740564769  12.725327704605444  5.353170457194546  -11.47259116470809  39.72280672837515  10.974791418408044  10.9854596950929  120.000000
2.3529800000000005  0.000000  0.000000  0.000000  -28.00809152152421  5.234751258339509  -8.904157949067569  50.53230725811705  12.518543697336732  5.498199641005601  -11.148141239432631  35.83302148418842  13.484761322184845  11.118600965615032  120.000000
2.4010000000000002  0.000000  0.000000  0.000000  -26.179967913728273  4.447142242958072  -10.64062187885541  50.06913334971987  12.44129438380302  5.702754389207454  -10.769226764298695  31.977248415156  16.73748023356569  11.275010050246875  120.000000
2.4490200000000004  0.000000  0.000000  0.000000  -24.605623203814805  3.788699732180352  -12.154939435932725  49.62659419376449  12.488721590044031  5.9448523292346875  -10.324755578784888  28.241934470864678  20.614889664530264  11.588293975266996  120.000000
2.49704  0.000000  0.000000  0.000000  -23.372165078660743  3.283198243187227  -13.405218336033025  49.24398467582931  12.65235877228109  6.204375709835111  -9.802726588467637  24.68623220615061  24.92289465721336  12.146123524711884  120.000000
2.5450600000000003  0.000000  0.000000  0.000000  -22.523679295285888  2.9458438240100406  -14.35866522561407  48.952118174419276  12.924923747748954  6.464052279278949  -9.153302766185593  21.349216838268514  29.36809669391723  12.957119080847642  120.000000
2.5930800000000005  0.000000  0.000000  0.000000  -22.06121203326025  2.7783490552576335  -14.997144162374958  48.771869152838775  13.30080679109094  6.710285234920818  -8.244271604163961  18.25560152205433  33.54150726598529  13.95535835400479  120.000000
2.6411000000000002  0.000000  0.000000  0.000000  -21.95173782824187  2.7644799463246588  -15.313664586941913  48.708397893287135  13.765665887391842  6.927992889066169  -6.832717151442341  15.42137955072232  36.923916880162764  15.031696567959298  120.000000
2.6891200000000004  0.000000  0.000000  0.000000  -22.140571230466406  2.8771452100380435  -15.317962984901003  48.74854477797853  14.29354585278078  7.097840331881636  -4.565489186811938  12.862443606694713  38.9241380334487  16.070197310764726  120.000000
2.7371400000000006  0.000000  0.000000  0.000000  -22.559530050344247  3.086445577219429  -15.039918644963796  48.868493325839744  14.847094487141609  7.198537886789341  -0.9883374633046478  10.605958965311629  38.9265457826358  16.976263783389218  120.000000
2.7851600000000003  0.000000  0.000000  0.000000  -23.13041611868068  3.3577706191411534  -14.523935059519687  49.04254494269266  15.379981038850968  7.217644101525899  4.422876855463037  8.695476876125745  36.34717063496082  17.69127821897311  120.000000
2.8331800000000005  0.000000  0.000000  0.000000  -23.77593226935107  3.6534038648662084  -13.826593736026071  49.248897691510415  15.848215659922715  7.158314103441362  12.148258019125992  7.187915698627536  30.741607862604248  18.190262328420005  120.000000
2.8812000000000006  0.000000  0.000000  0.000000  -24.427160325829686  3.9426524909667395  -13.013426689026803  49.47125438204715  16.220250096848396  7.034604681681554  22.201888471331625  6.137669038385197  22.197970842979835  18.471172491504113  120.000000
2.9292200000000004  0.000000  0.000000  0.000000  -25.028452270871362  4.2068066167258005  -12.151064625538092  49.69877223276072  16.480371206669403  6.862744950185576  33.51446091440572  5.562506121893232  11.917530130734358  18.54807334395845  120.000000
2.9772400000000006  0.000000  0.000000  0.000000  -25.537920030014476  4.436323552153906  -11.30551549206432  49.92332056884042  16.629549808796487  6.660133052379616  44.03987069798811  5.408243880796724  2.0778701042889955  18.45223810560768  120.000000
3.0252600000000003  0.000000  0.000000  0.000000  -25.93108643526796  4.623651117192983  -10.534963849814257  50.12983929669941  16.676827623809803  6.447458988909999  52.020075795151826  5.560387404165188  -5.4498298601164805  18.231811244575436  120.000000
3.0732800000000005  0.000000  0.000000  0.000000  -26.197778510656764  4.761809017710886  -9.883353440206063  50.29979798722746  16.63048292429088  6.240146963434335  56.916970404996825  5.9037806679554015  -10.039716318094213  17.94498511875624  120.000000
3.1213000000000006  0.000000  0.000000  0.000000  -26.331321399626518  4.844667927489186  -9.380982209729856  50.42295868373437  16.493192512574698  6.045011252505208  59.151874124670776  6.366675364582348  -12.049161128041487  17.650615671389254  120.000000
3.1693200000000004  0.000000  0.000000  0.000000  -26.326150777666165  4.865522858805978  -9.044825274546973  50.497881741426596  16.2636282195061  5.860966720152249  59.45281606553949  6.9210047612658805  -12.166417582843836  17.389713990681315  120.000000
3.2173400000000005  0.000000  0.000000  0.000000  -26.18828538834096  4.8253581597138115  -8.881199416505321  50.51702197103563  15.949396004308124  5.679579340424247  58.39184453875662  7.556411581106007  -10.948318570596971  17.164680778516537  120.000000
3.2653600000000003  0.000000  0.000000  0.000000  -25.93945867644293  4.731196753353656  -8.887887963060777  50.46184803659676  15.571804811082773  5.493728090773397  56.30436150155458  8.267983539958896  -8.735586258928  16.936449889428545  120.000000
3.3133800000000004  0.000000  0.000000  0.000000  -25.606046424328067  4.5846374470686975  -9.05774288191974  50.320423702797434  15.161324369213427  5.304710395456827  53.4441350031785  9.067503523862538  -5.801076332820075  16.64616288783361  120.000000
3.3614000000000006  0.000000  0.000000  0.000000  -25.213400485654446  4.381407761499643  -9.380621642324178  50.097295348637296  14.754926612802773  5.1197228593934  50.053377736258454  9.986761922047727  -2.4170964815027767  16.242087102939742  120.000000
3.4094200000000003  0.000000  0.000000  0.000000  -24.786149708994618  4.117949233211535  -9.841843232870035  49.808526196352766  14.393974393713693  4.9486918094800245  46.34059119818293  11.068147556994143  1.1703688111042936  15.700297251774868  120.000000
3.4574400000000005  0.000000  0.000000  0.000000  -24.35028649442569  3.7946475596498472  -10.419553525897715  49.47549190668802  14.117721898266044  4.802410009792943  42.47982897696976  12.35626495037174  4.746553081127107  15.037588859129976  120.000000
3.5054600000000007  0.000000  0.000000  0.000000  -23.932357986183185  3.4201471375231924  -11.085920412438922  49.124599790111915  13.958206097424391  4.690332412385087  38.62589313520906  13.891913649545566  8.116443343646722  14.308199875506753  120.000000
3.5534800000000004  0.000000  0.000000  0.000000  -23.559889124162968  3.0126928550897527  -11.807203295652574  48.78208698374935  13.939114865897544  4.621634147928133  34.91019889302471  15.705098539509068  11.109222795961522  13.583943216143318  120.000000
3.6015000000000006  0.000000  0.000000  0.000000  -23.259330654439086  2.603399975033463  -12.540940118804745  48.46756095063186  14.077495343873686  4.606470719964784  31.429343308182116  17.806815069786417  13.591160870954212  12.931672939836643  120.000000
3.6495200000000008  0.000000  0.000000  0.000000  -23.042766364029113  2.236322415792712  -13.236720132482963  48.19933751449183  14.388826781696544  4.651932453486714  28.2507250978653  20.18224574144867  15.462280473848791  12.396037753061025  120.000000
3.6975400000000005  0.000000  0.000000  0.000000  -22.90477150084643  1.9473364828436495  -13.83648236038912  47.98217272775843  14.884521745226154  4.769044987829069  25.39263778849611  22.777918885485764  16.678877272467876  11.989680883830857  120.000000
3.7455600000000007  0.000000  0.000000  0.000000  -22.824720510913295  1.765213320829648  -14.288358860482527  47.80807125404051  15.574384771575023  4.978630358534618  22.828419942684363  25.507189589067593  17.256647299064404  11.702163131619491  120.000000
3.7935800000000004  0.000000  0.000000  0.000000  -22.773760438036863  1.721600147289476  -14.556614054595496  47.681085744435514  16.462445390884216  5.290279942594974  20.522697529788466  28.28303440508943  17.238364312260124  11.510602883222873  120.000000
3.8416000000000006  0.000000  0.000000  0.000000  -22.73562370743807  1.837314302174291  -14.613295496876788  47.6073928672696  17.52475784345876  5.700522600480983  18.430877320118697  31.03219086113202  16.700546359565372  11.38739874490456  120.000000
3.8896200000000007  0.000000  0.000000  0.000000  -22.714426441497036  2.1122306107701982  -14.43780768449454  47.583309433137146  18.70533968911782  6.207282169732362  16.503333949627468  33.697811319298005  15.753045525604003  11.304659866907132  120.000000
3.9376400000000005  0.000000  0.000000  0.000000  -22.724957376105802  2.5316715993549317  -14.020955466934046  47.60553525295654  19.93262980538451  6.803818161237135  14.70284617284551  36.244270068867436  14.519630679198738  11.237142724913971  120.000000
3.9856600000000006  0.000000  0.000000  0.000000  -22.785315973058072  3.0736435695425053  -13.363833619291619  47.67226343014672  21.134619614016543  7.478220021952409  13.005802139822514  38.654476086239455  13.12742582263329  11.164270774659911  120.000000
4.03368  0.000000  0.000000  0.000000  -22.912445964976317  3.7101138406727854  -12.474783546527497  47.782638815966465  22.24856278718288  8.21521420329627  11.39801737053129  40.92623970744255  11.696926079332277  11.071014133546262  120.000000
4.0817000000000005  0.000000  0.000000  0.000000  -23.118811095186484  4.410426717463703  -11.366319903696853  47.93897311527871  23.225216439850133  8.993752442505617  9.87155180872074  43.067080302419726  10.333309394889676  10.951509766202337  120.000000
4.129720000000001  0.000000  0.000000  0.000000  -23.41241074290242  5.143503676108169  -10.053043223359433  48.14617922256977  24.029666716321845  9.787409767604725  8.421890946155635  45.09067218193138  9.119761667345639  10.810400261524887  120.000000
4.177740000000001  0.000000  0.000000  0.000000  -23.795371393320323  5.880257029630039  -8.553349677841668  48.409871691599264  24.6430326830272  10.568842629699278  7.047270699036132  47.013030337613266  8.113310537268111  10.661360083264888  120.000000
4.225760000000001  0.000000  0.000000  0.000000  -24.263871681592576  6.595681529119379  -6.890870870114166  48.73490547299423  25.061263714686948  11.313377843967338  5.749573148614757  48.848908634955215  7.341142394402512  10.523672566983585  120.000000
4.27378  0.000000  0.000000  0.000000  -24.809956265154806  7.268909640524759  -5.094792220382836  49.12193914867808  25.29278110773926  12.002161839790638  4.532347833552525  50.607954412793  6.799723888438517  10.419762365340963  120.000000
4.3218000000000005  0.000000  0.000000  0.000000  -25.424546789193933  7.884364005243189  -3.2006160569950293  49.56642103223516  25.35714601436545  12.624114773425074  3.3995211947572708  52.29176055241807  6.4545353590908645  10.374519249894973  120.000000
4.369820000000001  0.000000  0.000000  0.000000  -26.098650343922408  8.431139083604565  -1.2480595362210636  50.05818942406263  25.28268528944739  13.175941202304971  2.3531651775936653  53.89338848197169  6.246076915001789  10.41481148447416  120.000000
4.417840000000001  0.000000  0.000000  0.000000  -26.82247084991745  8.902458302238573  0.7224652399744809  50.58285924924322  25.10253009875444  13.659883868665682  1.392390027887981  55.39904979501633  6.102772968230412  10.566737746905519  120.000000
4.465860000000001  0.000000  0.000000  0.000000  -27.583651174532335  9.295301066416688  2.6723078699820286  51.12434520568267  24.849739869323024  14.080897715886396  0.5163029142842669  56.79276136766214  5.9567608358322754  10.849045443182542  120.000000
4.51388  0.000000  0.000000  0.000000  -28.365418877508578  9.610094711417226  4.564455067040675  51.665593993261695  24.55267214554376  14.443641615491481  -0.27200627610487865  58.061452495953326  5.759187503963356  11.261842726876163  120.000000
4.5619000000000005  0.000000  0.000000  0.000000  -29.14673997172456  9.851418516390455  6.360420634979015  52.18965847960787  24.2327188574089  14.749103980853464  -0.962491107708906  59.19800690320262  5.490405762655255  11.775480495499934  120.000000
4.609920000000001  0.000000  0.000000  0.000000  -29.902605841291237  10.027286011411656  8.01923738019879  52.6806664044083  23.904476725893396  14.992288537659917  -1.5377647798999377  60.20064457499624  5.160042764137014  12.330403344815004  120.000000
4.657940000000001  0.000000  0.000000  0.000000  -30.604810392422337  10.147249776893737  9.501050323838397  53.126389570872796  23.57657026373211  15.161164347906848  -1.9756119205872706  61.068905589320714  4.7976462051014614  12.850797873048837  120.000000
4.705960000000001  0.000000  0.000000  0.000000  -31.223101950191236  10.220148731935705  10.770199140046563  53.51805294774483  23.25344686158222  15.237586682832209  -2.256310972710011  61.79746139671375  4.440418332425971  13.264733313923472  120.000000
4.75398  0.000000  0.000000  0.000000  -31.72699810236016  10.251673245398827  11.797070190779118  53.848929243824585  22.93691729040827  15.19977889521522  -2.3699087469945614  62.37026706552735  4.119924701715051  13.52445147665529  120.000000
4.8020000000000005  0.000000  0.000000  0.000000  -32.087474431314945  10.243474616692216  12.558740207642272  54.11473740105824  22.626684084963784  15.025739640730178  -2.3194268321510956  62.75854766968149  3.85222005823034  13.618893938619044  120.000000
4.850020000000001  0.000000  0.000000  0.000000  -32.279185100114894  10.193856953941967  13.03828658722041  54.315304361384435  22.319395378404916  14.696308794134529  -2.11965403922405  62.924620418111026  3.6356864554154793  13.570267348195761  120.000000
4.898040000000001  0.000000  0.000000  0.000000  -32.283403341661796  10.098981260496995  13.22336511270377  54.455737844619804  22.00805815821698  14.198090303335535  -1.792595105213233  62.82950578618956  3.4544783988005094  13.419553186103169  120.000000
4.946060000000001  0.000000  0.000000  0.000000  -32.09089391736262  9.953105371994207  13.10586520009659  54.545367367980035  21.682848576840072  13.526134147177022  -1.3617171479244856  62.44091390394915  3.2843783178123713  13.211768689460335  120.000000
4.99408  0.000000  0.000000  0.000000  -31.703834067771634  9.747378811478889  12.682495371693678  54.59429222802645  21.333926367550717  12.68684090076151  -0.8464628078018215  61.738848331520536  3.098132235974105  12.986411555653733  120.000000
5.0421000000000005  0.000000  0.000000  0.000000  -31.13690279177422  9.469587413971903  11.95519252917888  54.60966386947002  20.95405809593642  11.698948988233964  -0.2579088615443686  60.71764133930616  2.8706189419009496  12.773569851701385  120.000000
5.090120000000001  0.000000  0.000000  0.000000  -30.418162234648243  9.104978599954334  10.931201764309163  54.5920421375191  20.539307261488595  10.593317388461172  0.4034389909274599  59.38530023272902  2.583997502381105  12.594380635024825  120.000000
5.138140000000001  0.000000  0.000000  0.000000  -29.58687820358185  8.639769983296006  9.624617585727568  54.53443457392728  20.088391205645653  9.412009528856933  1.1499400811482867  57.762672774615815  2.232620454081134  12.462458697010183  120.000000
5.186160000000001  0.000000  0.000000  0.000000  -28.688715653074322  8.065828677070122  8.055026657394786  54.42458398583717  19.60540576294165  8.20868071838618  2.0098199453995202  55.88376453402556  1.8261938120518628  12.383813683863774  120.000000
5.234180000000001  0.000000  0.000000  0.000000  -27.771388270039076  7.383501231051923  6.244949356459727  54.24605568851501  19.10256361217367  7.0447455924596385  3.0208059903035585  53.793927055635535  1.3948461512506098  12.353532965347187  120.000000
5.2822000000000005  0.000000  0.000000  0.000000  -26.883265905235216  6.60208199778182  4.222431139841168  53.98093288442477  18.598222913642346  5.982009907463472  4.21744042210505  51.54453381302228  0.9904483348344816  12.354135071840759  120.000000
5.330220000000001  0.000000  0.000000  0.000000  -26.070537377293892  5.741487933736267  2.0246718172175036  53.61597274285442  18.114868815571203  5.074725546506536  5.621640782087927  49.18551007684416  0.6783806817119471  12.360040396213131  120.000000
5.378240000000001  0.000000  0.000000  0.000000  -25.372338339333428  4.832079793446813  -0.2987517769989258  53.14675757811473  17.676473864959167  4.364151654796408  7.236611504715325  46.75788870183058  0.5242784292272801  12.345864121673188  120.000000
5.426260000000001  0.000000  0.000000  0.000000  -24.816285837938775  3.9139745588629866  -2.685472913003546  52.58087013945426  17.30578596472728  3.874199342236994  9.045872341923584  44.28853751587105  0.5785831869206944  12.295175083538442  120.000000
5.474280000000001  0.000000  0.000000  0.000000  -24.41388509978246  3.034340126929405  -5.062154622589247  51.93943246757845  17.022884597519564  3.6094621346373073  11.018464596533072  41.7882699604742  0.8634359521366469  12.207168575059976  120.000000
5.5223  0.000000  0.000000  0.000000  -24.158386181269787  2.2421064800288577  -7.348336914311268  51.25582438255318  16.84371568855626  3.555603218856242  13.11787417526342  39.254590018601746  1.3668548522651305  12.096568046293472  120.000000
5.570320000000001  0.000000  0.000000  0.000000  -24.027213000766245  1.5813038319472403  -9.463669586722112  50.570143720785225  16.78024610354134  3.683380364241433  15.308513282148331  36.677432255500335  2.0484652955149016  11.988002858848429  120.000000
5.618340000000001  0.000000  0.000000  0.000000  -23.98954902398184  1.0856517280429945  -11.3345735231087  49.92427090927626  16.838224172927966  3.953058909955068  17.563569343961667  34.04830304337815  2.8496327460483037  11.908984822422845  120.000000
5.666360000000001  0.000000  0.000000  0.000000  -24.014304024602684  0.7744969391156679  -12.89880470379584  49.3577878300474  17.013160672875223  4.318657254634228  19.870187736962105  31.370047096173362  3.7067237309754324  11.88524484206319  120.000000
5.714380000000001  0.000000  0.000000  0.000000  -24.078772365898537  0.6503331185648163  -14.112629614540907  48.9042523009624  17.288168691129712  4.7364899859375775  22.229604485307533  28.664451267469996  4.561166037204414  11.938226087359952  120.000000
5.762400000000001  0.000000  0.000000  0.000000  -24.173749401049097  0.6993040390344138  -14.957630003673172  48.59054866612073  17.634615177685316  5.169817291709569  24.654403360122696  25.972809771793802  5.361340120529597  12.084120727815833  120.000000
5.810420000000001  0.000000  0.000000  0.000000  -24.303957730607987  0.892826181389163  -15.441215269107124  48.431971782203576  18.01635538571732  5.593772104828644  27.161197739885623  23.347327634943472  6.061447187374895  12.332345728230004  120.000000
5.858440000000001  0.000000  0.000000  0.000000  -24.47923575787719  1.1974868380791779  -15.593986208104363  48.43546597621877  18.401026822369037  5.992645304720712  29.77298290288687  20.841952286498557  6.608457780468567  12.684758787809283  120.000000
5.906460000000001  0.000000  0.000000  0.000000  -24.701861883407798  1.5801478545100067  -15.460362804798084  48.602349001467665  18.765272329063723  6.353565070995377  32.5324541626531  18.501392773365637  6.920236504897677  13.133833394481991  120.000000
5.954480000000001  0.000000  0.000000  0.000000  -24.967835213940912  2.0014792803901735  -15.084570005586507  48.91163672787009  19.08823960300652  6.672944488927012  35.49982864327789  16.34542528894598  6.885226674512457  13.662161867026665  120.000000
6.002500000000001  0.000000  0.000000  0.000000  -25.265208872485434  2.4290944564439325  -14.506323149261009  49.32374802819741  19.35615338404799  6.952299097759114  38.75544882389185  14.372404493871947  6.365508156157396  14.245842022398469  120.000000
6.050520000000001  0.000000  0.000000  0.000000  -25.5777067923133  2.8514303917665336  -13.762701225336938  49.80355911091808  19.56663671048455  7.1839539682988605  42.42373637505658  12.5801125261795  5.181017137845676  14.857354245721224  120.000000
6.098540000000001  0.000000  0.000000  0.000000  -25.892585406024352  3.266966554066253  -12.887576133541081  50.31796738101483  19.718025823404403  7.359772219099028  46.66213742227579  10.96720548590573  3.1351691643895543  15.467508877516444  120.000000
6.146560000000001  0.000000  0.000000  0.000000  -26.20569393500636  3.6760156590313184  -11.910513395647314  50.83242411865149  19.802741593103292  7.479627192659294  51.65763781725065  9.533091279278896  0.026371545668996934  16.045749499760298  120.000000
6.194580000000001  0.000000  0.000000  0.000000  -26.516171614044826  4.0802061639453155  -10.858400311249726  51.321501211987815  19.813662309752832  7.545135106796908  57.629607933880024  8.286291985197954  -4.356327334828305  16.561252802605154  120.000000
6.242600000000001  0.000000  0.000000  0.000000  -26.82033420992538  4.479595605258252  -9.757197513157069  51.768973247721625  19.74849604951561  7.561707646341211  64.760495129857  7.242913104188234  -10.168005944473506  16.98653013904668  120.000000
6.2906200000000005  0.000000  0.000000  0.000000  -27.11522840950413  4.870142002649641  -8.633777673258987  52.16826575365645  19.608403439655604  7.5365387703650395  73.07180521079086  6.420379884183773  -17.390277575335304  17.30222438746411  120.000000
6.338640000000001  0.000000  0.000000  0.000000  -27.395111504450064  5.244545159153343  -7.517677065562628  52.52250219940768  19.396429054092383  7.4751474920550995  82.27285311356984  5.825268601146909  -25.682941906143814  17.506058737102116  120.000000
6.386660000000001  0.000000  0.000000  0.000000  -27.65132082658909  5.591971145083083  -6.441189543998202  52.839051890192216  19.115387764506384  7.382666739627608  91.70315016121377  5.4390333429270905  -34.3306175429372  17.616637508746052  120.000000
6.434680000000001  0.000000  0.000000  0.000000  -27.87180882180119  5.899455687828516  -5.438251508707382  53.12805401050373  18.766923953238276  7.261669108404546  100.51585427239102  5.213667011602444  -42.43254073317834  17.66866592716149  120.000000
6.482700000000001  0.000000  0.000000  0.000000  -28.041231008209987  6.153148789618873  -4.542195839547211  53.39955406125459  18.35286834762323  7.113741340592851  107.97149808722223  5.083190470333485  -49.203603954892294  17.70192024404444  120.000000
6.5307200000000005  0.000000  0.000000  0.000000  -28.146806323644746  6.340682299895153  -3.7835522469550233  53.6589928220102  17.87677714381681  6.939543676378087  113.5721920417803  4.981001281519586  -54.11776846650258  17.747921938148984  120.000000
6.578740000000001  0.000000  0.000000  0.000000  -28.18460608965917  6.454528812747548  -3.1891868700491757  53.90243126744139  17.344053584115564  6.738622906363388  116.9909545957333  4.851947699646575  -56.84285248489574  17.819469772839973  120.000000
6.626760000000001  0.000000  0.000000  0.000000  -28.16006850951977  6.492119573125285  -2.781566750854584  54.115867063472045  16.76180458153746  6.509728446796548  117.90558350585775  4.662028820055474  -57.07470895761093  17.90829830152467  120.000000
6.674780000000001  0.000000  0.000000  0.000000  -28.084576191806335  6.455103940314969  -2.5772130513655895  54.27879312320017  16.138172500255838  6.252819815946835  115.82944607942176  4.408331538215205  -54.36181813287049  17.991016407433566  120.000000
6.722800000000001  0.000000  0.000000  0.000000  -27.967118801934237  6.347584133668367  -2.5850300944966835  54.368383064612956  15.48404261421535  5.973106418701958  110.03205902688326  4.1316952574891905  -48.01533757630543  18.03775380439531  120.000000
6.770820000000001  0.000000  0.000000  0.000000  -27.80816581017137  6.175827639091176  -2.8044859159841584  54.36754573259949  14.816039181724541  5.682654959406816  99.81644987733127  3.9378384954042938  -37.37694653879307  18.01792364376224  120.000000
6.818840000000001  0.000000  0.000000  0.000000  -27.59611609269662  5.946620257887567  -3.223649710814187  54.27209646293343  14.159532802047476  5.401861895837296  85.74530758580903  4.000798827891603  -23.037755220548846  17.90374341497737  120.000000
6.866860000000001  0.000000  0.000000  0.000000  -27.31243485625771  5.663525196013575  -3.819083847608837  54.08924413325824  13.546670673329146  5.161502007584039  70.91483373003344  4.487847425016389  -8.109064189473584  17.67123505977536  120.000000
6.914880000000001  0.000000  0.000000  0.000000  -26.942923831896962  5.332004951101623  -4.5642536313446325  53.83838475350012  13.012905573753633  4.994088741903634  58.915018191681355  5.446316244778356  3.8140310133436874  17.302899573996477  120.000000
6.962900000000001  0.000000  0.000000  0.000000  -26.49184465234415  4.966514223350163  -5.441253407590789  53.55048718602571  12.596725061130224  4.923267140663288  50.84864838340267  6.813119798433851  11.626962938639073  16.792142451921574  120.000000
7.010920000000001  0.000000  0.000000  0.000000  -25.98967491079859  4.588965714304746  -6.433319969091183  53.25920689536197  12.337015621681239  4.964286087623326  45.96849585596377  8.512754725475881  16.07088657828005  16.150760537547562  120.000000
7.058940000000001  0.000000  0.000000  0.000000  -25.489590657830533  4.2233457901679206  -7.507368477058716  52.99554682744802  12.265712990472695  5.129508606044898  43.26000864038207  10.506261710655165  18.14642914169004  15.414236278146761  120.000000
7.106960000000001  0.000000  0.000000  0.000000  -25.057994687302568  3.8976553347202576  -8.615221166524078  52.7889252925758  12.404652099941819  5.424776444825115  41.95209691078159  12.783466287564911  18.602905232192846  14.636362778612632  120.000000
7.154980000000001  0.000000  0.000000  0.000000  -24.756144867155054  3.6466955495645266  -9.703151660678799  52.665244392774035  12.76354582926948  5.843558400268155  41.50400552728136  15.339131778909547  17.957294876478297  13.87624343024259  120.000000
7.203000000000001  0.000000  0.000000  0.000000  -24.61973438220969  3.506814393121802  -10.71588423028434  52.64384604818834  13.339828904902037  6.37189242951377  41.54817561662781  18.154391546228762  16.560422392315715  13.18503885598552  120.000000
7.251020000000001  0.000000  0.000000  0.000000  -24.64401659906108  3.5051299926053137  -11.597557697157814  52.73619411228222  14.122474876263404  6.993451763362753  41.83895543404893  21.187946192770724  14.655211527705577  12.592944407195645  120.000000
7.2990400000000015  0.000000  0.000000  0.000000  -24.791683574704003  3.6447151024237128  -12.289036301564808  52.926656389857875  15.089259181648528  7.7100659161249485  42.216797472830365  24.368166068288737  12.418345859079611  12.10563431084766  120.000000
7.347060000000001  0.000000  0.000000  0.000000  -25.001805389940607  3.9154332573855233  -12.73629739204548  53.1865879043476  16.208868230382397  8.530249193816658  42.58946024682482  27.606712455595982  9.983009803964599  11.71302843940763  120.000000
7.395080000000001  0.000000  0.000000  0.000000  -25.209991826534214  4.316869359793317  -12.906616643472752  53.509921415453725  17.4481138387765  9.429226329167818  42.90272548945952  30.823228196561953  7.453318414782838  11.394996938371596  120.000000
7.443100000000001  0.000000  0.000000  0.000000  -25.37976076446568  4.84553626431754  -12.78425344720841  53.88736174380821  18.760009174816087  10.374967541758872  43.116725403273904  33.94634863864937  4.9212782773072865  11.132651983309074  120.000000
7.491120000000001  0.000000  0.000000  0.000000  -25.51031510222652  5.48179627252243  -12.365048140092831  54.29427517342529  20.0777812239705  11.349691577417284  43.21156677662971  36.91933288050067  2.455937462763286  10.913871287814906  120.000000
7.5391400000000015  0.000000  0.000000  0.000000  -25.626163434815222  6.2016898914782415  -11.654673092595644  54.70846129395819  21.330743227200823  12.335920505290055  43.183647861912256  39.70796949089545  0.10188286357219016  10.731097958338243  120.000000
7.587160000000001  0.000000  0.000000  0.000000  -25.76512377473847  6.982494965092845  -10.662047968909386  55.11076612822584  22.454917297204922  13.315581754508882  43.035846392645105  42.29362477829732  -2.108642170355811  10.581180431814788  120.000000
7.635180000000001  0.000000  0.000000  0.000000  -25.964992760307496  7.80021689557451  -9.402657552098551  55.485132391466664  23.39934483565595  14.270461904761817  42.77406322239657  44.66824557607609  -4.15458927829092  10.461332507885693  120.000000
7.683200000000001  0.000000  0.000000  0.000000  -26.250846042528856  8.628732038678333  -7.9014510596708885  55.8177862758257  24.13076410723613  15.184270250763982  42.404095387440655  46.82702971220245  -6.023681011077271  10.369360174177817  120.000000
7.731220000000001  0.000000  0.000000  0.000000  -26.628133081579204  9.44217088724352  -6.196945667304619  56.101546398527745  24.637919816924743  16.041796746044213  41.93298143826798  48.767429688391076  -7.71380956321635  10.304398375366661  120.000000
7.7792400000000015  0.000000  0.000000  0.000000  -27.082069395404492  10.214003351673059  -4.340985052901759  56.33518770823212  24.928447008826033  16.832486119506996  41.36818326610318  50.4882468199121  -9.230687724320967  10.26664424450531  120.000000
7.827260000000001  0.000000  0.000000  0.000000  -27.586277011009  10.921819740263256  -2.3934689178471142  56.522842462655866  25.02461605520003  17.54790462515047  40.719679138155435  51.990005765775955  -10.584932187648805  10.256247213193442  120.000000
7.875280000000001  0.000000  0.000000  0.000000  -28.11327125605212  11.550089006408921  -0.41527439065887667  56.670887760564504  24.9569283589255  18.181989211360452  40.00302079183039  53.27861379017082  -11.78799027906341  10.27131218654467  120.000000
7.923300000000001  0.000000  0.000000  0.000000  -28.642772810023494  12.090760310423311  1.5407181611383403  56.785201587257255  24.759850398626888  18.731189002656954  39.24256936646944  54.36676044163136  -12.847881761908177  10.306105730467777  120.000000
7.971320000000001  0.000000  0.000000  0.000000  -29.164431703029393  12.543466031606805  3.4339345712714806  56.87096555658797  24.46864291161163  19.193835738125642  38.470467194711546  55.27490738176061  -13.766207816376195  10.350301122084538  120.000000
8.019340000000001  0.000000  0.000000  0.000000  -29.676746308112524  12.912656138629783  5.235848046925165  56.93085144509317  24.115459852414638  19.571015677799984  37.7233645308028  56.02681348555829  -14.539188713794546  10.390880849409328  120.000000
8.06736  0.000000  0.000000  0.000000  -30.18190378116792  13.205959334785865  6.926466966385673  56.96663607493852  23.7270083861138  19.865322774271558  37.03954705262103  56.64532164986266  -15.163701366829983  10.41551933325202  120.000000
8.115380000000002  0.000000  0.000000  0.000000  -30.67904760496422  13.433009993726829  8.490978515067267  56.98036895685916  23.32398861745719  20.079879928946053  36.455897254666176  57.14664162646754  -15.643118733420215  10.417082581560978  120.000000
8.163400000000001  0.000000  0.000000  0.000000  -31.159712558313426  13.604104342555141  9.915715604809494  56.97580144593975  22.919814681902125  20.217125432099294  36.00531092403043  57.536728469243165  -15.992156816220797  10.395904154842798  120.000000
8.21142  0.000000  0.000000  0.000000  -31.606144412432553  13.729444123786559  11.187149453510838  56.95810003897571  22.52030341300315  20.278026937721826  35.71579045596759  57.809404056342856  -16.236295042165942  10.359676197840253  120.000000
8.259440000000001  0.000000  0.000000  0.000000  -31.99399187029755  13.819537821838301  12.292368371928463  56.93411581123692  22.124935465346727  20.260699211688884  35.60980353210656  57.94904024447609  -16.407446545763705  10.319688034144582  120.000000
8.30746  0.000000  0.000000  0.000000  -32.296384379825646  13.88388188903599  13.220491033458018  56.90975399497265  21.728591069194007  20.16166785048718  35.704104667042074  57.933767278083614  -16.535858302514118  10.285770293753085  120.000000
8.355480000000002  0.000000  0.000000  0.000000  -32.48879642517138  13.930718992585822  13.963048914702009  56.88903195087306  21.324786233214816  19.97545817474654  36.00935361578483  57.73927731208792  -16.643795033865214  10.261332306901316  120.000000
8.403500000000001  0.000000  0.000000  0.000000  -32.55151705295981  13.965253775660255  14.513857242097261  56.87225772433332  20.906475836141087  19.696941434477218  36.53092105902298  57.34116793328452  -16.741400603187028  10.240979280819834  120.000000
8.451520000000002  0.000000  0.000000  0.000000  -32.470927566016826  13.989895963356158  14.868217552587945  56.8568613689073  20.46843007667849  19.3208347582  37.269726548064405  56.715441387494955  -16.827902936042356  10.212341615097014  120.000000
8.499540000000001  0.000000  0.000000  0.000000  -32.238256316190906  14.003048926834442  15.022523374584951  56.837051410820834  20.0059150528321  18.844195730418207  38.22343217425371  55.83814725590083  -16.89490433986004  10.161319974792747  120.000000
8.54756  0.000000  0.000000  0.000000  -31.85040922736104  14.000893323894774  14.974332890817767  56.804524264205035  19.51580711989569  18.265002223142364  39.386647731840135  54.684046883879915  -16.93080453579925  10.079890897925111  120.000000
8.595580000000002  0.000000  0.000000  0.000000  -31.31086893776398  13.97616966547074  14.723274630499219  56.746167111828065  18.994709333978612  17.584373354982812  40.75035722473211  53.22637989714434  -16.92340467584591  9.972125883992586  120.000000
8.643600000000001  0.000000  0.000000  0.000000  -30.633886603026063  13.922437882519784  14.27219934409161  56.64413615070491  18.442540554376805  16.804977969822428  42.30182234015308  51.438662916440485  -16.860773656219106  9.857096493412131  120.000000
8.691620000000002  0.000000  0.000000  0.000000  -29.845430549018992  13.831998597401094  13.628664655105933  56.47544518426719  17.862900928223112  15.934573821474352  44.0234831094122  49.29836674858537  -16.73016684416383  9.763095346213667  120.000000
8.739640000000001  0.000000  0.000000  0.000000  -28.984258076054665  13.699106106110914  12.807822319040506  56.217126926403836  17.26578870501079  14.989162949187167  45.89672900075148  46.79431565022634  -16.51789529030142  9.724043333518317  120.000000
8.78766  0.000000  0.000000  0.000000  -28.097561708870387  13.520718500295418  11.836641049936498  55.854135671148754  16.67051162438832  13.99246942789952  47.902855790576666  43.932817820456854  -16.210847647048027  9.77258172705124  120.000000
8.835680000000002  0.000000  0.000000  0.000000  -27.2392751928251  13.296646887704956  10.755067290808011  55.38299928468061  16.10299078909358  12.97862598199105  50.02662660281962  40.740495606494726  -15.80028436218702  9.938721801023107  120.000000
8.883700000000001  0.000000  0.000000  0.000000  -26.46214674902657  13.033613358239553  9.614641227841071  54.81845217817013  15.594045043405584  11.983301308424068  52.26010210243845  37.2658634434643  -15.291699559973285  10.247377079173198  120.000000
8.931720000000002  0.000000  0.000000  0.000000  -25.810485333570785  12.742188860640953  8.474718668234068  54.19024897111154  15.169377065557843  11.043222852190734  54.61709589101728  33.57450391236474  -14.725723513007017  10.718475005312943  120.000000
8.979740000000001  0.000000  0.000000  0.000000  -25.311761930396706  12.437464675621687  7.394628660099701  53.54171410674961  14.845372737522446  10.188653666269271  57.146629794739  29.744817313172373  -14.19624476355048  11.361921751232583  120.000000
9.02776  0.000000  0.000000  0.000000  -24.974469317585328  12.136221412674624  6.428683226734306  52.91867890635108  14.624837514024144  9.44022139084781  59.96335778410236  25.860902264935945  -13.885383612017296  12.170114366679258  120.000000
9.075780000000002  0.000000  0.000000  0.000000  -24.787887732631408  11.852354494059755  5.621150882013262  52.36532805218366  14.49864425388668  8.809177153625027  63.29157797811735  22.011144709326278  -14.101736672062493  13.112726076111223  120.000000
9.123800000000001  0.000000  0.000000  0.000000  -24.72723226036963  11.596353609934726  5.006679763196397  51.918437146015  14.451268825372361  8.295854808504348  67.54601373034217  18.290404951666147  -15.354902505074792  14.140837069098694  120.000000
9.171820000000002  0.000000  0.000000  0.000000  -24.770039752312336  11.370835443663152  4.612557520346478  51.60223119124641  14.46472233076619  7.894555595123686  73.45465493393577  14.808685122501883  -18.464700901108163  15.193426138263238  120.000000
9.219840000000001  0.000000  0.000000  0.000000  -24.898288591236533  11.176482219201432  4.461789541814995  51.43186902355005  14.527482198809588  7.591067720775443  82.26576807958662  11.719549259646703  -24.76088309122348  16.2062385260597  120.000000
9.26786  0.000000  0.000000  0.000000  -25.112769706843007  11.007069655340572  4.575252405580782  51.412098118783156  14.629780808599932  7.368847363284768  95.79805041999259  9.259739164876551  -36.12624501503722  17.111337069436708  120.000000
9.315880000000002  0.000000  0.000000  0.000000  -25.423038126619932  10.85581028505575  4.9680530643174565  51.540187338319626  14.764587421846105  7.209347894214333  115.23219529120996  7.771688902479195  -53.7867822700772  17.842519287709383  120.000000
9.363900000000001  0.000000  0.000000  0.000000  -25.858051851751657  10.714869696896969  5.642647150622464  51.81218051580549  14.92259587673141  7.089908082476296  137.45808427981635  7.51966549968711  -74.66323577519404  18.331363292380875  120.000000
9.411920000000002  0.000000  0.000000  0.000000  -26.452154007797013  10.574329443293493  6.582561449224022  52.206954198112214  15.08787602206854  6.990425789377407  156.12146631245355  8.31445318059143  -92.4161988781578  18.51424411810319  120.000000
9.459940000000001  0.000000  0.000000  0.000000  -27.2286285262167  10.429154588964455  7.750258192042767  52.70924176453354  15.246960176989313  6.883284926565514  168.8755981266672  9.690682803281794  -104.70251715167495  18.34677590470509  120.000000
9.50796  0.000000  0.000000  0.000000  -28.193258323897606  10.263699429875093  9.09318400610634  53.28663924928012  15.382501832204493  6.75685775121449  177.0009256486744  11.30435276863825  -112.79216658424252  17.82701998289362  120.000000
9.555980000000002  0.000000  0.000000  0.000000  -29.27412001070555  10.066852734631139  10.553828062504472  53.93154219976259  15.498602315554269  6.611740329614932  -178.02508064983923  13.022615243455734  -118.11465396097024  17.039473782838712  120.000000
9.604000000000001  0.000000  0.000000  0.000000  -30.387802986533774  9.80964837749516  12.078452143940742  54.650984243168104  15.59980504959727  6.473094979704927  -175.37109071959452  14.835359750764562  -121.42104293948752  16.15128186457862  120.000000
