Simulation
nRows=201
nColumns=15
endheader
time  TH_x TH_y TH_z SC_y  SC_z  SC_x  AC_y  AC_z  AC_x  GH_y  GH_z  GH_yy  EL_x  PS_y
0.0  0.000000  0.000000  0.000000  -21.481837363305974  5.049547332879065  0.3347068766571287  50.74927176733634  6.352945944420836  -0.4754409335810368  158.1229382268953  2.523603538805735  -113.99865197466164  21.0356874926572  120.000000
0.05362  0.000000  0.000000  0.000000  -20.286391772113912  4.658354644626986  -1.1129193657034187  50.62226425743704  6.332089062322771  0.012918350430352069  6.3438084044413685  1.5774156343856354  35.656341543694154  20.328445786976403  120.000000
0.10724  0.000000  0.000000  0.000000  -19.184768689561878  4.237076722586253  -2.5716101851431454  50.45275535518869  6.200915472686424  0.5122667061965003  -6.865592194728574  5.418250704119862  46.62149384516725  19.622029687666625  120.000000
0.16086  0.000000  0.000000  0.000000  -18.21053089841472  3.8253279700946243  -4.0651424210404405  50.24588264502995  6.025472963634728  1.0409049981720795  -9.560876036823444  9.242547017272727  46.78971077335303  18.881674864109296  120.000000
0.21448  0.000000  0.000000  0.000000  -17.37130605826021  3.423130596641907  -5.5885374401947745  50.050982233693176  5.8582318801021245  1.6261005079484385  -11.194921134938822  13.044091689175502  45.47898738704156  18.102298642859406  120.000000
0.2681  0.000000  0.000000  0.000000  -16.6695087806871  3.012043894557358  -7.109634908521641  49.930671131432405  5.753889430074336  2.2836708246920514  -12.687076047053287  16.868424945222422  43.537502201039516  17.29120076477501  120.000000
0.32172  0.000000  0.000000  0.000000  -16.12299514054749  2.592157499392775  -8.597482651544253  49.92819969426035  5.775632743647874  3.021472524435538  -14.234658847233883  20.7566931506957  41.181789073832775  16.464874590511453  120.000000
0.37534  0.000000  0.000000  0.000000  -15.757546815225988  2.182871862314282  -10.02965905293525  50.04398752029993  5.980937959885203  3.831947582342199  -15.88830432705039  24.72075825263883  38.567841594876434  15.640672332608654  120.000000
0.42896  0.000000  0.000000  0.000000  -15.616631703320396  1.835913158189614  -11.391249265851334  50.23145186851602  6.406185549805172  4.684077670429292  -17.63627447859779  28.730549112280954  35.846222165612694  14.83385996118029  120.000000
0.48258  0.000000  0.000000  0.000000  -15.738386913434287  1.6144486194282115  -12.665464651660043  50.41543380103121  7.07102622327857  5.538880377255404  -19.432710960012606  32.71964290631228  33.16993251511329  14.055716581241096  120.000000
0.5362  0.000000  0.000000  0.000000  -16.151476976824597  1.57403648952193  -13.827664448607813  50.52629192983032  7.980592303645175  6.368840523560172  -21.178803408529646  36.60281735189213  30.647025938388786  13.31601197401657  120.000000
0.58982  0.000000  0.000000  0.000000  -16.87021301834886  1.749678609982376  -14.83676935685767  50.53024916939148  9.117924582999635  7.157320886708826  -22.7523278238449  40.298036327849196  28.346980844230732  12.624932151664938  120.000000
0.64344  0.000000  0.000000  0.000000  -17.899024010214788  2.1470151286266583  -15.639231539343704  50.43216904260672  10.440483384323436  7.9015558930187115  -24.035785257549946  43.74373757931212  26.30090779326903  11.991883116794982  120.000000
0.69706  0.000000  0.000000  0.000000  -19.226938973486348  2.7417929871719418  -16.17615904466189  50.275138811236374  11.885701969646023  8.602548941882661  -24.940393363064906  46.90431859853995  24.505704011272137  11.420885651097493  120.000000
0.75068  0.000000  0.000000  0.000000  -20.832504033856228  3.4878262827361426  -16.391050798360094  50.11826349403274  13.376290483760048  9.258397261461495  -25.420296551013646  49.76583026883956  22.924193808319284  10.903834838317247  120.000000
0.8043  0.000000  0.000000  0.000000  -22.680261599310892  4.330812397232317  -16.244031562141743  50.022418527549775  14.833874383979655  9.855052043275373  -25.474806000155116  52.3300044237971  21.49156622644535  10.417570171777955  120.000000
0.85792  0.000000  0.000000  0.000000  -24.713523488748823  5.217264363417624  -15.716264937525306  50.032443152102424  16.19188729084208  10.37561044223252  -25.13467520483316  54.613152819292296  20.124585416021937  9.932023754200936  120.000000
0.91154  0.000000  0.000000  0.000000  -26.849353042426845  6.101252620380725  -14.80544316629957  50.17010935775383  17.39250235767896  10.797373198543875  -24.458444440082513  56.641990782274895  18.746976699521287  9.423482080006837  120.000000
0.96516  0.000000  0.000000  0.000000  -28.985972339944215  6.950614997884889  -13.533969901542713  50.42477058253171  18.38759501819713  11.098335038574037  -23.529093990937785  58.445495963857674  17.313478432992156  8.887740120358357  120.000000
1.01878  0.000000  0.000000  0.000000  -31.017187660808407  7.747592945743003  -11.959393520407065  50.74943026873549  19.148215529557895  11.273088903871805  -22.44735625713578  60.051759320905916  15.824457335472099  8.343665790337887  120.000000
1.0724  0.000000  0.000000  0.000000  -32.85444736061188  8.489825788250512  -10.171751302014398  51.0772184313171  19.664620544095246  11.330987915255951  -21.317562733065607  61.48500028111218  14.32134886477436  7.825470101021035  120.000000
1.12602  0.000000  0.000000  0.000000  -34.44141690041085  9.178977966237893  -8.280709022372983  51.34279552226653  19.945666472750037  11.295936453943124  -20.2345291027484  62.76439783268454  12.874199560602703  7.370911493476849  120.000000
1.17964  0.000000  0.000000  0.000000  -35.760324895339025  9.818898237396942  -6.3965344980216505  51.50883527585452  20.013992453947395  11.192292426660554  -19.270973854500696  63.898944756430254  11.560421821929344  7.01110770989603  120.000000
1.23326  0.000000  0.000000  0.000000  -36.82584978088093  10.405786081746893  -4.613104180293795  51.57414392886461  19.897215578073656  11.037745508484697  -18.47174105529591  64.88852706093097  10.450441225329795  6.767147319613812  120.000000
1.28688  0.000000  0.000000  0.000000  -37.67383601146382  10.929520589649918  -2.9976843841911043  51.56919897673844  19.626287613112005  10.84019575959372  -17.855606986644244  65.72335362460456  9.595622271369056  6.649298213411801  120.000000
1.3405  0.000000  0.000000  0.000000  -38.34596922735885  11.381173060160915  -1.5884410110725193  51.537790533762205  19.234176476330994  10.600011422728512  -17.420598058220044  66.39808947191487  9.022320318069807  6.656045868784908  120.000000
1.39412  0.000000  0.000000  0.000000  -38.87583305976319  11.751000176711285  -0.39719000575186  51.51489237097405  18.7599647843153  10.322681758974543  -17.152729748791288  66.91804900319445  8.72538940040116  6.767997277474976  120.000000
1.44774  0.000000  0.000000  0.000000  -39.28129211185554  12.030891964847578  0.5830801831452599  51.51896104732957  18.248836814599773  10.0163157559581  -17.034965075743038  67.30019315687379  8.668625725803  6.942868040437253  120.000000
1.50136  0.000000  0.000000  0.000000  -39.56696291630445  12.212943388725163  1.3731908444606364  51.55363770930788  17.748337773299994  9.689655713432773  -17.050950868712103  67.57321682370706  8.79213068419139  7.121905189976435  120.000000
1.55498  0.000000  0.000000  0.000000  -39.72741501039916  12.28944215325735  1.9987032885109848  51.61449159067747  17.299610208759262  9.348796079563895  -17.184967032061973  67.77115734874039  9.027252053346892  7.246184562892377  120.000000
1.6086  0.000000  0.000000  0.000000  -39.751875253177644  12.254049662994579  2.478766317410686  51.69755081768631  16.926409928834676  8.993682080321307  -17.419846378395807  67.92609832909727  9.311455789212655  7.2776041902982165  120.000000
1.66222  0.000000  0.000000  0.000000  -39.624483976054385  12.103035053362053  2.818845083790338  51.802566247676886  16.629372118771958  8.62010790418218  -17.736445268317535  68.05670169825706  9.59831509320541  7.212036256737473  120.000000
1.71584  0.000000  0.000000  0.000000  -39.32466478615363  11.83630900323808  3.0086629584040083  51.93402629686453  16.38689012014044  8.22276659675079  -18.11488654131492  68.15799500098088  9.856834558103417  7.078300575922415  120.000000
1.76946  0.000000  0.000000  0.000000  -38.82762977106073  11.458329472101676  3.0243882482695144  52.100224583714194  16.161335931141423  7.799330865241989  -18.538046427909766  68.1923759925271  10.06368861281562  6.925311523437746  120.000000
1.82308  0.000000  0.000000  0.000000  -38.108830491374334  10.976781901020416  2.83532520154781  52.30904567396114  15.907251822857557  7.356769453442552  -18.993697038278114  68.08496391663347  10.194489166544155  6.811369003714465  120.000000
1.8767  0.000000  0.000000  0.000000  -37.15310924027386  10.403667652074649  2.4086597454303704  52.56566451304798  15.57890278414817  6.9136449016958625  -19.47389241691157  67.72777321766719  10.222040533241854  6.7981835819657945  120.000000
1.93032  0.000000  0.000000  0.000000  -35.96217132106862  9.75452433006129  1.719230313625364  52.86442701396098  15.139391577684485  6.505785964629337  -19.968456123704915  66.9966094772734  10.124113132366242  6.946169610997951  120.000000
1.98394  0.000000  0.000000  0.000000  -34.5565275272666  9.048968855267974  0.7497453147961912  53.18547925413176  14.57189454886252  6.179471318549467  -20.459657239811488  65.77058955407549  9.904388355619137  7.3025474695465675  120.000000
2.03756  0.000000  0.000000  0.000000  -32.96546333572233  8.305894045465541  -0.504755462525149  53.49067571833938  13.882425348994161  5.9812210582723075  -20.917598781797462  63.95038162524012  9.61851350736826  7.87881715254058  120.000000
2.09118  0.000000  0.000000  0.000000  -31.219634667499722  7.542032756814732  -2.030030351235783  53.72438881354272  13.102529153606548  5.944847906465332  -21.295817537265382  61.47643994518809  9.391995386896335  8.626977055893914  120.000000
2.1448  0.000000  0.000000  0.000000  -29.348838857025676  6.7797288079580245  -3.7882593313286526  53.82175680006536  12.292623899662866  6.083835000221304  -21.52861121398207  58.3446974955413  9.411315746462899  9.436580728832233  120.000000
2.19842  0.000000  0.000000  0.000000  -27.393470609119316  6.051216681003272  -5.707911602521864  53.72649260807729  11.531432681986493  6.382514489786752  -21.538738409688808  54.602812357250606  9.891128914130958  10.166335919046523  120.000000
2.25204  0.000000  0.000000  0.000000  -25.415780543722256  5.398788157158492  -7.692057231323813  53.40622611183332  10.897782461128834  6.794408710191481  -21.25966691608181  50.332990390867316  11.032730811284141  10.701926848467497  120.000000
2.30566  0.000000  0.000000  0.000000  -23.495446387279983  4.866475144447902  -9.633187549330477  52.86341781827172  10.461455192188685  7.257990264329684  -20.652060693113466  45.63743765184118  12.97640737660768  11.018484607799529  120.000000
2.35928  0.000000  0.000000  0.000000  -21.725926338180432  4.486463758508463  -11.415664291575247  52.13643402780045  10.260360194212947  7.70676707136286  -19.72467754466118  40.63176575420748  15.774490894150253  11.204736357335314  120.000000
2.4129  0.000000  0.000000  0.000000  -20.206251256211427  4.274770182201444  -12.935006135265358  51.29001018645075  10.287370213448009  8.081729317944783  -18.549883814200676  35.44686760748885  19.396017386244377  11.424711832361533  120.000000
2.46652  0.000000  0.000000  0.000000  -19.015406162433898  4.225363704120375  -14.105194070971521  50.41182992909515  10.503491399539689  8.34452439164375  -17.247830825147116  30.236119083337133  23.72826042524884  11.843455899493335  120.000000
2.52014  0.000000  0.000000  0.000000  -18.190239178015204  4.313377982831991  -14.860592375254454  49.60720584782489  10.85686472926388  8.484689929349436  -15.936826368737654  25.16851009101116  28.557189675793797  12.555470966020252  120.000000
2.57376  0.000000  0.000000  0.000000  -17.73351983840778  4.502597846444524  -15.175121176094159  48.978656943971714  11.309033591949197  8.519757507934237  -14.657828272095204  20.404331895690742  33.525881716567305  13.545880567740829  120.000000
2.62738  0.000000  0.000000  0.000000  -17.634153644136482  4.75413480947151  -15.066153678701014  48.59388469181281  11.831140232888394  8.478293944171737  -13.293154173107208  16.069797773198495  38.1028158692245  14.708274935840935  120.000000
2.681  0.000000  0.000000  0.000000  -17.878993063003616  5.0343700533277875  -14.586506815713824  48.46533667937932  12.39311529878665  8.378370865618859  -11.493193264667102  12.246010280421821  41.56997286576531  15.895806786488736  120.000000
2.73462  0.000000  0.000000  0.000000  -18.44275553037737  5.3143663927705544  -13.812284815872548  48.55599215029944  12.963981896355218  8.222888329521654  -8.568642862030028  8.982252560908947  42.98437003721109  16.971333832958134  120.000000
2.78824  0.000000  0.000000  0.000000  -19.25711570937355  5.5661176151843055  -12.830569048741234  48.80554625002009  13.51150818690951  8.009842556223479  -3.3922798172085917  6.318445093699759  41.128244989874624  17.84165667183343  120.000000
2.84186  0.000000  0.000000  0.000000  -20.20986485079901  5.762256445173502  -11.7301238909806  49.16028708675401  14.003805877855799  7.739351161302143  5.757842078003787  4.296991257176645  34.331961482422614  18.462953552628033  120.000000
2.89548  0.000000  0.000000  0.000000  -21.166762055202987  5.880813998302333  -10.594830701513676  49.586930811317096  14.414782919534495  7.420381588359706  20.653950956929005  2.9514546529286627  20.965660967026082  18.83108255567162  120.000000
2.9491  0.000000  0.000000  0.000000  -22.00975838483213  5.910035835012756  -9.494155541448091  50.065076139325775  14.727939468796388  7.0704198590537874  39.766692270415426  2.240932392308057  2.7283512557504026  18.969155425175032  120.000000
3.00272  0.000000  0.000000  0.000000  -22.664652279999373  5.853468967548066  -8.478811802301376  50.578796155891865  14.940127563268737  6.708872224652409  55.80053404218542  1.9536394721131904  -12.923616635077483  18.922220683750453  120.000000
3.05634  0.000000  0.000000  0.000000  -23.105189662639432  5.726786655440786  -7.582925735023509  51.10909307068188  15.059512783905312  6.35518039302174  63.24732208646317  1.8181146256216874  -20.340152802378967  18.751033628638133  120.000000
3.10996  0.000000  0.000000  0.000000  -23.343014349547854  5.549988735856819  -6.825701010650855  51.63409859926489  15.09805550228584  6.0275662118863975  61.87484175534617  1.71159183109376  -19.16794771381589  18.520696256083475  120.000000
3.16358  0.000000  0.000000  0.000000  -23.40935510988105  5.34278183334106  -6.211518805757749  52.13577258123966  15.066333330223111  5.739739783005334  53.50994034634216  1.6587241779752313  -11.133356223425867  18.28610299790569  120.000000
3.2172  0.000000  0.000000  0.000000  -23.34635645687247  5.125523223388273  -5.732924795374459  52.60078394973549  14.973417923974717  5.500214570114293  41.80954270609885  1.7284077983737107  0.18368983324831872  18.079811626991543  120.000000
3.27082  0.000000  0.000000  0.000000  -23.1982166496202  4.916754981162473  -5.376390622770009  53.01962138169641  14.828983196554294  5.312943546541316  31.30998896901291  1.941836470273568  10.301769700454685  17.908595317014154  120.000000
3.32444  0.000000  0.000000  0.000000  -23.00535261410896  4.730385878295416  -5.127153396900352  53.38637273949914  14.643115675325246  5.177811648669032  24.32050202518809  2.2634326353164034  16.946166737403903  17.76230205834541  120.000000
3.37806  0.000000  0.000000  0.000000  -22.79868409062542  4.574832498589197  -4.972421392037766  53.69819125610467  14.425543092031836  5.091568481577322  20.651273669871074  2.64903224211123  20.325473931188366  17.626527182815163  120.000000
3.43168  0.000000  0.000000  0.000000  -22.598688267706464  4.452734560304135  -4.902491501547393  53.95343222128175  14.184179074609792  5.048632135228861  19.30956133615872  3.073305373510313  21.438959406317878  17.492129997222968  120.000000
3.4853  0.000000  0.000000  0.000000  -22.414044051507943  4.362398141739135  -4.9097338166058915  54.15071282043592  13.922858747124845  5.041593520866221  19.367589375127807  3.5281742330127566  21.213982418413615  17.35896148490032  120.000000
3.53892  0.000000  0.000000  0.000000  -22.243758630605527  4.2986605546255126  -4.989676450893955  54.28720812428981  13.642074837085874  5.063706914907947  20.12563908093933  4.0146152753424715  20.34624876571181  17.2329345850586  120.000000
3.59254  0.000000  0.000000  0.000000  -22.077474450681567  4.253755104753192  -5.1425312313655365  54.359748291464896  13.341383406201064  5.110624423419362  21.07426664920514  4.536975849340091  19.341537555145557  17.11935809340762  120.000000
3.64616  0.000000  0.000000  0.000000  -21.898833924160634  4.217690379336042  -5.369303612735127  54.36637211545997  13.018439310436834  5.179753581090838  21.847669317982692  5.101335985841344  18.563297097427913  17.015799537487474  120.000000
3.69978  0.000000  0.000000  0.000000  -21.68613911221894  4.182217461672253  -5.6715099011782435  54.31173553869871  12.671546410458612  5.268944530598761  22.206714505706724  5.718017510159818  18.248701792163903  16.9095603482215  120.000000
3.7534  0.000000  0.000000  0.000000  -21.419383200127655  4.141446941070851  -6.050326362615341  54.20601782009489  12.302147183874926  5.376640971802058  22.007134974228617  6.405530010405353  18.532981134720572  16.778615023315545  120.000000
3.80702  0.000000  0.000000  0.000000  -21.08867943997081  4.090485779551708  -6.505287875181445  54.06075351977181  11.915540724127585  5.502854903507166  21.173800482043944  7.192741163280945  19.46716574176631  16.595598476969684  120.000000
3.86064  0.000000  0.000000  0.000000  -20.699380689934713  4.027871036704837  -7.032556921299781  53.88908862738585  11.522563638849567  5.651080473960511  19.728320692216826  8.123147476437866  20.981616701225384  16.33385337056699  120.000000
3.91426  0.000000  0.000000  0.000000  -20.276719340725734  3.952325868136556  -7.620500799367517  53.7043151287438  11.137056519262831  5.828830095452779  17.786229833284334  9.258504291718712  22.886882864346102  15.969838292222132  120.000000
3.96788  0.000000  0.000000  0.000000  -19.850601800534363  3.862473729074347  -8.258489528483608  53.52761916876488  10.771504158807678  6.047803240129951  15.492049641854965  10.67078145190007  24.951563887363854  15.489121317412026  120.000000
4.0215  0.000000  0.000000  0.000000  -19.441868303958287  3.756022924268791  -8.947608172730302  53.397060111680126  10.43613065721982  6.3268568675384484  12.951809718631438  12.43657628641341  26.9738852486173  14.893881337024862  120.000000
4.07512  0.000000  0.000000  0.000000  -19.055854835157245  3.6215698421821005  -9.696698087359914  53.35990535676316  10.141531369634917  6.695115563488348  10.19856812734931  14.635981651515369  28.826651316027593  14.20825936426299  120.000000
4.1287400000000005  0.000000  0.000000  0.000000  -18.68332992969989  3.4440057154137307  -10.517270188976541  53.469004181107636  9.902248058322488  7.184647219121139  7.248519836738527  17.349375692592883  30.422700803835518  13.487101861380003  120.000000
4.18236  0.000000  0.000000  0.000000  -18.31762660891231  3.2060082984031233  -11.417567613326147  53.76980511967092  9.738920071302  7.818978494189054  4.156738911384437  20.645703125936485  31.67173727299903  12.806127905485383  120.000000
4.23598  0.000000  0.000000  0.000000  -17.964618659044685  2.8959457433402958  -12.397985269714884  54.28460136860836  9.678120728628492  8.602496383031262  1.0249098905814948  24.556664562485338  32.48925103742747  12.241450191838416  120.000000
4.2896  0.000000  0.000000  0.000000  -17.643545136944837  2.516564686168312  -13.448819470684802  55.00553328349691  9.755023032611753  9.516108320663292  -2.016271610899712  29.047361136879466  32.80712039006525  11.843202733733392  120.000000
4.3432200000000005  0.000000  0.000000  0.000000  -17.385652879354428  2.0868664174242304  -14.549031450780957  55.89145744137457  10.018862035764727  10.522090407743447  -4.839411146443933  34.001473329181216  32.58403177623179  11.610877530047645  120.000000
4.39684  0.000000  0.000000  0.000000  -17.23006939813442  1.6411961992834467  -15.68124508686017  56.88831793653274  10.540681952827725  11.573013472595212  -7.324071042652621  39.23051132379955  31.798750705270656  11.496004036561837  120.000000
4.45046  0.000000  0.000000  0.000000  -17.226064502840316  1.217096645655743  -16.8197955008257  57.933262475867465  11.39284723775934  12.613286678147544  -9.37234083964176  44.50300504945059  30.460233780781664  11.425894353630198  120.000000
4.50408  0.000000  0.000000  0.000000  -17.430152606787672  0.8615778708648776  -17.90039870359572  58.963572138668155  12.607483021703672  13.559164217496157  -10.925414294909974  49.59060357571533  28.61641908601849  11.33452369257949  120.000000
4.5577000000000005  0.000000  0.000000  0.000000  -17.87256267091707  0.6192160704117404  -18.81763010883052  59.91653467762267  14.163524071188881  14.3210964629171  -11.9720620403768  54.300308635172335  26.359678338095165  11.187542794167804  120.000000
4.61132  0.000000  0.000000  0.000000  -18.522850204876125  0.508523582123097  -19.44629118572836  60.721968882382996  15.986023743763981  14.832201781388505  -12.558837171016753  58.480555615084896  23.827411781554435  10.989117914170828  120.000000
4.66494  0.000000  0.000000  0.000000  -19.293599240491012  0.5293750577345441  -19.689618658696645  61.324550573466574  17.971066018543386  15.055868059780442  -12.776396799556146  62.024153604335226  21.176261534395802  10.769170560472835  120.000000
4.71856  0.000000  0.000000  0.000000  -20.06986375053646  0.6651922629474164  -19.488798648791825  61.69139013566774  20.00213660808124  15.006193059837598  -12.72866414725091  64.87834696110943  18.557370875476686  10.568062764150172  120.000000
4.7721800000000005  0.000000  0.000000  0.000000  -20.768973775327115  0.8897855866832488  -18.80530706552935  61.81984947682303  21.9389219634078  14.728524931100347  -12.506753078759234  67.05647463603452  16.092427658752733  10.421131266152067  120.000000
4.8258  0.000000  0.000000  0.000000  -21.362658509422374  1.1840317005575764  -17.62408418950262  61.72640657826979  23.643813390932433  14.281381272495265  -12.179488796599633  68.63217495022558  13.86106533859249  10.351375235493393  120.000000
4.87942  0.000000  0.000000  0.000000  -21.864695121888897  1.533416864219208  -15.962232219764768  61.44028258828991  25.016709214781226  13.733098802684465  -11.79195920882203  69.72124124957993  11.90199321422006  10.370810536287584  120.000000
4.93304  0.000000  0.000000  0.000000  -22.30993861570649  1.9235126790873784  -13.872428235674517  61.00742159871072  26.003110562137017  13.143363753637987  -11.371704212417722  70.45256263055478  10.22042345978161  10.485196738435597  120.000000
4.9866600000000005  0.000000  0.000000  0.000000  -22.73422962636545  2.3364497910903212  -11.437536268210506  60.485282071638515  26.59174679621458  12.555660720099262  -10.937455997911798  70.94462432160857  8.794842800012209  10.696410544662742  120.000000
5.04028  0.000000  0.000000  0.000000  -23.162362638992096  2.7505635101045676  -8.763709300934833  59.93728165301843  26.80608121747957  11.994249543829884  -10.504531170912301  71.29324198746959  7.582901332887276  11.002445775646665  120.000000
5.0939  0.000000  0.000000  0.000000  -23.601250442278463  3.1425718076345923  -5.971874784948755  59.42331469998184  26.69388214318448  11.467779306693789  -10.088603278308444  71.56805283280758  6.531962111716275  11.396587566336704  120.000000
5.14752  0.000000  0.000000  0.000000  -24.041119147615433  3.4911359042911885  -3.189534277981799  58.99394353583596  26.31490329787879  10.97193796762041  -9.70599675361741  71.81649403474408  5.59300140627316  11.863332196997916  120.000000
5.2011400000000005  0.000000  0.000000  0.000000  -24.459219114129386  3.7811231944099952  -0.5436299400069639  58.68621710630028  25.72837002710247  10.492851544724445  -9.371942084731291  72.06992848640822  4.737321706016307  12.370983199653313  120.000000
5.25476  0.000000  0.000000  0.000000  -24.827456013843047  4.006854804558378  1.845138988241966  58.52520391913276  24.98252676527507  10.007757802916  -9.098180544477422  72.34907404502121  3.9668135365799437  12.86550213945328  120.000000
5.30838  0.000000  0.000000  0.000000  -25.118165956084948  4.173155908501928  3.8669474711219176  58.52637354387357  24.109245626845503  9.489416294497998  -8.892531205068856  72.66507993418932  3.311623439193796  13.275555998472823  120.000000
5.362  0.000000  0.000000  0.000000  -25.30756878104252  4.290195280685406  5.428988077589871  58.69782412933298  23.124451987489845  8.91661172503855  -8.760030966148646  73.01650538203563  2.8139744454945537  13.53092162378157  120.000000
5.4156200000000005  0.000000  0.000000  0.000000  -25.376378870223803  4.3659272007141245  6.461058005926518  59.03824469995169  22.03256251988975  8.289766476146779  -8.705673005247233  73.38497926461973  2.507641613247437  13.589475118657255  120.000000
5.46924  0.000000  0.000000  0.000000  -25.310545204827452  4.39825562605016  6.918401695868613  59.53392607225456  20.8343463487181  7.643635795887589  -8.737080686653359  73.73187570796695  2.402832102929115  13.45904400879616  120.000000
5.52286  0.000000  0.000000  0.000000  -25.102070122529398  4.37299400195124  6.78040839519151  60.15588878682238  19.534471507641054  7.049515974144215  -8.86406508895915  73.99986519840431  2.487222123160353  13.197473367943992  120.000000
5.57648  0.000000  0.000000  0.000000  -24.751497507248242  4.268157839546527  6.047903631730006  60.86071482023054  18.14808084563195  6.603597935658466  -9.094255198007774  74.12055834933906  2.7414871647941177  12.889127598368443  120.000000
5.6301000000000005  0.000000  0.000000  0.000000  -24.268650287623988  4.061827128376253  4.743037671354954  61.59289071462733  16.70778285660002  6.405763374608069  -9.43010856379116  74.02272442058359  3.1593488610413982  12.612267918875233  120.000000
5.68372  0.000000  0.000000  0.000000  -23.672196972283214  3.7396645599486833  2.9120849432830314  62.291063402026865  15.266834172977495  6.535519774666641  -9.86610300872647  73.63858246075966  3.758938735628892  12.41407725479809  120.000000
5.73734  0.000000  0.000000  0.000000  -22.984358790523743  3.301077220721115  0.630174627128789  62.8961990407641  13.895358497418512  7.030026237787513  -10.388912455941005  72.90076050627971  4.578879999137774  12.302561004687448  120.000000
5.79096  0.000000  0.000000  0.000000  -22.225072180081394  2.760793928875769  -1.9926679570087609  63.35948568869849  12.668415423200146  7.872495328372995  -10.97537167229537  71.73538171613322  5.659954305657734  12.258638270952819  120.000000
5.8445800000000006  0.000000  0.000000  0.000000  -21.407532153267173  2.1540017910865092  -4.81640201295936  63.64638574873851  11.656991225811003  8.990272150221292  -11.590072018093478  70.05775622396858  7.024550385650093  12.252896342395845  120.000000
5.8982  0.000000  0.000000  0.000000  -20.545395422317256  1.5364337508467465  -7.688927927336085  63.73066523884075  10.92939915361143  10.269908805399723  -12.181467577361998  67.78289780286443  8.664601279027373  12.25805956224602  120.000000
5.95182  0.000000  0.000000  0.000000  -19.66641176832882  0.9850665722649379  -10.477555254171294  63.58816987522352  10.556897750638319  11.579221163292333  -12.678011240485045  64.85308154749356  10.542331192735702  12.253174789996912  120.000000
6.00544  0.000000  0.000000  0.000000  -18.82422267549434  0.5758459320087213  -13.099064951387554  63.19552988495537  10.612485707484723  12.80103263988752  -12.982995575684969  61.263776820792415  12.597988388696285  12.225206342794602  120.000000
6.059060000000001  0.000000  0.000000  0.000000  -18.10226428355843  0.3559806447440996  -15.507994787371961  62.540162429257855  11.134797061903798  13.849347724800115  -12.974784787669297  57.07277365452761  14.755892659346324  12.172437853670887  120.000000
6.11268  0.000000  0.000000  0.000000  -17.595898595109837  0.33489456351102265  -17.666536502260648  61.63345054885985  12.093022230056357  14.664078999762276  -12.534467141827507  52.38864536223105  16.9318959171985  12.103215266083184  120.000000
6.1663  0.000000  0.000000  0.000000  -17.38002120957232  0.48202179848932186  -19.509506762767312  60.51226246550886  13.372489678850902  15.21205596833661  -11.590062999861162  47.34976958167355  19.052713737707748  12.033269280768765  120.000000
6.21992  0.000000  0.000000  0.000000  -17.468270784020895  0.7417226808752652  -20.943176338786802  59.24766205049221  14.804265615486202  15.484200738456778  -10.13683084764008  42.11348871840684  21.067955859910498  11.9869622043788  120.000000
6.273540000000001  0.000000  0.000000  0.000000  -17.800232299917603  1.0554125955977431  -21.889930151493584  57.94725363433835  16.231686786881923  15.496954259105513  -8.220728783144956  36.849812830405554  22.944632909236116  12.000112702669098  120.000000
6.32716  0.000000  0.000000  0.000000  -18.286044705462626  1.3733090368010783  -22.32968755601031  56.726361532825955  17.551840792793755  15.290660156025304  -5.929130197191697  31.733190522644687  24.665654523118903  12.11294094980849  120.000000
6.38078  0.000000  0.000000  0.000000  -18.841830734588648  1.6675787506445683  -22.29904515236659  55.68294124745984  18.707365416315447  14.913095320643157  -3.3966553939544895  26.923496308100553  26.245960606914686  12.359801931876776  120.000000
6.4344  0.000000  0.000000  0.000000  -19.390413287750665  1.9294585292102842  -21.85681522067879  54.89391821217738  19.670535005417094  14.408535667457548  -0.7786402060510585  22.541792046570002  27.717515851946906  12.765792426085149  120.000000
6.488020000000001  0.000000  0.000000  0.000000  -19.86870604854465  2.155475079771598  -21.070667601353612  54.39746704372583  20.446675969853676  13.827346106845328  1.7814898140779005  18.65565752315358  29.10431185604984  13.33713229731899  120.000000
6.54164  0.000000  0.000000  0.000000  -20.249924605614932  2.3489442046943028  -20.005920023136266  54.17340087165946  21.054110365564924  13.224933236388281  4.156500164660888  15.280232873504499  30.429491680374724  14.048842809129404  120.000000
6.59526  0.000000  0.000000  0.000000  -20.541127627768834  2.522644146584296  -18.727744718516288  54.165758651305325  21.500056491041978  12.640219888034602  6.275053524132722  12.39050436656995  31.674714777628235  14.842662273181386  120.000000
6.64888  0.000000  0.000000  0.000000  -20.761648013236044  2.6909998868065204  -17.312155778190025  54.309322781844735  21.784032004225796  12.089440964935736  8.168205953729116  9.936835563332664  32.720645278857106  15.637629770421773  120.000000
6.702500000000001  0.000000  0.000000  0.000000  -20.94630245562849  2.8611860687416053  -15.83138605751951  54.5354287452727  21.91298518355489  11.571135346352614  10.023182148439977  7.86687038244334  33.29257303226406  16.34200420185381  120.000000
6.75612  0.000000  0.000000  0.000000  -21.13060454940573  3.039344516135183  -14.339604954956064  54.78436000647703  21.902611203115594  11.071793961849368  12.169583064856363  6.134449525976547  33.01794603383339  16.881998904160227  120.000000
6.80974  0.000000  0.000000  0.000000  -21.333163896731342  3.2288391487540467  -12.87397891207873  55.00766884007884  21.771803647905692  10.583168103287957  14.867700326411427  4.694153799680106  31.664685400278078  17.228327264647994  120.000000
6.86336  0.000000  0.000000  0.000000  -21.553023265919148  3.4275239129421555  -11.460445539985974  55.182673730355894  21.5445039902153  10.106475252162468  18.109434450712435  3.4994137938821983  29.330257519772893  17.39961314937163  120.000000
6.916980000000001  0.000000  0.000000  0.000000  -21.76514028983907  3.6311074273058024  -10.114568924775364  55.32269584689644  21.244470837296813  9.651530468452343  21.752404290699065  2.500042948539775  26.285143206534592  17.451587908704138  120.000000
6.9706  0.000000  0.000000  0.000000  -21.935546465895598  3.8322943739948045  -8.842765152106672  55.45459446023267  20.888841718893197  9.23265129930188  26.081179832585782  1.647567544174893  22.376343895454664  17.45065663679801  120.000000
7.02422  0.000000  0.000000  0.000000  -22.042932785586313  4.026165397722776  -7.647197421870439  55.59670094097245  20.491531502347176  8.857483975195539  33.32508452829398  0.9059043409160152  15.47885780726585  17.44716823116047  120.000000
7.07784  0.000000  0.000000  0.000000  -22.08915815658457  4.211957101250711  -6.529542490172674  55.75124527478214  20.06532920129323  8.527711403920293  65.68694899290125  0.2905332699071871  -16.546810663055886  17.464032608816645  120.000000
7.131460000000001  0.000000  0.000000  0.000000  -22.092850455471304  4.3900361792520215  -5.492603811114962  55.911110734910366  19.623177839472397  8.239867015569985  174.80918969496142  0.45635642932160114  -125.31693903190563  17.502430907019676  120.000000
7.18508  0.000000  0.000000  0.000000  -22.07808417319777  4.560443907869941  -4.538925313455683  56.06874497140075  19.17621859392691  7.986859371850425  -170.5109391926358  0.988908009564265  -139.62642215765138  17.553313432070656  120.000000
7.2387  0.000000  0.000000  0.000000  -22.065469373900665  4.7212855399465345  -3.6698904982036655  56.2208093454824  18.73108130256396  7.760748711154578  -166.5475098083694  1.482887435001661  -143.20921579595236  17.606560671064713  120.000000
7.29232  0.000000  0.000000  0.000000  -22.067334422871877  4.868296807616195  -2.8881054799326664  56.369784096007784  18.29047414134086  7.554506697889053  -164.68056092798642  1.913641975452693  -144.69471665192756  17.655579080120965  120.000000
7.345940000000001  0.000000  0.000000  0.000000  -22.087785593862904  4.99493603079892  -2.199138000186781  56.522055852206364  17.85374664004294  7.362891441819238  -163.39708389299298  2.265074294239148  -145.60267829536542  17.697964410922566  120.000000
7.39956  0.000000  0.000000  0.000000  -22.124633971779556  5.09294019650623  -1.6124435879764973  56.68557647783207  17.418004708427958  7.181959196158465  -162.17297465667167  2.5197973442207835  -146.46039963841574  17.734743738485683  120.000000
7.45318  0.000000  0.000000  0.000000  -22.171847348997826  5.153001538855854  -1.141290158485409  56.86713978262586  16.979109518694266  7.008788642868774  -160.71832551830093  2.6596431066929282  -147.55769596165183  17.769473695292945  120.000000
7.5068  0.000000  0.000000  0.000000  -22.220816650426492  5.165215311854535  -0.801840738702522  57.070423480179564  16.532847794720684  6.841303242568472  -158.7388575067367  2.6675301293510536  -149.1858641177013  17.807776225689672  120.000000
7.560420000000001  0.000000  0.000000  0.000000  -22.26171713983919  5.119930927209836  -0.6117393649047107  57.29448302858308  16.075901656247147  6.678189999584784  -155.76500958116895  2.530189367046371  -151.81006275577948  17.855864980871917  120.000000
7.61404  0.000000  0.000000  0.000000  -22.285042524041067  5.00834303834011  -0.5879688737071774  57.53195698428582  15.606562240343713  6.519270074810092  -150.80483426000364  2.2435515989604435  -156.4185997728102  17.91803635301065  120.000000
7.66766  0.000000  0.000000  0.000000  -22.283403143300756  4.824741989191789  -0.7451080343714376  57.76841888271333  15.125507085700812  6.36545810914414  -141.4420911382803  1.8265903632413265  -165.42875672709394  17.993021218982715  120.000000
7.72128  0.000000  0.000000  0.000000  -22.253801254270872  4.567602470612338  -1.094292745414767  57.98156723411522  14.636703808947544  6.22040183440425  -121.14284277128473  1.3737553172940489  174.61635336119792  18.07126451215621  120.000000
7.774900000000001  0.000000  0.000000  0.000000  -22.194159292317295  4.241201983477889  -1.6422282625260658  58.14481525887441  14.148076119922944  6.0905436475802315  -80.86063643752816  1.2229619221573125  134.65290087401462  18.13544300888894  120.000000
7.82852  0.000000  0.000000  0.000000  -22.103169852028064  3.856657104270849  -2.387791172690249  58.2310103309253  13.670133912598066  5.985712397708986  -43.831160349694734  1.7704533286833306  97.89303125334655  18.16280544211382  120.000000
7.88214  0.000000  0.000000  0.000000  -21.97244313691221  3.430406582576053  -3.3238007629957838  58.216113414135705  13.219710741637948  5.922289174322502  -25.746157484063733  2.801447805631565  80.00510011060058  18.126338033310525  120.000000
7.93576  0.000000  0.000000  0.000000  -21.786370184313494  2.982511886703305  -4.4451191327045265  58.09060305797012  12.827162740410683  5.925092483671202  -16.37781381027566  4.082401097185259  70.73926809149124  17.994600703800298  120.000000
7.989380000000001  0.000000  0.000000  0.000000  -21.52892173470571  2.5294205638862315  -5.740669573916645  57.85530431154764  12.527508505720395  6.031020932386463  -10.359508172544901  5.537509580426323  64.7075588201563  17.732270360596438  120.000000
8.043  0.000000  0.000000  0.000000  -21.185128791845194  2.0830944724057807  -7.188740220665969  57.52913658798672  12.351041913983725  6.278521277251109  -5.749898862687893  7.158254754393798  59.943377392841676  17.30850500341599  120.000000
8.09662  0.000000  0.000000  0.000000  -20.753992469476476  1.6592085826513223  -8.767611720941474  57.16908094039057  12.322737610436253  6.6912390074006085  -1.7323665945142064  8.979281202000253  55.58674950499849  16.71062126736495  120.000000
8.15024  0.000000  0.000000  0.000000  -20.251909593776944  1.2757503516255209  -10.453156329734554  56.85553541976939  12.460436714887802  7.279442812563242  1.9218619355905873  11.071300918065843  51.351060761004376  15.96199521521057  120.000000
8.20386  0.000000  0.000000  0.000000  -19.728389177262546  0.9390543693825542  -12.206799096836237  56.66067162619161  12.775439739223106  8.052074569609488  5.138110765914144  13.53168237613636  47.24223604783358  15.117139640610347  120.000000
8.257480000000001  0.000000  0.000000  0.000000  -19.249497292473936  0.6499831832689241  -13.980397572051825  56.650637351451635  13.273729219107464  9.011805196336468  7.767767994849916  16.45918385224771  43.36020927225744  14.248945699681315  120.000000
8.3111  0.000000  0.000000  0.000000  -18.86174786501354  0.4138859714321798  -15.73644304997306  56.89600283189082  13.95183397504505  10.150945254777778  9.67516695721763  19.912977236221067  39.83802910030626  13.437680317238767  120.000000
8.36472  0.000000  0.000000  0.000000  -18.59069862725163  0.23250538967796525  -17.45969567524385  57.45091956049378  14.807912216910527  11.461605285468535  10.80226271559392  23.88496694142742  36.76146247949844  12.742820747374905  120.000000
8.41834  0.000000  0.000000  0.000000  -18.45180731433611  0.1087218733544485  -19.165847740459512  58.339707002549524  15.86589403086592  12.940103007547652  11.23296830923047  28.302280608711865  34.113224024260695  12.184376515802901  120.000000
8.47196  0.000000  0.000000  0.000000  -18.458160735515005  0.04750801106376046  -20.882285372114055  59.537321042277256  17.16391348567588  14.566140467343441  11.148578079019968  33.038218201888014  31.82124663281929  11.745008864894086  120.000000
8.52558  0.000000  0.000000  0.000000  -18.603338128914395  0.06045712304938195  -22.609270353802255  60.974533708589576  18.723050018346804  16.269638084764885  10.773537077505013  37.93034357393265  29.799317058708066  11.391147160293487  120.000000
8.5792  0.000000  0.000000  0.000000  -18.84741588484392  0.15226617158134628  -24.29294933140173  62.534563069229456  20.526720781004492  17.960981050077486  10.351089415819738  42.80575586564568  27.929420955242534  11.099123765261918  120.000000
8.63282  0.000000  0.000000  0.000000  -19.125487110265688  0.3103436186821658  -25.828190043354017  64.07020781543453  22.51806649432126  19.52743916881108  10.078835013135901  47.509541542439884  26.08729312261941  10.859376882217903  120.000000
8.686440000000001  0.000000  0.000000  0.000000  -19.366958237538594  0.5262855647886271  -27.09288223931247  65.45939302225108  24.614733835343547  20.816827988600338  10.059900677470722  51.920462359876225  24.169248990365038  10.663575032839098  120.000000
8.74006  0.000000  0.000000  0.000000  -19.527846437450304  0.7808142875387776  -27.974883257104324  66.60921326092186  26.72251772655701  21.71851809794628  10.30499127890981  55.95084555024239  22.110180800482013  10.507048906637651  120.000000
8.79368  0.000000  0.000000  0.000000  -19.611074655989835  1.0454131831490792  -28.397096028144194  67.46865594262682  28.73276070486077  22.203167925373457  10.759756795623705  59.56091701398117  19.886658258343882  10.386256730077738  120.000000
8.8473  0.000000  0.000000  0.000000  -19.65273179671586  1.2935452916505066  -28.337157028214968  68.03305400920524  30.534841939989278  22.30715312555747  11.330765241545997  62.749228273011205  17.51862181000313  10.29843025049671  120.000000
8.90092  0.000000  0.000000  0.000000  -19.692959922826574  1.5023155954308192  -27.83718956450029  68.3324998108885  32.043213369175724  22.117866970383208  11.92441874092113  65.53591635886812  15.056339725372737  10.244526532807688  120.000000
8.95454  0.000000  0.000000  0.000000  -19.752709914750675  1.6677529459735774  -26.991116625462137  68.42795772643106  33.21973361513109  21.74290395456899  12.469591820538657  67.95707926923058  12.566837233548986  10.225607042784876  120.000000
9.00816  0.000000  0.000000  0.000000  -19.834264892196796  1.8163739301986013  -25.92632843251739  68.38430444456864  34.08734654600281  21.30459099475324  12.915456707166452  70.04545301061607  10.131892746624667  10.239966035469488  120.000000
9.06178  0.000000  0.000000  0.000000  -19.937348096145428  1.9958787093120505  -24.783027739095054  68.25056994679215  34.71471759975419  20.924700057279605  13.233719517265543  71.8241163056142  7.837112814040153  10.276993076664125  120.000000
9.115400000000001  0.000000  0.000000  0.000000  -20.064088071108454  2.230868175360291  -23.659737899338438  68.06330681428754  35.16433935884662  20.66745292905705  13.42628087825359  73.32286143892654  5.763670674014243  10.320552806117622  120.000000
9.16902  0.000000  0.000000  0.000000  -20.216698012727896  2.50655328753378  -22.597152150402497  67.85580875714466  35.46644554976476  20.52091754476515  13.519756930239149  74.5853444217122  3.97839736077645  10.353570454575793  120.000000
9.22264  0.000000  0.000000  0.000000  -20.391283815372518  2.795822370069877  -21.61827974033313  67.6547774735143  35.643000747093815  20.44991131424497  13.54902028913256  75.64964359669936  2.5280878296041362  10.36334798816801  120.000000
9.27626  0.000000  0.000000  0.000000  -20.574889003652164  3.0709949926127726  -20.746565732567756  67.482715143343  35.71089476920687  20.417913423165064  13.547609930205832  76.53997790611932  1.433209014910172  10.346405422857803  120.000000
9.32988  0.000000  0.000000  0.000000  -20.74790060875781  3.3054816768883026  -20.009411679836  67.35885528042355  35.6767035645205  20.391789370385073  13.54370977267402  77.26440776502932  0.6894024092817891  10.310457608362876  120.000000
9.3835  0.000000  0.000000  0.000000  -20.886857139288196  3.4812770411993426  -19.442142655079834  67.29763590363777  35.54652475284418  20.35347014540417  13.559974573850226  77.81138892318434  0.27559488640964935  10.269083060414792  120.000000
9.43712  0.000000  0.000000  0.000000  -20.969803769616313  3.5887727326696504  -19.08106452037695  67.30850901010797  35.328596025706304  20.298041679994167  13.615300868186807  78.15388918199857  0.16707832392018124  10.234344223190924  120.000000
9.49074  0.000000  0.000000  0.000000  -20.98411760896538  3.623605264007624  -18.95618497276644  67.39122234369567  35.03174500396726  20.231318632450915  13.724543906470533  78.25207887273858  0.34686214841798235  10.209070707581517  120.000000
9.544360000000001  0.000000  0.000000  0.000000  -20.929412729825092  3.5851519069077873  -19.08709857333698  67.53349091554618  34.66378635733512  20.166305661671284  13.896837348977844  78.05607413064617  0.8108128053356328  10.183634223199908  120.000000
9.59798  0.000000  0.000000  0.000000  -20.815567050633526  3.4754755983302466  -19.48007941922337  67.71131437041271  34.229843287168364  20.120969573664684  14.134149668803083  77.50772977760869  1.5652567567595321  10.140690200480256  120.000000
9.6516  0.000000  0.000000  0.000000  -20.656105060071575  3.2979464410367947  -20.12632901087837  67.89125943107935  33.73150494986419  20.115595373233614  14.428926756658711  76.54312017600449  2.6186589973016847  10.065471730740107  120.000000
9.70522  0.000000  0.000000  0.000000  -20.46152525510881  3.057653264596976  -20.999321591591023  68.03202730652384  33.16811493645806  20.16860698934175  14.7626378198159  75.09709666858393  3.972943706449646  9.958376494031128  120.000000
9.75884  0.000000  0.000000  0.000000  -20.240460112226113  2.76325027227855  -22.055013730261393  68.07994149661504  32.53910931582968  20.289684236241314  15.100250484913996  73.10853039434967  5.617264544539094  9.839740028166883  120.000000
9.81246  0.000000  0.000000  0.000000  -20.007376232026683  2.427827213305211  -23.234537645351942  67.96404997083694  31.84547659777336  20.47268846248613  15.392313597862923  70.52714232001927  7.529040196593788  9.745291106583023  120.000000
9.86608  0.000000  0.000000  0.000000  -19.783400190892102  2.068294788549736  -24.466102121950975  67.60650058079264  31.101447520737498  20.68894245158262  15.590021121231109  67.32411252000924  9.677552660995374  9.717484315608854  120.000000
9.9197  0.000000  0.000000  0.000000  -19.590560214489567  1.7047529539129318  -25.66639525079708  66.94594226664668  30.345362418068717  20.884942206262334  15.66025536945991  63.50358165000028  12.032664343279656  9.7989444145207  120.000000
9.973320000000001  0.000000  0.000000  0.000000  -19.437793746433282  1.3590735009873356  -26.749180935943794  65.96231426854462  29.63986148776575  20.992405254159113  15.599236962873816  59.10702748549416  14.570559316184172  10.031010917880272  120.000000
10.02694  0.000000  0.000000  0.000000  -19.313106775662465  1.0472236836547713  -27.63273012553981  64.6856279401842  29.049467821548326  20.946771818632012  15.427696620052162  54.21156122889832  17.278587007251033  10.450739006109597  120.000000
10.08056  0.000000  0.000000  0.000000  -19.204638776307768  0.7831247386757142  -28.25554812163984  63.17479487730363  28.612861011022247  20.70595136090454  15.167792998296195  48.918430668689275  20.153429860673032  11.085526834920497  120.000000
10.13418  0.000000  0.000000  0.000000  -19.10667913459962  0.5769210643030477  -28.589088411479633  61.496595900614736  28.339413189036218  20.27709441306323  14.834625119354502  43.344757965361474  23.180503091463176  11.936840583632318  120.000000
10.1878  0.000000  0.000000  0.000000  -19.015857162589388  0.4535595186535947  -28.60618373528864  59.7485014802275  28.21976312364874  19.693556744990154  14.450017640056329  37.607268646116474  26.305305034623117  12.975573282688162  120.000000
10.24142  0.000000  0.000000  0.000000  -18.940784845931425  0.4419926385901354  -28.22945870775814  58.048611285214314  28.221955885457447  18.998165797486028  14.032546177248971  31.793753279097658  29.43694618263251  14.136281198962381  120.000000
10.29504  0.000000  0.000000  0.000000  -18.898669643842553  0.5899215157740814  -27.356268152235256  56.52598684780763  28.308887208402425  18.22535230158574  13.628114483741047  25.975298705255224  32.44375576088196  15.332821152050187  120.000000
10.34866  0.000000  0.000000  0.000000  -18.90944736832942  0.9468384436936713  -25.9129560342787  55.28666551853492  28.448811622151982  17.41490912237193  13.296109795317276  20.221568412514852  35.19023247935823  16.46624196730534  120.000000
10.402280000000001  0.000000  0.000000  0.000000  -19.011120522435178  1.5302121278654914  -23.861076388756754  54.36951935514332  28.601075273576146  16.632980265419285  13.01363976116945  14.580528933756824  37.63921473096014  17.43890643343972  120.000000
10.4559  0.000000  0.000000  0.000000  -19.253007572522627  2.3282144972387178  -21.210656742698394  53.787445628126484  28.724938781890103  15.924176214320484  12.47040092076911  9.090793897468828  40.051485963459065  18.16052412207928  120.000000
10.50952  0.000000  0.000000  0.000000  -19.713425038549296  3.270905848005596  -18.003911492982972  53.4988997940976  28.773342322662668  15.336470768796442  9.239973495932201  3.791349545402385  44.795973358094656  18.539423399986926  120.000000
10.56314  0.000000  0.000000  0.000000  -20.4494011362894  4.2642489215752235  -14.320220998615634  53.454031766690036  28.71910081731888  14.88296145129669  -144.17650955223155  1.439285757149783  -160.6634829696025  18.504716600300366  120.000000
10.61676  0.000000  0.000000  0.000000  -21.517397181468795  5.20514967364678  -10.27373409897221  53.57303855464909  28.53005175883375  14.559241430985484  -157.71551352147452  6.333948088829251  -146.41521188389396  18.028609048854356  120.000000
10.67038  0.000000  0.000000  0.000000  -22.87240844418312  5.9913066526466645  -5.984823803611397  53.77699987066776  28.197399390791887  14.349557923489003  -158.88768975960272  11.176179598335846  -144.93082684781575  17.18495504928347  120.000000
10.724  0.000000  0.000000  0.000000  -24.419215895451522  6.557816291707482  -1.5796772763482747  54.01772681655492  27.73282082671029  14.23218734205877  -159.66220816937246  16.011253633605268  -144.179374006666  16.16565385131964  120.000000
