Simulation
nRows=201
nColumns=15
endheader
time  TH_x TH_y TH_z SC_y  SC_z  SC_x  AC_y  AC_z  AC_x  GH_y  GH_z  GH_yy  EL_x  PS_y
0.0  0.000000  0.000000  0.000000  -21.481837363305974  5.049547332879065  0.3347068766571287  51.940148892749065  6.135082674386932  0.38266516990969746  -178.82095545868785  1.1213741582217618  -138.50217874822897  20.95805330108382  120.000000
0.05362  0.000000  0.000000  0.000000  -20.216041450809197  4.794441718164287  -1.1341469521921073  51.260108447816606  6.196169222508472  0.6182049823479026  -11.472981174053853  2.236112672622011  52.64122115242999  20.2786973372214  120.000000
0.10724  0.000000  0.000000  0.000000  -19.08025863081767  4.53972558703313  -2.559454066556847  50.5510081575654  6.171271430243395  0.8429367214622884  -8.953977572679666  5.509224516023819  48.48941650280127  19.58572009209914  120.000000
0.16086  0.000000  0.000000  0.000000  -18.148004215643738  4.322459803181436  -3.9426186500795457  49.82460047321928  6.103966303458261  1.072288849602375  -8.131195253274793  8.702729675399839  45.769344930274194  18.85504272050322  120.000000
0.21448  0.000000  0.000000  0.000000  -17.466959667944405  4.155772810444078  -5.264270451093475  49.11714645533232  6.052329492544576  1.3265959432228454  -7.630548928231543  11.80920509915362  43.00687148018633  18.08322998300495  120.000000
0.2681  0.000000  0.000000  0.000000  -17.06249640353668  4.050982703481044  -6.492957242185429  48.470852293185956  6.087386255238623  1.6168892725433062  -7.396977301600195  14.846625140786394  40.11765788288978  17.276466069003487  120.000000
0.32172  0.000000  0.000000  0.000000  -16.94612837655855  4.025858030236849  -7.596058969365889  47.91111800281801  6.271285146242032  1.9492639611119094  -7.494641356266693  17.8422150044161  37.201436769999475  16.447243655158008  120.000000
0.37534  0.000000  0.000000  0.000000  -17.123752034902587  4.098861208311507  -8.543505767442971  47.44309222707754  6.64136241673322  2.322124654060398  -7.954893222711526  20.82001849746663  34.37724146734319  15.610595740783193  120.000000
0.42896  0.000000  0.000000  0.000000  -17.600712001156204  4.2905928558387005  -9.30881551577912  47.055198726234615  7.205288081978528  2.7282335357948395  -8.745766565063116  23.792024535308737  31.73718067202958  14.78597111354756  120.000000
0.48258  0.000000  0.000000  0.000000  -18.3765136595968  4.61534239931089  -9.863742224052343  46.73198727186919  7.941637340703534  3.1542382747796816  -9.791902697537004  26.75670322245872  29.35087909681459  13.992628238602498  120.000000
0.5362  0.000000  0.000000  0.000000  -19.443504435982426  5.07702354978493  -10.181275521084098  46.4632592853354  8.809289387306471  3.589832222907907  -10.985447539579  29.700749504645614  27.256837958815236  13.247208964105436  120.000000
0.58982  0.000000  0.000000  0.000000  -20.783845099702685  5.6658366665481275  -10.235478410582976  46.253200975480226  9.75478660798421  4.027894924676389  -12.206402308340595  32.60590164003342  25.46419313353961  12.560668298783517  120.000000
0.64344  0.000000  0.000000  0.000000  -22.37005875837964  6.361522293935627  -10.000105327954628  46.121507003295925  10.716062017140624  4.460122701075772  -13.337075897595291  35.45410436293666  23.94822755931312  11.939056754079957  120.000000
0.69706  0.000000  0.000000  0.000000  -24.163732050115897  7.134184649116946  -9.461796739413984  46.09638317488896  11.638142795842453  4.881319276775293  -14.28225840391878  38.2289342984897  22.656822004529776  11.380379886447674  120.000000
0.75068  0.000000  0.000000  0.000000  -26.116671116947042  7.948659711123177  -8.626383001681589  46.20445669813693  12.481307158149889  5.289251002421332  -14.974871880588708  40.91577906078583  21.510074584270015  10.872592501154566  120.000000
0.8043  0.000000  0.000000  0.000000  -28.170754300989305  8.767974224602053  -7.510386670536339  46.46069370922628  13.218479895561154  5.676701358913805  -15.381686982266332  43.50115047823694  20.41289338422746  10.392264928500328  120.000000
0.85792  0.000000  0.000000  0.000000  -30.25786288844478  9.560297804476274  -6.145343811468939  46.860411906105014  13.83691017064654  6.033999295546719  -15.496730888050807  45.97028452162261  19.26844787258238  9.91126981815981  120.000000
0.91154  0.000000  0.000000  0.000000  -32.30245241240865  10.301046854027767  -4.577067116425625  47.374211839665605  14.33543430049928  6.354641138162071  -15.339263811134273  48.30765764150959  18.003891425821088  9.40819878241889  120.000000
0.96516  0.000000  0.000000  0.000000  -34.228252412317225  10.97670375369342  -2.8702829399679803  47.948857805529016  14.720851100960171  6.634959315806669  -14.95928974848775  50.50032005426048  16.596258342350342  8.878795090250506  120.000000
1.01878  0.000000  0.000000  0.000000  -35.970241750949164  11.585587592466052  -1.108254835983315  48.5146618005217  15.007255103127427  6.878859436478224  -14.431317947499018  52.54270584817386  15.075722149566694  8.34042580192488  120.000000
1.0724  0.000000  0.000000  0.000000  -37.48633246264155  12.136101490571539  0.6255733447959863  49.006722459946616  15.205280253674173  7.089224613061725  -13.837310694272826  54.43500271315571  13.51052599393966  7.8260563190215215  120.000000
1.12602  0.000000  0.000000  0.000000  -38.76288274772231  12.637449522794853  2.2631450854766197  49.38272349751433  15.315717715775694  7.262586015269243  -13.253127392016513  56.1776295611259  11.98937907472845  7.3727538064010965  120.000000
1.17964  0.000000  0.000000  0.000000  -39.81011548915618  13.096666611022014  3.751824827943782  49.631879649399046  15.335998269828087  7.393317562527806  -12.736866063962033  57.762991112199835  10.60107997265562  7.01213219047978  120.000000
1.23326  0.000000  0.000000  0.000000  -40.65202218081273  13.515498619143269  5.055946559976484  49.772111960919275  15.263731743581376  7.476039301101998  -12.322288372021495  59.176087596440226  9.42036230885629  6.76675917444813  120.000000
1.28688  0.000000  0.000000  0.000000  -41.318116883615176  13.891064392407348  6.157252887226575  49.837139964330845  15.101086133607973  7.506243156715158  -12.024032700444423  60.39545139333475  8.500676573349226  6.648277808490637  120.000000
1.3405  0.000000  0.000000  0.000000  -41.83826323960554  14.218557129492169  7.052517691112122  49.863072902928465  14.858576927317445  7.481633241487923  -11.843487204639215  61.402044435448126  7.870227998051311  6.655513119048221  120.000000
1.39412  0.000000  0.000000  0.000000  -42.23826931752728  14.492896404098207  7.756735010879907  49.87589262913218  14.557906341156327  7.407125208951184  -11.772876873219857  62.18865115581845  7.526017063620905  6.768420658559739  120.000000
1.44774  0.000000  0.000000  0.000000  -42.53757907848187  14.71001420302849  8.299384272641007  49.88845069209676  14.231709092624055  7.2929363350005  -11.798908612301128  62.76504786776828  7.433849674649298  6.944035976330603  120.000000
1.50136  0.000000  0.000000  0.000000  -42.75000605137935  14.8655218370919  8.71853626665762  49.902895448450174  13.917426472131021  7.151128409080231  -11.90517294390528  63.15618215464544  7.535883637937255  7.123389005410194  120.000000
1.55498  0.000000  0.000000  0.000000  -42.88326102882652  14.955563779259261  9.051063035127711  49.916287863183285  13.648751041329108  6.990491904355505  -12.072817975261051  63.39428667924994  7.765309893347405  7.247535428690731  120.000000
1.6086  0.000000  0.000000  0.000000  -42.938962170041854  14.977142053764307  9.323255705398697  49.925362210245254  13.445378646275607  6.813708906965675  -12.279188076139574  63.509074705859945  8.060918589344427  7.278569410970496  120.000000
1.66222  0.000000  0.000000  0.000000  -42.90956547256207  14.928891690901562  9.544521881204256  49.92916566390198  13.307835216366472  6.616756643845771  -12.498951639070915  63.514775710605484  8.377172959949334  7.2124425492704916  120.000000
1.71584  0.000000  0.000000  0.000000  -42.77709434889525  14.81097699159991  9.707574585565016  49.93011340346622  13.218182381144349  6.3912862269328095  -12.70611774397975  63.39922892738444  8.683540460070516  7.078117293224583  120.000000
1.76946  0.000000  0.000000  0.000000  -42.51387722607698  14.625532522693808  9.792383545671024  49.935202721119765  13.145115751730478  6.127386400836669  -12.878068641199084  63.11621717658701  8.95644584797049  6.924717148080047  120.000000
1.82308  0.000000  0.000000  0.000000  -42.09001847240035  14.37627897109517  9.772856141107571  49.955635427818244  13.049962569356518  5.818899057208544  -12.997978354371094  62.5842131878351  9.169695952234532  6.811170969326329  120.000000
1.8767  0.000000  0.000000  0.000000  -41.484204340920314  14.069588529381985  9.620811932632279  50.00661287770226  12.892326788862073  5.466052122788957  -13.05554690736664  61.6933540105459  9.291767386343764  6.799702421022802  120.000000
1.93032  0.000000  0.000000  0.000000  -40.69423561116083  13.713410870459192  9.311281592178188  50.10056617032162  12.636145487978833  5.080072874113949  -13.04374176323758  60.32308336316167  9.29354177442657  6.950754268598695  120.000000
1.98394  0.000000  0.000000  0.000000  -39.737850122810606  13.317841755512058  8.824137420263806  50.2389614507105  12.255641605757907  4.6782863816186335  -12.954950049072979  58.36413900936812  9.169121493750318  7.310404249068195  120.000000
2.03756  0.000000  0.000000  0.000000  -38.6393783589222  12.89371897061368  8.147208517425934  50.401309328841116  11.740855769628828  4.28158601520244  -12.77392165701567  55.74301355982925  8.960572446165195  7.88875647611948  120.000000
2.09118  0.000000  0.000000  0.000000  -37.413954131978684  12.45178595358321  7.276334522918063  50.54164788773445  11.105099614748157  3.911898672112259  -12.472817676699108  52.44436992870963  8.77588109379677  8.636540363097348  120.000000
2.1448  0.000000  0.000000  0.000000  -36.06287757045109  12.00289056020777  6.216788148857511  50.59777089891388  10.38845206750397  3.588189082918454  -12.018409689537163  48.52131662954366  8.787181772694321  9.441622652940298  120.000000
2.19842  0.000000  0.000000  0.000000  -34.584060187238556  11.556295526376259  4.992471430179416  50.51309660073562  9.649445319241124  3.319449485267629  -11.385936058398988  44.089197455713254  9.204232502249218  10.161077624388081  120.000000
2.25204  0.000000  0.000000  0.000000  -32.98293441786883  11.119431256176629  3.6544774848317987  50.261478774101235  8.949999797119082  3.1013848649658837  -10.5668689357918  39.30439763631127  10.226045527468557  10.680948186010186  120.000000
2.30566  0.000000  0.000000  0.000000  -31.28897488900972  10.69376701150406  2.2782211736275264  49.858201371128644  8.342798754706218  2.9242644858720968  -9.575320443112595  34.34002336607797  11.995930309044436  10.979542172630891  120.000000
2.35928  0.000000  0.000000  0.000000  -29.562402510406788  10.276839810471293  0.9398938944949881  49.35532194715697  7.862899486770867  2.775673844738408  -8.46997054721482  29.365710439400843  14.589759873795545  11.149371662173763  120.000000
2.4129  0.000000  0.000000  0.000000  -27.88433983914632  9.862974567059624  -0.301260603186715  48.8255135884645  7.535486906280272  2.6531690885153503  -7.358037447532043  24.542532741565363  18.009972976061995  11.358713734535815  120.000000
2.46652  0.000000  0.000000  0.000000  -26.33865814629442  9.446578648089078  -1.3914075688623235  48.349977949494026  7.3768021111759206  2.5644857596690427  -6.368370527866285  20.019553500233  22.171794675707893  11.776765925792835  120.000000
2.52014  0.000000  0.000000  0.000000  -24.999391406330062  9.028204440496319  -2.2728907500355526  48.00703390581702  7.388776793531669  2.5138518193032415  -5.581426927911221  15.916979237601293  26.856676847285442  12.497077526099808  120.000000
2.57376  0.000000  0.000000  0.000000  -23.92896424317719  8.61255503343555  -2.9018500013333637  47.85220632059778  7.565931652038218  2.50290878454333  -4.917225166583958  12.304559027493278  31.633491471993732  13.498854431137648  120.000000
2.62738  0.000000  0.000000  0.000000  -23.179278646869996  8.207707683606962  -3.2689495374349664  47.904786425268654  7.896226590726618  2.5267065754104383  -3.9789771697132013  9.194224592892699  35.74941992616138  14.668685499827193  120.000000
2.681  0.000000  0.000000  0.000000  -22.782253654427652  7.822908860348398  -3.3972997457165093  48.14490175576263  8.355327747365536  2.57078567683848  -1.8217145598443927  6.5603281242990805  37.95669975286075  15.857794514993921  120.000000
2.73462  0.000000  0.000000  0.000000  -22.730579230712486  7.464913011562483  -3.329845723786282  48.52338389428916  8.906938281134352  2.616494398027002  3.575932251585664  4.385178708500023  36.03740274856287  16.933082208681185  120.000000
2.78824  0.000000  0.000000  0.000000  -22.96425104468847  7.13711712919066  -3.120568147321529  48.983121199947945  9.513705165439148  2.649401260515459  16.82819419910164  2.720661055424747  25.31688851639968  17.80511025224385  120.000000
2.84186  0.000000  0.000000  0.000000  -23.378395288308408  6.838805893069085  -2.8219974793376505  49.47807969671865  10.140688900443903  2.662254623106108  46.0268472905248  1.769263276226065  -2.229597014056607  18.4297267725722  120.000000
2.89548  0.000000  0.000000  0.000000  -23.849298529416277  6.562820766079565  -2.481090809804402  49.982073746965696  10.752432898249332  2.6561827829973925  81.85152892095986  1.6804821715249074  -37.129773423152244  18.79983504240677  120.000000
2.9491  0.000000  0.000000  0.000000  -24.2650197939723  6.298623884316982  -2.1401842460767386  50.48514178530512  11.31307367493263  2.6400057218509834  101.62814245120639  1.9510059426706794  -56.53123876818318  18.938471810479047  120.000000
3.00272  0.000000  0.000000  0.000000  -24.553864705518556  6.038752054351437  -1.8344122919289294  50.982503813255406  11.797326423852653  2.625483991132921  109.45492635817983  2.124792292881703  -64.37434692211498  18.89205004034472  120.000000
3.05634  0.000000  0.000000  0.000000  -24.688201157653268  5.783433850445588  -1.5976912443835798  51.467279805156174  12.201127214734408  2.627819384091222  111.08638451725113  2.102432816045919  -66.28575355201238  18.722234304031968  120.000000
3.10996  0.000000  0.000000  0.000000  -24.676035323673744  5.537407305019495  -1.4535702343681463  51.929408858840574  12.5295190866615  2.6587241551961323  108.06469916046241  1.9205194770735794  -63.70539191435535  18.493650404682676  120.000000
3.16358  0.000000  0.000000  0.000000  -24.543298686922604  5.30472595727789  -1.4055446428428684  52.36135691176185  12.782694125987105  2.721583699226124  99.76549280020286  1.6702441108619945  -55.92588175108898  18.260671025042434  120.000000
3.2172  0.000000  0.000000  0.000000  -24.32201182727047  5.0888287799499645  -1.4444910389723493  52.75938198483788  12.958148426721618  2.815791528519493  85.12950154036584  1.4777808560479082  -41.82385789145638  18.056564912247516  120.000000
3.27082  0.000000  0.000000  0.000000  -24.04820615433564  4.8951320385930694  -1.555319792104353  53.118528178397675  13.057026463840199  2.9365804422754516  66.30413382026967  1.4651518822157623  -23.503098737112605  17.887935966474544  120.000000
3.32444  0.000000  0.000000  0.000000  -23.755688648709402  4.729562979243326  -1.7257423514879298  53.433448526352315  13.087500654751594  3.0790298599263535  49.690952988850555  1.6695867851430732  -7.339397833110132  17.743287635486666  120.000000
3.37806  0.000000  0.000000  0.000000  -23.46906073921935  4.594882499022736  -1.9487382115355187  53.70218555080255  13.060601340054133  3.2397184829925743  38.857691389630794  2.0348064804888835  3.1112798431232593  17.60777333475839  120.000000
3.43168  0.000000  0.000000  0.000000  -23.20145769500672  4.490649360695088  -2.2209690963396644  53.92515153667006  12.987718246560936  3.414035054301079  32.84212351562689  2.4965802170252656  8.812620697082076  17.473043223818845  120.000000
3.4853  0.000000  0.000000  0.000000  -22.956896494239707  4.413365985061539  -2.5414219700471787  54.10112812999309  12.87855925453867  3.5968745274049563  29.75811087507393  3.0210424743513693  11.64668813107117  17.338978569418895  120.000000
3.53892  0.000000  0.000000  0.000000  -22.73141526747522  4.356389789919955  -2.910576522315767  54.224838875516795  12.738240356227458  3.7850352382414707  28.21757534400345  3.5951984153846506  12.997029906988661  17.21150868071889  120.000000
3.59254  0.000000  0.000000  0.000000  -22.513991980838963  4.30932605131495  -3.3303508116268334  54.28825254055204  12.566685436701244  3.97842247453952  27.33934934028886  4.215336678416678  13.741483103231934  17.095599996281106  120.000000
3.64616  0.000000  0.000000  0.000000  -22.286919529441985  4.261488682165614  -3.804132582524291  54.286161693639464  12.361433381778015  4.177820161461003  26.59740067630666  4.88315566438608  14.404347516287554  16.989126330251384  120.000000
3.69978  0.000000  0.000000  0.000000  -22.027480026930434  4.2057992780676745  -4.3371204784017205  54.22110962196157  12.12157324555839  4.383152863214447  25.698056293701587  5.607084959469541  15.277080614738585  16.87954511085864  120.000000
3.7534  0.000000  0.000000  0.000000  -21.712899503247623  4.139867142298578  -4.9337765231487625  54.10232358011043  11.850525043091903  4.59275775858321  24.488250249602633  6.404970322354869  16.50418411112462  16.74511084385747  120.000000
3.80702  0.000000  0.000000  0.000000  -21.330636886543314  4.06292159756201  -5.592166047274938  53.93772115654266  11.557742477059081  4.806089080938564  22.89613705289174  7.306935608113978  18.134571815028004  16.5575060505743  120.000000
3.86064  0.000000  0.000000  0.000000  -20.884235075259376  3.974326205780064  -6.304210075085705  53.73335629309553  11.256119473690635  5.025791854992024  20.953636457385105  8.356028532382686  20.09465185359504  16.28868451370227  120.000000
3.91426  0.000000  0.000000  0.000000  -20.389984010579273  3.870538956171939  -7.062575873191665  53.49800755901231  10.954222794119314  5.258045565044825  18.7772667824819  9.601573885260242  22.20462459628144  15.918333148491595  120.000000
3.96788  0.000000  0.000000  0.000000  -19.868656116679016  3.746462961038473  -7.864648168065429  53.24732707303654  10.65557248685324  5.51167130925313  16.494371233615897  11.093252736451834  24.250183441319525  15.436798155199247  120.000000
4.0215  0.000000  0.000000  0.000000  -19.339427090559425  3.6004329718915145  -8.71116780947995  53.00698129535592  10.368168150600855  5.7991215850672075  14.183121765321513  12.883505360598386  26.05013676045675  14.84725452998269  120.000000
4.07512  0.000000  0.000000  0.000000  -18.815898912835817  3.433482013567613  -9.599524763312536  52.806824089825696  10.110356196340138  6.1366764030130225  11.861946368819254  15.028790514066491  27.49264957881479  14.171155686700327  120.000000
4.1287400000000005  0.000000  0.000000  0.000000  -18.31006148617039  3.2482994789775335  -10.518182436434731  52.67375157958835  9.90847399508856  6.539059332096654  9.528806673205175  17.583340139640107  28.52868524883049  13.456694288184073  120.000000
4.18236  0.000000  0.000000  0.000000  -17.836257278365462  3.0529803624543126  -11.447836380553563  52.62849403782902  9.792183288286292  7.011232872104213  7.201414453619777  20.586693855948912  29.14191294528857  12.776161644870427  120.000000
4.23598  0.000000  0.000000  0.000000  -17.418314380488322  2.8595771452840077  -12.362010379058784  52.6801122659106  9.791763826990795  7.5449391018152525  4.936664598744918  24.05075238726738  29.32010559172869  12.205043005880697  120.000000
4.2896  0.000000  0.000000  0.000000  -17.09418472414666  2.6838984565924515  -13.229288473058133  52.82341585509104  9.934943868133201  8.120460214479111  2.8290062107519742  27.946876353308745  29.042827784494996  11.794668294192894  120.000000
4.3432200000000005  0.000000  0.000000  0.000000  -16.91557248122608  2.542780518577219  -14.0236421781302  53.04521564030288  10.24839989250454  8.710598803975712  0.9979022410412771  32.19998631386082  28.279082857183845  11.549838345811624  120.000000
4.39684  0.000000  0.000000  0.000000  -16.943133191472754  2.4458434622565823  -14.737660897173694  53.322869435049746  10.762934803921624  9.296741391558571  -0.4393739702495294  36.69175505287125  27.004084515099628  11.428073808717867  120.000000
4.45046  0.000000  0.000000  0.000000  -17.235384927646543  2.3980625108211537  -15.371356944509932  53.628158534609724  11.501605632899716  9.861498835749398  -1.3966212418874884  41.27925755827145  25.21966693052591  11.3601817166707  120.000000
4.50408  0.000000  0.000000  0.000000  -17.838350075100536  2.4052746547597685  -15.915242169450964  53.923799683021265  12.46211031530208  10.381724419938056  -1.8441403925819317  45.818857435989  22.972946965462548  11.278531795327247  120.000000
4.5577000000000005  0.000000  0.000000  0.000000  -18.769502986322664  2.4771105713257175  -16.351930036016526  54.166142644571366  13.608563135450384  10.829306014655602  -1.8062771430931301  50.18472033189266  20.354678864119887  11.14218107479338  120.000000
4.61132  0.000000  0.000000  0.000000  -19.99791153434672  2.6225308110547  -16.651416787948836  54.324005259243364  14.872851861982314  11.178458622373265  -1.3308072803777902  54.281135125557256  17.473880002777605  10.950732472748498  120.000000
4.66494  0.000000  0.000000  0.000000  -21.441157145538135  2.841004667480407  -16.767869796732217  54.38210509506696  16.16971466850433  11.428940009887173  -0.47846806698364375  58.04692433266589  14.447144659731755  10.738353091847936  120.000000
4.71856  0.000000  0.000000  0.000000  -23.002067854270823  3.1395223934170007  -16.65757249138651  54.33733253647942  17.407591153830438  11.583256810636257  0.6613077096321873  61.4531713356586  11.39123807593352  10.547503904045861  120.000000
4.7721800000000005  0.000000  0.000000  0.000000  -24.60257022252878  3.534052113505777  -16.28926998845976  54.185982995202565  18.49981733522239  11.638554627466878  1.9768352929040198  64.49357164550717  8.40250658488485  10.411319465321645  120.000000
4.8258  0.000000  0.000000  0.000000  -26.185180236430156  4.032079292267322  -15.641490345657703  53.92580719214542  19.381405777937516  11.598722077784469  3.3579775565350216  67.17589336555824  5.540926762434689  10.349949329565348  120.000000
4.87942  0.000000  0.000000  0.000000  -27.709925020456442  4.6311242304743  -14.707512971895396  53.5690551737939  20.017478686141086  11.468330168543293  4.711150473915869  69.5164296077803  2.832480280126422  10.374684220512165  120.000000
4.93304  0.000000  0.000000  0.000000  -29.15253669216453  5.314080540135778  -13.49918432262685  53.142457205330984  20.403711151101238  11.253340762630108  5.963587567119566  71.53558941339578  0.2819755184386694  10.492121212893196  120.000000
4.9866600000000005  0.000000  0.000000  0.000000  -30.498747501001407  6.049645267413413  -12.05028010039094  52.6845564713449  20.56152591580898  10.961165485018574  7.0632698851376405  73.25422419626445  -2.1150558437147486  10.704912992792824  120.000000
5.04028  0.000000  0.000000  0.000000  -31.73829645866921  6.794954428420351  -10.415063746146869  52.23981313027269  20.5296441505585  10.602510688744339  7.976749596540722  74.69274939058883  -4.362330080969405  11.011994052201755  120.000000
5.0939  0.000000  0.000000  0.000000  -32.857387571728815  7.501853534411506  -8.662048687303255  51.85162983898748  20.353260014712596  10.189941694675285  8.68630651629358  75.87168714601428  -6.454630346504558  11.406772838008923  120.000000
5.14752  0.000000  0.000000  0.000000  -33.8344258324843  8.124055982023433  -6.866585227578838  51.55624368856738  20.07554925174774  9.735351318020692  9.188746498067974  76.81349159022862  -8.368436530656103  11.874052651898708  120.000000
5.2011400000000005  0.000000  0.000000  0.000000  -34.64063044158786  8.624004887179954  -5.105325184497304  51.376784586711516  19.731209914563618  9.248638118138516  9.494387058068826  77.54310628809542  -10.054165429490533  12.382148338735972  120.000000
5.25476  0.000000  0.000000  0.000000  -35.2456740488404  8.977196994295065  -3.4530814924132556  51.32031823440421  19.342331809980852  8.73653086492114  9.625255835422696  78.08652343610098  -11.434397771289888  12.877107425263493  120.000000
5.30838  0.000000  0.000000  0.000000  -35.62213783039593  9.17328285715542  -1.98044926577819  51.380757645169204  18.916888289180413  8.202990258105574  9.611179152019025  78.46638234800074  -12.416498228120389  13.287238774666196  120.000000
5.362  0.000000  0.000000  0.000000  -35.748568826008835  9.21323192745679  -0.7518906223300678  51.546436266354185  18.449987229989517  7.651433214514036  9.483352080260225  78.69525584288242  -12.917879024883321  13.54251998121329  120.000000
5.4156200000000005  0.000000  0.000000  0.000000  -35.60950366798444  9.104938778400161  0.17578625094358213  51.80820261369481  17.927155456872356  7.089143800519223  9.265588246159446  78.76699258014058  -12.895896204856474  13.600909098949389  120.000000
5.46924  0.000000  0.000000  0.000000  -35.19568655519888  8.858173144558283  0.7552282427662488  52.16246364000852  17.329139080773366  6.532890259512458  8.966615022677825  78.65111696605169  -12.36659732547818  13.47092784889488  120.000000
5.52286  0.000000  0.000000  0.000000  -34.50538025978943  8.482880881299456  0.9513766902724542  52.60653656471606  16.63964773195152  6.013145887203525  8.57531374198502  78.29444046910183  -11.402014417247987  13.210257657212145  120.000000
5.57648  0.000000  0.000000  0.000000  -33.54652992195316  7.9886918943315335  0.7441329617991287  53.13034972330985  15.854889857492507  5.5735058498265335  8.063286216154255  77.62923523250709  -10.102742589982514  12.901482124729919  120.000000
5.6301000000000005  0.000000  0.000000  0.000000  -32.33722382297548  7.388405713002438  0.1290759611241924  53.70730980951073  14.989638773069293  5.268907811327783  7.395535927456814  76.58301666364713  -8.564032472002744  12.622825570161671  120.000000
5.68372  0.000000  0.000000  0.000000  -30.905881239252466  6.7003424999932975  -0.8803968548577518  54.29453227275301  14.083684229151041  5.156226537600538  6.541757132196464  75.09458784270296  -6.857799735026415  12.422597892967161  120.000000
5.73734  0.000000  0.000000  0.000000  -29.29062951866866  5.950332602258269  -2.2500125014909202  54.84446035835721  13.202799587748004  5.277804396552973  5.487105165040081  73.12860508794316  -5.025464226867492  12.308320077924026  120.000000
5.79096  0.000000  0.000000  0.000000  -27.53874950524552  5.16990286133776  -3.922069951930243  55.317746562586926  12.423811822017388  5.650228509727031  4.2450332278877925  70.67915571429796  -3.07861675578438  12.260214910257144  120.000000
5.8445800000000006  0.000000  0.000000  0.000000  -25.710542318389734  4.392747789141525  -5.81626161141984  55.69336228407353  11.813405274034432  6.25643530237447  2.864710488671069  67.76479054058929  -1.0145691971079025  12.249057150192273  120.000000
5.8982  0.000000  0.000000  0.000000  -23.883463089332786  3.6514067266360395  -7.835508644217605  55.9671633358528  11.41536947978014  7.04650035212728  1.4297921052602451  64.42111905776747  1.1694568657154403  12.248020510235511  120.000000
5.95182  0.000000  0.000000  0.000000  -22.148998414316463  2.9771360716972888  -9.877148404877158  56.14464109838481  11.248219746686674  7.947465449820428  0.05281148390661106  60.69535285604536  3.4681762365378073  12.238770878203722  120.000000
6.00544  0.000000  0.000000  0.000000  -20.60466870334635  2.3955156845441405  -11.841698461609047  56.2258355902005  11.3113943512007  8.88095558774686  -1.1426151280492838  56.64390240719247  5.867332220078077  12.210166459087198  120.000000
6.059060000000001  0.000000  0.000000  0.000000  -19.34714218645937  1.9335336634214788  -13.642035479342598  56.198867550099294  11.5895550810493  9.766287697991277  -2.0493968235745985  52.332611022618366  8.348822022777908  12.155786741380398  120.000000
6.11268  0.000000  0.000000  0.000000  -18.446079021226865  1.6189720516175476  -15.206973363794598  56.05657586714268  12.056467110476683  10.522829153618906  -2.587399583573222  47.83509878822774  10.888473832607218  12.078089208772148  120.000000
6.1663  0.000000  0.000000  0.000000  -17.921232565106664  1.4560423479346418  -16.47177086177814  55.80550691522572  12.680733698707963  11.102004816902786  -2.6995714998250278  43.22873385801509  13.449361599475749  11.99683815971285  120.000000
6.21992  0.000000  0.000000  0.000000  -17.749305188455963  1.4314067526925105  -17.393087535293805  55.4746985661675  13.428841803536546  11.487374735427215  -2.3592480384932633  38.59853617018174  15.983008120278262  11.944681792732267  120.000000
6.273540000000001  0.000000  0.000000  0.000000  -17.879569916838435  1.5190894124650016  -17.957489823794518  55.11121277513523  14.264840109340653  11.682726552695518  -1.5766098062416722  34.03804626164455  18.43868840221975  11.959078531405275  120.000000
6.32716  0.000000  0.000000  0.000000  -18.24129528179986  1.6831310685486693  -18.173187753599912  54.76506846261013  15.149637607983186  11.712755338885604  -0.4007929610591447  29.640476521645084  20.777179545013734  12.075956896985621  120.000000
6.38078  0.000000  0.000000  0.000000  -18.74941420483306  1.8896773686771156  -18.06692333668446  54.48605949218387  16.042994727393573  11.606658889037897  1.0825143884176902  25.487813720151433  22.981125239941914  12.325771245634265  120.000000
6.4344  0.000000  0.000000  0.000000  -19.30823444458984  2.1105934487426232  -17.66969721403955  54.31672658773577  16.9038311983365  11.390897209949076  2.7577328782889583  21.63745719584291  25.057630346168235  12.731093927626807  120.000000
6.488020000000001  0.000000  0.000000  0.000000  -19.830706836372503  2.3251041995010104  -17.012769458235937  54.27731744641277  17.700010071570855  11.099575289331499  4.497599993254364  18.117747076369128  27.020629237940945  13.300158651099308  120.000000
6.54164  0.000000  0.000000  0.000000  -20.259865628577906  2.524625122406391  -16.129343840760615  54.35312990006453  18.41806571467531  10.777922495550047  6.181268449257298  14.932565015451672  28.87137126170008  14.013244215847559  120.000000
6.59526  0.000000  0.000000  0.000000  -20.582641852768383  2.7140266766208985  -15.05162322768949  54.51239761959984  19.05710765694749  10.455099676413273  7.771641010917606  12.07288662474153  30.52735979253796  14.81039378976388  120.000000
6.64888  0.000000  0.000000  0.000000  -20.82213534949271  2.909545916757107  -13.815204963160406  54.72185343186364  19.605986655452067  10.13736954353398  9.402282340822342  9.513576244504646  31.754719437654604  15.605271121926716  120.000000
6.702500000000001  0.000000  0.000000  0.000000  -21.018021060697073  3.1261900435345655  -12.464351602565314  54.938994679100475  20.04477670983113  9.828883091374506  11.373142790968586  7.216428086670658  32.175987696154806  16.30988329223974  120.000000
6.75612  0.000000  0.000000  0.000000  -21.216827336872058  3.369385227722027  -11.04289318470214  55.12387249061649  20.364386712439583  9.529870658293769  14.2523671972555  5.154428469052131  31.174680214645644  16.850995001058422  120.000000
6.80974  0.000000  0.000000  0.000000  -21.448018621367794  3.644277984643588  -9.583681207945716  55.25273119248703  20.566805588643945  9.235968494047809  19.251976267368228  3.314849194782428  27.555800392032275  17.19670078390033  120.000000
6.86336  0.000000  0.000000  0.000000  -21.71260411146954  3.9489545436969147  -8.112154639904373  55.32217042801717  20.658821005333614  8.952194613735422  30.877843068406026  1.7031373238434742  16.89712867644027  17.366743407289793  120.000000
6.916980000000001  0.000000  0.000000  0.000000  -21.982857863223543  4.2725762034703605  -6.649464058838373  55.355658355869416  20.647513090760636  8.689832187610763  92.28906528803665  0.6041469413810925  -43.83795547172036  17.418068871496406  120.000000
6.9706  0.000000  0.000000  0.000000  -22.21831117691237  4.6020507210817705  -5.2113352636257435  55.38364571562304  20.537904795032922  8.455590277693778  167.80618910141112  1.3800267317870294  -118.84262875635518  17.417956050234668  120.000000
7.02422  0.000000  0.000000  0.000000  -22.39232711459218  4.924113569975474  -3.8105483806169023  55.424550534605196  20.334280129712624  8.247766185918831  -178.99119421409827  2.5330433254863887  -131.59690008139518  17.415820459935873  120.000000
7.07784  0.000000  0.000000  0.000000  -22.50095693723779  5.229947075525588  -2.4602787771404615  55.484688266692515  20.04411035952558  8.058247264454803  -173.90338508037507  3.6126503695407273  -136.24227474171445  17.434830476013403  120.000000
7.131460000000001  0.000000  0.000000  0.000000  -22.560385959608567  5.514621700617627  -1.1738703253655678  55.55980840384215  19.679725777307603  7.876312447301755  -171.12447015006373  4.592111782476425  -138.56366194259996  17.47560517001598  120.000000
7.18508  0.000000  0.000000  0.000000  -22.59516910322127  5.775364644485046  0.03547137748868633  55.643445056011366  19.256830896186617  7.690884912673975  -169.38148690298453  5.462538790126092  -139.8354556015019  17.528350142336883  120.000000
7.2387  0.000000  0.000000  0.000000  -22.626685182987096  6.008871321603716  1.153828873336464  55.732753749654385  18.79104730325676  7.49379896603207  -168.21196052219844  6.213789040726776  -140.5304449755528  17.58265179636999  120.000000
7.29232  0.000000  0.000000  0.000000  -22.667490667698257  6.21010856388397  2.165733119765369  55.83075473783565  18.2958451101313  7.280085250136066  -167.39521349114554  6.8325801727724915  -140.88062828767107  17.632011494780535  120.000000
7.345940000000001  0.000000  0.000000  0.000000  -22.7207874764603  6.372798411370056  3.053758945427803  55.94498713033421  17.781133134325522  7.047715446547544  -166.8084704679298  7.302801435115111  -141.01748458232035  17.67429091924703  120.000000
7.39956  0.000000  0.000000  0.000000  -22.78325064445413  6.489791449678484  3.798796044579332  56.084243997701726  17.252790826086418  6.796781904191434  -166.37502061685933  7.6064231013265715  -141.02330425212278  17.710659040611112  120.000000
7.45318  0.000000  0.000000  0.000000  -22.847360739466303  6.554071094759094  4.380640027457673  56.2563853293753  16.712966099224243  6.528671822565696  -166.03952555583646  7.724650506810468  -140.955729178032  17.74474367612289  120.000000
7.5068  0.000000  0.000000  0.000000  -22.90381135957471  6.558728118726976  4.778838394437944  56.46549114813589  16.16084295174417  6.246364972361868  -165.7439107778365  7.639204982952353  -140.87213957599695  17.78200988175909  120.000000
7.560420000000001  0.000000  0.000000  0.000000  -22.9422108954321  6.497527277866853  4.97345652416827  56.71047559517874  15.594086117734424  5.954702385556071  -165.40680696776275  7.333857306050433  -140.85085925715157  17.828569071193503  120.000000
7.61404  0.000000  0.000000  0.000000  -22.953385886281747  6.364949441190056  4.946226109460144  56.98307219096277  15.01055130661037  5.660723337338524  -164.89709354126745  6.796257224755161  -141.0202343407579  17.888681877072123  120.000000
7.66766  0.000000  0.000000  0.000000  -22.930331897121714  6.156840210565626  4.681758452217817  57.26621575038134  14.410153205181588  5.374100445299389  -163.97605006059578  6.0202444440030645  -141.61938129928959  17.961170288816003  120.000000
7.72128  0.000000  0.000000  0.000000  -22.86956556595642  5.871781548323023  4.169832404299303  57.53515678189995  13.796277694368337  5.105868863302295  -162.18206973288733  5.0089460254601725  -143.11738682923814  18.03703892934336  120.000000
7.774900000000001  0.000000  0.000000  0.000000  -22.770920895776836  5.51133262540114  3.408642657613888  57.757599908697514  13.17627515418903  4.8694787705486995  -158.3694286618191  3.7807831197077633  -146.6749321260334  18.098956441598165  120.000000
7.82852  0.000000  0.000000  0.000000  -22.632043714680215  5.083172837462806  2.4035210759651893  57.90056298080168  12.565202068536971  4.681248353601519  -148.55625199479158  2.390932936389145  -156.29362873209618  18.124470576277034  120.000000
7.88214  0.000000  0.000000  0.000000  -22.447567016848435  4.5990418490328615  1.1672934502047931  57.93759061020107  11.987312063634095  4.560924021552794  -108.88154421428196  1.1435648904363986  164.14372525655133  18.086419784416503  120.000000
7.93576  0.000000  0.000000  0.000000  -22.203841578302438  4.0755839224303685  -0.2753632684641895  57.85354037424254  11.473715397949652  4.530858655130456  -30.892103521434233  1.7066759695556497  86.16667135022625  17.953251167059108  120.000000
7.989380000000001  0.000000  0.000000  0.000000  -21.885496329350737  3.535273460965887  -1.8875006669366408  57.65371299527  11.059934960764307  4.610332361087806  -9.840420194589745  3.48942814084355  65.01136057961307  17.68851777855373  120.000000
8.043  0.000000  0.000000  0.000000  -21.482976647201735  2.996975869402636  -3.622238981851583  57.35928518415157  10.777615906402392  4.824901106523284  -2.1383758721609087  5.537776905352194  57.07079466644543  17.260066788192344  120.000000
8.09662  0.000000  0.000000  0.000000  -20.997628832051124  2.473976390612667  -5.43267562132946  57.01092835880264  10.648096937618758  5.205681302839907  2.4048729683109156  7.762016177753933  52.12283409961001  16.6567316541804  120.000000
8.15024  0.000000  0.000000  0.000000  -20.448528914553396  1.9930569992057907  -7.283125079102024  56.69579659531078  10.689423608186623  5.764959356683248  5.848876199434365  10.193126595856421  48.04977576178166  15.902264131119008  120.000000
8.20386  0.000000  0.000000  0.000000  -19.882291793648797  1.57944990987322  -9.137274523158743  56.503981083037765  10.918327207004536  6.511006350798515  8.649230327892704  12.908466006425044  44.32261306650111  15.053240716513285  120.000000
8.257480000000001  0.000000  0.000000  0.000000  -19.36626636602349  1.2427094980724316  -10.957458444553836  56.50147414657718  11.341820664845246  7.455723370129952  10.82080238698458  15.992183250685182  40.871101457665034  14.18573525873602  120.000000
8.3111  0.000000  0.000000  0.000000  -18.950726827607745  0.9897920248257891  -12.730245371956281  56.762218855694535  11.960665642369245  8.597584495110025  12.334733852378749  19.502555204601663  37.70630524148083  13.382274404806175  120.000000
8.36472  0.000000  0.000000  0.000000  -18.67424952703222  0.8186002549282152  -14.460388320255577  57.33283657156055  12.774410149442838  9.936287867020694  13.187461256926534  23.44974497762215  34.85158800848216  12.699554634817932  120.000000
8.41834  0.000000  0.000000  0.000000  -18.565112610480252  0.7184636538404995  -16.156737672247576  58.21931253117702  13.788161856532877  11.451036348022807  13.460444134917056  27.793609015976266  32.307815539788066  12.146590441860706  120.000000
8.47196  0.000000  0.000000  0.000000  -18.621717043436355  0.6838326924710901  -17.82595009667874  59.39544250105234  15.008200265983719  13.087250074931951  13.320551452320041  32.43897042276609  30.049727319675476  11.704743580246658  120.000000
8.52558  0.000000  0.000000  0.000000  -18.81108109359128  0.7172467752179761  -19.453980856182056  60.79258797221879  16.42946979775723  14.76979180287064  13.00123055285926  37.25414261049213  27.998279454329065  11.349231768513619  120.000000
8.5792  0.000000  0.000000  0.000000  -19.077423945691585  0.8073205389649819  -20.9971624557953  62.28817449288153  18.03562692309716  16.41094110354598  12.723691564005804  42.0967803263003  26.05384383021443  11.060634773184132  120.000000
8.63282  0.000000  0.000000  0.000000  -19.360041621076373  0.9396973493262198  -22.388358123777362  63.73243044502491  19.792610340060556  17.913077351404173  12.6335368616852  46.82093505196989  24.126318942553713  10.82753920154097  120.000000
8.686440000000001  0.000000  0.000000  0.000000  -19.60661678540149  1.1219486887499426  -23.558131788520374  65.00721379554544  21.664191381067806  19.163503015471598  12.789266846626417  51.299314948533045  22.13427847642681  10.63887110180114  120.000000
8.74006  0.000000  0.000000  0.000000  -19.78690804559388  1.3603464537009733  -24.438065396936032  66.02515809458966  23.60842618011573  20.093763667318157  13.17341143472923  55.429075825627585  20.022037617106793  10.488189746431289  120.000000
8.79368  0.000000  0.000000  0.000000  -19.89764864090852  1.6456375704979351  -24.968744777370887  66.74136165716006  25.55562505360607  20.6971707672644  13.727802867074908  59.14012270399911  17.763548691921887  10.372798346529807  120.000000
8.8473  0.000000  0.000000  0.000000  -19.959076656956587  1.9608541363645047  -25.116484808366298  67.15864430153052  27.41713058104371  21.002812773016977  14.374655994237452  62.39824304214783  15.369753411878776  10.291391854576878  120.000000
8.90092  0.000000  0.000000  0.000000  -20.006864276673024  2.2850576779564826  -24.877040581080774  67.30488706714937  29.094312390269994  21.07296229333832  15.036092801060642  65.19792641292034  12.883454348132245  10.245330633435437  120.000000
8.95454  0.000000  0.000000  0.000000  -20.072434204609838  2.601919056100505  -24.274063176599626  67.23180146601942  30.49799546992365  20.974672406277584  15.650495320906115  67.56023065471325  10.364127788838188  10.234002576283816  120.000000
9.00816  0.000000  0.000000  0.000000  -20.172196952570587  2.9037300097568206  -23.34841915386655  67.00314343465682  31.56774700004742  20.764844290640365  16.17788646126889  69.52200471439747  7.8834757929244885  10.254088415008244  120.000000
9.06178  0.000000  0.000000  0.000000  -20.30965163167068  3.190921311932092  -22.15216999780799  66.68473615607397  32.27994214552122  20.4821607944682  16.601043616979595  71.12886755407686  5.518215764517296  10.29554170643786  120.000000
9.115400000000001  0.000000  0.000000  0.000000  -20.48119092261614  3.46757340664902  -20.743533029677607  66.33311164040293  32.64656858392458  20.151235106990526  16.92220764905075  72.42861439987476  3.3466942392543695  10.343001822456879  120.000000
9.16902  0.000000  0.000000  0.000000  -20.682322532813565  3.7371881394925177  -19.185485851934104  65.99116133853569  32.706075661477  19.78792014760854  17.15592951441709  73.46805581838343  1.4407517514154389  10.378610620418748  120.000000
9.22264  0.000000  0.000000  0.000000  -20.90672119883676  3.9994058208091365  -17.547040413456607  65.69085525065367  32.51047940657658  19.40384892936045  17.321222312861632  74.28930979295694  -0.14296919569403208  10.38876254408764  120.000000
9.27626  0.000000  0.000000  0.000000  -21.14302183705524  4.2476393555783725  -15.904253297230516  65.4585256232737  32.11357767733928  19.00971220379402  17.437218513707442  74.92383340452825  -1.371294166223175  10.370093631605663  120.000000
9.32988  0.000000  0.000000  0.000000  -21.370950587599346  4.4709386753669245  -14.340561405796626  65.3200999888219  31.564013908657927  18.614678220114165  17.522017929972606  75.38914271951455  -2.2364973195222047  10.331459465809017  120.000000
9.3835  0.000000  0.000000  0.000000  -21.564333306289722  4.656276247662931  -12.942507769055107  65.29905720202443  30.904350992230963  18.228714929713806  17.59198886461447  75.68793217966255  -2.7504192271644716  10.288466974062883  120.000000
9.43712  0.000000  0.000000  0.000000  -21.697630700500987  4.791013378450763  -11.792573354915017  65.4107398762114  30.17189045636146  17.864329925791687  17.660052495396847  75.81193966978248  -2.9321063121806357  10.253747282943566  120.000000
9.49074  0.000000  0.000000  0.000000  -21.752936798555933  4.86464484996359  -10.96253788212438  65.65672423867466  29.399115150094527  17.537579843169866  17.735377395109218  75.74265358219255  -2.79411655421773  10.22977258317836  120.000000
9.544360000000001  0.000000  0.000000  0.000000  -21.722682054692093  4.868620411565732  -10.510918836836682  66.02231476630892  28.61398067808569  17.268078591808695  17.823829558472827  75.45161972774122  -2.337016694263709  10.206194971391032  120.000000
9.59798  0.000000  0.000000  0.000000  -21.609687851972932  4.796968654699702  -10.480262332885369  66.47576092051762  27.83975114676535  17.078286029009604  17.926848188682268  74.89943515316091  -1.5493027191967041  10.164836790180573  120.000000
9.6516  0.000000  0.000000  0.000000  -21.424444609616714  4.644257136752451  -10.894970961943198  66.96932441021302  27.094081859754866  16.992423224162078  18.03899534869805  74.03551880227518  -0.41444374362500025  10.09016238305558  120.000000
9.70522  0.000000  0.000000  0.000000  -21.183080180506618  4.408057900807586  -11.757891294221347  67.4394565857848  26.387218001116352  17.031252897734763  18.142945845769592  72.80002701577776  1.0817929584016985  9.981170234043516  120.000000
9.75884  0.000000  0.000000  0.000000  -20.90740058018605  4.087739319035326  -13.046883763357325  67.80741515696097  25.723319017782853  17.208942966234662  18.207255219965532  71.12987515434561  2.942639901411591  9.85724526832987  120.000000
9.81246  0.000000  0.000000  0.000000  -20.619800697524983  3.6895314134259585  -14.708995477305994  67.98877872443332  25.106271998848612  17.524872381118257  18.191301667877116  68.96956106734994  5.158705935320048  9.755438870344145  120.000000
9.86608  0.000000  0.000000  0.000000  -20.340949037963163  3.2287272930313433  -16.65828010727201  67.9044240662498  24.54869074276488  17.959322502658207  18.05327899404897  66.27972199593984  7.708737534774284  9.72192429642568  120.000000
9.9197  0.000000  0.000000  0.000000  -20.086834746641262  2.732737844225633  -18.78134867136901  67.49290029338273  24.076727134561416  18.465446758868065  17.755236195620256  63.04735887290697  10.565192580519636  9.801813417179464  120.000000
9.973320000000001  0.000000  0.000000  0.000000  -19.869017430635115  2.239428635441025  -20.950852619414704  66.72124613119294  23.733292074306135  18.972468657187896  17.26950682871035  59.29147663408101  13.698738755319663  10.035209330063488  120.000000
10.02694  0.000000  0.000000  0.000000  -19.689245899368487  1.786821174498268  -23.036983399845553  65.59892849016103  23.572010681301755  19.39986960436986  16.585211917360688  55.06950325814979  17.07853887805252  10.454522938309555  120.000000
10.08056  0.000000  0.000000  0.000000  -19.542785585065793  1.402777688147849  -24.916370579914055  64.18935143930482  23.632459187137293  19.677607946598645  15.715572545551808  50.47412539787767  20.666493545943204  11.082111199976177  120.000000
10.13418  0.000000  0.000000  0.000000  -19.42867621257951  1.0952769544770462  -26.48107070444797  62.594631620271215  23.906202662637714  19.766562968862402  14.690743143528683  45.61496843343327  24.41833733742366  11.92100834163871  120.000000
10.1878  0.000000  0.000000  0.000000  -19.35865249805374  0.8621825754331293  -27.647577006666502  60.931805082720444  24.329687588573798  19.656598908703817  13.547059453558257  40.60497772913569  28.273771541494277  12.943108771095124  120.000000
10.24142  0.000000  0.000000  0.000000  -19.339214475026797  0.7022191210038726  -28.35866163233591  59.31003150460852  24.82148878457006  19.37371606113734  12.316245166057017  35.54472193757683  32.15136143759515  14.088284183978141  120.000000
10.29504  0.000000  0.000000  0.000000  -19.3583883998572  0.639611321370364  -28.588081327305353  57.82962506821333  25.330387241905072  18.959902448290265  11.03143772265024  30.521613954181557  35.9349886226282  15.275911942314297  120.000000
10.34866  0.000000  0.000000  0.000000  -19.39799431176201  0.7065115406547249  -28.317895653103786  56.56747397607405  25.84675230508222  18.4587772907987  9.7171292907772  25.598413686409394  39.50006306733444  16.409256326104884  120.000000
10.402280000000001  0.000000  0.000000  0.000000  -19.458124580788976  0.928662111692217  -27.507516659432948  55.566960527092874  26.376597974460832  17.89709377911596  8.379899805893764  20.803009824305597  42.760541659318974  17.39040941241372  120.000000
10.4559  0.000000  0.000000  0.000000  -19.565216792737303  1.3152425107700911  -26.131006455602044  54.84388547626418  26.92071296250546  17.280699944716687  6.947803956945632  16.1492051390004  45.74231198303991  18.1213634912029  120.000000
10.50952  0.000000  0.000000  0.000000  -19.7703793538441  1.8496460519564122  -24.202298393842526  54.3595244341491  27.464599520408637  16.63860193850668  5.081247565526123  11.64558141128559  48.75758073272221  18.511732243936862  120.000000
10.56314  0.000000  0.000000  0.000000  -20.131045575134564  2.4976892139194065  -21.7778897007417  54.05983250029556  27.992476581300885  15.993544426992884  1.6669640830226327  7.311564402710428  52.90884079594823  18.487683558699732  120.000000
10.61676  0.000000  0.000000  0.000000  -20.7148969606068  3.193421541241603  -18.943232682536976  53.85780371300393  28.474417137951782  15.378649473161145  -9.781888279673591  3.2081383011450244  64.68612299122005  18.012434080195977  120.000000
10.67038  0.000000  0.000000  0.000000  -21.514527760519396  3.860511782009246  -15.806180368378097  53.684072871588086  28.887006085605886  14.818641799274905  -125.17204043718333  1.5354928436560673  -179.95408613731917  17.153513745368578  120.000000
10.724  0.000000  0.000000  0.000000  -22.473721145878233  4.418616920997356  -12.498489019478564  53.5229587522386  29.208243380522028  14.329564036077874  -159.49526228432813  5.254408469308675  -145.93796297832134  16.10015636873286  120.000000
