Simulation
nRows=268
nColumns=15
endheader
time  TH_x TH_y TH_z SC_y  SC_z  SC_x  AC_y  AC_z  AC_x  GH_y  GH_z  GH_yy  EL_x  PS_y
0.0  0.000000  0.000000  0.000000  -24.662690114837805  4.737653453349056  -3.807253379624391  50.52452829848843  7.37800066929669  1.2771229663020283  155.29615030968787  8.507711718243945  -108.7108671254592  20.771369035928146  120.000000
0.04016479400749064  0.000000  0.000000  0.000000  -24.66821261817988  4.756917670722993  -3.679700625208185  51.025867512667844  7.183212782901644  1.5840195774641932  152.626487964657  6.833831081036321  -106.95991003828787  20.33123597200154  120.000000
0.08032958801498127  0.000000  0.000000  0.000000  -24.75660242867874  4.7452241569401155  -3.5117461140136297  51.52462068289511  7.015171046570182  1.8362327841764035  147.45921799308766  5.155225900777064  -102.77882803886463  19.857580668831933  120.000000
0.12049438202247191  0.000000  0.000000  0.000000  -24.945754502474415  4.715319433630256  -3.3374622319497593  51.9888505032818  6.869495628214944  2.029543535222744  136.904515310387  3.5117015271550143  -93.32924768269955  19.358082028316296  120.000000
0.16065917602996255  0.000000  0.000000  0.000000  -25.23797847266508  4.65604388372079  -3.186167944330284  52.40342324043182  6.755678153601522  2.1655978722206837  110.15423415736994  2.1066188808415274  -67.86537167955065  18.823173978966963  120.000000
0.20082397003745317  0.000000  0.000000  0.000000  -25.61002885604068  4.570295687292771  -3.072677679076547  52.76916961951975  6.687574539519956  2.2586620440664134  51.70761960186408  1.877500682649276  -10.92007798926633  18.25378299339674  120.000000
0.24098876404494382  0.000000  0.000000  0.000000  -26.04197182910635  4.4729226727588  -2.997043070827887  53.08727130539434  6.672920363223521  2.3291549831924314  15.648353060288496  3.2188587706999163  23.39885163364129  17.65675011896812  120.000000
0.28115355805243447  0.000000  0.000000  0.000000  -26.51987599218267  4.379713962652692  -2.952726001082001  53.36178658725399  6.72427401541481  2.3914314129706304  1.8486647116733388  5.089135220419965  35.2142167850451  17.03837655251931  120.000000
0.3213183520599251  0.000000  0.000000  0.000000  -27.029518455265595  4.309378252839403  -2.931043528975909  53.59154297361061  6.858675420827908  2.460304616358247  -5.016572042259754  7.159178445770452  39.865742507033595  16.406337088083074  120.000000
0.3614831460674157  0.000000  0.000000  0.000000  -27.558878489122915  4.282644868183256  -2.9262828650065544  53.77156835859715  7.095657103233237  2.548792973546255  -9.130674098101348  9.359228610315977  41.5668904768042  15.769099847477175  120.000000
0.40164794007490634  0.000000  0.000000  0.000000  -28.096924213220078  4.32189531400862  -2.9323888827671567  53.89265023576858  7.447609760454619  2.668321492605376  -11.903150331070613  11.661577717020474  41.77090169186267  15.13732789871601  120.000000
0.441812734082397  0.000000  0.000000  0.000000  -28.63695767867792  4.444611816925917  -2.936288096222135  53.945603912455155  7.917218419928744  2.823855639636103  -13.97414367300371  14.043374673757757  41.16835444827774  14.520161780799743  120.000000
0.48197752808988764  0.000000  0.000000  0.000000  -29.177160223934678  4.657300879442201  -2.913031589280208  53.92615671693316  8.49609355231623  3.0117315152343584  -15.691589787148038  16.483036457596626  40.16243221206618  13.925154301428789  120.000000
0.5221423220973783  0.000000  0.000000  0.000000  -29.71428973835181  4.960411081231178  -2.8283204053530144  53.83943364921131  9.162190939386994  3.225712319022297  -17.247510938261545  18.95742370370783  39.00144247257157  13.357256451897857  120.000000
0.5623071161048689  0.000000  0.000000  0.000000  -30.243900713729566  5.350469228026083  -2.648704232352369  53.69984218687194  9.888446937573661  3.465396051945099  -18.734937436251275  21.439219585831122  37.834901512043295  12.82003970417001  120.000000
0.6024719101123596  0.000000  0.000000  0.000000  -30.760157606081233  5.817937652035465  -2.348200992150729  53.526904658585664  10.648150080057098  3.732733612759492  -20.186669685733722  23.9005474447382  36.7471361725196  12.318441695001043  120.000000
0.6426367041198502  0.000000  0.000000  0.000000  -31.257615826372657  6.348467620230025  -1.9052773972670072  53.341049732014824  11.413505704864912  4.028028484138882  -21.603333732675893  26.31689585477851  35.78384612720666  11.856588642800386  120.000000
0.6828014981273408  0.000000  0.000000  0.000000  -31.73341115880117  6.92479881701572  -1.3036975774010846  53.16204499909366  12.156477179389737  4.348126780758962  -22.96594141456905  28.6701975081501  34.958967462014954  11.435542939329482  120.000000
0.7229662921348314  0.000000  0.000000  0.000000  -32.18666083157388  7.527792091412908  -0.534707861883429  53.00587525986884  12.852816886491057  4.687029913974802  -24.244847351636224  30.95030660803225  34.26203518123382  11.051896122524193  120.000000
0.7631310861423221  0.000000  0.000000  0.000000  -32.61811781868517  8.138119049252467  0.401874102519631  52.88502600753627  13.484215367960125  5.037635351903401  -25.40952069759968  33.154713249250975  33.665985902480166  10.696878906008887  120.000000
0.8032958801498127  0.000000  0.000000  0.000000  -33.03064666371305  8.737418902324334  1.4995181145581158  52.80928368278582  14.039063276307333  5.393855644876856  -26.432135056549228  35.286681288926914  33.13366192473254  10.357073846859272  120.000000
0.8434606741573034  0.000000  0.000000  0.000000  -33.42758277424159  9.309453001931047  2.743158927790323  52.784843294774674  14.514365753268287  5.75349027056762  -27.291476450786025  37.352036924643215  32.62558172380702  10.017029803121586  120.000000
0.883625468164794  0.000000  0.000000  0.000000  -33.811306746880625  9.841304540819209  4.108496170362575  52.81286814815127  14.915468999091233  6.119479284460412  -27.973987488808334  39.357096290576614  32.107074972216985  9.662938381768667  120.000000
0.9237902621722847  0.000000  0.000000  0.000000  -34.183688740906575  10.32436880035819  5.567980832107717  52.88887972603957  15.250686862938766  6.496539429113874  -28.47624260628979  41.30624072077201  31.555979982484175  9.287035767840619  120.000000
0.9639550561797753  0.000000  0.000000  0.000000  -34.54678087415073  10.754540293904409  7.093084938734706  53.002666068006114  15.528222269183951  6.888833154007785  -28.804590023203716  43.201016491439944  30.966224487561853  8.89065658031344  120.000000
1.004119850187266  0.000000  0.000000  0.000000  -34.904015465618976  11.13239476699197  8.653656505970279  53.13939312904043  15.755428356681083  7.300473292495665  -28.976399957558666  45.03907076367758  30.349797511983496  8.484298587694097  120.000000
1.0442846441947566  0.000000  0.000000  0.000000  -35.26100526455343  11.46176818261305  10.218651746644298  53.283331438792274  15.938803960264577  7.733736672854327  -29.017143415254385  46.81303724873505  29.73197708338004  8.08452394806669  120.000000
1.0844494382022472  0.000000  0.000000  0.000000  -35.62502596956773  11.747244238465838  11.757422562289975  53.42166923787622  16.084465365071623  8.188613778565664  -28.958307437280077  48.51128396704803  29.146163694257474  7.709800321624901  120.000000
1.1246142322097379  0.000000  0.000000  0.000000  -36.00279710242903  11.993699345324607  13.240517026591736  53.547787144292506  16.197993536060295  8.662187006774213  -28.834863560006102  50.11841881565246  28.627129862753378  7.377036888119374  120.000000
1.1647790262172284  0.000000  0.000000  0.000000  -36.39885493918277  12.20545166963715  14.640699190963112  53.66261738640728  16.284473819500942  9.149538869168087  -28.684074933305062  51.617224293472425  28.207661954561647  7.099427391859534  120.000000
1.2049438202247191  0.000000  0.000000  0.000000  -36.81417530440621  12.386119481739268  15.933238388978516  53.774363820217076  16.34922317914209  9.643383273615123  -28.542108100542155  52.989872569465305  27.91369385889163  6.885425462184601  120.000000
1.2451086142322096  0.000000  0.000000  0.000000  -37.245361965737764  12.539079785524127  17.09740808809912  53.894438603203426  16.397239323661534  10.134631086568486  -28.44097959844597  54.22012247398975  27.763390229232645  6.739784196480963  120.000000
1.2852734082397004  0.000000  0.000000  0.000000  -37.685027102119854  12.667297166533999  18.11791360097386  54.0331915943957  16.43361935372431  10.611342151635444  -28.404539864170832  55.29453590124091  27.76494030423493  6.664706871764383  120.000000
1.325438202247191  0.000000  0.000000  0.000000  -38.12305951769502  12.772585192786272  18.985892485356935  54.195171347368124  16.464195921749567  11.060775002597644  -28.445895473442125  56.20481171093355  27.91663999138621  6.659753540043237  120.000000
1.3656029962546816  0.000000  0.000000  0.000000  -38.548546195928466  12.855010373220459  19.699327722245425  54.37784946709779  16.496525577680227  11.470618750076811  -28.565527820569383  56.948749599932285  28.204409037647824  6.719304946963939  120.000000
1.4057677902621724  0.000000  0.000000  0.000000  -38.95172977328869  12.91251292027586  20.263551595957484  54.5722022517966  16.539269083894478  11.83158368676164  -28.751909658031035  57.53200747805834  28.602307209054413  6.8302645368688655  120.000000
1.4459325842696629  0.000000  0.000000  0.000000  -39.32549285905244  12.942067020801447  20.690224409491236  54.76642776614499  16.60049395911107  12.13729021047378  -28.983974576495687  57.96794075809522  29.07333623303158  6.971526718373722  120.000000
1.4860973782771536  0.000000  0.000000  0.000000  -39.66530381089928  12.941669905250516  20.99528673658655  54.94888615274486  16.68457606784855  12.384509859758504  -29.23507265944528  58.27708887004844  29.574042672296176  7.116649945690239  120.000000
1.5262621722846441  0.000000  0.000000  0.000000  -39.967635144216516  12.912143960301384  21.196638989582166  55.11003300650856  16.790756176799412  12.571710884095458  -29.477310247814035  58.48319876725589  30.05950426431123  7.238349991683518  120.000000
1.5664269662921348  0.000000  0.000000  0.000000  -40.22734774282646  12.858189575176512  21.31195407732284  55.24166053501619  16.911949424950127  12.69864339114416  -29.685348343400992  58.609150092461704  30.489537610743927  7.314219313331874  120.000000
1.6065917602996254  0.000000  0.000000  0.000000  -40.43560101349872  12.788931957328705  21.356775022432398  55.33632429704922  17.034912721183943  12.76495609020615  -29.84002038685445  58.671809190195816  30.83342955162394  7.331923560608925  120.000000
1.646756554307116  0.000000  0.000000  0.000000  -40.578711374195144  12.717568795505866  21.34305290923877  55.38607702399907  17.14058568690819  12.769785990568527  -29.93029046393766  58.678471094155675  31.072725312177102  7.2920081175748335  120.000000
1.6869213483146068  0.000000  0.000000  0.000000  -40.638886891854206  12.659284238718577  21.2791018765416  55.383049857173404  17.20654239708771  12.710709121918532  -29.95390603492054  58.62293297926137  31.199930069721795  7.206239467012761  120.000000
1.7270861423220973  0.000000  0.000000  0.000000  -40.59679388295823  12.627942653159959  21.170157301755413  55.32066339044726  17.209849110856716  12.583417234387758  -29.916075778489244  58.483383344951505  31.214567133711412  7.093427755303445  120.000000
1.767250936329588  0.000000  0.000000  0.000000  -40.43603753189937  12.632688687673575  21.01852553651189  55.196511014726596  17.13047625607644  12.380536387708123  -29.827509972007842  58.221201966620264  31.117910338938188  6.97563049386645  120.000000
1.8074157303370786  0.000000  0.000000  0.000000  -40.14845619380197  12.675367544313374  20.822515486126584  55.01524021279193  16.953730113699446  12.091198654910336  -29.701810077894116  57.78239875920333  30.90881159071726  6.8760059988501405  120.000000
1.8475805243445693  0.000000  0.000000  0.000000  -39.738962753123616  12.748712859804462  20.575652715711982  54.79088563342526  16.672297792611445  11.701075511549018  -29.552392433209857  57.10059236355561  30.581197265750042  6.818286938237342  120.000000
1.8877453183520598  0.000000  0.000000  0.000000  -39.227019008499994  12.836258175770984  20.264505467430364  54.545593460245875  16.288233218632264  11.196515976691362  -29.388006971579536  56.10384866835186  30.124951269355762  6.827329318565933  120.000000
1.9279101123595506  0.000000  0.000000  0.000000  -38.64347193411186  12.91513183077266  19.86714673767285  54.30549838418206  15.814072055469412  10.570834900013253  -29.207838055776506  54.72355962968338  29.529751299191553  6.928052526988624  120.000000
1.9680749063670413  0.000000  0.000000  0.000000  -38.02350070900614  12.959061903379801  19.35695221144643  54.09356995690673  15.270218849306735  9.828095399954082  -28.99746981321842  52.904273148127956  28.792185718357047  7.143145370171761  120.000000
2.008239700374532  0.000000  0.000000  0.000000  -37.39879992632866  12.940924543491702  18.710866233716708  53.924989006635705  14.677705153768896  8.981575530850362  -28.72911108334407  50.61404107183458  27.9247530185357  7.487357295697378  120.000000
2.0484044943820225  0.000000  0.000000  0.000000  -36.79186342191591  12.836011696575369  17.91689792942447  53.80606373248213  14.051436104952627  8.050978049739355  -28.365671515755643  47.85224513799672  26.964875556027017  7.9581015073299355  120.000000
2.0885692883895133  0.000000  0.000000  0.000000  -36.21274276760888  12.624785932111065  16.97344767516607  53.73441485372176  13.401762353939757  7.063167418729718  -27.867348135075822  44.654111898308514  25.979541346987617  8.52822432583805  120.000000
2.1287340823970036  0.000000  0.000000  0.000000  -35.65993958914747  12.295136225070062  15.888662322935318  53.7022591285113  12.737720573363076  6.051382234194202  -27.199688181019045  41.088791718240145  25.063391285909045  9.14613225074627  120.000000
2.1688988764044943  0.000000  0.000000  0.000000  -35.1250190985573  11.8446680868798  14.68177071929171  53.700471061087946  12.067636988757016  5.052693665980667  -26.34108986993319  37.250919776053  24.329406353697177  9.745603809143834  120.000000
2.209063670411985  0.000000  0.000000  0.000000  -34.59696484497457  11.281166349717896  13.377973839931476  53.72061471234616  11.404149935499078  4.1065573307236  -25.286258911742248  33.248447700062734  23.894785572348653  10.26077398424443  120.000000
2.2492284644194758  0.000000  0.000000  0.000000  -34.06551318048004  10.621828808721917  12.004845088395047  53.75676477152484  10.765573224859416  3.251569699586604  -24.04795442585191  29.19217514232259  23.864440551440907  10.644708732082362  120.000000
2.2893932584269665  0.000000  0.000000  0.000000  -33.525394852633134  9.892529694985877  10.593890322710788  53.80534944635488  10.17170353166944  2.519114527050292  -22.65724996690306  25.185618836719765  24.316810163794905  10.886970564833293  120.000000
2.329558052434457  0.000000  0.000000  0.000000  -32.977674188627354  9.124608727507363  9.17680762584749  53.86230273098213  9.642847726787128  1.9288105323885063  -21.16282517847625  21.319703477156807  25.29673443521718  11.020416600407295  120.000000
2.3697228464419475  0.000000  0.000000  0.000000  -32.43023442775871  8.350241621634693  7.786347062655364  53.92439720314501  9.197611472419608  1.486390814576462  -19.62782869481465  17.669846128649336  26.81556093919767  11.11324663818515  120.000000
2.4098876404494383  0.000000  0.000000  0.000000  -31.893622574085192  7.600993577338926  6.462235034444163  53.99197333556074  8.843121514484  1.1828620840479762  -18.095113407853045  14.294041907561159  28.826479469702655  11.249126699906288  120.000000
2.450052434456929  0.000000  0.000000  0.000000  -31.373457195284896  6.905153406083498  5.244562876275628  54.0676964387967  8.578557782191867  0.9996583654243656  -16.51634362557898  11.229880606688976  31.16241713095391  11.506043580945047  120.000000
2.4902172284644193  0.000000  0.000000  0.000000  -30.870542792851342  6.2827721832917875  4.164928256936734  54.15388502118748  8.402979171009553  0.9133087807331363  -14.617193803640518  8.494931875587394  33.40944358018258  11.937880649797146  120.000000
2.53038202247191  0.000000  0.000000  0.000000  -30.38700199149193  5.744271370828025  3.2454067580281887  54.251831050005414  8.313016162795355  0.8967942729344086  -11.56748621877411  6.091927346311415  34.584541311717466  12.558249153315863  120.000000
2.5705468164794008  0.000000  0.000000  0.000000  -29.931050662092602  5.291171556912327  2.49715396724343  54.36034362665831  8.300901782357839  0.9218831643652295  -4.949040420526585  4.026597533871792  32.110062646662726  13.33866619214702  120.000000
2.6107116104868915  0.000000  0.000000  0.000000  -29.51923799808654  4.917473938270835  1.919534168214656  54.47566393212713  8.354173617138885  0.9616586495286298  13.205124567157497  2.395292918664043  17.86409062363586  14.221629685653433  120.000000
2.650876404494382  0.000000  0.000000  0.000000  -29.174862780397525  4.6122109988104  1.5004822199057393  54.59106179382031  8.45616729723501  0.9934053240832025  59.192262355283475  1.753818996357115  -24.588409644144875  15.137775158786976  120.000000
2.6910411985018725  0.000000  0.000000  0.000000  -28.92044762675148  4.362694669499115  1.2186776248033167  54.697940093197346  8.58846094053451  1.0014751596767677  97.31223947082209  2.5609998741310753  -59.6524702363845  16.021647147627608  120.000000
2.7312059925093632  0.000000  0.000000  0.000000  -28.767551481505826  4.15768993385925  1.0472740288981865  54.78957648754886  8.734181142301376  0.9802161569297034  110.7528171859237  3.8750298078079357  -70.57681152664621  16.82203602085581  120.000000
2.771370786516854  0.000000  0.000000  0.000000  -28.71081985713271  3.988460743661893  0.9597526782428283  54.86486325445529  8.881433450508553  0.9321331989285582  115.70118131280208  5.225046350289201  -73.5625539754607  17.50502690258594  120.000000
2.8115355805243447  0.000000  0.000000  0.000000  -28.727964011989275  3.8493199847589117  0.9357298463076473  54.92848417628411  9.024719287751623  0.8650644154263143  117.77394352031745  6.480537284088106  -74.19119990235386  18.052403833267388  120.000000
2.851700374531835  0.000000  0.000000  0.000000  -28.786408301481774  3.737975732322037  0.9617665880481664  54.98724654168122  9.16147443088166  0.7896428004748066  118.7712135638581  7.576274144162905  -74.19184168069859  18.458384184852367  120.000000
2.8918651685393257  0.000000  0.000000  0.000000  -28.85518332968063  3.6539119784515464  1.0288182604380696  55.046730726511235  9.288751783064205  0.7163538770943595  119.40992624176538  8.471449138532957  -74.1944618413376  18.72505825435703  120.000000
2.9320299625468165  0.000000  0.000000  0.000000  -28.912875239033657  3.596374853559319  1.1279393509154287  55.11086273906366  9.403513399604009  0.6540173849241843  120.0274451861153  9.146480873512104  -74.44711250679714  18.860083614714096  120.000000
2.972194756554307  0.000000  0.000000  0.000000  -28.949775657723816  3.5627929559034  1.249014054492909  55.18155049831013  9.50385023795254  0.6079579555963058  120.79364805031362  9.604043061661422  -75.03863835851806  18.878871764435633  120.000000
3.012359550561798  0.000000  0.000000  0.000000  -28.966622909900885  3.548544261861521  1.3832827413191473  55.25946733445909  9.58981575574066  0.5792066266440212  121.79194871130228  9.868531151577649  -75.98521009543595  18.8052200910487  120.000000
3.0525243445692882  0.000000  0.000000  0.000000  -28.970083838713506  3.5478361635335776  1.5247638240523709  55.344816875199086  9.662893549543037  0.5659457567558512  123.05114212345161  9.980717580347502  -77.26329841526847  18.668353142530894  120.000000
3.092689138576779  0.000000  0.000000  0.000000  -28.967991340933924  3.5545510713611868  1.6706056213717786  55.43751059694772  9.725270478685237  0.5644202485051916  124.56068271990613  9.98951486907877  -78.82385605926379  18.49874491519959  120.000000
3.1328539325842697  0.000000  0.000000  0.000000  -28.96618580281163  3.5633618999435046  1.8205703126940926  55.53700485305953  9.778859615154822  0.5697650811894246  126.28114554109148  9.943026451967318  -80.60083743626788  18.3233694360803  120.000000
3.1730187265917604  0.000000  0.000000  0.000000  -28.967457318400722  3.570575402582846  1.9761004433312817  55.64182072157817  9.824537562728352  0.5767588492947678  128.15634638416614  9.881471841408247  -82.52168800718208  18.16133201276464  120.000000
3.2131835205992507  0.000000  0.000000  0.000000  -28.971986843710855  3.5743432345808808  2.1392518908783456  55.749815868796226  9.862009775379294  0.580496578472568  130.1257519833665  9.833060240659183  -84.51794103107429  18.021524618950636  120.000000
3.2533483146067415  0.000000  0.000000  0.000000  -28.978424564356647  3.574387464257213  2.3120842230628957  55.85862498616838  9.890213057181246  0.5771272081927219  132.13803560254632  9.812952071803231  -86.5365851947678  17.9035343043569  120.000000
3.293513108614232  0.000000  0.000000  0.000000  -28.985131101697675  3.571384083904994  2.4963979380855306  55.96648135274049  9.907975691574906  0.5640432419075516  134.15879330464182  9.825141882353485  -88.5455627968898  17.801046741437585  120.000000
3.333677902621723  0.000000  0.000000  0.000000  -28.991237728359323  3.5662479956012523  2.693840431854223  56.072804871684575  9.914514795575062  0.540030765036499  136.17323585030474  9.865962506902523  -90.53437736155296  17.705718102243708  120.000000
3.3738426966292137  0.000000  0.000000  0.000000  -28.99733323197851  3.559525200876474  2.9060209434308497  56.178597802704004  9.909682712483763  0.5048969003866253  138.1814556655084  9.92830357057739  -92.5079604075031  17.61029215090002  120.000000
3.414007490636704  0.000000  0.000000  0.000000  -29.005848593820204  3.5510964618117318  3.134670434211709  56.28622227037542  9.893965969871422  0.45910571188612265  140.19214880016602  10.005021940203969  -94.47935295332968  17.51073145735472  120.000000
3.4541722846441947  0.000000  0.000000  0.000000  -29.02072409893096  3.5402245310380844  3.3815523700140413  56.39874645820271  9.868299622395526  0.40318701011321423  142.21579697378144  10.091111165208016  -96.46242921701558  17.406845323195203  120.000000
3.4943370786516854  0.000000  0.000000  0.000000  -29.04633631375681  3.5259455652729415  3.648285813281678  56.51884932148254  9.83363201936459  0.3374484716819821  144.26185893367608  10.184222784042948  -98.46881010215505  17.301489773007408  120.000000
3.534501872659176  0.000000  0.000000  0.000000  -29.085896129338305  3.5078274477749423  3.935854653158537  56.64754495784659  9.79040262040647  0.2619817484485496  146.3377436763983  10.284034072754674  -100.50687025206992  17.198926113461535  120.000000
3.574666666666667  0.000000  0.000000  0.000000  -29.13936096315976  3.486655223371298  4.243828424257491  56.78299652647259  9.738220568137388  0.17705751894919544  148.4491739318795  10.39049674889947  -102.58206662661044  17.102819341490335  120.000000
3.614831460674157  0.000000  0.000000  0.000000  -29.201167207055896  3.4649461519818083  4.569744193669146  56.919988808376246  9.675743156738507  0.08352380614825862  150.60182900677708  10.501762201128637  -104.69863690516415  17.01423730152702  120.000000
3.654996254681648  0.000000  0.000000  0.000000  -29.25892914690361  3.4473525942591507  4.908643847020763  57.0498350716867  9.600582207262118  -0.016620713553162365  152.80260325868846  10.612397389932243  -106.86110445632679  16.930216629328623  120.000000
3.6951610486891386  0.000000  0.000000  0.000000  -29.293941168880583  3.440217419660935  5.252755578617756  57.16110342944971  9.509594158637306  -0.12007488408660143  155.05661680064026  10.712136403428286  -109.07207795345181  16.843619028796546  120.000000
3.7353258426966294  0.000000  0.000000  0.000000  -29.283605528481846  3.450522491087053  5.591819214322575  57.24098330611429  9.399368160382457  -0.22268474293239096  157.36068528640521  10.785586250617046  -111.32715643198551  16.74438561636212  120.000000
3.7754906367041197  0.000000  0.000000  0.000000  -29.205595037631145  3.4848418716137877  5.913701191988433  57.27671943315842  9.266766949947511  -0.3198603788802115  159.69403284212393  10.812536672474259  -113.6075151085072  16.621432728970387  120.000000
3.8156554307116104  0.000000  0.000000  0.000000  -29.042674674226276  3.5477206401260784  6.204808809212276  57.257177338250415  9.110039048775272  -0.4077402056315681  162.00246351089223  10.76798654348167  -115.86643953273514  16.46403307764071  120.000000
3.855820224719101  0.000000  0.000000  0.000000  -28.78694034863229  3.6403917378774007  6.451726009579534  57.17437858917416  8.929956922840304  -0.4844823032290576  164.18642670668424  10.62232484698707  -118.01935723044646  16.262818587904274  120.000000
3.895985018726592  0.000000  0.000000  0.000000  -28.44198919828165  3.760333488057707  6.643588567769269  57.02409870035218  8.730230805641353  -0.5514338694481441  166.10183316605443  10.342205163550894  -119.94510656568094  16.010869647655422  120.000000
3.9361498127340826  0.000000  0.000000  0.000000  -28.023138919478715  3.9018686013242054  6.771999808370383  56.80579373328052  8.517604495702605  -0.6122577579158875  167.567376387425  9.893165917007705  -121.4918007688135  15.701906857125742  120.000000
3.976314606741573  0.000000  0.000000  0.000000  -27.554579680094047  4.05723030807593  6.83073612393573  56.5226720414415  8.300513801273825  -0.6713220737655866  168.36456161987695  9.243774287573467  -122.47253121355773  15.32954273391202  120.000000
4.016479400749064  0.000000  0.000000  0.000000  -27.063764441261103  4.217821635528149  6.815099436033048  56.18078453809184  8.090277665996352  -0.7304147636915993  168.21370844998012  8.371290212291926  -122.6363717720152  14.89200451069094  120.000000
4.056644194756554  0.000000  0.000000  0.000000  -26.577525031694282  4.378151034540781  6.7211954866254615  55.789828428270546  7.903613822250115  -0.783075118244921  166.65674327877272  7.268067698795944  -121.55006985133878  14.395820961227535  120.000000
4.096808988764045  0.000000  0.000000  0.000000  -26.118443138191974  4.537614635820357  6.5514509719829395  55.3642839894902  7.762560086602475  -0.8165448667951501  162.72469375734613  5.950272151086416  -118.26284867368189  13.858369204778716  120.000000
4.136973782771536  0.000000  0.000000  0.000000  -25.702376703568255  4.699026796129402  6.318499288781777  54.92293569199286  7.695152056785036  -0.8160674419442412  153.97806818962175  4.484087442239152  -110.3415174211934  13.308696608517847  120.000000
4.177138576779027  0.000000  0.000000  0.000000  -25.340451848394288  4.868844760168605  6.042398906552645  54.485022443231884  7.732698312535424  -0.7654655192229841  133.34252969064957  3.0988550538700075  -90.70558145679678  12.783261599857193  120.000000
4.217303370786517  0.000000  0.000000  0.000000  -25.041946962859594  5.055651552454035  5.747317062824612  54.0658883505977  7.90393784738605  -0.6499165729326625  89.83909603928669  2.593666990190006  -48.3617713711059  12.319362288777079  120.000000
4.257468164794007  0.000000  0.000000  0.000000  -24.815100952238584  5.26630473498327  5.458271218953107  53.67528416826936  8.230128620251556  -0.45945449414010514  51.49407362529306  3.7731948351271627  -11.319668215671982  11.946971755131358  120.000000
4.297632958801498  0.000000  0.000000  0.000000  -24.666921673888606  5.503192178258608  5.196720347555564  53.3167445385637  8.722541562124608  -0.18957333560545644  34.12984846171897  5.884079585642901  4.613903720091399  11.680303615980677  120.000000
4.337797752808989  0.000000  0.000000  0.000000  -24.602614745072735  5.763623878117351  4.97832561901612  52.98864438422537  9.380774491921512  0.1596495576499259  25.645602261659093  8.364098684880519  11.552941568591217  11.513479662747088  120.000000
4.377962546816479  0.000000  0.000000  0.000000  -24.624729965773895  6.040875935276738  4.815292761307228  52.68564631755394  10.190997490230053  0.5835456909160249  20.697217400864876  11.03492110861854  14.851714748184394  11.42328409212686  120.000000
4.41812734082397  0.000000  0.000000  0.000000  -24.733481596336127  6.325533252660347  4.718367619908588  52.40188217632646  11.127948055119102  1.0738646593761334  17.448442412477092  13.817066216907321  16.354829629318356  11.376775245962477  120.000000
4.458292134831461  0.000000  0.000000  0.000000  -24.926443940870367  6.60766326965231  4.697321063161044  52.13339567964613  12.158053537767614  1.6206690651372337  15.161929541842682  16.658954467176766  16.808728032750434  11.340156710719347  120.000000
4.4984569288389515  0.000000  0.000000  0.000000  -25.19773428376307  6.87920033706981  4.761154636852556  51.87950933650112  13.242054898559733  2.2138844032075444  13.485955232210417  19.52108801791902  16.578406419672064  11.286396714239807  120.000000
4.538621722846442  0.000000  0.000000  0.000000  -25.53792891197636  7.134977445248955  4.917455681384974  51.64343380564874  14.337943625292757  2.8437138869100878  12.220034715556809  22.373155163573646  15.884913266609  11.200830937707446  120.000000
4.578786516853933  0.000000  0.000000  0.000000  -25.934372029759565  7.3734353798350645  5.17114125177286  51.43187629002153  15.403599645648619  3.5006600567882007  11.229148437257022  25.19345365386493  14.891544690018922  11.08256778025835  120.000000
4.618951310861423  0.000000  0.000000  0.000000  -26.372938007578455  7.596665000062296  5.523577802299202  51.25434700463893  16.39950192858812  4.175359947558868  10.41287868148547  27.967550029021407  13.732690700838225  10.94088469838749  120.000000
4.659116104868914  0.000000  0.000000  0.000000  -26.840896582113217  7.809831335574033  5.972591867166918  51.12208852900798  17.291406415980674  4.858182929022333  9.69436820068189  30.68607185331987  12.520661829702574  10.790486563537986  120.000000
4.699280898876404  0.000000  0.000000  0.000000  -27.32917065765306  8.020670503451628  6.513202672055225  51.04652826865884  18.052670605562284  5.539464699487217  9.019396397670532  33.341946836154925  11.342626418282284  10.647066491690586  120.000000
4.739445692883895  0.000000  0.000000  0.000000  -27.831838361264303  8.236399750294002  7.13915987128285  51.037309375349345  18.667412266098804  6.209980415228972  8.35581995140798  35.92826773123538  10.256998705585556  10.525049616571678  120.000000
4.779610486891386  0.000000  0.000000  0.000000  -28.34604781406243  8.461768565024872  7.844831710849929  51.10256369386115  19.13280480184828  6.863838221572398  7.683906339688929  38.43529600923337  9.300199975589729  10.436126816784915  120.000000
4.8197752808988765  0.000000  0.000000  0.000000  -28.87308799052436  8.700025127684594  8.625622685207931  51.24553667964828  19.457663054821953  7.500218886650254  6.993211785098373  40.84859787321226  8.489930534246113  10.38845652612262  120.000000
4.859940074906367  0.000000  0.000000  0.000000  -29.416670290285833  8.951879415912313  9.47724777617001  51.46182433260222  19.659527243700154  8.12188093062582  6.279960838887975  43.150628229541844  7.829017102356009  10.38786348790946  120.000000
4.900104868913858  0.000000  0.000000  0.000000  -29.98026303333419  9.21518338047073  10.39459323789275  51.74075237873095  19.760803244758954  8.734088030767065  5.543693432292329  45.3231104774289  7.311170590881027  10.438236725781433  120.000000
4.940269662921349  0.000000  0.000000  0.000000  -30.565382290960425  9.485909348496577  11.370273122404747  52.068188082458455  19.78462914087595  9.343475634480672  4.786483986616578  47.34956569033837  6.923326943360676  10.541881602077089  120.000000
4.980434456928839  0.000000  0.000000  0.000000  -31.170588631244513  9.75882602832416  12.393666073417197  52.430214374306466  19.752080154234434  9.956536370818409  4.011729551546633  49.217251010576085  6.647691698538678  10.699557038072124  120.000000
5.020599250936329  0.000000  0.000000  0.000000  -31.791248226776432  10.028347987174758  13.450665913456078  52.815214670533656  19.68069242302587  10.578315899316198  3.2244055973233956  50.91771033763626  6.462355626401154  10.910320935863732  120.000000
5.06076404494382  0.000000  0.000000  0.000000  -32.41967962280017  10.28872429186742  14.52430627326251  53.21445308356098  19.58458462063141  11.211141990578762  2.4311355463028526  52.44612014280615  6.342897484039316  11.171910751478574  120.000000
5.100928838951311  0.000000  0.000000  0.000000  -33.04545522939262  10.534118686059621  15.595611011841761  53.620843841222346  19.47509481463985  11.853519064550017  1.641004879502103  53.80022713454475  6.264825749552777  11.480657509166136  120.000000
5.1410936329588015  0.000000  0.000000  0.000000  -33.655737589349535  10.758827484231487  16.64415205802907  54.02727629949367  19.361227170390194  12.49912720577532  0.8662883410710741  54.979572638244505  6.207149094647983  11.83022373297438  120.000000
5.181258426966292  0.000000  0.000000  0.000000  -34.23567002794052  10.957946262239492  17.647902546648552  54.4249219149127  19.249437593812832  13.135787577450131  0.12375700340623325  55.98537498999751  6.15623164644407  12.208912551354386  120.000000
5.221423220973783  0.000000  0.000000  0.000000  -34.76901248758715  11.128223269536301  18.582933362835153  54.802451763134144  19.14325179980994  13.744738228949693  -0.5645500587623702  56.82020601208051  6.108463382939646  12.597082552904242  120.000000
5.261588014981274  0.000000  0.000000  0.000000  -35.23895395410988  11.26835523938902  19.423784187991032  55.14604856132412  19.043379044731527  14.300704219702645  -1.1715086870139058  57.48663017169981  6.069871886565457  12.966842743283179  120.000000
5.301752808988764  0.000000  0.000000  0.000000  -35.62895583803193  11.378394383993111  20.144893944482643  55.44047316356633  18.948554648871212  14.77340291632389  -1.6668258046539963  57.98466655482041  6.052231468200612  13.28494193737948  120.000000
5.341917602996254  0.000000  0.000000  0.000000  -35.92360779172111  11.458715878094248  20.72252466683389  55.6710418218324  18.856506928195884  15.130554206814013  -2.020394233396246  58.30910622481753  6.06707689601157  13.51823942111763  120.000000
5.382082397003745  0.000000  0.000000  0.000000  -36.109476886071725  11.509079562971097  21.136745754803886  55.82580038260385  18.76481305909377  15.341866769976273  -2.2067610602935726  58.44712139176735  6.119262551258983  13.64109353844525  120.000000
5.422247191011236  0.000000  0.000000  0.000000  -36.175864348773906  11.527651764423249  21.373188010436113  55.89707488199417  18.67172235167237  15.383012405551716  -2.2097517232552333  58.37681283012062  6.201582142458729  13.643286207876942  120.000000
5.4624119850187265  0.000000  0.000000  0.000000  -36.11557069179381  11.510445195869277  21.423962632829276  55.8820598996025  18.576674679299977  15.23840166216667  -2.025253890209179  58.06778911083425  6.292520149698056  13.534755523217493  120.000000
5.502576779026217  0.000000  0.000000  0.000000  -35.925580562384305  11.451877602507071  21.287013570791657  55.78251958506803  18.480052711206323  14.901870669937583  -1.6602389299655789  57.48498231814008  6.358658339511396  13.343334142383705  120.000000
5.542741573033708  0.000000  0.000000  0.000000  -35.607497102735934  11.345796570265753  20.96461437718056  55.60385685947675  18.382657123066444  14.375826566510012  -1.129047960802749  56.594890487621434  6.361111025052231  13.107178534645456  120.000000
5.582906367041199  0.000000  0.000000  0.000000  -35.16775859843493  11.186003551667616  20.462311601360035  55.353675940617684  18.28558753274275  13.669815005636597  -0.44846324803985416  55.37213580579525  6.263463287536617  12.865998652236518  120.000000
5.623071161048689  0.000000  0.000000  0.000000  -34.61760228625603  10.966344156627649  19.788659241191553  55.04114060390471  18.190250232758828  12.799238321931787  0.36681834556540005  53.805309822700615  6.039331754986015  12.652945911639373  120.000000
5.66323595505618  0.000000  0.000000  0.000000  -33.97313594895083  10.681214993481303  18.955283031847447  54.67813916983857  18.097790537901325  11.784586779269198  1.3073559025519739  51.90124931243156  5.677642500319429  12.488455667712298  120.000000
5.70340074906367  0.000000  0.000000  0.000000  -33.25587509319328  10.327315046579557  17.97659675291973  54.28206527956882  18.007046363897917  10.651541013492283  2.3696702579729982  49.68724988396539  5.183987684263463  12.378313883697674  120.000000
5.743565543071161  0.000000  0.000000  0.000000  -32.4933295287334  9.906170655244871  16.868987384733877  53.878235683314436  17.9114056148788  9.431918158407473  3.55408528574372  47.21065234771954  4.578192100987612  12.31658482494281  120.000000
5.7837303370786515  0.000000  0.000000  0.000000  -31.718465408310582  9.426225515992842  15.650098093194233  53.498910780312464  17.796150807394707  8.165015286162605  4.86084714372475  44.535001453129425  3.8905442983681855  12.290672791830636  120.000000
5.823895131086142  0.000000  0.000000  0.000000  -30.96617475351021  8.902378953960802  14.339239744780183  53.17678743970594  17.639406866852667  6.8975520782697375  6.286094863275379  41.731714967659144  3.158817127698901  12.285685227630823  120.000000
5.864059925093633  0.000000  0.000000  0.000000  -30.267532874255345  8.353384441449565  12.958908889092935  52.93496624511412  17.417549807117194  5.681149212343134  7.8191335641980055  38.868011949870244  2.4259975061743844  12.287806360542408  120.000000
5.904224719101124  0.000000  0.000000  0.000000  -29.644703533314022  7.7995371075267546  11.53625910139364  52.779305373795154  17.11283492237365  4.56688744821262  9.443872853214398  35.995172149622206  1.736490616010135  12.286494026627732  120.000000
5.944389513108614  0.000000  0.000000  0.000000  -29.10646316644412  7.260384695329175  10.10293156770213  52.6976685492928  16.720397279787626  3.5973256604544694  11.144233840119151  33.14307355419889  1.1291789760618034  12.27492755645534  120.000000
5.984554307116105  0.000000  0.000000  0.000000  -28.647056239837855  6.753594089646767  8.693234188185667  52.6676913921739  16.250703300706153  2.8009071832933983  12.905783372888811  30.32153651190432  0.633425635848024  12.249088771297082  120.000000
6.024719101123596  0.000000  0.000000  0.000000  -28.251114214450116  6.294932042049885  7.341206138172493  52.66639215011599  15.72658964218762  2.189461935124673  14.719151262375568  27.526636079326362  0.26450648104556146  12.206914373474136  120.000000
6.064883895131086  0.000000  0.000000  0.000000  -27.90038418487226  5.896703170707654  6.077591493995312  52.67590000113685  15.177737024525541  1.7574585482099245  16.587812545060615  24.750545661187342  0.015198277619843012  12.149125796985874  120.000000
6.1050486891385765  0.000000  0.000000  0.000000  -27.57949414775525  5.565520896333533  4.9275761964785785  52.68627628730696  14.63488098997781  1.4846865896540442  18.53577478220293  21.991182749052292  -0.1516957603012287  12.080473449523469  120.000000
6.145213483146067  0.000000  0.000000  0.000000  -27.280186381702215  5.301201972214522  3.9097998037870054  52.69559482477322  14.124940811899345  1.3412205475875532  20.617377092417676  19.258380480701984  -0.3112883644837256  12.010153272131575  120.000000
6.185378277153558  0.000000  0.000000  0.000000  -27.002440561643077  5.097129538152159  3.0361070232758145  52.708097881932154  13.668625263620092  1.2931182868701487  22.929918461817355  16.57494306889208  -0.586324276843743  11.951035997546867  120.000000
6.225543071161049  0.000000  0.000000  0.000000  -26.752658095631038  4.942348318290532  2.311875326870038  52.73175695730454  13.279642301690295  1.3077458395545323  25.63612825797036  13.973745307710555  -1.1661361388225955  11.917764950902445  120.000000
6.265707865168539  0.000000  0.000000  0.000000  -26.539699282616485  4.8245745714258845  1.7384246697876364  52.776325863361485  12.963166807156671  1.3568057058770215  29.008865931679622  11.493333306420295  -2.3485805692835107  11.925422341108032  120.000000
6.30587265917603  0.000000  0.000000  0.000000  -26.369921253109457  4.732905006300288  1.3145971438444861  52.85186842505247  12.715218102865004  1.4183103166680386  33.526957227151286  9.175154787716046  -4.634200962219554  11.988336784768252  120.000000
6.346037453183521  0.000000  0.000000  0.000000  -26.243033138313272  4.659662846538967  1.0357040438293859  52.967586009686116  12.524000816826103  1.4787125586094811  40.088755756086826  7.066446368536353  -8.93976710243339  12.119024844075119  120.000000
6.386202247191012  0.000000  0.000000  0.000000  -26.15063677575705  4.600722174751176  0.8926964091544288  53.13095105619038  12.371863872188209  1.5330076958527339  50.47593174628117  5.236203862187696  -17.062083163093195  12.328077568096749  120.000000
6.426367041198501  0.000000  0.000000  0.000000  -26.07795152950087  4.55478721142079  0.8717718876207006  53.346212873367556  12.237607960197963  1.583210020381708  68.02731303698948  3.8205800550543554  -32.355186234664096  12.624055084919782  120.000000
6.466531835205992  0.000000  0.000000  0.000000  -26.00740087196422  4.522689501947849  0.955536870405957  53.612435575874166  12.09989009408849  1.63630517357203  95.62028594972989  3.082345591446165  -57.716341388183636  13.012500350441078  120.000000
6.506696629213483  0.000000  0.000000  0.000000  -25.923041069808885  4.5060113815840195  1.1243990343294763  53.923842279023006  11.942967777875689  1.701213375332908  125.38188655349582  3.20848256584642  -85.3017230346961  13.492035105571896  120.000000
6.546861423220974  0.000000  0.000000  0.000000  -25.81475360485816  4.505159774673238  1.3596197411217672  54.27147855864769  11.760980101504948  1.7820902233246867  145.75866404874563  3.905053377956129  -103.5986550463025  14.04868620648238  120.000000
6.587026217228464  0.000000  0.000000  0.000000  -25.68112418354204  4.519456131440939  1.6481298887983282  54.64237416862318  11.555927016350443  1.8739273609656482  157.49587417022707  4.766039183386451  -113.39564019021836  14.654314334091563  120.000000
6.627191011235955  0.000000  0.000000  0.000000  -25.530507871234754  4.5477568091681455  1.9792349538282186  55.017521129436055  11.33204083279869  1.9657715796485895  164.36659600598728  5.583225980825774  -118.50668245601237  15.270733974696082  120.000000
6.667355805243446  0.000000  0.000000  0.000000  -25.37979151529028  4.586865356651867  2.3402362781806874  55.37361011180828  11.092948285405447  2.042373945148414  168.60294545773255  6.272070154167601  -121.20253569659853  15.855184231284252  120.000000
6.707520599250937  0.000000  0.000000  0.000000  -25.24973962297142  4.631469215919214  2.7173249331078506  55.68879530131494  10.841473636230262  2.086837936094583  171.35675614584352  6.801230249957229  -122.6647962842901  16.36633151497179  120.000000
6.747685393258427  0.000000  0.000000  0.000000  -25.158031175660582  4.676234944856502  3.096636704333189  55.94744329683425  10.580106036362107  2.0864396943535732  173.26848984143192  7.163866616988017  -123.54734519001795  16.77340657723147  120.000000
6.787850187265918  0.000000  0.000000  0.000000  -25.112994979638604  4.7167917204906615  3.4668955533938894  56.14389307877445  10.312031126797372  2.03643661407299  174.7345108677435  7.367051077863379  -124.23788536976369  17.06426572437916  120.000000
6.828014981273408  0.000000  0.000000  0.000000  -25.110577992159477  4.750073723929743  3.8212543016813028  56.28309455386768  10.041003176370097  1.9409826391087768  176.02039694223313  7.427492104924216  -124.97093088983152  17.24614001518282  120.000000
6.868179775280899  0.000000  0.000000  0.000000  -25.136677884095686  4.774527729089898  4.156985807931265  56.37752399846173  9.770819246624962  1.8109408585623077  177.30552398741992  7.3692186607481  -125.87852875725345  17.340843497119366  120.000000
6.908344569288389  0.000000  0.000000  0.000000  -25.172781478227225  4.789992550687034  4.474396046169074  56.442832966704074  9.504781760078544  1.6604087967126806  178.70786613866943  7.221168778725369  -127.02391593266843  17.377413832872293  120.000000
6.94850936329588  0.000000  0.000000  0.000000  -25.201552443263218  4.797290345001143  4.775253981849578  56.49356250995719  9.245128822527516  1.5030171941076624  -179.70318456758196  7.0140786229859176  -128.42362776824228  17.384267542840767  120.000000
6.988674157303371  0.000000  0.000000  0.000000  -25.21151465496008  4.797797424254827  5.061468760041623  56.540433035089166  8.993024298852477  1.3493755048833922  -177.89980440881882  6.777123656392636  -130.06221182145785  17.38392370937868  120.000000
7.028838951310862  0.000000  0.000000  0.000000  -25.199342724783623  4.79327352780016  5.33404139469896  56.589190895326205  8.749023857323907  1.2059429910995705  -175.89640232412523  6.534799750477417  -131.8959851484022  17.390388815941474  120.000000
7.069003745318352  0.000000  0.000000  0.000000  -25.168738209613522  4.785475123376416  5.592995929603109  56.64139176440371  8.513650921881416  1.075238786677962  -173.74299121516123  6.304649213779382  -133.86006532711156  17.40905624456715  120.000000
7.109168539325843  0.000000  0.000000  0.000000  -25.127200126297538  4.775792850995756  5.8381375203828005  56.69626746848446  8.287677753182317  0.9568117612659276  -171.50778244759587  6.096491779785316  -135.88273204769592  17.439236507269733  120.000000
7.149333333333334  0.000000  0.000000  0.000000  -25.0825779085101  4.765296527943608  6.069497103226255  56.752216871798765  8.071956536285356  0.8488361673116113  -169.25705813728882  5.91338216150766  -137.90137382303365  17.477270688581225  120.000000
7.189498127340824  0.000000  0.000000  0.000000  -25.040852806983995  4.754760589775882  6.287322895124963  56.80773211459293  7.867159024729052  0.7494289993450612  -167.04225965461774  5.753612377306371  -139.87150169038924  17.51882677387622  120.000000
7.229662921348314  0.000000  0.000000  0.000000  -25.005128176295237  4.744748613863093  6.491988651789856  56.861962221517004  7.673463233161537  0.6573445739999729  -164.89572622589708  5.6128896414328375  -141.7681192374214  17.56030440307415  120.000000
7.269827715355805  0.000000  0.000000  0.000000  -24.975650254846425  4.735715238574802  6.683997421154648  56.9146178515675  7.490276166992952  0.572186374333237  -162.83054374651235  5.486198071642927  -143.5840312412532  17.59934701260495  120.000000
7.309992509363296  0.000000  0.000000  0.000000  -24.950969679869733  4.727835210599349  6.863907696309244  56.965942741307465  7.316440147110952  0.4940452016495782  -160.84417045952148  5.368859918944534  -145.32556747982179  17.634757192523416  120.000000
7.3501573033707865  0.000000  0.000000  0.000000  -24.929236208026403  4.720902681233964  7.032276306343386  57.01672407950773  7.150642865072033  0.42320099655378385  -158.92009332682144  5.256951658039462  -147.01099405318604  17.666145293102474  120.000000
7.390322097378277  0.000000  0.000000  0.000000  -24.9092142760692  4.714216992328429  7.189910767076586  57.06846421977546  6.991858780803518  0.3597664839217534  -157.0266293866524  5.147519424160454  -148.67206205368623  17.69378748720748  120.000000
7.430486891385768  0.000000  0.000000  0.000000  -24.89097798106766  4.706402529199191  7.33814281064575  57.123625419210406  6.839684648131815  0.303541246065499  -155.1135488162224  5.0387285147627425  -150.3576903055007  17.71864770396223  120.000000
7.470651685393259  0.000000  0.000000  0.000000  -24.87589439059983  4.695456787261346  7.478885351065266  57.18570515929758  6.694483736676445  0.2540502166561147  -153.11314076386805  4.930054733974911  -152.13322927592344  17.74256431196974  120.000000
7.5108164794007495  0.000000  0.000000  0.000000  -24.866008722672987  4.67914045729859  7.614562024839999  57.25883907780945  6.5572423672671825  0.21074817336995222  -150.9503687315698  4.822665195999951  -154.07062696841203  17.768349018307468  120.000000
7.550981273408239  0.000000  0.000000  0.000000  -24.86293982885039  4.655733692630995  7.747728679787596  57.34669340458451  6.42908522098841  0.17324330470610977  -148.56643413464056  4.719761508313085  -156.22542222042227  17.79930224050027  120.000000
7.59114606741573  0.000000  0.000000  0.000000  -24.86664329539997  4.6249928739367965  7.8804017294293  57.45073446035212  6.310602047102408  0.1414126524684488  -145.95254985499238  4.626474715945082  -158.60375525446625  17.838357511293875  120.000000
7.631310861423221  0.000000  0.000000  0.000000  -24.87446001438009  4.589277559935537  8.013245230941283  57.568078899351335  6.20113003383618  0.11537550265472937  -143.18800491088186  4.548908406806062  -161.1252213686409  17.886877451674213  120.000000
7.6714756554307115  0.000000  0.000000  0.000000  -24.8805529131204  4.554458993201456  8.14479385711793  57.68965421762509  6.098196836191453  0.0952290260634415  -140.46769624457608  4.4920896716173635  -163.5963781572974  17.943194262476602  120.000000
7.711640449438202  0.000000  0.000000  0.000000  -24.876389020726222  4.529758500970376  8.271313741747834  57.79973130340723  5.997437121935963  0.08057245379375486  -138.09469115796617  4.457603051192154  -165.7185900594792  18.001874943273418  120.000000
7.751805243445693  0.000000  0.000000  0.000000  -24.852089865895937  4.526416402988144  8.387144116921203  57.877402216940425  5.89313815918538  0.07019306183726735  -136.42643848807757  4.442358458781087  -167.14148280714053  18.05448656600759  120.000000
7.791970037453184  0.000000  0.000000  0.000000  -24.798141873332316  4.5553102015214035  8.485319275602166  57.90029540849777  5.779406862686534  0.06194076524887926  -135.7933591376908  4.439322001911964  -167.5433144655127  18.09083049908255  120.000000
7.8321348314606745  0.000000  0.000000  0.000000  -24.707299153894017  4.623439503177871  8.558863093195741  57.850413645511  5.651810718127904  0.05263609667104361  -136.41924014396204  4.439986232656132  -166.70951452341723  18.09984176882912  120.000000
7.872299625468165  0.000000  0.000000  0.000000  -24.575799331728277  4.730145310038059  8.602077151726867  57.719826692639664  5.508984852002446  0.03781627795360453  -138.36808808137235  4.436512633252469  -164.58536071334345  18.07008713553937  120.000000
7.912464419475655  0.000000  0.000000  0.000000  -24.403838510618147  4.8651745792363545  8.61138433847332  57.51401093053409  5.3532261898266  0.012316450067634249  -141.52742473684702  4.421413584337339  -161.29242880688713  17.989594844115306  120.000000
7.952629213483146  0.000000  0.000000  0.000000  -24.194475696422412  5.009868285876838  8.58522816039378  57.250756929971715  5.190479872715288  -0.028871521887754846  -145.64706602360334  4.382622156869905  -157.0899229800624  17.846165671672328  120.000000
7.9927940074906365  0.000000  0.000000  0.000000  -23.952202229666725  5.139795991476365  8.524617564651667  56.95672464459943  5.030457241265778  -0.09047609436694004  -150.45506382511425  4.296246368779085  -152.25963145565993  17.626758094831175  120.000000
8.032958801498127  0.000000  0.000000  0.000000  -23.68100497172851  5.2290222236562105  8.433070866184446  56.66085158542251  4.887672032965217  -0.17584884531814235  -155.84100963244734  4.123230058477437  -146.9240723097997  17.318720670668288  120.000000
8.073123595505619  0.000000  0.000000  0.000000  -23.382678003263887  5.257669457671603  8.31454216106499  56.38787114733047  4.783182081349872  -0.2837737087364721  -162.11754226364377  3.816050485543339  -140.7860581976273  16.914572324984263  120.000000
8.113288389513109  0.000000  0.000000  0.000000  -23.059773343651447  5.217235670615768  8.175497238485676  56.153815783339645  4.7420414015438865  -0.40876121294545953  -170.4738077684838  3.3405027497806405  -132.67476284864563  16.41501005298926  120.000000
8.153453183520599  0.000000  0.000000  0.000000  -22.720064812764114  5.110846456149982  8.022543276109369  55.9630779309608  4.790821442936798  -0.5421487650403557  175.91633267995914  2.7213887073063745  -119.43574879507617  15.832419688792099  120.000000
8.19361797752809  0.000000  0.000000  0.000000  -22.378455540422504  4.953177711547258  7.855199188859491  55.80950853133535  4.954899220559568  -0.6699077516194424  149.75246064444184  2.1711157431788997  -93.7875328383167  15.192558307551849  120.000000
8.23378277153558  0.000000  0.000000  0.000000  -22.053993542999365  4.768198661633389  7.667391787377527  55.67794011572754  5.251843543780561  -0.7747401273875862  109.77789096084615  2.3063126804028786  -54.49062400819771  14.53096492035961  120.000000
8.273947565543072  0.000000  0.000000  0.000000  -21.76435292166692  4.582524501277094  7.452680693372816  55.55015814422987  5.689636634932871  -0.8379582343790023  80.83728105075873  3.485673949244916  -26.40272729637171  13.887375465205627  120.000000
8.314112359550561  0.000000  0.000000  0.000000  -21.520083494111002  4.418579572327186  7.20800187699124  55.412971629957504  6.26694918877314  -0.8420939416652412  66.75405574467241  5.352773133867669  -13.358690662049298  13.296855062505694  120.000000
8.354277153558053  0.000000  0.000000  0.000000  -21.319895903315825  4.292186343997346  6.935805208664571  55.26089967030775  6.974479280316809  -0.7732648428231224  59.57955737237406  7.658409218556706  -7.411053442535682  12.780170172824912  120.000000
8.394441947565543  0.000000  0.000000  0.000000  -21.150760632704326  4.21431015716763  6.6435624406058755  55.09327502262454  7.795331473887475  -0.6211193289420008  55.45886724731055  10.29806508512503  -4.684147119339328  12.342594388302736  120.000000
8.434606741573035  0.000000  0.000000  0.000000  -20.99220396725334  4.1919429060549955  6.341816577599826  54.9073668495473  8.703502015167379  -0.3808114623339898  52.798050468599726  13.20478875238796  -3.547913891985438  11.977777526401825  120.000000
8.474771535580524  0.000000  0.000000  0.000000  -20.824978814838705  4.228871639119603  6.043355877980112  54.69879580185469  9.66531648554128  -0.0529364238982411  50.88033603935968  16.317994188503793  -3.2432454287188883  11.6726094751141  120.000000
8.514936329588014  0.000000  0.000000  0.000000  -20.63664174347886  4.326079643204672  5.76460140461153  54.466588742998354  10.642137191875522  0.3551368006354819  49.36859418598012  19.58116086254355  -3.3904237145782417  11.413781831988926  120.000000
8.555101123595506  0.000000  0.000000  0.000000  -20.421414785131184  4.477723889426629  5.526049032693996  54.215050310868236  11.595184749022412  0.8300554943843461  48.106655234189176  22.944344986902564  -3.7944859170412384  11.190436679452679  120.000000
8.595265917602996  0.000000  0.000000  0.000000  -20.1850486086258  4.671649401648552  5.3498596907956975  53.96069334224349  12.49105321253285  1.3572277015623666  47.01255421987399  26.36178582769913  -4.344828228947368  10.995745952982  120.000000
8.635430711610487  0.000000  0.000000  0.000000  -19.94924465482453  4.896761485360685  5.257918403751713  53.728359499092804  13.303864665366314  1.9204627597482449  46.03796830938941  29.78978721892273  -4.97480017871534  10.827355689846518  120.000000
8.675595505617977  0.000000  0.000000  0.000000  -19.746557086016868  5.144235496530437  5.270748202936066  53.54273698773375  14.015418283446735  2.5014164179855753  45.14968693320834  33.185589004966126  -5.6423673420415135  10.684279087506654  120.000000
8.715760299625469  0.000000  0.000000  0.000000  -19.611115535888366  5.405891668053666  5.406165833135871  53.42646456129475  14.615627825187241  3.0815735504820183  44.32031636614014  36.5067091211279  -6.319798548677015  10.564526250046558  120.000000
8.755925093632959  0.000000  0.000000  0.000000  -19.570492559171566  5.67489523774562  5.677822938215159  53.39732721766709  15.101498391063513  3.645321122316471  43.526798266798544  39.71088763428103  -6.989177759294602  10.465933648396534  120.000000
8.79608988764045  0.000000  0.000000  0.000000  -19.64096755454557  5.945632285558203  6.093555119466872  53.46676178830505  15.475786693729225  4.182641027323361  42.74870103168669  42.756035497190304  -7.639637629254195  10.38667210312706  120.000000
8.83625468164794  0.000000  0.000000  0.000000  -19.82640158769148  6.214358975054138  6.653918669674708  53.638620877059516  15.745331575542188  4.6903460747562855  41.96837216811841  45.60165335569328  -8.265472025303412  10.325829393170176  120.000000
8.87641947565543  0.000000  0.000000  0.000000  -20.119973670250488  6.479267872705654  7.351952268987345  53.909046765032386  15.919878567417323  5.171724594389645  41.17207570393112  48.21094620256051  -8.865519279406445  10.283672490153629  120.000000
8.916584269662922  0.000000  0.000000  0.000000  -20.507526898572582  6.739693695255842  8.173925127098027  54.26786775140392  16.011381834907304  5.634852640946311  40.351201065248226  50.55370386783008  -9.441987508190156  10.260609126853092  120.000000
8.956749063670411  0.000000  0.000000  0.000000  -20.971608639191768  6.99538403123395  9.100668773756066  54.700695372186715  16.03316739469738  6.090185086574275  39.50260277292343  52.6094435032301  -9.99794078557141  10.256752034998257  120.000000
8.996913857677903  0.000000  0.000000  0.000000  -21.495082061264814  7.245614577078966  10.10945601790171  55.19061421566818  15.99954506670127  6.547396477363859  38.62931869254678  54.370159018210906  -10.534014018238388  10.270933454245155  120.000000
9.037078651685393  0.000000  0.000000  0.000000  -22.063313183315557  7.488346430160217  11.17570552266913  55.71949790109865  15.925290097716609  7.0126639254498855  37.74032805927609  55.84196966278471  -11.045620270529449  10.299693017608856  120.000000
9.077243445692885  0.000000  0.000000  0.000000  -22.664822422916632  7.719770880698628  12.274441488606508  56.268557155774275  15.825454041518311  7.4867982918137415  36.85015783068535  57.04435390176913  -11.522111556360642  10.336944277885353  120.000000
9.117408239700374  0.000000  0.000000  0.000000  -23.289885279993275  7.93478695688182  13.380929283511897  56.818637952391356  15.714660992278958  7.965035988883487  35.97699614704184  58.00700396179274  -11.94813288704758  10.374766104431513  120.000000
9.157573033707866  0.000000  0.000000  0.000000  -23.928260161315897  8.127215340752972  14.470904144857869  57.35096558688923  15.606315629575805  8.437634397981405  35.14118816134369  58.76517438480192  -12.30717270708522  10.404776010164857  120.000000
9.197737827715356  0.000000  0.000000  0.000000  -24.56670779535972  8.290779479020415  15.520052090093412  57.848394600398784  15.510752640919083  8.891519742344201  34.36364564525823  59.355260277416434  -12.585770988335602  10.42018221059472  120.000000
9.237902621722846  0.000000  0.000000  0.000000  -25.18686556572947  8.421057289079432  16.503400197366613  58.29631577764518  15.433288644871514  9.311964703276562  33.664543932471  59.81106408629832  -12.777565502398797  10.417628373541381  120.000000
9.278067415730337  0.000000  0.000000  0.000000  -25.76515712019177  8.516177473548154  17.39576433936481  58.684075147251676  15.373419263249618  9.683570343819872  33.061771655118925  60.161015492439184  -12.885429387586525  10.398184730542557  120.000000
9.318232209737827  0.000000  0.000000  0.000000  -26.275163364195734  8.577172231555386  18.1727154607669  59.00558743871772  15.325201916974518  9.990543676496445  32.57017063626768  60.42719736470784  -12.921199016611755  10.366939684188257  120.000000
9.358397003745319  0.000000  0.000000  0.000000  -26.69058782061767  8.606838973182166  18.812563384312828  59.2590705190754  15.2796108505189  10.21691337281013  32.20127585421502  60.62401577047584  -12.902569927906562  10.331154503356471  120.000000
9.398561797752809  0.000000  0.000000  0.000000  -26.987677832504016  8.607360490829262  19.297650049543094  59.44620923110485  15.226705083681422  10.346690302612602  31.963916851814098  60.75864451327766  -12.849232916240725  10.297850064426774  120.000000
9.4387265917603  0.000000  0.000000  0.000000  -27.148916202331684  8.579613725030102  19.61580081966848  59.57094879182809  15.157312648518028  10.365076177183639  31.866209839257074  60.830693307122374  -12.77959348046213  10.271624391847757  120.000000
9.47889138576779  0.000000  0.000000  0.000000  -27.16591224761603  8.522867871690034  19.761103660041652  59.637966146284185  15.064127759256799  10.259713578879069  31.916510703671918  60.83249336966664  -12.70739214610599  10.253142722697541  120.000000
9.519056179775282  0.000000  0.000000  0.000000  -27.040388968299116  8.43450757790758  19.73411282423952  59.65120660941291  14.942697711617669  10.022205643705425  32.12330737331367  60.74896147817131  -12.639856147734909  10.23852549841359  120.000000
9.559220973782772  0.000000  0.000000  0.000000  -26.783305561304438  8.31080317298858  19.540831329798895  59.61336342022208  14.791499422016814  9.649864408976397  32.4941789339542  60.55803859963552  -12.577239793558839  10.220010215879764  120.000000
9.599385767790261  0.000000  0.000000  0.000000  -26.41242708516828  8.148568943537715  19.191086131516315  59.5259776775496  14.611309515542114  9.147244322039608  33.0342464014395  60.23131615623769  -12.513989436267012  10.188357448939481  120.000000
9.639550561797753  0.000000  0.000000  0.000000  -25.94960440200575  7.9468491935816035  18.697495114435444  59.389603072525624  14.404722602436873  8.527658905629227  33.74498380776341  59.73342209257593  -12.440261333863514  10.13601035269204  120.000000
9.679715355805243  0.000000  0.000000  0.000000  -25.417978286656908  7.707683684070146  18.074282546837157  59.204273572159835  14.175766552733817  7.813093034195943  34.62238888426716  59.02268782698403  -12.343780440941718  10.06064550226102  120.000000
9.719880149812735  0.000000  0.000000  0.000000  -24.84077945006082  7.436998663956026  17.337501420765165  58.96920764222553  13.930230390722341  7.033664486207506  35.655936049297345  58.05096661979386  -12.211102747803485  9.967764595529674  120.000000
9.760044943820224  0.000000  0.000000  0.000000  -24.240054144831458  7.144063681441068  16.50435717579805  58.68359660801871  13.676018738385574  6.224219659566007  36.82703712219495  56.76755351120258  -12.028026416752432  9.870488175120197  120.000000
9.800209737827716  0.000000  0.000000  0.000000  -23.63601783991667  6.839676725998774  15.593318321437797  58.347349308282546  13.423317464676437  5.420570932530053  38.109233359030156  55.12386638531906  -11.779448077784123  9.786984426352648  120.000000
9.840374531835206  0.000000  0.000000  0.000000  -23.04677227941761  6.535225396783366  14.623047759502207  57.96206859586229  13.183319522336996  4.654377663774418  39.46880857470163  53.08184233292516  -11.448885865159978  9.736880308760965  120.000000
9.880539325842697  0.000000  0.000000  0.000000  -22.48905749307914  6.240881077841422  13.612366337839156  57.532150336374364  12.966508374907336  3.94958565892749  40.86525426659816  50.62140527551664  -11.01709896139725  9.739153500234126  120.000000
9.920704119850187  0.000000  0.000000  0.000000  -21.978908488690767  5.964442888479104  12.581291747475262  57.06613347407144  12.77970045739173  3.3197711469822555  42.255260273481355  47.748525937533216  -10.462225859306603  9.811380349727651  120.000000
9.960868913857677  0.000000  0.000000  0.000000  -21.52844176203315  5.709114062119982  11.552118334012517  56.578165882798594  12.624439740733235  2.767996799724457  43.597784029512006  44.500335962695885  -9.763217114627496  9.970046515588598  120.000000
10.001033707865169  0.000000  0.000000  0.000000  -21.14332900797958  5.4727982460583995  10.548804743936522  56.08942929629542  12.499065032530142  2.2917875125371343  44.85622292437136  40.93998453504461  -8.902912310952674  10.229030135382217  120.000000
10.041198501872659  0.000000  0.000000  0.000000  -20.825533869026117  5.251537159612161  9.593832229347765  55.626201969881144  12.398741238530272  1.8870964799423886  45.99865562929046  37.14854768776619  -7.8690084795242665  10.599502759590498  120.000000
10.08136329588015  0.000000  0.000000  0.000000  -20.5763318150245  5.042020893478194  8.70684998328574  55.21406841684605  12.315510155113254  1.54845214172282  47.00308970874645  33.215491858009884  -6.660756158661419  11.089712824898491  120.000000
10.12152808988764  0.000000  0.000000  0.000000  -20.395363358047685  4.842771868823833  7.902797147565439  54.87346685511333  12.23895061926335  1.269452361874625  47.86424028397196  29.23061877543651  -5.298226938082865  11.700137260197387  120.000000
10.161692883895132  0.000000  0.000000  0.000000  -20.27927551462629  4.654535317602964  7.190981915233378  54.61721839923069  12.157326976825066  1.0441208394126416  48.60409306781105  25.27738740399154  -3.834075547286631  12.419956019900093  120.000000
10.201857677902622  0.000000  0.000000  0.000000  -20.221568018657806  4.47954476692043  6.574192115542912  54.44998328550247  12.059854829531307  0.8672087487062864  49.287691535210485  21.42922386945085  -2.369141050167998  13.226568996187334  120.000000
10.242022471910113  0.000000  0.000000  0.000000  -20.21321702888706  4.320559099744528  6.048712514561558  54.36825030939169  11.937948986697632  0.7346019324329852  50.04166122316285  17.747985613217338  -1.0685351424672889  14.088576790056363  120.000000
10.282187265917603  0.000000  0.000000  0.000000  -20.244258788540733  4.180856370424057  5.606222211148155  54.360421211065706  11.787219347247177  0.6438011349136038  51.08661455396397  14.285274802080528  -0.19191115449121854  14.971292575776907  120.000000
10.322352059925093  0.000000  0.000000  0.000000  -20.305144625457086  4.063800312588178  5.236913364043519  54.410585605597596  11.609336627725106  0.59267844020731  52.81089587145077  11.090631790359938  -0.1681442906020291  15.837911756366523  120.000000
10.362516853932584  0.000000  0.000000  0.000000  -20.386963205168783  3.971585947676616  4.932656462214493  54.501432137760645  11.413757588859925  0.5775706902987553  55.95686710244649  8.22054243588963  -1.7760333096093388  16.648858301694776  120.000000
10.402681647940074  0.000000  0.000000  0.000000  -20.482498903512482  3.905614043611162  4.689340237123167  54.61591739989101  11.217258932603961  0.5929176522137349  62.112673505757876  5.746342816766948  -6.628244400830394  17.36388018529636  120.000000
10.442846441947566  0.000000  0.000000  0.000000  -20.588009603695042  3.866185776380979  4.504908234245081  54.738173712904405  11.038565971495363  0.6311133476105037  74.91963731405474  3.786565133189242  -18.382870218941612  17.943591798157883  120.000000
10.483011235955056  0.000000  0.000000  0.000000  -20.706429799243153  3.85107938682085  4.377898298606335  54.85507652732095  10.896455256525638  0.682468334122545  100.79371378151527  2.5937523794562534  -43.469600814450125  18.348385423235975  120.000000
10.523176029962547  0.000000  0.000000  0.000000  -20.848075537764984  3.856085678758915  4.305701966559187  54.960336724778415  10.806559692079965  0.7367162073664371  134.45357227367197  2.4511403833607357  -76.62136459835425  18.540660023538134  120.000000
10.563340823970037  0.000000  0.000000  0.000000  -21.02621686649688  3.8736283311314863  4.28256786872439  55.055741218020415  10.77878714793366  0.7852297114271812  155.23949563512278  2.9937583221030892  -97.19195399265625  18.49031367192046  120.000000
10.603505617977529  0.000000  0.000000  0.000000  -21.253582028223448  3.8904843084985146  4.299118640537767  55.1559058723488  10.81458017078133  0.8223862905666055  163.31733712232983  3.6819104328777525  -105.35992161117385  18.18063951797183  120.000000
10.643670411985019  0.000000  0.000000  0.000000  -21.532316659270144  3.890136956825746  4.342678469284304  55.28421554763197  10.906086254534518  0.8493345523361302  164.54454703559438  4.35352937935379  -106.98309063893008  17.63062544345697  120.000000
10.683835205992509  0.000000  0.000000  0.000000  -21.83930969298025  3.852560053137833  4.400912934512447  55.47358191036504  11.038395838639223  0.8756801081922372  161.9877727133285  5.032758614746472  -105.10295094119151  16.898897970680007  120.000000
10.724  0.000000  0.000000  0.000000  -22.157234004825554  3.745187060997119  4.465864073414257  55.75035587167789  11.196760081834485  0.9033866581533196  157.3702159130606  5.790483623568387  -101.38993099758537  16.062967918001668  120.000000
