Simulation
nRows=201
nColumns=15
endheader
time  TH_x TH_y TH_z SC_y  SC_z  SC_x  AC_y  AC_z  AC_x  GH_y  GH_z  GH_yy  EL_x  PS_y
0.0  0.000000  0.000000  0.000000  -21.481837363305974  5.049547332879065  0.3347068766571287  51.34548281287631  7.510987189984201  0.07237665173124617  166.62346768642934  2.0040888035526154  -123.45301241910148  20.898354575283836  120.000000
0.05362  0.000000  0.000000  0.000000  -21.215904931156032  5.197509170098901  -0.44258977936460536  51.23120813275967  7.66860363306167  0.6240678443483233  -50.32785339104826  0.4372548882924331  92.51438805621866  20.23671608416023  120.000000
0.10724  0.000000  0.000000  0.000000  -21.069041765125696  5.341351773611365  -1.166096396207123  51.09654203298141  7.7468722077712595  1.1477584321123933  -22.94054163293323  2.6686812981663777  64.02972558861542  19.566575777339768  120.000000
0.16086  0.000000  0.000000  0.000000  -21.13031186714851  5.51837565868688  -1.8445792705664015  50.930602780779225  7.790541596315899  1.6234544869868404  -19.352085336683285  4.854449178817945  59.113661671469465  18.86151606627964  120.000000
0.21448  0.000000  0.000000  0.000000  -21.45843628574943  5.759329284140836  -2.455157555243811  50.72050224103456  7.8606892825172245  2.051932310057044  -17.09824715559164  6.969424190147719  55.22376956113352  18.109550041737027  120.000000
0.2681  0.000000  0.000000  0.000000  -22.063193064830397  6.083258634284384  -2.9499019182236847  50.46913728160556  8.021568124749063  2.44051004676673  -15.360277645976533  9.060611976379127  51.5205674212359  17.310289503633893  120.000000
0.32172  0.000000  0.000000  0.000000  -22.92653372080903  6.504835389681187  -3.27898566338794  50.19009435412166  8.31271031599321  2.7972627529032983  -14.034582609074816  11.181559233379465  47.92505948324011  16.477327848451303  120.000000
0.37534  0.000000  0.000000  0.000000  -24.013411490801715  7.02650294947692  -3.4026330300409233  49.897152683192544  8.73792030748513  3.1268867643804286  -13.146212026670664  13.382147024890356  44.51837069967878  15.630415708749828  120.000000
0.42896  0.000000  0.000000  0.000000  -25.284826438649567  7.641689550206492  -3.2945493349951795  49.59898600401906  9.26458428506664  3.430581625673255  -12.707533718025733  15.700744470489663  41.38716402756133  14.79391116963927  120.000000
0.48258  0.000000  0.000000  0.000000  -26.69494448641633  8.333901112562287  -2.945505487111346  49.30440228179285  9.836732930798282  3.705467703020063  -12.691052352698515  18.161005408502785  38.59107124723852  13.991216791880552  120.000000
0.5362  0.000000  0.000000  0.000000  -28.196499176274735  9.081386150935476  -2.363687165804008  49.02387047908402  10.391166394409687  3.9495781763582256  -13.009056661907234  20.77041997598463  36.13197029346683  13.241680528140154  120.000000
0.58982  0.000000  0.000000  0.000000  -29.739834106588543  9.858363971654402  -1.5745651278305655  48.772941992472376  10.8741273027618  4.164127070311975  -13.534495421339413  23.521459123115672  33.96605461715385  12.55734497955342  120.000000
0.64344  0.000000  0.000000  0.000000  -31.280544062067943  10.641239603949224  -0.6161130103436645  48.57005211819182  11.248783064961897  4.354182726553984  -14.122916221538174  26.393030178356042  32.0133039533935  11.943860971124405  120.000000
0.69706  0.000000  0.000000  0.000000  -32.78233166175088  11.409452804602525  0.4685905131368305  48.43300495706632  11.498793808885027  4.527157082429272  -14.645057672920512  29.35326201964096  30.18158975038013  11.39772476165513  120.000000
0.75068  0.000000  0.000000  0.000000  -34.220840468197736  12.147505001987941  1.6347706422572619  48.375271699398134  11.630903099393903  4.694055792738021  -15.000990180719809  32.36170993306399  28.375650429179277  10.904606187454807  120.000000
0.8043  0.000000  0.000000  0.000000  -35.58093462243857  12.842508199507849  2.8486705410061153  48.40373781589502  11.66834646871908  4.8656890738797225  -15.13187636187591  35.37563657107805  26.513759792140437  10.43878442650931  120.000000
0.85792  0.000000  0.000000  0.000000  -36.85312234639035  13.485218847157887  4.0910770003741135  48.51803328487539  11.643410668809915  5.048858527644741  -15.022009868283003  38.35376175844882  24.541786995421464  9.970215780709859  120.000000
0.91154  0.000000  0.000000  0.000000  -38.02818773908263  14.066673630923864  5.353898237124727  48.708165090374074  11.588285348381465  5.2450792698882704  -14.699097667616337  41.259238319960566  22.449730355687105  9.4753708988905  120.000000
0.96516  0.000000  0.000000  0.000000  -39.095366811860536  14.580391947054329  6.627826695971223  48.95399179176886  11.529962232046  5.450425049433242  -14.226077432896014  44.05821954935341  20.27668898546964  8.949865609728196  120.000000
1.01878  0.000000  0.000000  0.000000  -40.04253034089996  15.022270682391811  7.895245042485939  49.22644298895832  11.486520835454153  5.6572345699054765  -13.68624921261593  46.71935443698225  18.103719845688648  8.41204460954878  120.000000
1.0724  0.000000  0.000000  0.000000  -40.86079616231641  15.391844978834406  9.126981838526303  49.493182203516895  11.466098819040893  5.856364712495932  -13.16314022870531  49.210897164387625  16.032306759011973  7.896309510192698  120.000000
1.12602  0.000000  0.000000  0.000000  -41.54768656719439  15.692304914154585  10.2875791322425  49.727638995803694  11.465404300994106  6.036791094766215  -12.72247813650743  51.50105333403935  14.160560471990882  7.441042321352238  120.000000
1.17964  0.000000  0.000000  0.000000  -42.11042278674934  15.930291061142052  11.343917161667632  49.915166770375926  11.46998823559647  6.185853460917784  -12.4024924838766  53.55977576195934  12.56491247279618  7.07904831233139  120.000000
1.23326  0.000000  0.000000  0.000000  -42.562838873861395  16.11518313952547  12.265277739364274  50.055801955084064  11.459412915401384  6.291132172342997  -12.214491456698564  55.36071301432299  11.292800828954745  6.832470991545315  120.000000
1.28688  0.000000  0.000000  0.000000  -42.92139910557096  16.256904443716852  13.026618870995645  50.15812563627588  11.413514135723803  6.345798694507143  -12.149103583861548  56.88401906501078  10.36196299944778  6.7131182429503164  120.000000
1.3405  0.000000  0.000000  0.000000  -43.201470413047744  16.36690404639534  13.612713563376628  50.23287203104233  11.319255516974563  6.348811770769898  -12.185397609562841  58.1214354369342  9.762756396310918  6.7199659972123005  120.000000
1.39412  0.000000  0.000000  0.000000  -43.4171742675361  16.45521273493937  14.025703234055237  50.28663614867546  11.176740894007898  6.306812181001665  -12.297772055504385  59.08035586556183  9.459452562499528  6.833346263638208  120.000000
1.44774  0.000000  0.000000  0.000000  -43.58055215006241  16.52847484855127  14.288489110853403  50.32094157458297  11.00167728721063  6.232816802933641  -12.460594719973843  59.783857029547235  9.393885444032497  7.0102466034492785  120.000000
1.50136  0.000000  0.000000  0.000000  -43.7017998046751  16.589430875275884  14.440841973484682  50.33393680498964  10.820867101306243  6.14194457198359  -12.649903493258783  60.26668118474663  9.494987149906894  7.191264611099828  120.000000
1.55498  0.000000  0.000000  0.000000  -43.787907797745675  16.637526035573437  14.528626603689725  50.32261541905364  10.662815824746486  6.047321384310007  -12.843032227983919  60.56565401325067  9.692581322911492  7.316927280115946  120.000000
1.6086  0.000000  0.000000  0.000000  -43.841561924518494  16.670818687115442  14.590165000715475  50.286327289313704  10.546915193958512  5.95500063707082  -13.016350611086235  60.7085937875253  9.92983091196739  7.348618965451354  120.000000
1.66222  0.000000  0.000000  0.000000  -43.8588056147131  16.686153483789287  14.647730824823388  50.22779367877546  10.476567463662603  5.863164747850528  -13.144369557779523  60.70342934555716  10.170218344624619  7.282031870235134  120.000000
1.71584  0.000000  0.000000  0.000000  -43.82749242385274  16.678532563214485  14.705008123471195  50.15412954468361  10.439922138971536  5.76252634544599  -13.201177580229952  60.52966560566004  10.394210383018693  7.146078040173333  120.000000
1.76946  0.000000  0.000000  0.000000  -43.72708307795616  16.639933482534417  14.75045661557144  50.07690756187742  10.415653138883203  5.638723632849879  -13.164504130373746  60.133788982771314  10.589086674612515  6.9903515092203445  120.000000
1.82308  0.000000  0.000000  0.000000  -43.53230717550969  16.5582983147631  14.76260860647894  50.01119115187835  10.379868075909867  5.475556978272568  -13.020844840573691  59.42932951868744  10.738245652191482  6.8741460084168295  120.000000
1.8767  0.000000  0.000000  0.000000  -43.21915101071562  16.4188618878988  14.712700636356582  49.974013308260645  10.309953681841415  5.256513871811987  -12.76944594499961  58.304442737968095  10.817693257537092  6.859771536590472  120.000000
1.93032  0.000000  0.000000  0.000000  -42.7705057869099  16.205424927890206  14.566682777785068  49.97894832476018  10.18618541194885  4.967968160136493  -12.421630780984632  56.63951166032272  10.802853095309784  7.007075051326019  120.000000
1.98394  0.000000  0.000000  0.000000  -42.176724277476346  15.904454030404777  14.284393664063145  50.030758424974515  9.992420552208682  4.599613545187473  -11.994253546855179  54.33382035193697  10.68706422178151  7.361754360348077  120.000000
2.03756  0.000000  0.000000  0.000000  -41.43035819494575  15.506794842668437  13.82256578261073  50.11905228797335  9.717329893741049  4.1498483800590655  -11.499303523776003  51.33729912557864  10.505275210635265  7.93392667533505  120.000000
2.09118  0.000000  0.000000  0.000000  -40.51890675370004  15.010136338537576  13.139485463008292  50.21841134860311  9.359460929785829  3.630744496992749  -10.938857666550618  47.67693833161554  10.355321953193739  8.674224099300295  120.000000
2.1448  0.000000  0.000000  0.000000  -39.4205151870587  14.41810525132427  12.207497562903109  50.29694020566644  8.92971215532849  3.069781450797843  -10.312714121340099  43.465625987724536  10.401969889635  9.470846768255013  120.000000
2.19842  0.000000  0.000000  0.000000  -38.1086512534834  13.736673750853729  11.025924877672107  50.329533835037644  8.448350135939373  2.506428971097061  -9.640673976885516  38.882591346697396  10.862471933611808  10.182055321010493  120.000000
2.25204  0.000000  0.000000  0.000000  -36.56543708992231  12.972737187819744  9.624127200139664  50.308715605416225  7.943614147939698  1.987168679381469  -8.990065674132818  34.13767807383127  11.97873164401727  10.695551378177267  120.000000
2.30566  0.000000  0.000000  0.000000  -34.79772053431465  12.13679716087914  8.057923272044512  50.247686092259514  7.4505966704071405  1.558213381553213  -8.494370736712957  29.439164589244797  13.985548433971173  10.9900245696905  120.000000
2.35928  0.000000  0.000000  0.000000  -32.84779795027606  11.245910239369636  6.397721165395229  50.17569359015428  7.010502558151686  1.2591568287638377  -8.355731579972536  24.972111886918242  17.08435058569915  11.159088712814178  120.000000
2.4129  0.000000  0.000000  0.000000  -30.792200715464045  10.325005274123845  4.717372002759282  50.130092141656895  6.6646686616613575  1.1155963345257878  -8.821341112219617  20.886723553712795  21.42104168059115  11.37216535586933  120.000000
2.46652  0.000000  0.000000  0.000000  -28.7321837983116  9.404264528593398  3.0930799107475004  50.1464324556071  6.4448442518730396  1.1313920390806598  -10.123998698888856  17.289333357988376  27.04464899379048  11.796793869068281  120.000000
2.52014  0.000000  0.000000  0.000000  -26.78116823257054  8.518159148222535  1.5989838241175682  50.2515261972042  6.369943820655216  1.2871750822453754  -12.362758563604634  14.229412590823875  33.81099542905837  12.522692881414628  120.000000
2.57376  0.000000  0.000000  0.000000  -25.052124562429903  7.701678884331847  0.29872298982037043  50.45702407744265  6.448743544179052  1.547151931832653  -15.3532939276998  11.68706486210075  41.26055610296301  13.525625457443349  120.000000
2.62738  0.000000  0.000000  0.000000  -23.645650161695723  6.986742891175395  -0.765949590073074  50.75320486018631  6.6824900317699525  1.8679685526090872  -18.55706064429796  9.574757462644957  48.584019097631035  14.691392448384537  120.000000
2.681  0.000000  0.000000  0.000000  -22.63489625957018  6.398527548745718  -1.582608640694714  51.10747375010814  7.064998621339043  2.2062407833041355  -21.191873095739705  7.768249441815315  54.776213002691414  15.87226100260472  120.000000
2.73462  0.000000  0.000000  0.000000  -22.04574376083497  5.9498388482913045  -2.1648936438758604  51.47282386111145  7.578152261489821  2.5241738035790897  -22.41456327437952  6.162167174378746  58.85989876588507  16.937437369456042  120.000000
2.78824  0.000000  0.000000  0.000000  -21.84213564606263  5.637011811023277  -2.5447729176057914  51.804674499422944  8.19133005719316  2.795592403551931  -21.362246147513833  4.714985476829606  59.94962263795948  17.801067847082695  120.000000
2.84186  0.000000  0.000000  0.000000  -21.93398551673368  5.439762670909118  -2.7610779618388595  52.0741038035479  8.864853145649423  3.008563391997152  -16.925012867256715  3.455199436926644  57.00965347944453  18.422652947075463  120.000000
2.89548  0.000000  0.000000  0.000000  -22.203928249123525  5.328316257945397  -2.8520644843719185  52.2746272334683  9.556015556394478  3.1623753772388596  -7.426270146439609  2.4547757667924635  48.49256389442682  18.79570154942222  120.000000
2.9491  0.000000  0.000000  0.000000  -22.539772170639925  5.2711215916063505  -2.8527208120701597  52.417844383483086  10.224660595633098  3.2634826549355695  8.700570960670959  1.7934106671899912  32.97063973181516  18.939923831297566  120.000000
3.00272  0.000000  0.000000  0.000000  -22.85778755837458  5.240559689413009  -2.794628580163555  52.52371387490974  10.838958913937242  3.322855801994747  28.931358117792612  1.4983347127553628  13.08571309058443  18.898917266003796  120.000000
3.05634  0.000000  0.000000  0.000000  -23.10993463243516  5.215822067529021  -2.7085069110606876  52.61164337635699  11.379231152157152  3.355141003748492  45.421308124671604  1.4706544886143356  -3.230580021933296  18.733954749251595  120.000000
3.10996  0.000000  0.000000  0.000000  -23.27808468440561  5.183765070586603  -2.6257151793686395  52.69642302603131  11.83690760325738  3.3763167077809335  54.31894890395683  1.561294197784134  -12.06570951656331  18.51115970718476  120.000000
3.16358  0.000000  0.000000  0.000000  -23.362958560901554  5.138054706074283  -2.5717506247965134  52.787435145073644  12.208481865779095  3.398996074143613  57.2088057369374  1.69450339890514  -14.960601856217119  18.285533350777914  120.000000
3.2172  0.000000  0.000000  0.000000  -23.376021111088857  5.076704117796094  -2.560514760685334  52.88635286728781  12.491780687907648  3.4311647054514878  56.54962345293622  1.8580808294294282  -14.343496307879624  18.088150931292926  120.000000
3.27082  0.000000  0.000000  0.000000  -23.333272861133416  5.001463741472369  -2.5975830176838604  52.98871435728353  12.68917068839375  3.4783135388475275  54.21054395534799  2.059890347055663  -12.063670434727888  17.924038145723845  120.000000
3.32444  0.000000  0.000000  0.000000  -23.24962877782266  4.920112181351497  -2.6831253744794084  53.08975763385765  12.809182899231633  3.543077515750842  51.41423736189267  2.309679644472845  -9.33312273227701  17.782264824216337  120.000000
3.37806  0.000000  0.000000  0.000000  -23.136594981565196  4.843652700687851  -2.814808265024823  53.186506714830976  12.864197235051877  3.6246400179871694  48.81864026906533  2.6143826146635267  -6.805958370191426  17.648420382725625  120.000000
3.43168  0.000000  0.000000  0.000000  -23.00262252926581  4.7811166121409  -2.99001381439774  53.27469585817475  12.866080383763983  3.721063098599388  46.64452542642865  2.976360208667871  -4.703177038900759  17.513553621786727  120.000000
3.4853  0.000000  0.000000  0.000000  -22.85263153653039  4.736736381227519  -3.206613222639916  53.347191323394576  12.823070575401395  3.831193318336873  44.83965933501058  3.394195028264534  -2.9735959303499677  17.377473789458676  120.000000
3.53892  0.000000  0.000000  0.000000  -22.687413914457313  4.709390831581414  -3.463596026838745  53.39530940284519  12.738872979914126  3.954629546084132  43.23033314493206  3.8644888677166946  -1.4434443719771939  17.24610430216221  120.000000
3.59254  0.000000  0.000000  0.000000  -22.50221809182416  4.693862979722191  -3.7616622716584756  53.41242346682357  12.61360624650854  4.0904749707916315  41.61965154539904  4.383901105120154  0.08701943401780055  17.125076903098325  120.000000
3.64616  0.000000  0.000000  0.000000  -22.28669511407899  4.681982090350423  -4.1029110399981965  53.39590217433216  12.445993448131722  4.236588508848749  39.82439104999127  4.951085789625279  1.8069637675581507  17.01271159515007  120.000000
3.69978  0.000000  0.000000  0.000000  -22.026381503613894  4.663976159297855  -4.490056206142758  53.34759107863121  12.236001538190873  4.38998877517563  37.69013881484862  5.569589116347762  3.878326646368204  16.896154223203247  120.000000
3.7534  0.000000  0.000000  0.000000  -21.70717878342968  4.629295605139757  -4.925838864743887  53.27266342879247  11.98693098924063  4.547451827663576  35.11854253747745  6.251931317365689  6.403175042444973  16.753217802355934  120.000000
3.80702  0.000000  0.000000  0.000000  -21.321688397113494  4.566955671771959  -5.412842851773674  53.178037565977064  11.706417779787706  4.705649065342862  32.100757286756824  7.023296166446932  9.382390096209138  16.55772487016201  120.000000
3.86064  0.000000  0.000000  0.000000  -20.876399809210028  4.466339522815518  -5.95303461990721  53.06955155778959  11.405945751779221  4.862001975010109  28.739047296539784  7.922099932729438  12.685736055834091  16.285286705077336  120.000000
3.91426  0.000000  0.000000  0.000000  -20.395412635197694  4.317360621252131  -6.547246176167995  52.95031658253346  11.100489964567831  5.015022352750271  25.226037533335944  8.995955898558064  16.06953763412509  15.916735644097995  120.000000
3.96788  0.000000  0.000000  0.000000  -19.916349842278755  4.114056127558976  -7.19463366878942  52.82405706409418  10.809490929442994  5.164056947665545  21.78815592468603  10.295004427782798  19.23952580798473  15.44050052932544  120.000000
4.0215  0.000000  0.000000  0.000000  -19.48278177068758  3.8570035686014905  -7.891293320427661  52.6990985539284  10.558659773224868  5.310448521278611  18.607772235464772  11.86570139939137  21.94260249831421  14.857001701522142  120.000000
4.07512  0.000000  0.000000  0.000000  -19.13622703930542  3.551486051210132  -8.627027196302349  52.58737823820833  10.38087412470641  5.460132462995031  15.76906844474648  13.745730514927972  24.0370213979938  14.186903294139125  120.000000
4.1287400000000005  0.000000  0.000000  0.000000  -18.91098051420026  3.209147281860208  -9.380948179730302  52.504216953705956  10.31668083765305  5.62172495936842  13.268894081382347  15.962157842625297  25.49286942552978  13.478541122802238  120.000000
4.18236  0.000000  0.000000  0.000000  -18.830068730320534  2.8517093921041146  -10.117925091999147  52.46701753862918  10.412597025148811  5.800738693692091  11.053242058210142  18.527370041927057  26.354163970002997  12.803052999110246  120.000000
4.23598  0.000000  0.000000  0.000000  -18.900736492487354  2.5116632497382168  -10.786646524179915  52.49315614590042  10.715788369748852  5.994605751380969  9.056493726730368  21.429992168826647  26.68824229045513  12.23496542998534  120.000000
4.2896  0.000000  0.000000  0.000000  -19.104554223196114  2.227571606096999  -11.318636862036179  52.60056540959081  11.267986969928709  6.191557925291012  7.229965268547823  24.623884023582118  26.546966760862585  11.825603277097288  120.000000
4.3432200000000005  0.000000  0.000000  0.000000  -19.39955808435938  2.025520160259234  -11.639198724696033  52.79183583527371  12.093665968968196  6.3856553698619996  5.528413155590444  28.013089810447006  25.977173466380968  11.58000143991481  120.000000
4.39684  0.000000  0.000000  0.000000  -19.73206076549055  1.9133160789343844  -11.69399716306501  53.05688512428126  13.190958664984468  6.577843839834178  3.910385766772892  31.455877503156707  25.027291618500787  11.456369997611166  120.000000
4.45046  0.000000  0.000000  0.000000  -20.050412966892782  1.8972091626955898  -11.450834361476028  53.39004437195862  14.522667340259396  6.76034777296802  2.356677489526266  34.80278596189413  23.742870119120905  11.387433267874625  120.000000
4.50408  0.000000  0.000000  0.000000  -20.32856625402591  1.98084405451435  -10.882896126953904  53.77555731409593  16.01135727187472  6.928402956244362  0.8625900362349587  37.93620337009113  22.19010141693411  11.308663533730536  120.000000
4.5577000000000005  0.000000  0.000000  0.000000  -20.5668548822069  2.163025164218073  -9.973459513849418  54.18363144766053  17.55315822193311  7.093228345851505  -0.5637022740281107  40.789140101220845  20.467460580030256  11.182340174589331  120.000000
4.61132  0.000000  0.000000  0.000000  -20.780765376899925  2.441909493143154  -8.71923972510658  54.582269524851604  19.033724176257156  7.274440499776083  -1.8975256684431006  43.34761376763857  18.697543342317513  11.008090979487257  120.000000
4.66494  0.000000  0.000000  0.000000  -20.995399666410105  2.81320927241571  -7.127894057621855  54.941128858954535  20.34121280766451  7.493140399504832  -3.1061381061834465  45.638026978696615  17.010357350696076  10.812635143009125  120.000000
4.71856  0.000000  0.000000  0.000000  -21.242544957920035  3.26898089653772  -5.223538152890985  55.235959311151184  21.382813761998808  7.766184005706535  -4.157385817246455  47.70843759255587  15.516554344337704  10.632144343577199  120.000000
4.7721800000000005  0.000000  0.000000  0.000000  -21.558189578375494  3.796363548530147  -3.0517485387681917  55.453392632356945  22.100096968618914  8.1019972064586  -5.026547115635697  49.61130539670928  14.282921627405855  10.499071094113203  120.000000
4.8258  0.000000  0.000000  0.000000  -21.97597789575139  4.377555011627036  -0.6781780961883224  55.594748504280936  22.476433659037458  8.497426746528925  -5.701105234507267  51.39102322883351  13.320951409250796  10.436139732936812  120.000000
4.87942  0.000000  0.000000  0.000000  -22.52010509774041  4.9906549820844806  1.8194925641742623  55.67421851363166  22.53396455445657  8.937210859298833  -6.185173952584605  53.07712182251723  12.594782011394377  10.456895952417257  120.000000
4.93304  0.000000  0.000000  0.000000  -23.197282864209516  5.612052229212309  4.361616894988194  55.714417518263325  22.322771482530943  9.396833532131124  -6.498523145329945  54.682605008995736  12.038420623265369  10.568873983290803  120.000000
4.9866600000000005  0.000000  0.000000  0.000000  -23.992150766326866  6.217261655634967  6.8752111753102385  55.74084804982496  21.907841027651628  9.849319800997229  -6.670779854262536  56.20609303057444  11.573390189126856  10.775843914032626  120.000000
5.04028  0.000000  0.000000  0.000000  -24.868829358132814  6.781656630691152  9.298246850301433  55.77572697448393  21.35667449924755  10.270032524102508  -6.736696218869598  57.63556729008331  11.124884392367353  11.077538359349711  120.000000
5.0939  0.000000  0.000000  0.000000  -25.777508449612245  7.281217169194052  11.581740070805992  55.83502536773812  20.729006965543487  10.636990206155332  -6.731132465143938  58.95317861109964  10.634899464427797  11.468355313648312  120.000000
5.14752  0.000000  0.000000  0.000000  -26.662374449535164  7.69522173898656  13.68649718281756  55.92683388879985  20.071369127674608  10.927557465477797  -6.68352591688847  60.13947211581976  10.072213341212281  11.932936807957857  120.000000
5.2011400000000005  0.000000  0.000000  0.000000  -27.468914933301573  8.00910052997617  15.576221180411777  56.05090888227281  19.415357424921343  11.114647797388551  -6.611739965277174  61.177356770102364  9.438994358739196  12.438798072648837  120.000000
5.25476  0.000000  0.000000  0.000000  -28.148712816217227  8.217412560912496  17.211456922669683  56.20062772465804  18.778862355199944  11.164552759674793  -6.5187249622621355  62.05261371962811  8.770427257798588  12.931024638090237  120.000000
5.30838  0.000000  0.000000  0.000000  -28.662003126846308  8.324381102839228  18.548016480661868  56.367122767859726  18.169041494604787  11.039308493890335  -6.394240188453906  62.750489151242625  8.122410568313544  13.33806788498493  120.000000
5.362  0.000000  0.000000  0.000000  -28.978425278578825  8.340976858166885  19.54011912451195  56.54419984375948  17.585724141448964  10.705275283532982  -6.22281261399755  63.25031083889808  7.549546131742784  13.590630373391445  120.000000
5.4156200000000005  0.000000  0.000000  0.000000  -29.07891843748346  8.280325151052562  20.14597162146663  56.73241713837044  17.023278161776574  10.142900691726606  -5.996743851755859  63.5209522684927  7.08267707511868  13.647486848316406  120.000000
5.46924  0.000000  0.000000  0.000000  -28.95785393886061  8.152096339965441  20.333616680147532  56.9394355962745  16.471093712347486  9.35544882734289  -5.724724834867104  63.51976226921755  6.714614062093774  13.51658499415265  120.000000
5.52286  0.000000  0.000000  0.000000  -28.623618180786945  7.95845693905269  20.084370167687414  57.17525370026493  15.91351140024374  8.372804987185598  -5.427928302421872  63.197741898193335  6.404156268805  13.255375329746805  120.000000
5.57648  0.000000  0.000000  0.000000  -28.09887711830084  7.693153002416646  19.391690392932023  57.44324175091098  15.332131382888468  7.2494204356980685  -5.126349894356181  62.511512996095774  6.098043043543849  12.947809240388606  120.000000
5.6301000000000005  0.000000  0.000000  0.000000  -27.420691032715297  7.344322799117614  18.25862298302344  57.731752048034124  14.710934694907152  6.058435824080938  -4.824400187104686  61.43873422762402  5.759646308610871  12.672354164635351  120.000000
5.68372  0.000000  0.000000  0.000000  -26.638854619360167  6.898943243036022  16.697603318574597  58.01072284353023  14.043605364836981  4.885432370516544  -4.503323802362659  59.99005670319878  5.390710345570203  12.476500589278885  120.000000
5.73734  0.000000  0.000000  0.000000  -25.810295168831455  6.348985498661915  14.732634416630814  58.23526683633526  13.34062655855193  3.820305730622901  -4.125580148836955  58.20832334850687  5.037311271907074  12.368453804853067  120.000000
5.79096  0.000000  0.000000  0.000000  -24.9906188808589  5.6963279233282655  12.403911032975438  58.35534989528001  12.631476061546937  2.947919580993618  -3.647017565038527  56.15382647599711  4.777073890850875  12.327906507015864  120.000000
5.8445800000000006  0.000000  0.000000  0.000000  -24.22478503650743  4.95822400390735  9.771775804702578  58.329473843912126  11.959086042059578  2.335128794015815  -3.0299926842751703  53.883442817782225  4.6969947498394955  12.323339286671018  120.000000
5.8982  0.000000  0.000000  0.000000  -23.54046510342767  4.168142558123788  6.920035221068089  58.1349893043618  11.368717892708563  2.0196840114872114  -2.252906394672656  51.433884959659494  4.872357516909763  12.325624787787513  120.000000
5.95182  0.000000  0.000000  0.000000  -22.945251013926693  3.373490887790443  3.9539705631586624  57.77245605141235  10.897835949924387  2.003041973533424  -1.3153515145817376  48.81474106634232  5.353392680020534  12.314107478841468  120.000000
6.00544  0.000000  0.000000  0.000000  -22.4287826686713  2.6286799483244514  0.9940805806733182  57.26310594407303  10.572388311343849  2.2509778784854184  -0.23941263973849644  46.01264326059405  6.161338756369185  12.276953007010128  120.000000
6.059060000000001  0.000000  0.000000  0.000000  -21.967768374090987  1.9871393131088082  -1.8338821184461553  56.6441297447455  10.409429948455767  2.702681710688786  0.9358957065043884  43.00642219732829  7.289267313543295  12.21102277813939  120.000000
6.11268  0.000000  0.000000  0.000000  -21.536253874392347  1.4949413790386523  -4.4121428630881585  55.96478875427909  10.42117740423763  3.285037957772212  2.1685865051382662  39.79006557119067  8.70261950680488  12.124609515290068  120.000000
6.1663  0.000000  0.000000  0.000000  -21.119197047627416  1.1841577800901208  -6.645528653646432  55.28062981864575  10.614510503495557  3.9272284072104986  3.428252224577758  36.39464053601886  10.342890479360397  12.03920455634013  120.000000
6.21992  0.000000  0.000000  0.000000  -20.72466961936496  1.065079531792166  -8.47357167312018  54.64671395132333  10.982578960079216  4.573614717862388  4.707252566212481  32.89680435004901  12.134808843982402  11.986667832277611  120.000000
6.273540000000001  0.000000  0.000000  0.000000  -20.386679631556383  1.1212231578611753  -9.874427658522226  54.10528900367598  11.499418886402585  5.19267173757126  6.017374192468011  29.407018933157605  14.0014106765391  12.002730196988656  120.000000
6.32716  0.000000  0.000000  0.000000  -20.147503162658225  1.3158989435956676  -10.867385016192733  53.68786325070222  12.120170682800731  5.764700044138206  7.37288197855173  26.037829181168313  15.883776099782208  12.12114261638138  120.000000
6.38078  0.000000  0.000000  0.000000  -20.030730933192576  1.5997478705124903  -11.497298561693427  53.42229080749213  12.785028070826158  6.266675014771861  8.774917492478636  22.868724197536903  17.751097462889724  12.370784794400699  120.000000
6.4344  0.000000  0.000000  0.000000  -20.02868217650259  1.9219046322649485  -11.807716987182078  53.32141022341617  13.440123773505798  6.681402374841005  10.198308284135777  19.936592729412663  19.60037564863791  12.773437973020808  120.000000
6.488020000000001  0.000000  0.000000  0.000000  -20.10724237152365  2.243841008330202  -11.834271108696814  53.37924529389625  14.058181612661883  7.002694639497116  11.600081485669792  17.247223492867658  21.434268093174275  13.336225664146484  120.000000
6.54164  0.000000  0.000000  0.000000  -20.228064934755142  2.542739176379653  -11.607342815677443  53.567678399435735  14.636101829711455  7.235540246363585  12.945233569362623  14.785629643801933  23.2245930085801  14.039690529040328  120.000000
6.59526  0.000000  0.000000  0.000000  -20.37027498286791  2.8095285989760246  -11.157720192539974  53.83823784435405  15.184089191858357  7.395498351055843  14.255411532154646  12.526570425479047  24.859911002903207  14.828589327973832  120.000000
6.64888  0.000000  0.000000  0.000000  -20.533070464117113  3.0490859020657677  -10.52181516510901  54.14343741927209  15.71312902839685  7.491607640298616  15.70551363569956  10.44435420106814  26.05999384224776  15.61875921887326  120.000000
6.702500000000001  0.000000  0.000000  0.000000  -20.731620736965038  3.2757230321815567  -9.738974197656406  54.443393000258375  16.225888906806112  7.521755521091258  17.69911080290797  8.516799404082246  26.32549976831923  16.31902978996193  120.000000
6.75612  0.000000  0.000000  0.000000  -20.98456162483726  3.5040945678736612  -8.844484009243681  54.69843608616797  16.716629341301797  7.4857568859520836  20.897877733164716  6.7285646678129725  24.939278323667715  16.858103664829606  120.000000
6.80974  0.000000  0.000000  0.000000  -21.296186889736916  3.7436470595377846  -7.865873451954826  54.875339484124716  17.174963448558177  7.392067616585536  26.35678615276002  5.078968117900998  20.855079669056618  17.20791899777646  120.000000
6.86336  0.000000  0.000000  0.000000  -21.648244172077316  3.996942506308991  -6.8237661154247515  54.95746438871768  17.589339515167296  7.255576488484667  36.10866924888874  3.5934024689496264  12.1125359466582  17.387532684632053  120.000000
6.916980000000001  0.000000  0.000000  0.000000  -22.00360016747305  4.260692273693769  -5.734363071166076  54.95229451557166  17.94827469696029  7.094654242603772  55.30678053127464  2.3642547006388788  -6.330219325637677  17.447712491678246  120.000000
6.9706  0.000000  0.000000  0.000000  -22.316899878657964  4.526877570760514  -4.6121036980061625  54.892112459263785  18.237810802885047  6.928627037906286  93.97544605037773  1.7152526232018952  -44.38249461917972  17.450926671960747  120.000000
7.02422  0.000000  0.000000  0.000000  -22.553326580782702  4.783153948173865  -3.4729183347169905  54.817517206862  18.44374283379521  6.770758115170707  136.291738698276  2.0634804809532556  -86.13397036361947  17.44910968478759  120.000000
7.07784  0.000000  0.000000  0.000000  -22.70517465604463  5.019562820945832  -2.3350343419189326  54.754958777171105  18.55841451104676  6.623685788274774  158.2421336258776  2.9828847305513584  -107.5248131053927  17.467298545048543  120.000000
7.131460000000001  0.000000  0.000000  0.000000  -22.79156220835827  5.23371446909816  -1.2169180550709484  54.71281560543985  18.581637585741557  6.48264425241936  168.9699668786508  4.021876168332747  -117.6852588849259  17.506780915926907  120.000000
7.18508  0.000000  0.000000  0.000000  -22.842328798338553  5.427122143308063  -0.13676477030108225  54.69114939180931  18.518584199613112  6.339640010661702  175.02814257183405  5.0308731859149125  -123.17293394923584  17.558396868722248  120.000000
7.2387  0.000000  0.000000  0.000000  -22.88464156071307  5.6014498620624265  0.8873397224399083  54.68854746047521  18.377082775410774  6.186849723366911  178.82131833937592  5.951040922389857  -126.40245534591304  17.611933069652203  120.000000
7.29232  0.000000  0.000000  0.000000  -22.93615983008232  5.756409252298957  1.8366855795529773  54.70534236938705  18.16574479514462  6.01845156614172  -178.6648497058053  6.747615379788734  -128.36802088117236  17.66077894771498  120.000000
7.345940000000001  0.000000  0.000000  0.000000  -23.00326030295641  5.889051470388049  2.691091730560261  54.744956428645786  17.892617069969276  5.830673425422644  -176.96669383470748  7.3944404716752725  -129.5386398382136  17.702512608628652  120.000000
7.39956  0.000000  0.000000  0.000000  -23.083282461885247  5.994374580987182  3.428978374994742  54.81277036773894  17.564270814435144  5.621533160567155  -175.8472082995308  7.86983398080711  -130.15420457188998  17.73828718557931  120.000000
7.45318  0.000000  0.000000  0.000000  -23.167906384300768  6.06659720327697  4.028199113208679  54.91383779985101  17.185308364343037  5.3912236140056145  -175.17778388401112  8.154930829952088  -130.3442749555095  17.77172678435769  120.000000
7.5068  0.000000  0.000000  0.000000  -23.24594512373014  6.100201596912079  4.467149667829983  55.05074979960308  16.758486201308095  5.142457102817292  -174.88505648175942  8.233069241093665  -130.18165773864706  17.80841125742272  120.000000
7.560420000000001  0.000000  0.000000  0.000000  -23.305393307068496  6.090729046854079  4.725948426309149  55.22201613562676  16.28501367671768  4.880913427929603  -174.9250509694631  8.08975810813922  -129.70873841071003  17.85443029190765  120.000000
7.61404  0.000000  0.000000  0.000000  -23.335494719039755  6.0352437814594  4.787594972998931  55.42007669984136  15.765492200328922  4.615161057258351  -175.27073885716447  7.7131400353234065  -128.95189867921349  17.913934203546088  120.000000
7.66766  0.000000  0.000000  0.000000  -23.328890539285112  5.933080548138762  4.638749564605673  55.630002054211005  15.201383117059247  4.3562629831388815  -175.91436848993163  7.094844775739696  -127.92228092125325  17.98541618469739  120.000000
7.72128  0.000000  0.000000  0.000000  -23.282682700453396  5.785739840239683  4.271020248687429  55.82944562133311  14.596468345774866  4.116742185744091  -176.89387211693608  6.23147893712259  -126.59291721072468  18.059041068540722  120.000000
7.774900000000001  0.000000  0.000000  0.000000  -23.19649429647181  5.596822176171546  3.6836648180905627  55.9918840009274  13.956758887973113  3.9092560164130146  -178.379707486688  5.126613603889546  -124.81255782095602  18.116885491883085  120.000000
7.82852  0.000000  0.000000  0.000000  -23.068099314635166  5.370877353796012  2.8852930373124193  56.092014997490026  13.290820130413442  3.7461260614092193  179.0062520705937  3.7943829023430498  -121.98481360518045  18.135639666897386  120.000000
7.88214  0.000000  0.000000  0.000000  -22.88956286620388  5.111402872255733  1.8942893282483935  56.11112119970731  12.610803401486338  3.6411304591892475  172.46641839933417  2.2696307754844636  -115.33913900213925  18.087999610950025  120.000000
7.93576  0.000000  0.000000  0.000000  -22.644401214248624  4.821440317970632  0.7369410300648043  56.04306487371496  11.936530907409121  3.6101676982053954  132.58718054539145  0.7686291998952194  -75.48591763574152  17.943284587137146  120.000000
7.989380000000001  0.000000  0.000000  0.000000  -22.313303036378706  4.5045777237327345  -0.5571605916814104  55.89861383592687  11.299454785841009  3.670974809238886  33.3678486353029  1.6378200818299176  23.555870483420627  17.668769896894126  120.000000
8.043  0.000000  0.000000  0.000000  -21.885300172004282  4.162159917216767  -1.9528715242031247  55.70145837849223  10.738246635926917  3.841256390804306  21.578733025840044  3.646833555337688  34.99992362473007  17.235702936395263  120.000000
8.09662  0.000000  0.000000  0.000000  -21.369536484208353  3.795458882886421  -3.406320611763077  55.48421411145444  10.290333023861628  4.134434965681936  19.222863512179895  5.8652761027013876  36.827868930887334  16.633255642079234  120.000000
8.15024  0.000000  0.000000  0.000000  -20.803680181281493  3.417538079142067  -4.869345515790799  55.29345062318701  9.992141469785697  4.550222467989392  19.199362594646303  8.27444839782008  36.11763052234647  15.88375482302839  120.000000
8.20386  0.000000  0.000000  0.000000  -20.252330522208684  3.0572657143907644  -6.29339593976583  55.18061060360385  9.87990861476088  5.071867170387496  20.131849028570745  10.910083108176885  34.21404596680001  15.044509547968397  120.000000
8.257480000000001  0.000000  0.000000  0.000000  -19.79931525494196  2.7484120788958335  -7.629526174679856  55.179155018215575  9.982071567526086  5.67665135283419  21.4453580307235  13.815626517843278  31.658732095320925  14.19203584604791  120.000000
8.3111  0.000000  0.000000  0.000000  -19.516482866498848  2.526538479127214  -8.827858684868472  55.31217496288429  10.318039339269367  6.336948031061716  22.835362012770155  17.02195360787955  28.73549158652253  13.400283217454954  120.000000
8.36472  0.000000  0.000000  0.000000  -19.430267393542945  2.4162778880830587  -9.833595569722737  55.596450101730085  10.898111558987669  7.027265464460204  24.145268515600662  20.527641842861577  25.606753543780044  12.718107463317248  120.000000
8.41834  0.000000  0.000000  0.000000  -19.51300743710392  2.412806661978028  -10.5882139618295  56.01913398873302  11.712721487111716  7.738503798854961  25.27759122863849  24.266299940366345  22.411387550443802  12.160315916873264  120.000000
8.47196  0.000000  0.000000  0.000000  -19.692318085953076  2.5011815928751275  -11.045410986887557  56.55454303192217  12.735010516478836  8.460395995032247  26.191430075679772  28.112446256368294  19.256896423830415  11.717372105136322  120.000000
8.52558  0.000000  0.000000  0.000000  -19.878480179890918  2.6785913321316874  -11.176629374469652  57.188198454071475  13.929164056556884  9.162935473515377  26.89609327995626  31.929602463738163  16.202527172928562  11.366774971802483  120.000000
8.5792  0.000000  0.000000  0.000000  -20.00962295409091  2.9474355311122706  -10.963411154923598  57.90175126525726  15.241752228037745  9.81323202436821  27.41251272803186  35.60172218418037  13.287267851208997  11.08610763091147  120.000000
8.63282  0.000000  0.000000  0.000000  -20.07668580181951  3.300760458476507  -10.39137966849178  58.65336674012674  16.593411121751576  10.400761474318763  27.758102001855338  39.04670010422055  10.539638984055765  10.858067927009216  120.000000
8.686440000000001  0.000000  0.000000  0.000000  -20.108588292094193  3.7301638010621483  -9.454156327088215  59.39769722691478  17.889949394637412  10.928253816244204  27.952353395807926  42.22140122737597  7.976622433152337  10.672382273079274  120.000000
8.74006  0.000000  0.000000  0.000000  -20.152762111359266  4.226578143981324  -8.15936795932262  60.097805052325214  19.034825277082845  11.403772422756374  28.016922322969634  45.112937459841824  5.608086102685387  10.524392220071451  120.000000
8.79368  0.000000  0.000000  0.000000  -20.256061867082288  4.777524327289211  -6.530119960827174  60.72075163939901  19.94446068705486  11.84083335045088  27.969630029909045  47.721886225701375  3.440379332450195  10.411889248353525  120.000000
8.8473  0.000000  0.000000  0.000000  -20.45005564970203  5.370315082151941  -4.611069518362403  61.24504114168583  20.565455577807914  12.250209215477037  27.825182916964554  50.054893217552625  1.4736339662537785  10.334460735566472  120.000000
8.90092  0.000000  0.000000  0.000000  -20.743969679706222  5.986382210685178  -2.468716095697384  61.65937377387141  20.880302441501374  12.641248576459581  27.593855090571825  52.117929286864516  -0.2996254191295396  10.291900131218718  120.000000
8.95454  0.000000  0.000000  0.000000  -21.12735849379198  6.6063081663326555  -0.18661342309164286  61.96620401155801  20.906874587314505  13.015163982715679  27.285998998168605  53.916198963854704  -1.893559919522223  10.28370599055338  120.000000
9.00816  0.000000  0.000000  0.000000  -21.57826259091273  7.209718317791617  2.147032829888019  62.17667367763721  20.688474663462195  13.367869040810634  26.915872222183516  55.45934583181365  -3.322931657296654  10.306014024245536  120.000000
9.06178  0.000000  0.000000  0.000000  -22.073444146759545  7.779568376551732  4.453640722380249  62.305991815687115  20.284943745875363  13.690483700967171  26.50486478110051  56.76487851148929  -4.594393323574136  10.34900539967963  120.000000
9.115400000000001  0.000000  0.000000  0.000000  -22.59545845321525  8.30185037663377  6.67015363705252  62.368843502233354  19.75954264811961  13.972513417191104  26.081876267734856  57.859292039247634  -5.702793417451692  10.396941224994446  120.000000
9.16902  0.000000  0.000000  0.000000  -23.132659235098426  8.76526209572854  8.751624344785146  62.377877264759896  19.168289721770286  14.201858757252799  25.681779793050712  58.77150033127766  -6.636054725346592  10.432334975036344  120.000000
9.22264  0.000000  0.000000  0.000000  -23.67429095912581  9.162274493553555  10.66732831979433  62.345960820302146  18.55420471910616  14.365353854081258  25.34227760490341  59.52656170049883  -7.386049578199257  10.442176474142153  120.000000
9.27626  0.000000  0.000000  0.000000  -24.203872034034084  9.486945778253634  12.393986081850747  62.28701619487189  17.944528681805355  14.449836927031884  25.099846177317946  60.13642364588671  -7.9575912623388945  10.423645798946334  120.000000
9.32988  0.000000  0.000000  0.000000  -24.695240595903527  9.73592719402819  13.909674561072785  62.21764342647094  17.35117601622437  14.441392526733882  24.987290879338705  60.595928160492036  -8.37268853232952  10.385138443967051  120.000000
9.3835  0.000000  0.000000  0.000000  -25.11377516190303  9.907359843688214  15.192688976811056  62.15450416637124  16.775048922523027  14.327229771317205  25.032378164211977  60.884722057499886  -8.66479109175905  10.341590739728735  120.000000
9.43712  0.000000  0.000000  0.000000  -25.422308191108623  10.001723179936434  16.22214545117796  62.111174742443126  16.212122198852914  14.095739288716736  25.25537525506341  60.973962430558075  -8.867776072808185  10.305874604914969  120.000000
9.49074  0.000000  0.000000  0.000000  -25.588140747128417  10.019414142122566  16.97899624820809  62.09344732384607  15.657168764607588  13.73885656662562  25.667774862674495  60.832726720730264  -9.004436150112687  10.280903891364302  120.000000
9.544360000000001  0.000000  0.000000  0.000000  -25.58774356559788  9.961207287823935  17.445809929389693  62.09859448306727  15.106528750520267  13.25148507210258  26.271608680542467  60.43232946277238  -9.08058654288359  10.256806497256262  120.000000
9.59798  0.000000  0.000000  0.000000  -25.40822408063285  9.82665116640795  17.60631038930516  62.11596026045717  14.557277250079368  12.632797497069895  27.060014288951432  59.74697699203625  -9.08495929164528  10.215316677745381  120.000000
9.6516  0.000000  0.000000  0.000000  -25.048393841748887  9.61493568831346  17.444212914617673  62.128847120022535  14.00567141894416  11.886269288721088  28.017072258582775  58.75230188528111  -8.992920530182184  10.140661217783956  120.000000
9.70522  0.000000  0.000000  0.000000  -24.520217736923282  9.32452096484952  16.943854370812037  62.11483938030804  13.446780625530929  11.020793830566245  29.11557831273458  57.423771718100106  -8.768890862141347  10.030730668486784  120.000000
9.75884  0.000000  0.000000  0.000000  -23.851977391117476  8.953743160460384  16.092554569018535  62.04562425745458  12.875857880807088  10.055141376549306  30.315720931245878  55.73867182050234  -8.366343590118287  9.905517026664967  120.000000
9.81246  0.000000  0.000000  0.000000  -23.089051165311172  8.502538327989349  14.884480995720715  61.88837982425027  12.294015644775287  9.020277711143118  31.561062568898144  53.67978832216466  -7.72442079879722  9.80214275195764  120.000000
9.86608  0.000000  0.000000  0.000000  -22.293263564313527  7.971967901568324  13.326403790706078  61.607642674075336  11.712520745051792  7.96469182926346  32.77775645943608  51.24184769892086  -6.765585416900187  9.76701690758837  120.000000
9.9197  0.000000  0.000000  0.000000  -21.53210707772714  7.369222077429252  11.443738510001895  61.17744045481865  11.158073179574258  6.950228233930287  33.87425806502484  48.441215450321934  -5.3981728795571975  9.845844809008815  120.000000
9.973320000000001  0.000000  0.000000  0.000000  -20.870867195943536  6.7081788979332515  9.286444249521352  60.58776405101528  10.669646210744904  6.045887642878963  34.742742034025646  45.318456008591006  -3.524082187229934  10.080064145130105  120.000000
10.02694  0.000000  0.000000  0.000000  -20.357921121135764  6.014414611391624  6.927415445977926  59.855396579040004  10.289597679944524  5.311937390413739  35.26571033043945  41.94510034440023  -1.0563360657297427  10.50274711228212  120.000000
10.08056  0.000000  0.000000  0.000000  -20.01428247510423  5.322617105092055  4.458836239912619  59.0231863630981  10.050748291665965  4.789390195592412  35.331965979644444  38.41338423281256  2.0564062117435795  11.13588891520416  120.000000
10.13418  0.000000  0.000000  0.000000  -19.83237398637632  4.667872129655279  1.9772081754555266  58.14780674353032  9.965694081880823  4.492257898240168  34.84767996330561  34.82319561392124  5.816731169718836  11.978948202283057  120.000000
10.1878  0.000000  0.000000  0.000000  -19.780400502427277  4.082294541614778  -0.4275081858054582  57.292102219495426  10.02760546406294  4.405300830648045  33.76405134145624  31.267787721396957  10.154522664510802  13.000455075271809  120.000000
10.24142  0.000000  0.000000  0.000000  -19.806188795947094  3.5801904729941243  -2.6755402715314105  56.51310540471032  10.220044597975516  4.501260263500273  32.087440953283  27.819584679552722  14.93253118551106  14.13913705200998  120.000000
10.29504  0.000000  0.000000  0.000000  -19.86163339710372  3.1631585314806183  -4.698987401431378  55.86171263916968  10.528524387841168  4.742013036597068  29.8913430492682  24.533646207224248  19.946924405310234  15.314251542155453  120.000000
10.34866  0.000000  0.000000  0.000000  -19.911895427045888  2.8295399552584906  -6.436463234944074  55.37216605148264  10.94876241079386  5.0853420771871924  27.2968223716383  21.44356154879411  24.967994148384342  16.437086475180045  120.000000
10.402280000000001  0.000000  0.000000  0.000000  -19.956104789114498  2.58043448146666  -7.835333956538155  55.05794020575311  11.486367488841674  5.487143724199816  24.4681397822049  18.57530168337163  29.74701362364951  17.41350083344638  120.000000
10.4559  0.000000  0.000000  0.000000  -20.023547345145506  2.4232117564667766  -8.856292807381784  54.90958418343494  12.150197326248085  5.902366365151794  21.575349484830095  15.944664728075786  34.06136913186988  18.144394433713156  120.000000
10.50952  0.000000  0.000000  0.000000  -20.159748449349223  2.372878391904932  -9.481198675022203  54.89313108484653  12.943537232507257  6.289871084394051  18.778911482383798  13.555519241590225  37.72908986295668  18.53568414186964  120.000000
10.56314  0.000000  0.000000  0.000000  -20.415346768053354  2.4321968710060062  -9.724416509050888  54.973947325289544  13.855141786980264  6.615517876223994  16.252174162823454  11.400133895587398  40.57830477177571  18.505528671080988  120.000000
10.61676  0.000000  0.000000  0.000000  -20.821786095814996  2.5806097634777223  -9.632769528190956  55.10652187162494  14.853925762356718  6.880312502547301  14.144833326911483  9.441011673665514  42.495611042414076  18.025658862535206  120.000000
10.67038  0.000000  0.000000  0.000000  -21.35460955109207  2.786704780304621  -9.292622823636247  55.28031830337107  15.902183448356537  7.091110325102295  12.709083605484734  7.6199246222824755  43.31494262794308  17.166058279096536  120.000000
10.724  0.000000  0.000000  0.000000  -21.967609821744436  2.9826794488360133  -8.81034500387527  55.50511758761522  16.949714579686717  7.291735288347885  12.618453092063307  5.865636468089364  42.490666312417254  16.104262708979093  120.000000
