Simulation
nRows=201
nColumns=15
endheader
time  TH_x TH_y TH_z SC_y  SC_z  SC_x  AC_y  AC_z  AC_x  GH_y  GH_z  GH_yy  EL_x  PS_y
0.0  0.000000  0.000000  0.000000  -21.481837363305974  5.049547332879065  0.3347068766571287  51.81029299145953  5.805768778168728  0.2519056454324453  171.43093148521382  1.6761337689100837  -128.42170243359763  21.04387187203624  120.000000
0.05362  0.000000  0.000000  0.000000  -20.075761788811963  4.750667487562821  -1.2622456760421399  50.81804016075716  5.980397236997681  0.3148687061251969  4.59794017203929  1.917579643815797  36.998349338487756  20.34068860494134  120.000000
0.10724  0.000000  0.000000  0.000000  -18.80448902813997  4.450931197767567  -2.8169215119872573  49.80915453827097  6.043111499227055  0.3796623230477837  0.6424225811032316  5.399399483079012  39.41213592572169  19.631043546024053  120.000000
0.16086  0.000000  0.000000  0.000000  -17.741027585082296  4.189305074321059  -4.320567113394858  48.80609796712558  6.036414756669551  0.4649373460725676  -0.0774805251087205  8.7884217423277  38.31310134907433  18.888150974936348  120.000000
0.21448  0.000000  0.000000  0.000000  -16.928408012936586  3.969407025530727  -5.765546643502599  47.858300116183294  6.021675324151563  0.5985890859328906  -0.41058933518370233  12.078562030018967  36.432080452699736  18.10796842328249  120.000000
0.2681  0.000000  0.000000  0.000000  -16.384501135879404  3.7870267933177093  -7.138765101102015  47.01940977815643  6.0733603201727995  0.8007723016976346  -0.8562720206213155  15.299678618770518  34.20922580206075  17.295764232561087  120.000000
0.32172  0.000000  0.000000  0.000000  -16.103973549561164  3.6449883191736556  -8.42528376690128  46.32553362710172  6.257961419754429  1.089916486837872  -1.623438605379883  18.500675382442942  31.860991296994836  16.463960638099483  120.000000
0.37534  0.000000  0.000000  0.000000  -16.070882428430707  3.5516297612359495  -9.60940472506927  45.79097127410554  6.617775440929888  1.4765525759177747  -2.775726497869124  21.730906544905  29.520189677133793  15.628441518206646  120.000000
0.42896  0.000000  0.000000  0.000000  -16.27317956546843  3.5269038579964684  -10.674833947225899  45.4062918776889  7.164583241124586  1.9591990664204013  -4.278299827324476  25.019772238708978  27.272500657188356  14.809695601004055  120.000000
0.48258  0.000000  0.000000  0.000000  -16.711746607194335  3.5948844785445027  -11.605003110754973  45.14121806737131  7.884683576648154  2.522657167218583  -6.047423625980885  28.36471256314169  25.191596757715054  14.025891842568415  120.000000
0.5362  0.000000  0.000000  0.000000  -17.39763796993162  3.7806582576905123  -12.3795013711352  44.9607839268528  8.74984793709517  3.1422527747457343  -7.958193306524891  31.733371777852682  23.327305139736573  13.29097118695391  120.000000
0.58982  0.000000  0.000000  0.000000  -18.342438227170394  4.098686181912007  -12.965261381542376  44.84075413224028  9.726257430001201  3.7938411508034213  -9.866829475094331  35.07715931550501  21.704779983938902  12.61271512087217  120.000000
0.64344  0.000000  0.000000  0.000000  -19.55025238270996  4.5518845374412855  -13.316345231624013  44.77927268340771  10.772146711958467  4.454034952208646  -11.630940903288721  38.34435898986888  20.319824273399234  11.995443097369659  120.000000
0.69706  0.000000  0.000000  0.000000  -21.014031557650856  5.1272262608737105  -13.382278778049663  44.79596908288451  11.840127188109635  5.098927599159187  -13.137549865110653  41.4882926625671  19.144578834271186  11.436496975425104  120.000000
0.75068  0.000000  0.000000  0.000000  -22.711940099931635  5.798276807035821  -13.127031009404014  44.921840719742285  12.886420928917605  5.710908234015621  -14.311255117521506  44.473797766740546  18.123736616008106  10.923870882078642  120.000000
0.8043  0.000000  0.000000  0.000000  -24.60381820207858  6.526828296385351  -12.530967152329762  45.18921879699998  13.873144284637867  6.2732106712589975  -15.117801022042721  47.28148413979819  17.18047914481166  10.43529709473343  120.000000
0.85792  0.000000  0.000000  0.000000  -26.627696013921792  7.268750213383624  -11.592357361651432  45.618814503783604  14.766894665292677  6.765525329638103  -15.562002082906494  49.90524610503508  16.231725429287355  9.944562978807447  120.000000
0.91154  0.000000  0.000000  0.000000  -28.700835813437585  7.981744371937402  -10.33212431502105  46.2072127123199  15.54031690178217  7.167908413250208  -15.68190471888515  52.34485074707075  15.208027539165073  9.431613228525398  120.000000
0.96516  0.000000  0.000000  0.000000  -30.73172188235254  8.636056674183843  -8.799989407876543  46.9180683304129  16.173809961598344  7.467507837495469  -15.538797465751781  54.59938656065555  14.072937671672872  8.894731306885916  120.000000
1.01878  0.000000  0.000000  0.000000  -32.633141691796006  9.218942660000506  -7.0758596056165555  47.68306240217822  16.659244501354408  7.66433266116468  -15.21284356085788  56.66826858666313  12.83824625149566  8.352410910887063  120.000000
1.0724  0.000000  0.000000  0.000000  -34.33634576348343  9.733434856115515  -5.2617499399509615  48.41727774337258  16.99950827783206  7.770557861141696  -14.792911664639494  58.55056942852073  11.557006651646098  7.836368534795026  120.000000
1.12602  0.000000  0.000000  0.000000  -35.79900379467054  10.189776728905397  -3.467341270758454  49.0450625263578  17.20644988912899  7.807922312313439  -14.359660875590231  60.2445010370068  10.304434531560187  7.381985637415262  120.000000
1.17964  0.000000  0.000000  0.000000  -37.00637087420771  10.601584653901266  -1.7843927713784942  49.5237742257784  17.291068367728236  7.796128003407544  -13.96959095022547  61.74742048697654  9.156692018757965  7.0202098811613025  120.000000
1.23326  0.000000  0.000000  0.000000  -37.97118051612839  10.979180465480859  -0.2752352891996997  49.850055680754004  17.25906385429341  7.746256703435027  -13.65225920094177  63.05846038057772  8.179384018815632  6.773669457538687  120.000000
1.28688  0.000000  0.000000  0.000000  -38.725872920040075  11.326631061072957  1.025297791871167  50.0499333447751  17.1155902117758  7.6625439901281105  -13.418286681673358  64.17570354036948  7.421284031678402  6.65435876129216  120.000000
1.3405  0.000000  0.000000  0.000000  -39.31034792654515  11.64071635612416  2.106918376041688  50.16344673803253  16.870759940550617  7.544574334750343  -13.268342619228626  65.09831131217935  6.910256793754894  6.661624151031236  120.000000
1.39412  0.000000  0.000000  0.000000  -39.75906658067271  11.912844873173357  2.9800840228037213  50.22870383416264  16.548111859644237  7.393293170711439  -13.20122293703143  65.82664468778913  6.647674227737968  6.7750812935198566  120.000000
1.44774  0.000000  0.000000  0.000000  -40.095753842727774  12.131972860443726  3.6713293670980987  50.272988841486125  16.185375175592096  7.213402184860265  -13.214839836652008  66.36850977319286  6.605968969280113  6.951363008627962  120.000000
1.50136  0.000000  0.000000  0.000000  -40.333816391450206  12.28800695717797  4.216819703821636  50.30972192355662  15.826834829932249  7.012791059560228  -13.305230756416773  66.74291735005444  6.733994795671427  7.131007307851723  120.000000
1.55498  0.000000  0.000000  0.000000  -40.47900948411438  12.374280744796968  4.6525990498494965  50.3426307504522  15.510662107328757  6.797372367970547  -13.463481441428778  66.9765072746921  6.970029081657014  7.255029074440106  120.000000
1.6086  0.000000  0.000000  0.000000  -40.530781950372976  12.388292257638987  5.004494727658974  50.37050742529869  15.257477312981974  6.5684876650872965  -13.673432743514775  67.09458338371884  7.256363686958464  7.28551509011579  120.000000
1.66222  0.000000  0.000000  0.000000  -40.481368658660344  12.33229880870052  5.282368686944437  50.39106455137404  15.065484931100583  6.322902613420274  -13.911127764570805  67.10806319241875  7.549121335483451  7.218528084980337  120.000000
1.71584  0.000000  0.000000  0.000000  -40.315275141862585  12.212990149140913  5.480125536985536  50.403090753704845  14.91222178382453  6.055996333570048  -14.146336491333562  67.00179202378588  7.818454410951137  7.083137801142818  120.000000
1.76946  0.000000  0.000000  0.000000  -40.01225787548217  12.04113317697723  5.579947685484454  50.409023442134085  14.761386174212872  5.765488131107538  -14.345420936895867  66.72667082062104  8.04083454411349  6.928904324629489  120.000000
1.82308  0.000000  0.000000  0.000000  -39.554328114239254  11.8308396699214  5.560107802461099  50.415210483961616  14.571115067650975  5.455692846016468  -14.474598281426783  66.19672560125129  8.190684044852256  6.8152400352837414  120.000000
1.8767  0.000000  0.000000  0.000000  -38.93537346649171  11.598586683763195  5.401374613309372  50.431658690340235  14.300272996140905  5.1382535362151405  -14.501537214632277  65.29391963294832  8.23785797216026  6.805052697756158  120.000000
1.93032  0.000000  0.000000  0.000000  -38.167132353271164  11.362560663304205  5.092428540437351  50.4650355935766  13.915467069900567  4.832252735824445  -14.39531916224491  63.881270999812955  8.155935497583089  6.959321689448973  120.000000
1.98394  0.000000  0.000000  0.000000  -37.2793377368847  11.14364460638062  4.633885708453954  50.507721014383215  13.396715557719608  4.559069946986678  -14.12390884578881  61.82640512139287  7.940735531344254  7.324562132804132  120.000000
2.03756  0.000000  0.000000  0.000000  -36.306397497505706  10.96631769170419  4.035729028549432  50.52580428321004  12.74450182682579  4.337027617746614  -13.650051315632297  59.028773129944064  7.633171338440441  7.910694739587077  120.000000
2.09118  0.000000  0.000000  0.000000  -35.26988751801379  10.85549462690133  3.3139069783980526  50.457305534694456  11.989981707093516  4.178320480960014  -12.925989555974109  55.44516317516677  7.332782205138122  8.667349957174508  120.000000
2.1448  0.000000  0.000000  0.000000  -34.172519044839554  10.835062507454648  2.4963129060833626  50.22849118224836  11.189285033687845  4.076964075559697  -11.896027494611163  51.10586978123162  7.190617605598947  9.481087269154534  120.000000
2.19842  0.000000  0.000000  0.000000  -33.00804374108244  10.917771084591234  1.631442048772972  49.78185028339008  10.405046880164965  4.001301912509646  -10.503557921052062  46.10856198841647  7.375083893715967  10.205701269523239  120.000000
2.25204  0.000000  0.000000  0.000000  -31.78150101568336  11.093288719005725  0.7763231929993172  49.10496955944711  9.688917907334432  3.907989222159241  -8.69771227353759  40.60289938519472  8.027500687233744  10.724356820405353  120.000000
2.30566  0.000000  0.000000  0.000000  -30.51837881734668  11.327164766385888  -0.02262145310919349  48.24397057664598  9.071849754600407  3.760789439316831  -6.448937725337534  34.781936989438556  9.227027789213105  11.011958782914927  120.000000
2.35928  0.000000  0.000000  0.000000  -29.258231846000303  11.56534974767687  -0.7279920960108154  47.30087799667545  8.567501692508815  3.547622054516561  -3.746799218948435  28.878379264224847  10.950339017633842  11.164049167321002  120.000000
2.4129  0.000000  0.000000  0.000000  -28.042616403571998  11.747722884419677  -1.2976527326400973  46.40919013433967  8.178859343608432  3.2841547312627055  -0.5803166028507655  23.14761967831603  13.045152636173  11.358583233295168  120.000000
2.46652  0.000000  0.000000  0.000000  -26.920123854358422  11.824211355723119  -1.6901357549319864  45.69138093572157  7.909965033374555  3.0014720424066175  3.0970628740928605  17.828291082583647  15.208896207710273  11.771956327465162  120.000000
2.52014  0.000000  0.000000  0.000000  -25.951892061100754  11.772882422139487  -1.883879425668701  45.23047463095679  7.7682495969428285  2.729700197634133  7.508882006016656  13.10262966948234  16.877030347155134  12.498248187280119  120.000000
2.57376  0.000000  0.000000  0.000000  -25.202310359987766  11.59483755041326  -1.8803691105145828  45.06106070850219  7.762715348235817  2.4932852756071506  13.4691085830905  9.085970576373477  16.851712682113416  13.512600206260865  120.000000
2.62738  0.000000  0.000000  0.000000  -24.723945071250487  11.304955633339667  -1.6979449112638074  45.172385615700904  7.896532932747152  2.3033161981642944  23.47216442739426  5.859404536109813  12.263421377474609  14.697185400617478  120.000000
2.681  0.000000  0.000000  0.000000  -24.548295920763813  10.927474846635684  -1.366621330919668  45.51514893261601  8.158142948996462  2.149294393737022  44.32787333397718  3.5935538286422353  -4.006236296251106  15.897788076690613  120.000000
2.73462  0.000000  0.000000  0.000000  -24.666813397914364  10.490094578598297  -0.9303435099803865  46.01797336856927  8.522097493518823  2.0085492003175487  82.50723306015375  2.7554174028134977  -38.61131582997949  16.97720114251883  120.000000
2.78824  0.000000  0.000000  0.000000  -25.015141468675957  10.016599696394834  -0.444850232030734  46.60870920167613  8.955858628094596  1.8660904699171514  113.7221521593839  3.2802830679211263  -67.29609340169397  17.846067892143644  120.000000
2.84186  0.000000  0.000000  0.000000  -25.483603833376893  9.523643157032234  0.03551341430789261  47.23333210260871  9.426048614286774  1.7199823340967246  127.41768294240504  4.130441465697648  -79.4122552495259  18.463825896418818  120.000000
2.89548  0.000000  0.000000  0.000000  -25.947479304462576  9.022662952024032  0.46635407920453786  47.862375716834414  9.899566351392858  1.5772363655822217  132.81956103524598  4.7803688617977205  -84.01598624291731  18.826927381338283  120.000000
2.9491  0.000000  0.000000  0.000000  -26.299073951348667  8.521137819886587  0.8144737154679188  48.48291150743395  10.343373364730581  1.4505289018694856  134.59937074547713  5.10586678638797  -85.58772310653335  18.960121709856374  120.000000
3.00272  0.000000  0.000000  0.000000  -26.47453798218188  8.026091431682216  1.060899475284383  49.08718923390849  10.731955803482256  1.3517820443964583  134.40184678886672  5.110886249190182  -85.60357619018502  18.910089343778058  120.000000
3.05634  0.000000  0.000000  0.000000  -26.4590514719581  7.547228587371303  1.1945782843172026  49.66637744661906  11.054934325310997  1.290944883212802  132.66975743937866  4.851543985926689  -84.36837104776335  18.737756814202164  120.000000
3.10996  0.000000  0.000000  0.000000  -26.27169874235456  7.096674500889316  1.2074101827001222  50.211213669379006  11.311330170805197  1.275973473987105  129.29293029575524  4.409480697352586  -81.6574236608351  18.50840911119895  120.000000
3.16358  0.000000  0.000000  0.000000  -25.951685239884437  6.683722946107289  1.1027716253831459  50.71261721352584  11.501003467439197  1.3092298776294942  123.7804666234424  3.879538448064596  -76.88935589508645  18.27569291068229  120.000000
3.2172  0.000000  0.000000  0.000000  -25.54402241428799  6.3140760770154625  0.8972378351552432  51.163832151211295  11.622692793554817  1.3878438856655162  115.37905923265174  3.3650094206167176  -69.2422271911372  18.07027898371842  120.000000
3.27082  0.000000  0.000000  0.000000  -25.090579830523268  5.991097636467599  0.6113288174603912  51.56093507453352  11.677430023570766  1.5078863947669965  103.54133362056899  2.973112441535773  -58.12075720149691  17.898490366717915  120.000000
3.32444  0.000000  0.000000  0.000000  -24.62544746748542  5.717550142810128  0.2635955803831894  51.90298118050744  11.671418842753113  1.663987853936382  89.01103335733164  2.7994326270856718  -44.240732469581026  17.750752281977135  120.000000
3.37806  0.000000  0.000000  0.000000  -24.171093838864895  5.49422431489533  -0.13291918935092703  52.19096476436037  11.614831415576594  1.8489432640894747  74.46035512458755  2.886770850102107  -30.26050914194403  17.613709351292076  120.000000
3.43168  0.000000  0.000000  0.000000  -23.7394474209619  5.318005280118748  -0.5709015032973908  52.424044890690546  11.51856395423027  2.0552631888845463  62.59399880279309  3.2020448959924765  -18.88109551192638  17.479123756256246  120.000000
3.4853  0.000000  0.000000  0.000000  -23.333940369023136  5.18160814214501  -1.0470801536613443  52.59661152959651  11.391217591798663  2.275721716568935  54.136107441111086  3.6764616187354062  -10.82780470477495  17.346645365939352  120.000000
3.53892  0.000000  0.000000  0.000000  -22.950598158642  5.074772313120804  -1.5614623532419878  52.698400405455146  11.236581082475775  2.503460690027233  48.41163445383861  4.2521451531359675  -5.427442870361163  17.22158047353189  120.000000
3.59254  0.000000  0.000000  0.000000  -22.577950022301188  4.98696905539409  -2.1169983538054167  52.71964740469448  11.054611326695408  2.7314788893159916  44.502890856435386  4.895332549470991  -1.7638695178476613  17.109151962093787  120.000000
3.64616  0.000000  0.000000  0.000000  -22.19713093357722  4.90966736180909  -2.717879420822362  52.65628354642298  10.844476520391222  2.952226381392696  41.69333137674802  5.592084221561907  0.8782599481481175  17.00772978836098  120.000000
3.69978  0.000000  0.000000  0.000000  -21.78509783820241  4.83713089184283  -3.3658810630332945  52.51015523795164  10.607062527070559  3.158350527789922  39.47485316044464  6.340993344677674  3.005210747003652  16.90436571410366  120.000000
3.7534  0.000000  0.000000  0.000000  -21.322093625486055  4.765865665597362  -4.055967437855872  52.28482244783388  10.346579754383155  3.3455604952898454  37.47723239027009  7.149458581779058  4.980084032942026  16.77504529738539  120.000000
3.80702  0.000000  0.000000  0.000000  -20.798981513479497  4.694158235705662  -4.776778489438868  51.98541019591314  10.069654742320798  3.51325167520928  35.44390370753891  8.03412134162291  7.04062365122675  16.59011291383614  120.000000
3.86064  0.000000  0.000000  0.000000  -20.221248257094768  4.623205980752512  -5.515740355424289  51.62278345463571  9.782152464843877  3.663738691549052  33.23186333093329  9.022202878611504  9.289508831139162  16.322183696583714  120.000000
3.91426  0.000000  0.000000  0.000000  -19.610707907331513  4.555053986092315  -6.262287932458011  51.21692264049257  9.489650308142805  3.8038927822508017  30.79962675896997  10.155521975006979  11.69674988780065  15.950794492753325  120.000000
3.96788  0.000000  0.000000  0.000000  -19.000282531882753  4.48880385582435  -7.009647196221168  50.798289664347635  9.199085226532867  3.9483163420619714  28.169063316671018  11.490727921386469  14.142653216021698  15.46432679867952  120.000000
4.0215  0.000000  0.000000  0.000000  -18.421678115433345  4.422155670863076  -7.752548305828432  50.41008283161277  8.915301690705318  4.116530336322903  25.378612256838498  13.094319631293605  16.4817411873249  14.866616914625574  120.000000
4.07512  0.000000  0.000000  0.000000  -17.896997182481403  4.347119506306179  -8.487408194713174  50.09829663647627  8.64503172530439  4.334652466560667  22.435058717980834  15.03720148581074  18.60763245174708  14.182853294809567  120.000000
4.1287400000000005  0.000000  0.000000  0.000000  -17.4341322342646  4.255393914194808  -9.218374722236044  49.90789906919797  8.406263842751876  4.630635342332018  19.330691826509426  17.394521661805882  20.45695412004599  13.464896276362062  120.000000
4.18236  0.000000  0.000000  0.000000  -17.02822448220898  4.139069813727017  -9.952374933860803  49.875261834391836  8.223983413050204  5.026344700983856  16.070334294207314  20.238810882338203  21.99777649702369  12.785227717769779  120.000000
4.23598  0.000000  0.000000  0.000000  -16.671424579328512  3.9906710069589373  -10.692425804761632  50.01743752877979  8.120027363727383  5.532622406171204  12.70190502334696  23.622489690562855  23.1970612631916  12.218347573911347  120.000000
4.2896  0.000000  0.000000  0.000000  -16.366671828791233  3.8046224764327645  -11.436562210476028  50.33667537787018  8.11236919028049  6.1407275552799385  9.345246464403083  27.55692149436594  23.982008958734845  11.81388051792658  120.000000
4.3432200000000005  0.000000  0.000000  0.000000  -16.13686041618865  3.578540236036921  -12.175661782601036  50.81511102146  8.21924246122301  6.825265309831905  6.167774497504074  31.988001171707097  24.259852290689615  11.57436409425926  120.000000
4.39684  0.000000  0.000000  0.000000  -16.02789687534311  3.3214371574909163  -12.898596122591124  51.41958492696776  8.471398626451998  7.548747257257676  3.344879490173535  36.792337161188854  23.952103868455307  11.454526381728003  120.000000
4.45046  0.000000  0.000000  0.000000  -16.10090052135944  3.0517604953050044  -13.601551601300933  52.10194248028207  8.91846657267074  8.281655624577413  1.022287032370996  41.79572808394641  23.02668017606328  11.384231767836098  120.000000
4.50408  0.000000  0.000000  0.000000  -16.411583456957604  2.7968946880581984  -14.281763285766296  52.80890948767558  9.61095533531771  8.995490468581568  -0.7028613257117762  46.808779542121265  21.510440002884266  11.298406272722037  120.000000
4.5577000000000005  0.000000  0.000000  0.000000  -17.000469498223712  2.5866592749889032  -14.920334384375588  53.481397396179  10.572768034507432  9.656848699704389  -1.79473497170345  51.66213253481104  19.490716371259712  11.160536077730692  120.000000
4.61132  0.000000  0.000000  0.000000  -17.88664308084299  2.452619249884114  -15.48327266158217  54.051691339836765  11.777782394881031  10.226957782916877  -2.2806112383834836  56.22670245824073  17.103567194519382  10.96915941451775  120.000000
4.66494  0.000000  0.000000  0.000000  -19.054982398498524  2.421554771705134  -15.931568566703115  54.467398891048056  13.15262839238451  10.661605634111778  -2.2229364633821547  60.41655368239349  14.492834147103995  10.74950157934913  120.000000
4.71856  0.000000  0.000000  0.000000  -20.443443775693762  2.4948471944798456  -16.218684487991457  54.70056954023684  14.60327323581047  10.959908997664803  -1.6940818280856087  64.17939935130302  11.783361552876551  10.545561769149664  120.000000
4.7721800000000005  0.000000  0.000000  0.000000  -21.971873844595002  2.6695616209123796  -16.304699573972574  54.75169151117898  16.03470309612054  11.141098338955999  -0.7917160054995726  67.49239448428062  9.073614349347014  10.397468312444667  120.000000
4.8258  0.000000  0.000000  0.000000  -23.578377932301937  2.95342523718466  -16.155113415298135  54.63568720524668  17.355739921962634  11.212549545040117  0.35783553037284804  70.35270136858705  6.428849914699227  10.328875571585872  120.000000
4.87942  0.000000  0.000000  0.000000  -25.209567411661887  3.3508208448113668  -15.728031950695756  54.3747968992593  18.49148174323537  11.182698362530662  1.6281549994541384  72.7674148758835  3.878665426186373  10.350864697668795  120.000000
4.93304  0.000000  0.000000  0.000000  -26.81513147970102  3.8617770275441794  -14.988389679669883  54.00316927125471  19.3966337304762  11.056007846648674  2.9105593120433095  74.74919512615323  1.4287148668554985  10.468761045584943  120.000000
4.9866600000000005  0.000000  0.000000  0.000000  -28.352258987614867  4.472443097851216  -13.918974908789405  53.560656170519295  20.056029219692256  10.840158247829995  4.12019684146975  76.31280735785383  -0.9235799289650612  10.684245646705438  120.000000
5.04028  0.000000  0.000000  0.000000  -29.78530766758829  5.1520610070015  -12.534029806111509  53.093510971008705  20.482543086212186  10.545090442749576  5.197234041704708  77.4780048621286  -3.177198440389401  10.994981972782238  120.000000
5.0939  0.000000  0.000000  0.000000  -31.08418973772193  5.85272137666039  -10.885362086265319  52.65077083247656  20.707390737921916  10.183677716808818  6.1025370331590345  78.27925119476075  -5.316930381227788  11.393871296220485  120.000000
5.14752  0.000000  0.000000  0.000000  -32.2181401112162  6.513268997610729  -9.062234629950575  52.2797254004807  20.765606798730403  9.769847230895918  6.812119657157478  78.77933163215069  -7.303714259002194  11.864768851203571  120.000000
5.2011400000000005  0.000000  0.000000  0.000000  -33.15191185242203  7.069062350806127  -7.188174399610039  52.022944944038414  20.67778378832964  9.310104140965286  7.310963908597414  79.08545545497725  -9.06358218259617  12.375373017394013  120.000000
5.25476  0.000000  0.000000  0.000000  -33.849401401675046  7.472855079514362  -5.393952321844779  51.90828262323294  20.45527510144141  8.805917569217534  7.595256087396911  79.30072564923108  -10.49670326406543  12.870901016703838  120.000000
5.30838  0.000000  0.000000  0.000000  -34.28609200030878  7.710666854627023  -3.7806114227863956  51.93866473366128  20.117580784499633  8.266510817981489  7.683998404038903  79.45037288612505  -11.506673737981185  13.280465353277977  120.000000
5.362  0.000000  0.000000  0.000000  -34.44793134680933  7.788921778643691  -2.423733476047662  52.101811037837514  19.679194760975253  7.707707433391602  7.609048666809064  79.51270661249511  -12.020004271529444  13.534709530533867  120.000000
5.4156200000000005  0.000000  0.000000  0.000000  -34.32371127107062  7.718112132451963  -1.3958054218696112  52.387814701064606  19.133294969981122  7.144631951892686  7.3923432615794775  79.47873810671587  -11.999128677811477  13.5920271022505  120.000000
5.46924  0.000000  0.000000  0.000000  -33.90136746797606  7.507301251986128  -0.7675577949781761  52.791245047465445  18.457528017010013  6.59924487449391  7.036220468539243  79.35443329777318  -11.458045570090107  13.460597760295384  120.000000
5.52286  0.000000  0.000000  0.000000  -33.16986589138271  7.1593821685593  -0.6090111897861907  53.30625603793974  17.622157585229477  6.10445913073306  6.521869342231794  79.15864161419364  -10.457099722329069  13.19776584808623  120.000000
5.57648  0.000000  0.000000  0.000000  -32.13017739814996  6.679279389900471  -0.959135934666244  53.906698988868534  16.621850362486274  5.718768946689534  5.830378868135453  78.85482118144482  -9.09440527719604  12.887045721979906  120.000000
5.6301000000000005  0.000000  0.000000  0.000000  -30.805501322909727  6.092462789548381  -1.7908010738175058  54.534549374814794  15.511727315115989  5.526702021933643  4.9611645265437865  78.28350148963938  -7.490202440111271  12.607344815190753  120.000000
5.68372  0.000000  0.000000  0.000000  -29.234985865652902  5.438021816441348  -3.0411246112509405  55.12334984145092  14.383513834965928  5.598787249102331  3.9205125955055498  77.26301525631533  -5.7430256750101965  12.405948107253625  120.000000
5.73734  0.000000  0.000000  0.000000  -27.46860493082476  4.75408547159602  -4.637525050849332  55.61968313633926  13.331190179707498  5.962627110602846  2.7241056139729505  75.6833447778817  -3.9054199723584753  12.290988055814378  120.000000
5.79096  0.000000  0.000000  0.000000  -25.57281611818922  4.076198097048113  -6.492216615983093  55.990959064073074  12.43618089303098  6.597966127637374  1.4149842450268115  73.49824328702675  -1.9970789517186172  12.24357801341391  120.000000
5.8445800000000006  0.000000  0.000000  0.000000  -23.633572198363712  3.434442549790277  -8.504553922856493  56.22578922098095  11.754612396740521  7.443242574413177  0.07403801158965198  70.7095575533191  -0.022929423009911243  12.234957060724033  120.000000
5.8982  0.000000  0.000000  0.000000  -21.755340921146033  2.853873166772539  -10.56808993879138  56.32406208797094  11.315292233675295  8.412630110718268  -1.1809252119530416  67.35278106048474  2.0114896050626196  12.239445710504064  120.000000
5.95182  0.000000  0.000000  0.000000  -20.051494666656772  2.356971659815773  -12.578219049835104  56.28302855170634  11.12678611276073  9.414609896243212  -2.210252902949515  63.486390760092306  4.091415578886571  12.23809758433209  120.000000
6.00544  0.000000  0.000000  0.000000  -18.63607546867167  1.9772677287659686  -14.443110699265992  56.090924670802565  11.183462833989461  10.351985290647914  -2.8819914842468406  59.18402478021397  6.193475372231849  12.215839351936614  120.000000
6.059060000000001  0.000000  0.000000  0.000000  -17.59291401205461  1.7497924888342515  -16.080866834950882  55.735258026423985  11.468117973828045  11.132912840163772  -3.08958431401605  54.52633609851175  8.288207275204558  12.16304557342756  120.000000
6.11268  0.000000  0.000000  0.000000  -16.946488527964448  1.6831962743657327  -17.410938482150815  55.22124552025222  11.95078163634256  11.70324319797106  -2.7520794752415276  49.595452202852805  10.33717060828905  12.086443892558  120.000000
6.1663  0.000000  0.000000  0.000000  -16.672848585362715  1.7660562886210016  -18.3771263520942  54.58525686085638  12.593607347860107  12.042575147179106  -1.8307955747150009  44.48866074096809  12.29504786064493  12.007498978839447  120.000000
6.21992  0.000000  0.000000  0.000000  -16.72623258622464  1.9707094708525916  -18.959075909415308  53.887421092066305  13.35609435837319  12.160391382994272  -0.3367786061992067  39.330664352959985  14.116119387592127  11.957147119495135  120.000000
6.273540000000001  0.000000  0.000000  0.000000  -17.05115250671365  2.253167650967847  -19.171993469095124  53.19899595623151  14.19610967860353  12.09485792862195  1.6776631575441587  34.26559899814063  15.76106788883092  11.971534457614066  120.000000
6.32716  0.000000  0.000000  0.000000  -17.584257453529705  2.562149850185426  -19.055729500255875  52.597624379526515  15.068362914162943  11.889000456493738  4.132076982815658  29.440254941541976  17.2007540624101  12.087376395775967  120.000000
6.38078  0.000000  0.000000  0.000000  -18.247766310354148  2.8492320169259093  -18.649546885520714  52.1571548241618  15.922162448015486  11.578202126888236  6.927309563645083  24.97908801004097  18.418981748548322  12.338317587571765  120.000000
6.4344  0.000000  0.000000  0.000000  -18.952553753901665  3.0770469237425733  -17.990776922854927  51.92405971561251  16.71443381308076  11.195836853250249  9.938271205757975  20.960769934407537  19.423763933302766  12.74860908137508  120.000000
6.488020000000001  0.000000  0.000000  0.000000  -19.616074441378636  3.231361221737278  -17.121573589590557  51.905664661167506  17.422152983674977  10.776645259949975  13.014429075980226  17.4127734790806  20.24418807196871  13.32435473361532  120.000000
6.54164  0.000000  0.000000  0.000000  -20.181607490881152  3.323428593078589  -16.08404687956689  52.07707907631352  18.037909017152106  10.347694074211239  16.01551675445011  14.327894445966685  20.895498209258818  14.040770275553575  120.000000
6.59526  0.000000  0.000000  0.000000  -20.62735784519379  3.3788351217369175  -14.918495216475437  52.393086363490355  18.55819863527788  9.926948255639681  18.87285066008318  11.679128478727806  21.330155629315247  14.838626048026843  120.000000
6.64888  0.000000  0.000000  0.000000  -20.966032419914814  3.422759179436435  -13.668737162648181  52.80112145437238  18.980110200547088  9.519378453553648  21.682971455012666  9.432363674876232  21.35015237194671  15.630499360965615  120.000000
6.702500000000001  0.000000  0.000000  0.000000  -21.2342557403206  3.473155265173246  -12.38250961367422  53.245892656541216  19.29702764862449  9.121611161309094  24.764023646958254  7.548704829826134  20.56840273345134  16.32475722913316  120.000000
6.75612  0.000000  0.000000  0.000000  -21.47035740862406  3.539213592654796  -11.109424070194683  53.672869777036404  19.5013530740024  8.735735153589484  28.608104101596307  5.985236924898759  18.471283222841326  16.855286765247914  120.000000
6.80974  0.000000  0.000000  0.000000  -21.69813777693378  3.6198010843802817  -9.889342848947848  54.040052332197  19.59595191319802  8.366563357567546  33.8021093458876  4.7057701377927055  14.505631331417986  17.197904780311596  120.000000
6.86336  0.000000  0.000000  0.000000  -21.916556046839375  3.714996374664941  -8.743604604161407  54.32597508668049  19.593612148539147  8.018079358165345  40.86662142074787  3.6791114108889733  8.247643375654645  17.375309487802188  120.000000
6.916980000000001  0.000000  0.000000  0.000000  -22.110224323152995  3.825407676389409  -7.677983907333519  54.526892132679066  19.51044984486239  7.695965302362293  50.089818848746305  2.870959536285693  -0.4570289505629273  17.43917428478725  120.000000
6.9706  0.000000  0.000000  0.000000  -22.258073118714837  3.949074562393787  -6.690547330310671  54.66191361571288  19.363465318165968  7.4033211171322195  61.71437952156507  2.2440581270038114  -11.718261768393665  17.44658823623154  120.000000
7.02422  0.000000  0.000000  0.000000  -22.345904615254227  4.0822611425187025  -5.777899190503639  54.76617946747179  19.16554302097274  7.142256688371864  76.44797765062121  1.7749533363042205  -26.141488126847364  17.444119018079007  120.000000
7.07784  0.000000  0.000000  0.000000  -22.374991231923044  4.218831475672485  -4.935630648475376  54.86543280159318  18.923308089486085  6.914721385922209  95.16995550802015  1.4733821042533244  -44.54744482514058  17.45716245549819  120.000000
7.131460000000001  0.000000  0.000000  0.000000  -22.360878888119725  4.3541111247885205  -4.159828028458378  54.96970248050267  18.643133028589943  6.717002108201197  116.41655069111154  1.3672080045570514  -65.45219038807868  17.490997848886423  120.000000
7.18508  0.000000  0.000000  0.000000  -22.32631963894473  4.484571410708607  -3.4487305612771966  55.08095008842983  18.333529903860434  6.541486730166739  135.34347263696205  1.4396418669728022  -84.01568394111716  17.538616089820895  120.000000
7.2387  0.000000  0.000000  0.000000  -22.292151628900974  4.606980039734342  -2.8033411130162555  55.19892405388878  18.00280653990723  6.381103157217325  148.91551525608455  1.6138080745099048  -97.21477326295218  17.590381861163053  120.000000
7.29232  0.000000  0.000000  0.000000  -22.27311117337383  4.7167409908385345  -2.2279756678396745  55.323981856691255  17.657406370268284  6.230653105819806  157.77651552785346  1.8097904086655299  -105.70436512901959  17.639060914759543  120.000000
7.345940000000001  0.000000  0.000000  0.000000  -22.275177508604497  4.807555520618456  -1.7299585962510635  55.459634090333644  17.301353678899105  6.086410558148714  163.50874763272964  1.9725596254929532  -111.07269157368523  17.681710136443733  120.000000
7.39956  0.000000  0.000000  0.000000  -22.297478389369285  4.871080188896114  -1.3191073860037172  55.61047207987332  16.936061697248512  5.946081841216909  167.2841767547531  2.0655172835177384  -114.49329683706712  17.718886436125427  120.000000
7.45318  0.000000  0.000000  0.000000  -22.334512018568116  4.898180464464361  -1.0072555284154447  55.78081844079405  16.561079889177318  5.80755313384224  169.79087757353338  2.061860117730032  -116.65215288664339  17.753731398793494  120.000000
7.5068  0.000000  0.000000  0.000000  -22.377436568103438  4.87909721995186  -0.8077751847424963  55.97261170920186  16.174647344544912  5.669130616287898  171.3884035123667  1.9408458253081249  -117.90435217720321  17.79138132981215  120.000000
7.560420000000001  0.000000  0.000000  0.000000  -22.415355374743687  4.804796178816286  -0.7352113036934166  56.18414603159678  15.774409064739721  5.531018801034987  172.18575709661306  1.6867700124644698  -118.35314432307632  17.838359782971462  120.000000
7.61404  0.000000  0.000000  0.000000  -22.43790065131209  4.668974904594581  -0.8052306098029072  56.40733109256643  15.359426599045173  5.395834446755691  171.95334989764993  1.2882771718722401  -117.76564490553466  17.89954723100055  120.000000
7.66766  0.000000  0.000000  0.000000  -22.437029311151203  4.46953063721275  -1.0333011321187702  56.62596111923823  14.931715021786962  5.2676448046084845  168.9852535825177  0.7396349446383618  -114.43715430600416  17.973966136182998  120.000000
7.72128  0.000000  0.000000  0.000000  -22.40824156446309  4.210714061604132  -1.4323702920518568  56.815678813686  14.496522157134132  5.151887464503899  100.80434929322782  0.11439790522639003  -45.89913115481565  18.052668549290498  120.000000
7.774900000000001  0.000000  0.000000  0.000000  -22.350149112535078  3.9035898739479022  -2.007954310227942  56.94339991119006  14.061281769333494  5.05577066334145  6.575584111893227  0.8389954220887421  48.6676737502751  18.11790525460775  120.000000
7.82852  0.000000  0.000000  0.000000  -22.255882900585316  3.566148289606209  -2.7605942990980856  56.97387941001327  13.639532241620262  4.989095053769875  3.150390940240139  1.831788581690903  52.39162265939483  18.146120327287576  120.000000
7.88214  0.000000  0.000000  0.000000  -22.11227942387935  3.218314664610825  -3.6871970919165507  56.8814239573965  13.250765395450154  4.966251747181416  2.8691365505236655  2.95594502778809  52.90870512891164  18.109353056144307  120.000000
7.93576  0.000000  0.000000  0.000000  -21.900136146027297  2.872687804953279  -4.7755189449659845  56.648818131085555  12.915010395862492  5.012457706669292  3.62416106685611  4.200169145274742  52.30290393384602  17.975098324318594  120.000000
7.989380000000001  0.000000  0.000000  0.000000  -21.598315950786844  2.535134778622038  -6.0065203137346455  56.28123560069438  12.652277333318112  5.158198007258243  5.048568358590486  5.568526888100467  50.91621074667474  17.70844532207141  120.000000
8.043  0.000000  0.000000  0.000000  -21.194426307618265  2.213032019595025  -7.360322256993063  55.83017880552817  12.483154651241984  5.423604648814864  7.089445825228  7.089956561017961  48.76544609442508  17.280405286812172  120.000000
8.09662  0.000000  0.000000  0.000000  -20.693757426069077  1.9123345627549184  -8.81397458595852  55.37666268382669  12.425395187694775  5.821642487990473  9.540473413615171  8.820902865159663  46.01001338904583  16.681284911873185  120.000000
8.15024  0.000000  0.000000  0.000000  -20.139663761062472  1.6351530595020365  -10.333691233776854  54.999946667145686  12.493006192751954  6.365904261180674  12.04438607270494  10.843926421337908  42.943880758099596  15.930479127930935  120.000000
8.20386  0.000000  0.000000  0.000000  -19.60222377131962  1.382295534215712  -11.876859308750085  54.7683054557375  12.699784524967832  7.065699699986815  14.252263621574631  13.255150819276713  39.849281835863785  15.078463300377027  120.000000
8.257480000000001  0.000000  0.000000  0.000000  -19.144141569423944  1.1556782656082842  -13.406798754845466  54.74794600884757  13.053239878980781  7.92427101023825  15.903788676089741  16.13554260723169  36.93893438476794  14.203931256730172  120.000000
8.3111  0.000000  0.000000  0.000000  -18.79521998839115  0.9562483160423016  -14.906229625215186  55.006684392509534  13.557353649346158  8.940993241292942  16.86191675895117  19.52874800283512  34.322450456805505  13.391205784864423  120.000000
8.36472  0.000000  0.000000  0.000000  -18.559268024713663  0.7768575881773608  -16.378673017637436  55.59657665454214  14.226269942077215  10.125593650138248  17.130324220910314  23.434701106505248  32.00622029385847  12.699438066137127  120.000000
8.41834  0.000000  0.000000  0.000000  -18.43731042841156  0.6096093129034633  -17.851128367731228  56.53887582385085  15.08762615804533  11.490543488227095  16.816975411787645  27.80626143771375  29.958579235096284  12.145191695358317  120.000000
8.47196  0.000000  0.000000  0.000000  -18.437229037862867  0.4602480519356375  -19.36179256852578  57.811629349191186  16.17273265578175  13.014393595381216  16.07414802345612  32.54052849872433  28.17048754944266  11.708641538711976  120.000000
8.52558  0.000000  0.000000  0.000000  -18.561498862786  0.35363830364879373  -20.927539332528053  59.34545913929632  17.4986614877633  14.639688895914544  15.11110385565417  37.49116266810695  26.603724042887244  11.357650605916302  120.000000
8.5792  0.000000  0.000000  0.000000  -18.78770962204601  0.3054598063849169  -22.521187817145236  61.024874387404  19.057738642412573  16.295415515744796  14.169495623396621  42.504049880482306  25.169374468314114  11.067451705141062  120.000000
8.63282  0.000000  0.000000  0.000000  -19.0722333509174  0.3104198354886024  -24.07437389779103  62.69377725374519  20.811266508756106  17.89825937921018  13.454761111949542  47.438169523935166  23.760474045968575  10.82746823866528  120.000000
8.686440000000001  0.000000  0.000000  0.000000  -19.35621474488011  0.3710764756675292  -25.500851644983925  64.21231646044365  22.69876846113216  19.325799375070016  13.08924612426943  52.17840708671814  22.274084888659583  10.632819938133782  120.000000
8.74006  0.000000  0.000000  0.000000  -19.589347712882677  0.49204076431408794  -26.716338682209447  65.47416901873154  24.655254598828957  20.464007571296502  13.089181110122178  56.633910493995636  20.635219523434934  10.477735604970096  120.000000
8.79368  0.000000  0.000000  0.000000  -19.75313626618158  0.6652083164355612  -27.64989876177846  66.39714542661994  26.60840198673358  21.271267333904017  13.385351984868556  60.73377678945775  18.806005072516246  10.358294456666679  120.000000
8.8473  0.000000  0.000000  0.000000  -19.851951370142313  0.8720354327072425  -28.257059740003868  66.95770010415228  28.481662221949126  21.75812489126551  13.873122780779871  64.42939021845987  16.77681497990289  10.272272825547391  120.000000
8.90092  0.000000  0.000000  0.000000  -19.901761838773282  1.0865442537190166  -28.531433132585295  67.1860635662726  30.20757547524971  21.972229276434742  14.450380605535129  67.69071968500096  14.568353848875375  10.221552787014001  120.000000
8.95454  0.000000  0.000000  0.000000  -19.92598782301345  1.2875107670611279  -28.49749605301914  67.13773349692924  31.731558656228547  21.98137955537941  15.032269962418878  70.50710707126187  12.230641970125907  10.207879012910503  120.000000
9.00816  0.000000  0.000000  0.000000  -19.950335622020486  1.465697490359092  -28.181534003272365  66.88423398855618  33.011155744243474  21.84605600692005  15.557447261720844  72.88147972274076  9.835014218150778  10.227743487110027  120.000000
9.06178  0.000000  0.000000  0.000000  -19.995141414980967  1.6272070492785293  -27.60303565406968  66.5029955348254  34.02319960181328  21.61107165290383  15.993598993487959  74.82729819125012  7.467925102164093  10.270504318928412  120.000000
9.115400000000001  0.000000  0.000000  0.000000  -20.07057704966157  1.7905383988691175  -26.79171910914027  66.06084471714505  34.77276125681583  21.31885237434155  16.333923433341706  76.36743580325287  5.2234504342024035  10.319594826879063  120.000000
9.16902  0.000000  0.000000  0.000000  -20.181582821664197  1.9730462330708403  -25.78830296489892  65.60907226091389  35.280527280132084  21.004806320105423  16.59017835020796  77.53365656479959  3.192884312209643  10.356887204719685  120.000000
9.22264  0.000000  0.000000  0.000000  -20.329009743089458  2.1772055982216076  -24.63678724935566  65.18799543132602  35.56369521836711  20.68506971432392  16.78203602185744  78.36785963754465  1.4535903232702727  10.369006673496301  120.000000
9.27626  0.000000  0.000000  0.000000  -20.506710046639242  2.3934764841458587  -23.395412098015147  64.83493803935806  35.63758392779466  20.365208462915174  16.929207085776007  78.91756073971516  0.05969429547987065  10.352362309391175  120.000000
9.32988  0.000000  0.000000  0.000000  -20.697425756836576  2.6063246530254434  -22.14489791799397  64.58944876814124  35.51775777373671  20.049458663229046  17.046723268134773  79.23609371362745  -0.9593475423955851  10.314722086646057  120.000000
9.3835  0.000000  0.000000  0.000000  -20.874427058057183  2.794618163847575  -20.984232785418616  64.4910218795767  35.21506113826716  19.73956430844782  17.143197549344226  79.38694198357676  -1.5901290034525126  10.271013470761865  120.000000
9.43712  0.000000  0.000000  0.000000  -21.007294569360788  2.936407735475821  -20.01903258091233  64.56956848055523  34.737811371978104  19.43683039823  17.222466061561516  79.43064914534827  -1.8272480691611768  10.234857453062805  120.000000
9.49074  0.000000  0.000000  0.000000  -21.075012174219243  3.0187008813908673  -19.328700906198673  64.82564215717802  34.11174370568917  19.15489737167603  17.2936451249102  79.36283292530135  -1.6773947483384215  10.209438243685172  120.000000
9.544360000000001  0.000000  0.000000  0.000000  -21.073273251677957  3.040334247294206  -18.949151929917342  65.22393356915546  33.38692837843268  18.923898398860846  17.375361034808716  79.09201091273837  -1.1606998513090463  10.18451269138979  120.000000
9.59798  0.000000  0.000000  0.000000  -21.007562007242345  3.0031689791049887  -18.892239962950935  65.70901476520744  32.61323500516349  18.77487709837463  17.48257420992801  78.5045761492127  -0.29605514657338444  10.141792541731736  120.000000
9.6516  0.000000  0.000000  0.000000  -20.886594712395905  2.9060433432093165  -19.15969354653165  66.21630764052242  31.823716973024354  18.730536605951283  17.61767074088726  77.5080865667114  0.9033645205235044  10.066443426693953  120.000000
9.70522  0.000000  0.000000  0.000000  -20.720985477711334  2.7489724391169594  -19.740032632887303  66.67406470504253  31.035235596388596  18.8010786232993  17.76785305858814  76.02950621807386  2.422307675000465  9.957567113514662  120.000000
9.75884  0.000000  0.000000  0.000000  -20.52562622095489  2.533075494506891  -20.605677987896364  66.99992953789514  30.252691460710356  18.98487234178051  17.90453995437763  74.0110208503462  4.238500437751175  9.834675704681274  120.000000
9.81246  0.000000  0.000000  0.000000  -20.317893471137676  2.264933496428207  -21.70868804350031  67.10668338824425  29.47841263731638  19.26439076572099  17.990760112113165  71.41165109350915  6.321256338811264  9.73450397245319  120.000000
9.86608  0.000000  0.000000  0.000000  -20.115618152720703  1.95835438046647  -22.97738458812138  66.91661089460541  28.726006103298293  19.60175260732667  17.992919998395756  68.21072158066845  8.634007594216119  9.702496678311018  120.000000
9.9197  0.000000  0.000000  0.000000  -19.93376374442013  1.6359948874134855  -24.317848298989098  66.37463854407324  28.02856159806028  19.93833714276301  17.886037787816026  64.41675777212096  11.142534523313264  9.782869334293975  120.000000
9.973320000000001  0.000000  0.000000  0.000000  -19.77963789540846  1.3266009517921193  -25.62348526104733  65.46329134985531  27.44088946283873  20.20105506594259  17.661945626252983  60.07338901460517  13.819471096867066  10.015149437091319  120.000000
10.02694  0.000000  0.000000  0.000000  -19.644366016502193  1.0534854104716005  -26.785422320395107  64.21336469543112  27.01827330010401  20.318289674049364  17.336470710959013  55.256723995064824  16.645374721990287  10.433596641215606  120.000000
10.08056  0.000000  0.000000  0.000000  -19.518308784143237  0.8292076949515269  -27.70761420391383  62.69342475638465  26.784674456342223  20.235810866246293  16.942591049088445  50.06513352048196  19.6041569532603  11.062943518678349  120.000000
10.13418  0.000000  0.000000  0.000000  -19.398463333778356  0.6554704462514289  -28.322185073140435  60.9894348517706  26.726758317589468  19.93711997246486  16.51762930374654  44.60853944241818  22.67271172458254  11.906145161291809  120.000000
10.1878  0.000000  0.000000  0.000000  -19.286497983320306  0.5397385233481303  -28.60220648547412  59.20473859641038  26.814256426203425  19.451013323278833  16.1065608021092  39.0076225567197  25.79191478458757  12.933342323045284  120.000000
10.24142  0.000000  0.000000  0.000000  -19.188727994698787  0.4940583870650947  -28.51940729299095  57.447926475984836  27.01106850062301  18.839990080433154  15.751193553466985  33.36260068162992  28.86660305795074  14.08269796654676  120.000000
10.29504  0.000000  0.000000  0.000000  -19.116104831363927  0.5515128907887115  -27.999537157121093  55.849062079876816  27.283218489213805  18.14375828612401  15.501553703319576  27.73889220842517  31.757146207527697  15.275302414825836  120.000000
10.34866  0.000000  0.000000  0.000000  -19.089647056295178  0.7565591422844145  -26.966981654517955  54.52358061690141  27.60868123363725  17.39332234059808  15.410519639217291  22.18994382269592  34.29958017663292  16.416462044098353  120.000000
10.402280000000001  0.000000  0.000000  0.000000  -19.148818171435586  1.1456505884142651  -25.379371213479285  53.51281518118854  27.968639186555464  16.6364988834512  15.556136837305761  16.76513640345549  36.323801820854726  17.404262621751958  120.000000
10.4559  0.000000  0.000000  0.000000  -19.34159539400299  1.725028031177013  -23.229660154950565  52.81390107057129  28.338661129690305  15.903883237494293  16.13291569137453  11.512722316273736  37.58508113746727  18.137332422957755  120.000000
10.50952  0.000000  0.000000  0.000000  -19.721811025926772  2.4472490589388167  -20.542406126560298  52.375856263344126  28.676310392306654  15.230673151609835  17.666225023296068  6.4625295984500974  37.534593204974705  18.52494613102177  120.000000
10.56314  0.000000  0.000000  0.000000  -20.327840966878963  3.2362974971340424  -17.382318659457184  52.14361996759689  28.948064384096984  14.627024322195822  26.225125356361083  1.6393002940077395  30.088125185871185  18.49883939375188  120.000000
10.61676  0.000000  0.000000  0.000000  -21.212683550545577  3.999753974046494  -13.843426764806866  52.03477370371321  29.12483391173812  14.10146363876879  -169.54814299857028  3.05071078670461  -133.41703545220352  18.02263170354575  120.000000
10.67038  0.000000  0.000000  0.000000  -22.346782517654336  4.651066288905921  -10.034364823775485  51.980066779193045  29.192020988446753  13.659287906506838  -165.75212191533822  7.554151422131423  -136.84755194337134  17.167053737688736  120.000000
10.724  0.000000  0.000000  0.000000  -23.644385105659076  5.118918268490029  -6.0792245310164  51.949593773724914  29.14113165503885  13.308720438745075  -165.1923305316572  12.031571808255093  -137.32640552496562  16.131261448186518  120.000000
