Simulation
nRows=201
nColumns=15
endheader
time  TH_x TH_y TH_z SC_y  SC_z  SC_x  AC_y  AC_z  AC_x  GH_y  GH_z  GH_yy  EL_x  PS_y
0.0  0.000000  0.000000  0.000000  -21.481837363305974  5.049547332879065  0.3347068766571287  40.9540517362125  -3.5339696293062888  -10.056380803102089  49.41091538227468  15.392670134842522  3.9482655933499786  20.76425915891298  120.000000
0.04802000000000001  0.000000  0.000000  0.000000  -24.101022178823197  4.6672847970262366  0.7031601757449063  43.272030796212455  -2.117094245792845  -8.635343661992408  42.69216023915607  13.503306216438896  9.623461980804144  20.252017472364813  120.000000
0.09604000000000001  0.000000  0.000000  0.000000  -26.274576356976866  4.3688585698093165  1.1337910374599605  45.482836290221535  -0.7529821041742348  -7.287011083009536  35.0711972728039  12.26641775365923  16.10314006515879  19.707749927675284  120.000000
0.14406000000000002  0.000000  0.000000  0.000000  -27.98494782768545  4.229303605122916  1.4831927670820442  47.40739769026269  0.4794194215491886  -6.079408837670337  26.980873715478427  11.666379755409862  22.890572372337363  19.100975904219876  120.000000
0.19208000000000003  0.000000  0.000000  0.000000  -29.505751946601613  4.258660146829525  1.7251692065428657  48.90227080624652  1.5420960061575029  -4.9761444109958495  19.458719523274347  11.662706731332753  28.8932178614281  18.426778046275416  120.000000
0.24010000000000004  0.000000  0.000000  0.000000  -30.949508362826204  4.478968746961774  1.864141897139245  50.020280004029004  2.4538422389213754  -3.978557409053736  13.57930705261585  12.16772749591102  33.02725675437129  17.707894955873183  120.000000
0.28812000000000004  0.000000  0.000000  0.000000  -32.39931356875568  4.8931064826584345  1.9340575844444892  50.80036852694727  3.257061888975946  -3.0705881732939706  9.546211683919706  13.05044294708304  35.09773060417174  16.96579549124949  120.000000
0.33614000000000005  0.000000  0.000000  0.000000  -33.8618795586116  5.476314853382527  1.983379535696673  51.28389919958089  4.006041148436897  -2.2312268937034836  7.005495688738164  14.219570514097132  35.47451908573747  16.210727885516476  120.000000
0.38416000000000006  0.000000  0.000000  0.000000  -35.33218360916033  6.207217848690748  2.052356536589267  51.53065026210762  4.741511871517301  -1.4511161031653366  5.499892678914534  15.631828368869298  34.63219457076318  15.458170141131465  120.000000
0.43218000000000006  0.000000  0.000000  0.000000  -36.7845205551383  7.048685043580438  2.1676142058204584  51.58014431968334  5.483602296800743  -0.7216965605531657  4.548377875480872  17.26212775945754  33.08583983153338  14.718982937997973  120.000000
0.48020000000000007  0.000000  0.000000  0.000000  -38.2033968465583  7.967054009744045  2.340556098676033  51.471693156899455  6.229741354724789  -0.03470255837545621  3.8186770221620527  19.097867273974867  31.21325655719765  14.008219121726588  120.000000
0.5282200000000001  0.000000  0.000000  0.000000  -39.5670536267416  8.926246602048316  2.5681393774895183  51.24181551663588  6.965173184324525  0.6178188966593862  3.117577419675287  21.12928643041885  29.26139748131644  13.337217908940012  120.000000
0.5762400000000001  0.000000  0.000000  0.000000  -40.86636531784042  9.891761443338993  2.8376709917375833  50.92960212391565  7.668797626619837  1.2444435764719854  2.3758028306585124  23.349007025567804  27.354537470148518  12.715593498671906  120.000000
0.62426  0.000000  0.000000  0.000000  -42.0880330364317  10.829230464171463  3.128408287446406  50.57548027579484  8.322123579231251  1.8499579516056086  1.5941362240878707  25.743347626175414  25.541511459866197  12.148001083450449  120.000000
0.6722800000000001  0.000000  0.000000  0.000000  -43.22702420531467  11.70850183878706  3.4187757959764538  50.21993583616161  8.913994917786976  2.4372232397434392  0.8137635948651283  28.293857256666115  23.81698813406131  11.635959533651578  120.000000
0.7203000000000002  0.000000  0.000000  0.000000  -44.2751863511652  12.502559149071633  3.6889595258364696  49.898594057141985  9.445169169267627  3.0060182694535658  0.08265511078271545  30.97374563155917  22.149210025002883  11.17278797756686  120.000000
0.7683200000000001  0.000000  0.000000  0.000000  -45.23030080247347  13.190252182265965  3.9207004437366604  49.64155664183346  9.931152886647132  3.5576815541234272  -0.5547844291217155  33.75228784766408  20.489553141421094  10.745059240741957  120.000000
0.8163400000000001  0.000000  0.000000  0.000000  -46.0872453713839  13.754420417896894  4.100986330948494  49.46855660240707  10.396885126715686  4.094869237179792  -1.0716949060337495  36.59625312296101  18.790699727187135  10.331351478501384  120.000000
0.8643600000000001  0.000000  0.000000  0.000000  -46.84442544217396  14.18482782966247  4.223423990085385  49.39174863654725  10.86876133226785  4.618796307452119  -1.4593851887281692  39.47510853597399  17.017345147786717  9.910317820074267  120.000000
0.9123800000000002  0.000000  0.000000  0.000000  -47.497148411051604  14.477567477601225  4.283018255848155  49.41193238456226  11.369448149005649  5.1311176292176635  -1.7315266512689726  42.362039018607284  15.158998794743447  9.465687499574427  120.000000
0.9604000000000001  0.000000  0.000000  0.000000  -48.04367577013704  14.63675542498279  4.271029385198058  49.520456213796514  11.91385096224768  5.632917503635262  -1.9204484776462456  45.23596245434562  13.235455470649832  8.99611052976043  120.000000
1.00842  0.000000  0.000000  0.000000  -48.4804979841165  14.674371194664669  4.170385480536482  49.69773590707414  12.50823181681597  6.1248185593842  -2.0720089255586616  48.07744049896215  11.29483726432158  8.514987665061119  120.000000
1.0564400000000003  0.000000  0.000000  0.000000  -48.80607185097758  14.607773523834588  3.9593096928035956  49.91658621277027  13.15149319585981  6.606951607385058  -2.2336104846017975  50.86678873516801  9.402346089428187  8.047145797384198  120.000000
1.1044600000000002  0.000000  0.000000  0.000000  -49.01640155851416  14.457252977693445  3.621020990529899  50.146126096085446  13.83389948600818  7.0756647317759045  -2.446775917346001  53.57813311075059  7.628267427888451  7.619655173751243  120.000000
1.1524800000000002  0.000000  0.000000  0.000000  -49.110570536130254  14.241826750047554  3.148914329692765  50.357234487336164  14.53930524685377  7.523639381712173  -2.7395928384385577  56.17613464723012  6.036849106694459  7.256198627748709  120.000000
1.2005000000000001  0.000000  0.000000  0.000000  -49.09431898213813  13.977058090154047  2.5442403186369735  50.52952360262793  15.25016025188299  7.942330945696551  -3.1205414505679623  58.61191436415422  4.677481708159914  6.973499107450947  120.000000
1.24852  0.000000  0.000000  0.000000  -49.00048310327642  13.672547111982956  1.8206062246232704  50.659686229929314  15.951477290131947  8.326425628262568  -3.568363091852881  60.83002484744041  3.576431891827002  6.785718086520501  120.000000
1.2965400000000002  0.000000  0.000000  0.000000  -48.87656406156103  13.338817636918058  0.9987768848863553  50.75338328563568  16.632297610857457  8.676019876549857  -4.0459579301554  62.77975858130208  2.741129126252061  6.702699161604836  120.000000
1.3445600000000002  0.000000  0.000000  0.000000  -48.75101711183499  12.99128893763509  0.09960504748173549  50.80895629677998  17.285335695232078  8.997381884894777  -4.524229387083271  64.42857555240516  2.166266061549475  6.722680998776832  120.000000
1.3925800000000002  0.000000  0.000000  0.000000  -48.62919665507978  12.648729153850168  -0.8521594038321426  50.82000802298881  17.906103442793082  9.300930641494501  -4.986729839908909  65.76658489261882  1.8316261733851937  6.828084311395848  120.000000
1.4406000000000003  0.000000  0.000000  0.000000  -48.51582585942257  12.328064875589817  -1.8240458458396984  50.787324693381734  18.493971227786265  9.5973824010099  -5.421160389884975  66.80610815165483  1.699764511691191  6.9871556578549185  120.000000
1.4886200000000003  0.000000  0.000000  0.000000  -48.414246141723964  12.04311300903643  -2.781275040253822  50.71505357858888  19.05338535127641  9.897388650219671  -5.819580356527795  67.57462761685969  1.7208677271539379  7.156706274189138  120.000000
1.5366400000000002  0.000000  0.000000  0.000000  -48.326124928421414  11.804000410001414  -3.691933460214109  50.608415399163086  19.592148878757786  10.208505072844698  -6.175323994243338  68.1067304366302  1.8413476776398616  7.29196030548785  120.000000
1.5846600000000002  0.000000  0.000000  0.000000  -48.25165757439824  11.617924304256382  -4.530044078682035  50.47118214453921  20.117934727379712  10.535981362528936  -6.478428990210321  68.43355557334885  2.0141177725563844  7.358220775590379  120.000000
1.6326800000000001  0.000000  0.000000  0.000000  -48.18987831843006  11.48932911257598  -5.278112793771863  50.3049256321305  20.6352053301947  10.880928801163144  -6.713275331448831  68.57301109728107  2.207082904697899  7.341706904417505  120.000000
1.6807000000000003  0.000000  0.000000  0.000000  -48.13920223921627  11.419440723388032  -5.926530745884785  50.10917270041968  21.14414282466086  11.241699763736523  -6.856862821564821  68.52051737847759  2.405546890514876  7.252384093280255  120.000000
1.7287200000000003  0.000000  0.000000  0.000000  -48.09790200004461  11.405255811518746  -6.47225587274448  49.88434520693823  21.64151706621042  11.612779896314594  -6.8803170993835225  68.24377295808485  2.607350613609727  7.118535179275616  120.000000
1.7767400000000002  0.000000  0.000000  0.000000  -48.06446763834234  11.438440443290542  -6.917178258285793  49.63440991101959  22.12186411705614  11.985693112206878  -6.751790724961303  67.68294917852874  2.8138403251868778  6.978377449410074  120.000000
1.8247600000000004  0.000000  0.000000  0.000000  -48.03763799651873  11.505323899193861  -7.26879513888114  49.369407956686906  22.577340819035125  12.349607375202247  -6.441143091434523  66.75783346524396  3.0201024893044623  6.875014721954662  120.000000
1.8727800000000003  0.000000  0.000000  0.000000  -48.01624796036138  11.58832260973378  -7.541289841013239  49.107150884478365  22.995730890681653  12.689637160319586  -5.925458199881659  65.38105587440869  3.2094028234700964  6.853925840277768  120.000000
1.9208000000000003  0.000000  0.000000  0.000000  -47.99913059065819  11.667058338087154  -7.754635025148986  48.86993552366461  23.358872665634486  12.988048383960225  -5.193429663866178  63.4761311531152  3.3541793521994605  6.960431075215021  120.000000
1.9688200000000002  0.000000  0.000000  0.000000  -47.96723448778127  11.722140528506612  -7.940037105014367  48.67223041546045  23.643190119879627  13.221527988431225  -4.256776002490638  60.995092971410536  3.4304945897873194  7.22915513596763  120.000000
2.01684  0.000000  0.000000  0.000000  -47.88352115694973  11.733931748829109  -8.135049260576222  48.51626142226329  23.82190335006058  13.365699711116171  -3.141537507588866  57.928466771236906  3.433907524982909  7.673084995007686  120.000000
2.0648600000000004  0.000000  0.000000  0.000000  -47.721579496228095  11.684245440366025  -8.373683442308678  48.40635888275824  23.87051092772538  13.395546249581269  -1.8608980735559975  54.30792633312189  3.392143613898928  8.27456807199105  120.000000
2.1128800000000005  0.000000  0.000000  0.000000  -47.46450372722451  11.55612323920359  -8.677693060489618  48.34476379338076  23.77272198828899  13.292454714774932  -0.4136222071273072  50.20668086466684  3.3753204331026128  8.974960746716022  120.000000
2.1609000000000003  0.000000  0.000000  0.000000  -47.08952513594941  11.337122745251783  -9.054721317282013  48.32707782446991  23.52434435639847  13.04855845447231  1.197607112496141  45.73771319065034  3.49746113101466  9.679396893145142  120.000000
2.2089200000000004  0.000000  0.000000  0.000000  -46.56873071357604  11.019556661703618  -9.496117315040564  48.34783389950477  23.136255001099602  12.672218498953537  2.9469489004870533  41.043162168410674  3.9028703585074114  10.284471678398061  120.000000
2.25694  0.000000  0.000000  0.000000  -45.87698934674705  10.600299987117323  -9.979798006059598  48.40891044946536  22.63089846632388  12.187708895214152  4.764810822014403  36.27816052065543  4.749376633405694  10.717442523932945  120.000000
2.3049600000000003  0.000000  0.000000  0.000000  -45.00238969548836  10.080845902837124  -10.476482301511638  48.52558207595941  22.039534679788193  11.625585859695608  6.522067599961623  31.591306017918374  6.191378974264116  10.97302153118822  120.000000
2.3529800000000005  0.000000  0.000000  0.000000  -43.95257414250695  9.465597761216083  -10.95573094457368  48.7184808135374  21.39784970958098  11.02141142059491  8.022012530058868  27.114587780385676  8.378729880882776  11.123203552807936  120.000000
2.4010000000000002  0.000000  0.000000  0.000000  -42.75468921506846  8.763720691972447  -11.394496768398513  49.00943734230793  20.741773815295627  10.410011001419806  9.004268112085107  22.958639521809978  11.462372275689628  11.292430418652089  120.000000
2.4490200000000004  0.000000  0.000000  0.000000  -41.45247221305987  7.988718860971341  -11.777401579621714  49.4161121490192  20.101975080892736  9.82064294785323  9.162163648122291  19.211881365197982  15.590854977755164  11.610277824459333  120.000000
2.49704  0.000000  0.000000  0.000000  -40.10194547237287  7.160596717635644  -12.09089147157072  49.94909721972595  19.503265269179664  9.274740085813589  8.205136874237995  15.943571408616972  20.86564687888335  12.163142090449506  120.000000
2.5450600000000003  0.000000  0.000000  0.000000  -38.76655496491476  6.307872239751483  -12.319707389898406  50.610065594415424  18.968254009077423  8.786293587997068  5.989158145814906  13.199197414501054  27.230420187347917  12.962146920869888  120.000000
2.5930800000000005  0.000000  0.000000  0.000000  -37.51540382113347  5.466226573672638  -12.447980528143296  51.38577473469652  18.51670322703062  8.365188131981881  2.688633815719742  10.986529882198383  34.3212279007517  13.944923297305754  120.000000
2.6411000000000002  0.000000  0.000000  0.000000  -36.416526302225066  4.677172648686521  -12.466506284329684  52.24629145870735  18.162643089256594  8.014309011739954  -1.0696159018092168  9.257621889348993  41.35458102492863  15.006807835142874  120.000000
2.6891200000000004  0.000000  0.000000  0.000000  -35.52525022097944  3.9804263952537133  -12.376764305752202  53.143585786959314  17.912305968778803  7.731254404750453  -4.294440438712165  7.911169878388914  47.236785178133516  16.036952196848144  120.000000
2.7371400000000006  0.000000  0.000000  0.000000  -34.87007849226542  3.407694533796213  -12.19188152675205  54.01670810444677  17.763860288158895  7.5101082287038095  -5.947900186902422  6.8301098187207065  50.89725093486667  16.94458586996278  120.000000
2.7851600000000003  0.000000  0.000000  0.000000  -34.44232633597685  2.979113139483582  -11.93219416397849  54.808944527957195  17.70652935945635  7.340540197491757  -5.23858932373918  5.932521687054754  51.58635943049238  17.671165661861387  120.000000
2.8331800000000005  0.000000  0.000000  0.000000  -34.19997345114814  2.701435562967809  -11.620211886803933  55.483352820553755  17.722589700975  7.208853438702729  -1.6878219099744582  5.198260461488098  48.92670516164303  18.188307701430237  120.000000
2.8812000000000006  0.000000  0.000000  0.000000  -34.085358335846955  2.5664987504288144  -11.278814866805421  56.025829152334225  17.790467217322554  7.10280635561681  4.755100240085479  4.660601445058931  42.99998639029198  18.489309038116442  120.000000
2.9292200000000004  0.000000  0.000000  0.000000  -34.04846300401221  2.5488523347717345  -10.930090579743979  56.43363041357281  17.884266499721537  7.016123985230432  13.292501665149361  4.371054487764515  34.73823709107731  18.58283636470285  120.000000
2.9772400000000006  0.000000  0.000000  0.000000  -34.05723915206767  2.6138214152460053  -10.595477376937861  56.708290604062206  17.97317079253529  6.948092567003265  22.12980345656261  4.349580860030194  26.050389859967215  18.494858318502214  120.000000
3.0252600000000003  0.000000  0.000000  0.000000  -34.09187430658077  2.727980502497142  -10.299753937022047  56.86039827307351  18.027090882323826  6.898129543699146  29.396654072543292  4.56230241980756  18.889268615719967  18.270095290650147  120.000000
3.0732800000000005  0.000000  0.000000  0.000000  -34.13019428098126  2.8576378723232905  -10.074440835609948  56.91863611749026  18.022231418475243  6.87174562451912  34.32207434101396  4.950609867900297  14.075533016108787  17.969505448722675  120.000000
3.1213000000000006  0.000000  0.000000  0.000000  -34.13460690581214  2.968482394006696  -9.947180641237749  56.92319439598289  17.934519611991963  6.878314261131149  37.242476609702194  5.471144069634285  11.297816858101474  17.660847208918973  120.000000
3.1693200000000004  0.000000  0.000000  0.000000  -34.06789296479276  3.036805458332706  -9.936120167917089  56.896943868515  17.748371008386393  6.914653422601939  38.739641761816934  6.101786874878031  9.97539388457297  17.39208078502403  120.000000
3.2173400000000005  0.000000  0.000000  0.000000  -33.91134741239321  3.061050533327924  -10.052332390663256  56.83696543893416  17.469486846018683  6.964021829755769  39.146266692565284  6.829808456010946  9.759010441611911  17.166255656718086  120.000000
3.2653600000000003  0.000000  0.000000  0.000000  -33.66827347588318  3.0520384472597546  -10.295209646869534  56.72178475051201  17.120470317685225  7.006866667034541  38.60704363475792  7.6483998435790825  10.479524264812508  16.943138275513487  120.000000
3.3133800000000004  0.000000  0.000000  0.000000  -33.356291199157084  3.017046682555906  -10.650925052278925  56.52522728077247  16.731983831238544  7.031816306979483  37.260920837016826  8.562720798979065  11.97032181820441  16.6598416697244  120.000000
3.3614000000000006  0.000000  0.000000  0.000000  -32.99474174355924  2.952971125715462  -11.100784539939735  56.232752399782896  16.338987465929065  7.041067269912247  35.327485128723374  9.59537060564571  13.980576010603288  16.259344476479725  120.000000
3.4094200000000003  0.000000  0.000000  0.000000  -32.599743874396935  2.849761721095516  -11.627192593843448  55.849931360539486  15.979687200506204  7.041014678152966  33.05405105365532  10.785964127433667  16.225868096494207  15.715376031113848  120.000000
3.4574400000000005  0.000000  0.000000  0.000000  -32.18644143049454  2.699720470039103  -12.210263014028182  55.399933697234566  15.689810589016057  7.0334044014589825  30.66081213903134  12.18282226978205  18.4472208441083  15.04648493353982  120.000000
3.5054600000000007  0.000000  0.000000  0.000000  -31.774130802848095  2.4993958316693115  -12.827985920179495  54.91474150690695  15.498950156514748  7.016232233069707  28.317988905419448  13.831871306917215  20.438760761872377  14.309480890907668  120.000000
3.5534800000000004  0.000000  0.000000  0.000000  -31.386256476887077  2.2527512658167237  -13.459559473140763  54.42959251191192  15.430136933295268  6.985985737530984  26.136343819026518  15.769389793394884  22.06041486972071  13.579228865914489  120.000000
3.6015000000000006  0.000000  0.000000  0.000000  -31.053371941885196  1.9696002951176272  -14.088217067955544  53.97624875573247  15.499765495967946  6.9428509594348515  24.17136334278082  18.019186071414964  23.233557763158878  12.924900222560796  120.000000
3.6495200000000008  0.000000  0.000000  0.000000  -30.81440958028618  1.6627310836863103  -14.703835019385277  53.57438339604048  15.71757763616134  6.899406406860089  22.446138200021565  20.589913409562083  23.92048588861345  12.391457987307891  120.000000
3.6975400000000005  0.000000  0.000000  0.000000  -30.713729473944323  1.346462493271868  -15.300264740604351  53.22988974953397  16.08855778154363  6.88089110481267  20.976970106412647  23.473953646384018  24.10155707720338  11.993069176461182  120.000000
3.7455600000000007  0.000000  0.000000  0.000000  -30.7938575860347  1.0381747267598467  -15.871308294299435  52.94257345608369  16.613755797287208  6.915747319009979  19.777034433049625  26.648944654412034  23.769598656286504  11.717208506672126  120.000000
3.7935800000000004  0.000000  0.000000  0.000000  -31.081547527128013  0.7642711312267454  -16.412903786479077  52.713369522677894  17.28910967402992  7.027952351157729  18.846482700635804  30.076427620993893  22.93862476745199  11.536688178440777  120.000000
3.8416000000000006  0.000000  0.000000  0.000000  -31.58246131120758  0.5574034518964877  -16.922674186950047  52.543730749980554  18.09903048563738  7.236560766887861  18.171225348062638  33.70158622720467  21.644056664148078  11.419830164867484  120.000000
3.8896200000000007  0.000000  0.000000  0.000000  -32.28013873208918  0.45150273827000764  -17.39557902168939  52.436423841243844  19.011605252101685  7.549313694003489  17.734770106565524  37.45777859095759  19.93248327784598  11.33675680981857  120.000000
3.9376400000000005  0.000000  0.000000  0.000000  -33.13557689670222  0.47493477755340785  -17.819789894810494  52.39335908675868  19.983035513031698  7.964039213116794  17.518781954562836  41.27175891735901  17.862143513083314  11.262724899421409  120.000000
3.9856600000000006  0.000000  0.000000  0.000000  -34.101447190648514  0.6456029698898349  -18.181704333236883  52.405583735229015  20.968132421005183  8.479537436573876  17.496200505201138  45.0707144961513  15.50836945141087  11.179901919253282  120.000000
4.03368  0.000000  0.000000  0.000000  -35.134337423487025  0.9747519736514485  -18.474670171572583  52.44641279253635  21.929804195831107  9.0919405067151  17.62978917034277  48.78820728465808  12.959286013488267  11.076513665877838  120.000000
4.0817000000000005  0.000000  0.000000  0.000000  -36.20075303986777  1.4643688439140734  -18.696330239308956  52.4772247814656  22.841590095761223  9.793247722602864  17.88279350065947  52.36954014685402  10.300476600344824  10.94806989089295  120.000000
4.129720000000001  0.000000  0.000000  0.000000  -37.276022643659864  2.104338266748205  -18.84562726889963  52.46187621415405  23.689675869550598  10.573060467101438  18.223943672057196  55.774420275947655  7.60834640312987  10.801192868522742  120.000000
4.177740000000001  0.000000  0.000000  0.000000  -38.34195247930374  2.8741903452702293  -18.92413847173668  52.37461879925814  24.47223768757007  11.416567671188805  18.621342696536818  58.97381620871366  4.950399692046897  10.650139788136599  120.000000
4.225760000000001  0.000000  0.000000  0.000000  -39.387143174400954  3.74507801293392  -18.93695351782836  52.19975969123397  25.195059399153806  12.305174123913527  19.04079138537894  61.94644499354194  2.381181973684038  10.513530330566068  120.000000
4.27378  0.000000  0.000000  0.000000  -40.40322901498455  4.682043454108227  -18.892670742036493  51.930877354451255  25.867350620125674  13.219419649362548  19.448433182472797  64.67664324201719  -0.06331651824301363  10.412348161740324  120.000000
4.3218000000000005  0.000000  0.000000  0.000000  -41.38293160764472  5.6463689380691156  -18.802945188150943  51.57260569934975  26.4987275676046  14.140514172607185  19.814121249455006  67.15474775635693  -2.3695466990773952  10.369823760305056  120.000000
4.369820000000001  0.000000  0.000000  0.000000  -42.319178326037076  6.598797743617643  -18.682208339438933  51.14120334155695  27.09692763930655  15.050729636277945  20.112186865285267  69.37713303659962  -4.545407652579424  10.411982074031778  120.000000
4.417840000000001  0.000000  0.000000  0.000000  -43.2065468150022  7.502843208854567  -18.546755291662265  50.6621062016557  27.666837472499505  15.933689089515088  20.32254646085806  71.3458403870676  -6.612604037952637  10.564565294992926  120.000000
4.465860000000001  0.000000  0.000000  0.000000  -44.041884452070015  8.328545032346534  -18.41270341848403  50.16514245754537  28.21103314903476  16.77442591527583  20.43323841694767  73.06743752281932  -8.59278602992123  10.846202005238514  120.000000
4.51388  0.000000  0.000000  0.000000  -44.82374415037234  9.055339474391735  -18.29313641268352  49.67845999151735  28.731126213231047  17.56052820748042  20.44403006384798  74.55188188668316  -10.493708761738521  11.257035252366757  120.000000
4.5619000000000005  0.000000  0.000000  0.000000  -45.54845960361058  9.673289822889497  -18.195951600309556  49.22273137257715  29.229684084009566  18.283964294590284  20.370006575579474  75.81099219703407  -12.30045907583802  11.768857256771277  120.000000
4.609920000000001  0.000000  0.000000  0.000000  -46.20358645332666  10.182428832512565  -18.12378242045282  48.80784449764782  29.71208770401222  18.942070685611352  20.240339574044064  76.85633342792508  -13.97398839991497  12.324786992047555  120.000000
4.657940000000001  0.000000  0.000000  0.000000  -46.76178712287829  10.588812849658481  -18.076310025025602  48.431112084880546  30.1857212026898  19.53786971254007  20.09035424998378  77.6962481859598  -15.455358309270554  12.850336417302623  120.000000
4.705960000000001  0.000000  0.000000  0.000000  -47.182132300949704  10.90050025418882  -18.056287981936595  48.08003619580068  30.65531044594372  20.07609862108138  19.952445193981724  78.33330729491269  -16.675400110952406  13.272352661578177  120.000000
4.75398  0.000000  0.000000  0.000000  -47.427073834154314  11.122553694031318  -18.07755815851312  47.74349828350416  31.11337103777387  20.556442748038684  19.851397095104435  78.76817066443479  -17.569422848771932  13.538771890773043  120.000000
4.8020000000000005  0.000000  0.000000  0.000000  -47.50345905035401  11.253744739320792  -18.170511690367036  47.43311655610821  31.52811647641709  20.963441317873205  19.8075153134722  79.01772685960196  -18.082839273305567  13.634816175448584  120.000000
4.850020000000001  0.000000  0.000000  0.000000  -47.49270647225652  11.30114595367394  -18.35320248427009  47.180739434715846  31.862321628156067  21.279200530315165  19.8669038272662  79.06913166026189  -18.204512788910883  13.585377025211404  120.000000
4.898040000000001  0.000000  0.000000  0.000000  -47.486879196855455  11.292697734874292  -18.6015522759778  46.99960057948107  32.10747726439122  21.508664253280664  20.108206659489895  78.8185676950564  -17.997582452660993  13.437385632496385  120.000000
4.946060000000001  0.000000  0.000000  0.000000  -47.47994645369554  11.253921272635878  -18.886013163131302  46.86843106852002  32.27327825308788  21.667731085952777  20.57445157450442  78.14598480499473  -17.55314820270826  13.234245596392359  120.000000
4.99408  0.000000  0.000000  0.000000  -47.39094229974373  11.185542780596402  -19.201459173321506  46.76090025660242  32.364346763882104  21.760384398261078  21.247546195966176  76.99473027806313  -16.937929735491743  13.00868734987751  120.000000
5.0421000000000005  0.000000  0.000000  0.000000  -47.167501022562014  11.071813462484194  -19.554961723036545  46.673382871762605  32.37908504882256  21.772516269210175  22.09010654505894  75.3576784893168  -16.194031133613993  12.791572957039525  120.000000
5.090120000000001  0.000000  0.000000  0.000000  -46.80535428269458  10.886032331939878  -19.955664160107982  46.6179033208693  32.312204198334015  21.67995745950744  23.06325739017972  73.25343387348543  -15.358160167491594  12.609363317423938  120.000000
5.138140000000001  0.000000  0.000000  0.000000  -46.31723295386164  10.597901253396902  -20.409744477450168  46.60416622039836  32.159227936281056  21.457397853676614  24.124913518783917  70.71366336688332  -14.462256871714477  12.478066211801947  120.000000
5.186160000000001  0.000000  0.000000  0.000000  -45.71652146136854  10.182215587797232  -20.916212131970834  46.6314168194301  31.920451388786187  21.086487950551163  25.23358083573459  67.77829803304378  -13.526551579594603  12.402118473649812  120.000000
5.234180000000001  0.000000  0.000000  0.000000  -45.0136415000747  9.62268859107519  -21.46452218945408  46.68715304946724  31.602395713513783  20.56219740220313  26.351331940698007  64.4966036981885  -12.554894406149007  12.37298065216496  120.000000
5.2822000000000005  0.000000  0.000000  0.000000  -44.217450478004295  8.917141095989846  -22.035650606064358  46.752119170041574  31.21951629387897  19.89286879184137  27.444711026094634  60.92809084180652  -11.534189906657433  12.37047440280788  120.000000
5.330220000000001  0.000000  0.000000  0.000000  -43.33581482765838  8.077189494914448  -22.604153462646273  46.809212291974724  30.793494647209457  19.100614545736146  28.486813865136174  57.14328468292709  -10.441406999103314  12.369156357304394  120.000000
5.378240000000001  0.000000  0.000000  0.000000  -42.37691312987609  7.128179535883878  -23.142305393471315  46.85204949585061  30.350053230713588  18.218526117628414  29.458235097732345  53.22145840130116  -9.252354438052594  12.346712024385795  120.000000
5.426260000000001  0.000000  0.000000  0.000000  -41.3522231272307  6.107073968785827  -23.62599515264276  46.88679618363035  29.91172391927504  17.285892701424597  30.345629424033888  49.24671014527405  -7.951287472205973  12.290072721650386  120.000000
5.474280000000001  0.000000  0.000000  0.000000  -40.28061889904752  5.059325398032078  -24.03907051658705  46.926766415769215  29.48935332199485  16.34358185841516  31.141431254510028  45.30259392180634  -6.537957096724616  12.200555803671172  120.000000
5.5223  0.000000  0.000000  0.000000  -39.18842970883977  4.03813683466991  -24.379159108830184  46.98453625113442  29.080894309157188  15.432240033540854  31.84666872784782  41.46779648599096  -5.029301502513454  12.092995188177454  120.000000
5.570320000000001  0.000000  0.000000  0.000000  -38.1060571114156  3.097267775117727  -24.654615843819393  47.0699183456459  28.683907197890967  14.591843556473556  32.47543073780927  37.80934709369374  -3.456027225941876  11.990482798972712  120.000000
5.618340000000001  0.000000  0.000000  0.000000  -37.06891878182513  2.27456282757526  -24.86118252064791  47.19761783703269  28.307169740557267  13.852254809847807  33.05035174552405  34.3691573831132  -1.8503337168990928  11.918695500589582  120.000000
5.666360000000001  0.000000  0.000000  0.000000  -36.11384089256898  1.5908822849919202  -24.97505293310606  47.3918771594031  27.96532204958617  13.222172166769859  33.59349945067705  31.162610920709973  -0.23385082402965832  11.901328078855833  120.000000
5.714380000000001  0.000000  0.000000  0.000000  -35.267955024020836  1.061866460804111  -24.97624515439097  47.67881017055895  27.665431431403743  12.697548106889078  34.12152794217398  28.193349163224855  1.3856529687934407  11.958072957592  120.000000
5.762400000000001  0.000000  0.000000  0.000000  -34.54492691217926  0.699601851718329  -24.860733313314256  48.07953876563924  27.40288560428543  12.271665432640745  34.64484722409475  25.462851099095932  3.0104302136918903  12.104272887321072  120.000000
5.810420000000001  0.000000  0.000000  0.000000  -33.94891684760409  0.5095232462098567  -24.63682492304885  48.61107991314473  27.166845040514698  11.933468296669133  35.1737918148392  22.974263316302093  4.640341251167255  12.350535426120155  120.000000
5.858440000000001  0.000000  0.000000  0.000000  -33.48021710152897  0.48805090527005895  -24.320599136803484  49.28267229479022  26.94608086932483  11.669306925270504  35.73068633132357  20.734360144958526  6.254632750735758  12.700894582401245  120.000000
5.906460000000001  0.000000  0.000000  0.000000  -33.14122929453908  0.6184417850712914  -23.929429667621026  50.084366492215544  26.730601305441493  11.470260774848674  36.356457433730824  18.749110104010423  7.800840399379549  13.149521792776136  120.000000
5.954480000000001  0.000000  0.000000  0.000000  -32.93775689053909  0.8706882582484824  -23.476586284059323  50.977483792101495  26.51179593768259  11.336729827607925  37.106938234933175  17.01520351168978  9.197692550718493  13.680259011483594  120.000000
6.002500000000001  0.000000  0.000000  0.000000  -32.874052040323896  1.206554102705943  -22.96724367993755  51.897018912624624  26.28306204344124  11.273820424528854  38.043264705610454  15.513853180911463  10.348575206250647  14.268757124314249  120.000000
6.050520000000001  0.000000  0.000000  0.000000  -32.94294714766013  1.5903201136436351  -22.399158685825515  52.76943186868589  26.04106117017874  11.276849555856208  39.229711076802765  14.21020424907136  11.149407290909448  14.886330781122318  120.000000
6.098540000000001  0.000000  0.000000  0.000000  -33.12040963586783  1.9958927135512998  -21.771692608075366  53.53798912985537  25.796451019672993  11.330129486866797  40.717568614645465  13.061743967292017  11.510054263170627  15.501982736681102  120.000000
6.146560000000001  0.000000  0.000000  0.000000  -33.37522882613442  2.40015761348664  -21.088942959914263  54.188673877551786  25.57750235264163  11.409554103041575  42.53492748497723  12.034237178213335  11.365245534059396  16.080836097735858  120.000000
6.194580000000001  0.000000  0.000000  0.000000  -33.671563344999484  2.790482354184532  -20.357077230420895  54.75003291837466  25.40532990256128  11.480521859711322  44.71693293094863  11.106656581134093  10.658533298823112  16.591745965749016  120.000000
6.242600000000001  0.000000  0.000000  0.000000  -33.97891678651152  3.1686723162947152  -19.588576242519355  55.23884780842823  25.270563509843164  11.526174007058541  47.30728531982177  10.265470929686447  9.347878952467969  17.01156490256481  120.000000
6.2906200000000005  0.000000  0.000000  0.000000  -34.283532883634656  3.5374559024427397  -18.80279969098432  55.65262100491407  25.14661896078918  11.548502390279655  50.33506718303859  9.503201526004533  7.419493212417211  17.32267267425717  120.000000
6.338640000000001  0.000000  0.000000  0.000000  -34.5771109934546  3.89631501574726  -18.020321297488376  55.999387492600896  25.01220420687625  11.546939574494056  53.797674987061036  8.81675436245582  4.906905602204014  17.523496708019575  120.000000
6.386660000000001  0.000000  0.000000  0.000000  -34.851685041032844  4.240751758618378  -17.25826878510388  56.29356577857402  24.85455927989091  11.520320205497036  57.63601123242255  8.203948276193504  1.9128912679337033  17.633154330505487  120.000000
6.434680000000001  0.000000  0.000000  0.000000  -35.10015202584714  4.560556756568953  -16.5285667173754  56.548449711217245  24.668371436884843  11.46859070469242  61.71742629338018  7.660778461173864  -1.382054335575373  17.685972251702267  120.000000
6.482700000000001  0.000000  0.000000  0.000000  -35.31411777762968  4.840782084599752  -15.8389378727998  56.773200601757964  24.45333847909055  11.391613479029695  65.83940486742527  7.179238471223753  -4.7345859499627725  17.720265393035962  120.000000
6.5307200000000005  0.000000  0.000000  0.000000  -35.484364970338305  5.0634798177640095  -15.195400569862734  56.97371054251426  24.212260854539778  11.285651672847651  69.74862732507144  6.74828469148981  -7.868838897034185  17.76578533800592  120.000000
6.578740000000001  0.000000  0.000000  0.000000  -35.60218331094708  5.2110316454895385  -14.604763191381924  57.15153915135264  23.94777542375272  11.143375346690751  73.16590396515004  6.3561197466259225  -10.508780697480324  17.834112344705918  120.000000
6.626760000000001  0.000000  0.000000  0.000000  -35.661393817884615  5.270499592908999  -14.076525683562744  57.30484255280226  23.660159029933453  10.954729688161994  75.80068273811857  5.995376106270495  -12.392397050184925  17.917336178650576  120.000000
6.674780000000001  0.000000  0.000000  0.000000  -35.657703874789284  5.23786350334907  -13.623929703692294  57.429768543956285  23.34571071847985  10.71045481299188  77.3433638795837  5.668596372214562  -13.255920298800115  17.99368027738063  120.000000
6.722800000000001  0.000000  0.000000  0.000000  -35.58831835682559  5.119462275011495  -13.263456499575247  57.52310656232478  22.99707657269211  10.40589392509844  77.45459294543699  5.3941649466445964  -12.810373959977623  18.035474212241006  120.000000
6.770820000000001  0.000000  0.000000  0.000000  -35.45034380949497  4.929834116190633  -13.013058257861733  57.58326468641901  22.60456601145631  10.045990186504007  75.80561203893707  5.210652106710072  -10.76907641202851  18.014100690061312  120.000000
6.818840000000001  0.000000  0.000000  0.000000  -35.24209297062609  4.686555508044108  -12.888566153178054  57.611831425214085  22.160095724708356  9.647429475756878  72.23509384940884  5.180243472800768  -6.995170189120649  17.902601993572066  120.000000
6.866860000000001  0.000000  0.000000  0.000000  -34.9660942686844  4.4050025631054215  -12.898599887605018  57.612897006806065  21.662310762935018  9.238811382734882  67.01861285082016  5.38479106899736  -1.7691795995889539  17.676084951337764  120.000000
6.914880000000001  0.000000  0.000000  0.000000  -34.63523801332681  4.096223729931048  -13.039059559751227  57.591134191863674  21.122708483321617  8.857290793708943  60.99747063948876  5.910576581600209  4.079171318376531  17.31477545847604  120.000000
6.962900000000001  0.000000  0.000000  0.000000  -34.270747813220446  3.769774181650471  -13.293714111809999  57.54328211660103  20.56756880754277  8.542684807505756  55.238423448311835  6.825946204842782  9.505820531182698  16.81153049945223  120.000000
7.010920000000001  0.000000  0.000000  0.000000  -33.8913003562573  3.4391109841638476  -13.639234098796095  57.463805525057744  20.040698916457416  8.315271056340745  50.522032858573276  8.172967891954436  13.74426203264866  16.178999784077224  120.000000
7.058940000000001  0.000000  0.000000  0.000000  -33.510818719395054  3.1091091157758357  -14.046737029634807  57.35757754659363  19.598661919722  8.167537931034548  47.14708135668248  9.967607271786772  16.49378930456948  15.449880778883996  120.000000
7.106960000000001  0.000000  0.000000  0.000000  -33.14388430192084  2.764591782769239  -14.488273706631455  57.23266231491967  19.294009552517736  8.086984249241315  45.01032315823081  12.197516952721646  17.847726172248976  14.670603346904524  120.000000
7.154980000000001  0.000000  0.000000  0.000000  -32.82459174303916  2.390721061573727  -14.947353421132338  57.096995944845624  19.16598709623939  8.064413015769073  43.81358502360239  14.836084050619206  18.102862513586786  13.89936910921506  120.000000
7.203000000000001  0.000000  0.000000  0.000000  -32.61139598679311  1.9877302617629864  -15.413446904696837  56.95069310654635  19.228495936878357  8.09673224209377  43.27666081183512  17.849465603988495  17.563957503463797  13.196632694111853  120.000000
7.251020000000001  0.000000  0.000000  0.000000  -32.57358800200741  1.5549178614925598  -15.878908565253496  56.79182998339826  19.47611863607999  8.188918373274673  43.207477264138234  21.197691860990783  16.464279772022635  12.600819962209883  120.000000
7.2990400000000015  0.000000  0.000000  0.000000  -32.73981738747371  1.0980786463992516  -16.340751203551307  56.644017181996716  19.903298710568823  8.333556300682913  43.47329279416067  24.84175349178854  14.971168337645517  12.116996179316423  120.000000
7.347060000000001  0.000000  0.000000  0.000000  -33.07405900714246  0.6459487722041536  -16.797516920741433  56.54895786422854  20.50265825681403  8.507903547890269  43.97594996759864  28.743749564570198  13.20919367298487  11.729691872195074  120.000000
7.395080000000001  0.000000  0.000000  0.000000  -33.51896726459618  0.23589426169211586  -17.248983853214803  56.53322882687807  21.254155745468633  8.69568124184964  44.63795448378277  32.86071734111086  11.281196040006026  11.416262737389212  120.000000
7.443100000000001  0.000000  0.000000  0.000000  -34.021272722227  -0.09735629569005841  -17.69510219663246  56.59360558295645  22.121917128043435  8.895611906059202  45.392547473948476  37.13726701483407  9.276061137399587  11.15698563139631  120.000000
7.491120000000001  0.000000  0.000000  0.000000  -34.54425890294063  -0.3304845208899206  -18.13370800972522  56.701057054018335  23.061233660206437  9.121155918605133  46.1821714551369  41.506782160798295  7.260546650192019  10.939340152917488  120.000000
7.5391400000000015  0.000000  0.000000  0.000000  -35.069071433003586  -0.45261674255402  -18.557826500440637  56.818194697254214  24.03196743018535  9.391900389088194  46.95881208248715  45.90151800377976  5.276100707220467  10.756359586858238  120.000000
7.587160000000001  0.000000  0.000000  0.000000  -35.58857167742329  -0.4625142088194861  -18.960150177912606  56.91416348594553  25.008512113607946  9.725154495861807  47.680692978533926  50.258928556047216  3.3456964259631823  10.604198065347418  120.000000
7.635180000000001  0.000000  0.000000  0.000000  -36.10184914183244  -0.3684642162903466  -19.33825845742913  56.97016160216084  25.976884465244968  10.130863071907138  48.31138896380989  54.518943183398655  1.4815736886698438  10.48046593812171  120.000000
7.683200000000001  0.000000  0.000000  0.000000  -36.60710218924674  -0.18577972126634584  -19.695744719028653  56.9799665961424  26.926892004472887  10.609199707959217  48.81974324502572  58.61901061506417  -0.3102318994415242  10.38496834578501  120.000000
7.731220000000001  0.000000  0.000000  0.000000  -37.10301409536834  0.0684255574269293  -20.04026203818545  56.94560703424556  27.848585756620565  11.153044065615886  49.17847374036591  62.49659236911406  -2.027645254747469  10.318612597079976  120.000000
7.7792400000000015  0.000000  0.000000  0.000000  -37.590459072434314  0.37816558092143876  -20.38245686457337  56.87278065800638  28.73457660345397  11.752613736559589  49.36539344346812  66.09503818599705  -3.6712574204720356  10.281279563701114  120.000000
7.827260000000001  0.000000  0.000000  0.000000  -38.07116744267016  0.7262330518167457  -20.729369510956705  56.772682270282075  29.578537873426868  12.396856975859766  49.369495902639535  69.36678391907559  -5.2442250929634024  10.271141090211712  120.000000
7.875280000000001  0.000000  0.000000  0.000000  -38.54225794685118  1.0937126516561724  -21.08036496377361  56.665326555973834  30.37779108135792  13.071749714122067  49.19173151918102  72.27381870435974  -6.748818542990559  10.285028673587679  120.000000
7.923300000000001  0.000000  0.000000  0.000000  -38.99683390672845  1.4626523771565942  -21.42937949136866  56.57346771551567  31.143333572783728  13.761578881046667  48.84126466249597  74.78745071809551  -8.18148038258495  10.317908903245204  120.000000
7.971320000000001  0.000000  0.000000  0.000000  -39.4241310029149  1.817624585524614  -21.760847178250135  56.51439046119942  31.896862094093514  14.448833659076168  48.32966904919358  76.88804026211383  -9.53058279768284  10.361457741206273  120.000000
8.019340000000001  0.000000  0.000000  0.000000  -39.810672772378396  2.1424841847781226  -22.05298152827401  56.49442331107346  32.663079991400714  15.115543210445578  47.67204259659358  78.56734891498587  -10.772139274065752  10.40376891143993  120.000000
8.06736  0.000000  0.000000  0.000000  -40.13957417825814  2.4192247008776655  -22.287599013821783  56.505329585270566  33.45891942949941  15.743744930448944  46.893742549656565  79.83342989274333  -11.869173766640412  10.433318002873005  120.000000
8.115380000000002  0.000000  0.000000  0.000000  -40.3961301085356  2.6254646138736994  -22.46449131351435  56.52311355472909  34.27859972056506  16.314381199205457  46.042622170257296  80.7206590299032  -12.78245289957978  10.443580166841489  120.000000
8.163400000000001  0.000000  0.000000  0.000000  -40.57817442871026  2.7395238283038363  -22.614901918275038  56.514474076072105  35.08347785657455  16.79637912273144  45.19771198153765  81.31026950481633  -13.48385761811382  10.431883525077582  120.000000
8.21142  0.000000  0.000000  0.000000  -40.6938725058912  2.7442092691106743  -22.787032499142562  56.450981254987525  35.81520247327078  17.152964660453563  44.471468191733116  81.70755314309079  -13.988055073400067  10.40026306827038  120.000000
8.259440000000001  0.000000  0.000000  0.000000  -40.74183173737601  2.6373760013032923  -23.009391577263706  56.32696027390152  36.42656460102349  17.368571896931243  43.95900827173633  81.9720708053314  -14.329644513155012  10.36224100202151  120.000000
8.30746  0.000000  0.000000  0.000000  -40.70770255710791  2.442541537209927  -23.283689686082095  56.15966953152491  36.894238322939046  17.457678937381136  43.699195964238754  82.10356491857372  -14.505653663669708  10.336534825575201  120.000000
8.355480000000002  0.000000  0.000000  0.000000  -40.58933155424154  2.2144559355427864  -23.609555576141332  55.96063301551803  37.205157463392396  17.464843630454705  43.71983882046345  82.0931942833944  -14.491640593383513  10.325844795425521  120.000000
8.403500000000001  0.000000  0.000000  0.000000  -40.40713293466285  2.0051828816359367  -23.986325093214912  55.71515458175277  37.36325872581264  17.45173703352408  44.050809729587456  81.92530502664039  -14.268293588896501  10.312989367531376  120.000000
8.451520000000002  0.000000  0.000000  0.000000  -40.19199320757725  1.801857874015099  -24.405207628658918  55.395107119265376  37.39224489595311  17.42360111898847  44.70888921648767  81.58119571168656  -13.827599445826586  10.279885387820299  120.000000
8.499540000000001  0.000000  0.000000  0.000000  -39.968809193047626  1.5505783297326923  -24.839483337715418  54.980442420421  37.32555377108105  17.31870626844274  45.699768757205035  81.01952499607411  -13.20970731240347  10.215724208045167  120.000000
8.54756  0.000000  0.000000  0.000000  -39.7446520474149  1.2298812167021855  -25.221845943223546  54.47212415460171  37.195226089384064  17.10232570588059  47.007704051998005  80.10223843156507  -12.51686165720196  10.1185320667999  120.000000
8.595580000000002  0.000000  0.000000  0.000000  -39.51214715546118  0.8611808591061861  -25.484644849693463  53.90538909246663  36.998460772849086  16.76554553937481  48.577904453029895  78.66879701703225  -11.809243252636165  9.997172807275913  120.000000
8.643600000000001  0.000000  0.000000  0.000000  -39.25603859394002  0.48310015219850044  -25.636327733401206  53.320791488426586  36.70928120036503  16.32400981890522  50.31101041703717  76.62755908216438  -11.055636898173868  9.875365333109482  120.000000
8.691620000000002  0.000000  0.000000  0.000000  -38.97204151215242  0.1364950335927264  -25.737030498764607  52.73218266591526  36.31312969391565  15.828849038425199  52.09520131360731  73.95321932199413  -10.207998469009418  9.783572680598622  120.000000
8.739640000000001  0.000000  0.000000  0.000000  -38.6705329281819  -0.15506669457357009  -25.81543777803126  52.1432786488733  35.812610529601976  15.318064418351165  53.83661106525869  70.66477232227697  -9.24320269889502  9.75238059895774  120.000000
8.78766  0.000000  0.000000  0.000000  -38.36078551929118  -0.38066397566365895  -25.868814742908803  51.562521108435256  35.22783865575148  14.810222754199952  55.45555168104373  66.81372219702467  -8.152649876851155  9.811249671688742  120.000000
8.835680000000002  0.000000  0.000000  0.000000  -38.04223456367781  -0.5222431825610572  -25.89136294417907  51.00258589338899  34.58895365362894  14.315472031048943  56.87816150402711  62.48761269913893  -6.934258806207697  9.98764693506955  120.000000
8.883700000000001  0.000000  0.000000  0.000000  -37.70608327188617  -0.5582431922700463  -25.87567119201961  50.49067929774463  33.93634331092368  13.83365647830161  58.03694513931959  57.802947807438905  -5.58530535978746  10.3042396162379  120.000000
8.931720000000002  0.000000  0.000000  0.000000  -37.33893830071791  -0.468552111540251  -25.814875502441794  50.078469958597346  33.31580428374981  13.350381058364045  58.87951548920613  52.89963747363924  -4.105940398514601  10.779539063181291  120.000000
8.979740000000001  0.000000  0.000000  0.000000  -36.92576476779094  -0.2485641443174258  -25.707826539198773  49.83253117354958  32.75911945605799  12.84770339062994  59.376599147842  47.924551664458505  -2.501589186198677  11.422850694774539  120.000000
9.02776  0.000000  0.000000  0.000000  -36.45986331957336  0.08201046462390278  -25.56266525475583  49.81030924655594  32.263506407407675  12.320637675706333  59.528008050666706  43.01350136978373  -0.7909240494598176  12.228698149286524  120.000000
9.075780000000002  0.000000  0.000000  0.000000  -35.94200148045252  0.4876615068899469  -25.393291267924536  50.04113635930714  31.794537592480847  11.783726617556306  59.35691849384784  38.27997691030767  0.9995705683331223  13.16982081249  120.000000
9.123800000000001  0.000000  0.000000  0.000000  -35.38651572679874  0.9279085930943306  -25.215500376200254  50.50892923164128  31.305436716561395  11.278237011834982  58.90165684441973  33.814240491315346  2.8366119213509253  14.20033318842061  120.000000
9.171820000000002  0.000000  0.000000  0.000000  -34.81612222363916  1.3701729955460877  -25.042023850704087  51.16100633682054  30.768141015399543  10.858046980358884  58.199756391178745  29.68338806777719  4.6937879108127305  15.258472540641849  120.000000
9.219840000000001  0.000000  0.000000  0.000000  -34.270782940290694  1.7992204906677667  -24.879793940202088  51.91724943585359  30.178086354658422  10.573233694433899  57.280219067375825  25.935374661859548  6.558277426622552  16.274907475742435  120.000000
9.26786  0.000000  0.000000  0.000000  -33.79849451049584  2.2239400867168713  -24.72776910854409  52.70743363995616  29.54595218529018  10.441523376691  56.149581302939346  22.601617470932204  8.43557381782661  17.175203288162113  120.000000
9.315880000000002  0.000000  0.000000  0.000000  -33.459089458088656  2.6593157976639112  -24.58284378893471  53.47819069453369  28.90359238496782  10.454453488770948  54.79298312231133  19.694826197015818  10.344051274410267  17.8908572335189  120.000000
9.363900000000001  0.000000  0.000000  0.000000  -33.28355257271459  3.1120417667374736  -24.41452511678857  54.177345773620985  28.297097381702695  10.608262331859727  53.200655673846995  17.203586811314878  12.288827352716241  18.364325621320276  120.000000
9.411920000000002  0.000000  0.000000  0.000000  -33.263885225386424  3.5502329973410074  -24.15105091256467  54.75605603515095  27.769239616219544  10.9149588705277  51.41588609443305  15.116265890669595  14.18551075855121  18.542044024863262  120.000000
9.459940000000001  0.000000  0.000000  0.000000  -33.34635412156147  3.9242382053156217  -23.730207761645524  55.21161349715833  27.338034375647993  11.371807212573367  49.599239511651625  13.42639762614142  15.780612786385694  18.3778425538656  120.000000
9.50796  0.000000  0.000000  0.000000  -33.45370577112611  4.204980651749514  -23.132278607396355  55.57598671709104  26.994635297431927  11.948525493118048  48.049400520875345  12.104100746441041  16.680288449879793  17.874282414314393  120.000000
9.555980000000002  0.000000  0.000000  0.000000  -33.55274450948258  4.360239852912688  -22.368552965273896  55.87149316945993  26.702009719137063  12.615760582743887  47.101379861769274  11.07907098865872  16.489326890475766  17.10010364311665  120.000000
9.604000000000001  0.000000  0.000000  0.000000  -33.691374146918136  4.350224988520898  -21.47712435092014  56.13987447536644  26.42251942337026  13.360632606239005  47.01467994440179  10.254457119187096  14.983930826006954  16.190248428337984  120.000000
