Simulation
nRows=268
nColumns=15
endheader
time  TH_x TH_y TH_z SC_y  SC_z  SC_x  AC_y  AC_z  AC_x  GH_y  GH_z  GH_yy  EL_x  PS_y
0.0  0.000000  0.000000  0.000000  -24.330040837720908  0.008873340293573345  -2.384386694777681  55.187009702575345  3.9099542952950603  -0.15360527602797933  59.85165164384086  0.2790207020432578  -18.2068560313385  20.998346728426334  120.000000
0.04016479400749064  0.000000  0.000000  0.000000  -24.382386832063318  0.0429491334060514  -2.4110334803520255  55.16568324434989  3.9809751337356656  -0.12565416727979328  42.387638499225964  0.3924534210884352  -0.8264286794263659  20.394679850773425  120.000000
0.08032958801498127  0.000000  0.000000  0.000000  -24.54281333806834  0.1572790429226212  -2.4749433153621068  55.09624224143676  4.178793147246755  -0.056052757830513326  23.74831098670856  0.8036468251169296  17.556426270268553  19.836140854786446  120.000000
0.12049438202247191  0.000000  0.000000  0.000000  -24.817470345699853  0.36301533010009157  -2.5551785429151783  54.9649987339214  4.473034410444945  0.034419840449392586  15.071297984536477  1.5121408462085788  25.793779614491473  19.29695060648337  120.000000
0.16065917602996255  0.000000  0.000000  0.000000  -25.211810747073557  0.6556176973719904  -2.644514514668239  54.76221567022676  4.833270951164699  0.13702204493177395  10.478547563937584  2.4747314892593697  29.7557840469251  18.754950047381886  120.000000
0.20082397003745317  0.000000  0.000000  0.000000  -25.727813324653365  1.0276381339618803  -2.7391228578287996  54.488909183588305  5.233863432035269  0.2502583624006109  7.5451663525497805  3.6548643592909706  31.863540394249885  18.19621682697745  120.000000
0.24098876404494382  0.000000  0.000000  0.000000  -26.362643554020003  1.470873791091929  -2.8334281085238535  54.15377401519308  5.656635794770765  0.3767295848940186  5.405093873561804  5.021885415539108  32.98441334143475  17.61540327921319  120.000000
0.28115355805243447  0.000000  0.000000  0.000000  -27.109809815502373  1.9776865069174978  -2.9179986252483228  53.772200632721656  6.089527802065969  0.5198595840998168  3.7061742025219733  6.550370253054374  33.47637408322623  17.013024402441182  120.000000
0.3213183520599251  0.000000  0.000000  0.000000  -27.959070914649548  2.541656452119913  -2.9791066491026696  53.36307863933822  6.52478484682834  0.6824892080168391  2.2719971193861177  8.218594584226006  33.52647862483335  16.39522398709214  120.000000
0.3614831460674157  0.000000  0.000000  0.000000  -28.89726812496731  3.156969811224421  -2.999048719339569  52.946778792352966  6.957408392858711  0.8659501662337508  0.9982677332811472  10.007556373458247  33.25410843739222  15.770801367304983  120.000000
0.40164794007490634  0.000000  0.000000  0.000000  -29.908828134172836  3.8182591362036544  -2.9569630971320615  52.54304023812602  7.384312800095918  1.0701445423716633  -0.18567701427395825  11.9000855236074  32.74928657067783  15.150251650825282  120.000000
0.441812734082397  0.000000  0.000000  0.000000  -30.977354205787016  4.520205861260209  -2.830463533947328  52.16873424067065  7.803509706531341  1.2942109792576622  -1.3344829702666459  13.879697832025986  32.08972242383927  14.543549880322846  120.000000
0.48197752808988764  0.000000  0.000000  0.000000  -32.08734677719394  5.257697074879255  -2.5979686357464065  51.83699409390961  8.21348930972023  1.5357705656600107  -2.492108182693209  15.929885706967122  31.34544612847813  13.95877580972934  120.000000
0.5221423220973783  0.000000  0.000000  0.000000  -33.22446461280954  6.025385154330313  -2.2447524082429573  51.55643825590963  8.616696767654112  1.7949076485287514  -3.6914235447465966  18.033750788573556  30.577510660955287  13.401590862377814  120.000000
0.5623071161048689  0.000000  0.000000  0.000000  -34.37422149356212  6.817159873572478  -1.7657304947392054  51.33302068573046  9.020997464213085  2.0773207604176527  -4.946092482312401  20.1743249353795  29.829066580016693  12.87516760463029  120.000000
0.6024719101123596  0.000000  0.000000  0.000000  -35.52017261568259  7.6251697350954055  -1.1573304546546157  51.17198588657167  9.432897707422763  2.3893990347090357  -6.251590981804852  22.334428994874283  29.12535129636557  12.381335596107844  120.000000
0.6426367041198502  0.000000  0.000000  0.000000  -36.64389396266747  8.438634173435796  -0.4172354493059946  51.077595012882554  9.856580622690451  2.7376339121757702  -7.5914197526353995  24.496171603424514  28.478478376830505  11.920221029190024  120.000000
0.6828014981273408  0.000000  0.000000  0.000000  -37.72639654115246  9.244605017032459  0.45227025480644617  51.051900668760226  10.295223771848402  3.1287415319162513  -8.94406224571014  26.64084820530789  27.892630437572056  11.489893366966372  120.000000
0.7229662921348314  0.000000  0.000000  0.000000  -38.7503920979218  10.029800514536314  1.4444750671048718  51.09438947801003  10.75022638541189  3.5664226959098713  -10.2885988708449  28.750162248302306  27.368277613766626  11.086071976366952  120.000000
0.7631310861423221  0.000000  0.000000  0.000000  -39.70293218485675  10.781584484661064  2.548750071806814  51.201509171278346  11.221163979666638  4.051141655109762  -11.60593477587286  30.808218264904227  26.902500171450317  10.701783256133142  120.000000
0.8032958801498127  0.000000  0.000000  0.000000  -40.57627860064775  11.488368657236986  3.751525490510707  51.36615768044107  11.705725773116724  4.5814246670897925  -12.878599363344177  32.80285243629693  26.489204975193882  10.328664529226627  120.000000
0.8434606741573034  0.000000  0.000000  0.000000  -41.36738694168602  12.140367843916477  5.036631105819733  51.57873628484766  12.199896194710847  5.154293291968647  -14.090586039273225  34.72602315203945  26.119834705203633  9.958482640080923  120.000000
0.883625468164794  0.000000  0.000000  0.000000  -42.07694718374209  12.730158346758033  6.386009896133712  51.82791047186477  12.698364741063223  5.765608933290941  -15.227999857072708  36.57360150223112  25.785218650489256  9.58497438753084  120.000000
0.9237902621722847  0.000000  0.000000  0.000000  -42.70830303807971  13.253126653344342  7.780062305123959  52.10123324034122  13.194806647162777  6.410274351267771  -16.28005021808013  38.3448036626744  25.477694518046874  9.205455522131931  120.000000
0.9639550561797753  0.000000  0.000000  0.000000  -43.26658423996471  13.707470638959814  9.198030834081344  52.38570443669764  13.682014674898776  7.082261746998387  -17.239965839221554  40.04111073356495  25.19289214415645  8.8217750018324  120.000000
1.004119850187266  0.000000  0.000000  0.000000  -43.75797347047594  14.093985102600149  10.618019835247102  52.66864595037659  14.1519579952376  7.774327506912259  -18.105323644479373  41.66500855747217  24.930528369737033  8.440357907235246  120.000000
1.0442846441947566  0.000000  0.000000  0.000000  -44.18918905116456  14.415706816997659  12.017235749754287  52.938761438292325  14.595895645886078  8.477684812088631  -18.87751990395006  43.218625287811044  24.693883354657498  8.071275346910035  120.000000
1.0844494382022472  0.000000  0.000000  0.000000  -44.567005646249456  14.677588871609943  13.372293379026697  53.18722809570766  15.004796892377794  9.181582511135426  -19.561012453393847  44.70256752140445  24.488717307988207  7.726765687988004  120.000000
1.1246142322097379  0.000000  0.000000  0.000000  -44.897945198759494  14.886220972985488  14.659955148410697  53.408521801353935  15.369964868888834  9.873076867090992  -20.162166457145382  46.1151640232844  24.321567954790506  7.419514916840896  120.000000
1.1647790262172284  0.000000  0.000000  0.000000  -45.18802591898202  15.04948928662186  15.858152673389133  53.6007382419854  15.683855752926675  10.537138041239162  -20.688305470003638  47.45212439914637  24.198235182011885  7.161003313511175  120.000000
1.2049438202247191  0.000000  0.000000  0.000000  -45.44256415823022  15.176100994587653  16.947121531471772  53.765280963528824  15.940791629550077  11.157185487316877  -21.146740221576497  48.706749162416784  24.12226840621061  6.960136161907983  120.000000
1.2451086142322096  0.000000  0.000000  0.000000  -45.66615443581894  15.27492009239189  17.91069735930044  53.9058332858606  16.137505332723407  11.716269992143387  -21.54402181534639  49.87068458895495  24.093997472760506  6.822292484970224  120.000000
1.2852734082397004  0.000000  0.000000  0.000000  -45.86265265730531  15.354233588113566  18.737430587070765  54.026969501051845  16.273512420521644  12.198566136203366  -21.88505103236242  50.93531911693332  24.10953532105604  6.748606229529725  120.000000
1.325438202247191  0.000000  0.000000  0.000000  -46.035350815540276  15.420890564485326  19.421663174163655  54.13259403011932  16.35117523029453  12.591304639882548  -22.172483770688935  51.89336495880577  24.160360727105495  6.735464326302031  120.000000
1.3656029962546816  0.000000  0.000000  0.000000  -46.187145778668736  15.479623395203316  19.963811798662583  54.22483786830922  16.375444845639606  12.88615857063403  -22.40623277049769  52.740260721223905  24.232938247170015  6.774140013365241  120.000000
1.4057677902621724  0.000000  0.000000  0.000000  -46.32072312484558  15.532599486943804  20.37014100671687  54.30346130114825  16.35334351568507  13.080043338593935  -22.583602652704716  53.47492298727487  24.309237900053244  6.850986957802508  120.000000
1.4459325842696629  0.000000  0.000000  0.000000  -46.43859803935012  15.57958831374281  20.651519091536006  54.366150536924536  16.293237086484925  13.174667136829942  -22.699693212708603  54.09967495216938  24.367620220142904  6.948464744582309  120.000000
1.4860973782771536  0.000000  0.000000  0.000000  -46.5429084567998  15.618499496933644  20.821675479595438  54.409296845513  16.203928964747448  13.17545993042488  -22.74819789176269  54.619347748628265  24.384614637870506  7.0472283872193895  120.000000
1.5262621722846441  0.000000  0.000000  0.000000  -46.63490525167293  15.64619345884521  20.894957748186858  54.429203853132634  16.093790609955487  13.089852597510824  -22.72224336508313  55.0395719473355  24.336738317427674  7.1288597857830815  120.000000
1.5664269662921348  0.000000  0.000000  0.000000  -46.71432014741912  15.659201616734668  20.884105700745664  54.4231763528365  15.969848537387106  12.925722423635177  -22.615225404592294  55.364837241773195  24.202521008514072  7.178827881940131  120.000000
1.6065917602996254  0.000000  0.000000  0.000000  -46.77880938095841  15.654259284709717  20.798341859886733  54.39042021184734  15.83713353989265  12.690009133071513  -22.421540107509525  55.59651279580957  23.964051469705122  7.189046154469208  120.000000
1.646756554307116  0.000000  0.000000  0.000000  -46.82361132353731  15.628516199102299  20.64210354977248  54.33250026388855  15.698207138350403  12.388006367970124  -22.137088706812953  55.73149779027935  23.608122099829632  7.159398319995902  120.000000
1.6869213483146068  0.000000  0.000000  0.000000  -46.84147712719953  15.579389553901427  20.414561229370424  54.25345720830276  15.553096068446623  12.023147546948103  -21.759569476638486  55.76136558550039  23.1265400698216  7.097805902003415  120.000000
1.7270861423220973  0.000000  0.000000  0.000000  -46.822866023085005  15.504204816321721  20.109718297700248  54.159537756117025  15.399384538704574  11.59726018972001  -21.28858166439045  55.67227962863439  22.51612335456799  7.019046830788659  120.000000
1.767250936329588  0.000000  0.000000  0.000000  -46.75646600769821  15.399706441916797  19.716986928956278  54.05870430178062  15.232480412709787  11.110962295433156  -20.725564946949838  55.445444126559416  21.778407447118223  6.942866274706914  120.000000
1.8074157303370786  0.000000  0.000000  0.000000  -46.62990430618652  15.261552294868475  19.22200016966976  53.95983526998671  15.045787163102482  10.564270482096497  -20.073527440972764  55.05832233282152  20.919619151039782  6.891766690366051  120.000000
1.8475805243445693  0.000000  0.000000  0.000000  -46.430551571581695  15.083833300304994  18.607692823774638  53.87173721870506  14.8309235644153  9.957266402706583  -19.336549550975967  54.48632002600862  19.950810670901884  6.8886449389829  120.000000
1.8877453183520598  0.000000  0.000000  0.000000  -46.14618826359628  14.858621606620591  17.855560518501804  53.80185757550374  14.577949372397814  9.291047173799525  -18.519038205444968  53.70519172638672  18.88850231459015  6.954316528208596  120.000000
1.9279101123595506  0.000000  0.000000  0.000000  -45.76551455403385  14.575622115103725  16.947302681508802  53.75490923937497  14.275850526940573  8.568818976907746  -17.624864547677927  52.69381656031854  17.755484327052798  7.104890426201142  120.000000
1.9680749063670413  0.000000  0.000000  0.000000  -45.278379494108236  14.222058654561406  15.866761153768518  53.73147217547721  13.913475570278408  7.79720776429954  -16.656753580248484  51.43732580685416  16.581876867213616  7.349058586326959  120.000000
2.008239700374532  0.000000  0.000000  0.000000  -44.67589749308282  13.782886922624703  14.602432375747641  53.72710517824448  13.48114865230526  6.987287915346856  -15.616237177732891  49.92987095085596  15.405865631288032  7.685529603252801  120.000000
2.0484044943820225  0.000000  0.000000  0.000000  -43.95035923117829  13.241575568411527  13.149937434628686  53.73224825943759  12.972913890107096  6.155187880849793  -14.504515346748715  48.17671465282968  14.27407641078958  8.101284483987355  120.000000
2.0885692883895133  0.000000  0.000000  0.000000  -43.09519274670977  12.581459464183213  11.514542621741295  53.73349816342556  12.38901968735911  5.321480011974699  -13.324185058281085  46.19473423647013  13.240833693129245  8.571733681038888  120.000000
2.1287340823970036  0.000000  0.000000  0.000000  -42.10501392346438  11.787752318248833  9.712598725642732  53.716016725590634  11.738256868977428  4.5097212120076975  -12.081541789635668  44.011329274749926  12.366101737746488  9.063770468643341  120.000000
2.1688988764044943  0.000000  0.000000  0.000000  -40.97601078590794  10.849894643169137  7.7722048613675465  53.66682836094478  11.03911631213799  3.743753280442381  -10.788631146105944  41.662053154388865  11.711739403814958  9.541691034992375  120.000000
2.209063670411985  0.000000  0.000000  0.000000  -39.70688725581966  9.76406215413969  5.73196013473402  53.57786271394421  10.31988466429017  3.045183839858829  -9.464257265498402  39.18807977163769  11.336424523817524  9.974687391773465  120.000000
2.2492284644194758  0.000000  0.000000  0.000000  -38.30041472717312  8.535425928389099  3.63901637645061  53.4477899310777  9.616878948223052  2.430524835410541  -8.13358858053829  36.6345116763942  11.289794472132847  10.344497039309358  120.000000
2.2893932584269665  0.000000  0.000000  0.000000  -36.765939970442744  7.180093216988911  1.5451689198276763  53.281907289039076  8.97216012558177  1.9098273513412118  -6.8259303301594345  34.04999982352775  11.606098245046075  10.650699971057838  120.000000
2.329558052434457  0.000000  0.000000  0.000000  -35.12028102004973  5.72575724367421  -0.49721303044632564  53.091119255916105  8.429547103435082  1.4854301658973523  -5.569774059001297  31.486615713183607  12.297945682004913  10.91237360314416  120.000000
2.3697228464419475  0.000000  0.000000  0.000000  -33.38680313177821  4.209902705664921  -2.441526881893285  52.89145803271757  8.030577406659555  1.1527112770624597  -4.3830876018023845  28.998271595526678  13.348193134742017  11.164484450045155  120.000000
2.4098876404494383  0.000000  0.000000  0.000000  -31.594153849022963  2.675791649101972  -4.2523943747951884  52.70146707270276  7.808917693515303  0.9009869260143631  -3.263948077192353  26.636405773396383  14.703628266177544  11.4494391109728  120.000000
2.450052434456929  0.000000  0.000000  0.000000  -29.77500089372978  1.164583979755118  -5.912005398952732  52.53783392231837  7.787267758039412  0.716463646947451  -2.184355654644473  24.443385668946433  16.272801218276108  11.80814204667869  120.000000
2.4902172284644193  0.000000  0.000000  0.000000  -27.964072331051398  -0.2922630563396531  -7.423307088691199  52.41387769211927  7.974320391173354  0.5882431274483824  -1.0784837268170595  22.44654931727148  17.91930922642332  12.270473523301778  120.000000
2.53038202247191  0.000000  0.000000  0.000000  -26.197213144413904  -1.6750802203579478  -8.78581256664893  52.33855681686886  8.348510729295205  0.4971463869966228  0.15847208497775706  20.65466663431249  19.464803522459245  12.848748714774352  120.000000
2.5705468164794008  0.000000  0.000000  0.000000  -24.513761062265637  -2.9719089118086677  -9.991950693519122  52.3108995920749  8.864380011238241  0.4149679603239284  1.646535643386648  19.059001716695384  20.71588479350433  13.534439318953664  120.000000
2.6107116104868915  0.000000  0.000000  0.000000  -22.95656585451356  -4.174283363422564  -11.04432187046467  52.31689521914658  9.47398006455588  0.31853581699703437  3.49387832551625  17.638724611082207  21.495188296529637  14.298754847600046  120.000000
2.650876404494382  0.000000  0.000000  0.000000  -21.566029957976713  -5.27643206480576  -11.960154236241486  52.334106962386265  10.135355793598494  0.196934692135557  5.7895002739629735  16.367984120815812  21.65454346136838  15.10053888453227  120.000000
2.6910411985018725  0.000000  0.000000  0.000000  -20.371714718048803  -6.276322398728694  -12.766683730953032  52.33982590433172  10.813894081860168  0.05171375887104065  8.611032357521708  15.222392945144879  21.072455931171962  15.894995044392777  120.000000
2.7312059925093632  0.000000  0.000000  0.000000  -19.38851114360418  -7.177898887757528  -13.491347249633332  52.31584138093094  11.47979578557522  -0.1102336461696929  12.023549980625065  14.183537044975271  19.657600627157745  16.640042125111446  120.000000
2.771370786516854  0.000000  0.000000  0.000000  -18.615977658624498  -7.987249587917882  -14.16053765777343  52.24740105455785  12.108768535085341  -0.27861576206844296  16.064559102809227  13.238022363291526  17.36394844555252  17.30099266729983  120.000000
2.8115355805243447  0.000000  0.000000  0.000000  -18.040106011363008  -8.70928149113136  -14.794817748900556  52.125051075051665  12.684633822756318  -0.4437020969123101  20.735996707373996  12.377668857726459  14.196895682137388  17.852842451661225  120.000000
2.851700374531835  0.000000  0.000000  0.000000  -17.63837863396587  -9.348577274867084  -15.403837526690312  51.94744180535314  13.204584019668037  -0.6003553773620874  26.007304008878243  11.605326664021353  10.204335736210146  18.280640876557737  120.000000
2.8918651685393257  0.000000  0.000000  0.000000  -17.383295647247845  -9.90698737352003  -15.986132651751971  51.719345101303276  13.677829744323331  -0.7458179308222042  31.806353529666453  10.932195887342713  5.480615999024973  18.579816252932584  120.000000
2.9320299625468165  0.000000  0.000000  0.000000  -17.2463095079589  -10.384043532683949  -16.534182233635086  51.448255035991785  14.117099555318774  -0.8788259353012916  38.01609384885874  10.36852818199452  0.16550607839205692  18.755475719955367  120.000000
2.972194756554307  0.000000  0.000000  0.000000  -17.20114225909148  -10.780514626229087  -17.03998055084555  51.14458191975172  14.533263393411989  -1.000996225224186  44.4897834662246  9.918643315702598  -5.573716358186266  18.82036809206632  120.000000
3.012359550561798  0.000000  0.000000  0.000000  -17.224067339010052  -11.099602152877837  -17.495938222511057  50.82066351250789  14.93438309739909  -1.1150916241323703  51.06571100413703  9.580080264397195  -11.555522157714638  18.793787649379233  120.000000
3.0525243445692882  0.000000  0.000000  0.000000  -17.29451171389251  -11.346501795768472  -17.895428969263325  50.48871929012448  15.325456170331513  -1.222862571785654  57.58631234567118  9.345494907884444  -17.60373801928234  18.69913958872926  120.000000
3.092689138576779  0.000000  0.000000  0.000000  -17.39553551682356  -11.527738781627367  -18.23379099940994  50.160405051581144  15.70881538199669  -1.3247455293227157  63.91228711481267  9.203854676357285  -23.561431458033187  18.560857775829614  120.000000
3.1328539325842697  0.000000  0.000000  0.000000  -17.513867358386765  -11.650186342547348  -18.50912872542224  49.84552770468695  16.084837592281694  -1.420059965627538  69.92990517150317  9.141273411176538  -29.298137645200438  18.40131604518026  120.000000
3.1730187265917604  0.000000  0.000000  0.000000  -17.64007139024892  -11.719827419383623  -18.722042279482224  49.55240904626572  16.452576841684103  -1.5082905857097475  75.55762921712555  9.142594499230539  -34.71705245494409  18.237936944492258  120.000000
3.2131835205992507  0.000000  0.000000  0.000000  -17.76768291894445  -11.74149970047535  -18.874594084785603  49.286682965964395  16.810273379750726  -1.5884179153821687  80.74769455064188  9.191612028492287  -39.756063889904695  18.082219945397593  120.000000
3.2533483146067415  0.000000  0.000000  0.000000  -17.89211307503426  -11.719170633986733  -18.969705128863563  49.051699153112175  17.15592499754334  -1.6590080633086648  85.48423940754336  9.272574048056748  -44.38627241840852  17.939629619159156  120.000000
3.293513108614232  0.000000  0.000000  0.000000  -18.00964131012145  -11.655626920417669  -19.010608686557184  48.84942475194814  17.487896344885367  -1.7185303571619917  89.77514732175695  9.371203558459108  -48.603734394315325  17.81109187249348  120.000000
3.333677902621723  0.000000  0.000000  0.000000  -18.116758714708617  -11.552374302777674  -19.000101849313502  48.67993763579479  17.805474769683237  -1.7650397071958497  93.64373143645187  9.47458979824123  -52.42134233985367  17.69463356229933  120.000000
3.3738426966292137  0.000000  0.000000  0.000000  -18.209576881538734  -11.409855461319083  -18.940132957391477  48.54163093164161  18.109242485214697  -1.7961602846890616  97.12083734785507  9.57115487813249  -55.8609165408188  17.587034073469674  120.000000
3.414007490636704  0.000000  0.000000  0.000000  -18.283541074478443  -11.227422830624347  -18.831961995242352  48.43210430558746  18.400832491060754  -1.8095755313463897  100.23930675309423  9.650971268530771  -58.94784455100769  17.485540966636822  120.000000
3.4541722846441947  0.000000  0.000000  0.000000  -18.333774618228958  -11.003635762658817  -18.676560480300964  48.348741444098145  18.682513829957976  -1.803408230367068  103.0300049900252  9.705739903811908  -61.707192947545316  17.388499680961772  120.000000
3.4943370786516854  0.000000  0.000000  0.000000  -18.355411410119757  -10.736774951719479  -18.474397310689007  48.28839611953454  18.95687571437781  -1.776015393138012  105.51991033873817  9.728161636859662  -64.1618135752945  17.29532409969444  120.000000
3.534501872659176  0.000000  0.000000  0.000000  -18.34389933878535  -10.425108098556555  -18.22546681282694  48.247274814762854  19.226499115959037  -1.7256217098161406  107.73083072867291  9.711787806019654  -66.3311150201429  17.205881592433332  120.000000
3.574666666666667  0.000000  0.000000  0.000000  -18.295190930733114  -10.06748532603231  -17.929808057537365  48.2210582781792  19.49320745382554  -1.6501130613745751  109.68091614553701  9.651120002934965  -68.232567673816  17.11972922201699  120.000000
3.614831460674157  0.000000  0.000000  0.000000  -18.206412240761264  -9.664384881099105  -17.58814131587288  48.20504303775355  19.75721168483729  -1.547189442564329  111.38663191306685  9.54162569824897  -69.88366653196255  17.035044644449336  120.000000
3.654996254681648  0.000000  0.000000  0.000000  -18.076072094913226  -9.217512750412057  -17.20177874919594  48.19365538173451  20.01651633555004  -1.4142640009309035  112.86436683826834  9.379349220873364  -71.30348286106604  16.94790363694954  120.000000
3.6951610486891386  0.000000  0.000000  0.000000  -17.903943974290588  -8.728406330448543  -16.77238663905528  48.181335659938966  20.26734108803551  -1.2497763025348947  114.12603888556791  9.16094548690769  -72.5084109554448  16.852063972241442  120.000000
3.7353258426966294  0.000000  0.000000  0.000000  -17.691293638180312  -8.198002716874825  -16.30250577785823  48.16374518221718  20.504782517351703  -1.0542861309322729  115.17135268387361  8.884200707724565  -73.50498417201496  16.739014514970798  120.000000
3.7754906367041197  0.000000  0.000000  0.000000  -17.440897741132428  -7.627218000850083  -15.795208953547114  48.13715086013329  20.72214922681812  -0.8289445234562645  115.98894326564056  8.548824207249753  -74.29070696495705  16.599257302418973  120.000000
3.8156554307116104  0.000000  0.000000  0.000000  -17.157053297880466  -7.018072869808169  -15.254144490936033  48.09856543208021  20.910522405074506  -0.57425649764796  116.55567636365618  8.156814185506576  -74.8533345801983  16.423601235679442  120.000000
3.855820224719101  0.000000  0.000000  0.000000  -16.846292657071913  -6.373036387639667  -14.684586301910896  48.046205178453995  21.05961105365143  -0.29103749985929067  116.8291151324015  7.712853759672396  -75.16379475871676  16.203763844086428  120.000000
3.895985018726592  0.000000  0.000000  0.000000  -16.517815883360452  -5.693561799606676  -14.093229219989283  47.97828931673262  21.15884387724628  0.01993702847188176  116.74162877012809  7.223489985610496  -75.17012810347335  15.93283391962571  120.000000
3.9361498127340826  0.000000  0.000000  0.000000  -16.183560512220826  -4.979689955149048  -13.486832519724269  47.89242415111698  21.198919575889978  0.3583255207782108  116.18064538097842  6.69709276170619  -74.77812130504824  15.605648736336564  120.000000
3.976314606741573  0.000000  0.000000  0.000000  -15.858345007368882  -4.229423125638269  -12.870458054659622  47.78738811629388  21.17439072126889  0.7243443504856814  114.94472726156624  6.143980350515479  -73.80535569664958  15.221120656406121  120.000000
4.016479400749064  0.000000  0.000000  0.000000  -15.55850127056299  -3.439405113150958  -12.244915355095163  47.66554370336113  21.08583877521309  1.1190713727735742  112.67306654440273  5.575744273734442  -71.9064005045403  14.785137367815297  120.000000
4.056644194756554  0.000000  0.000000  0.000000  -15.301833864428172  -2.6058147901547946  -11.604607528345072  47.532846991309825  20.939838808387886  1.5435455491917558  108.76377427506452  5.009421411919907  -68.48888489126335  14.31100972499664  120.000000
4.096808988764045  0.000000  0.000000  0.000000  -15.107758519382259  -1.7239124693015004  -10.938590415985702  47.396033377431436  20.746915328062283  1.998848511016921  102.31241242487997  4.477349220870019  -62.65176938379663  13.818036096833618  120.000000
4.136973782771536  0.000000  0.000000  0.000000  -14.996068507035556  -0.7886650044748232  -10.232492923722232  47.2605103971707  20.51994948410622  2.4863697474831006  92.18941457953774  4.045111938341464  -53.26316362367627  13.32923457331172  120.000000
4.177138576779027  0.000000  0.000000  0.000000  -14.985814878969876  0.20412081032024598  -9.46973717174211  47.1306690120154  20.273110791308515  3.007324557406827  77.74193081302539  3.833687911337689  -39.663960892529694  12.868262357888344  120.000000
4.217303370786517  0.000000  0.000000  0.000000  -15.094358167666323  1.256470507506502  -8.633861082007556  47.0100413518624  20.02055124720495  3.563080033052815  60.48406150779601  4.0026370371871804  -23.359533897211396  12.455989378473136  120.000000
4.257468164794007  0.000000  0.000000  0.000000  -15.336982501781963  2.3662905941789423  -7.711670647494219  46.90142069619287  19.775062114729213  4.155963465105107  44.242284791118124  4.654091534228118  -8.166538449218713  12.10732017634772  120.000000
4.297632958801498  0.000000  0.000000  0.000000  -15.725778817121753  3.5258009497828855  -6.694747888900275  46.808219405664445  19.546527213467755  4.7889325971099534  31.7252519083716  5.7678676695877495  3.216025123098121  11.828847337441292  120.000000
4.337797752808989  0.000000  0.000000  0.000000  -16.268620338357973  4.7210488001688455  -5.579401303136042  46.735628399656676  19.34069359487252  5.464591407886022  23.01085773409477  7.260232392276644  10.719125056471686  11.618109962373184  120.000000
4.377962546816479  0.000000  0.000000  0.000000  -16.96832374066518  5.933518107386909  -4.366244502602478  46.69086756630075  19.15868451277857  6.183576471953136  17.10884811884268  9.049049597624261  15.340940976735954  11.464525318290354  120.000000
4.41812734082397  0.000000  0.000000  0.000000  -17.8222976612272  7.1419370293075914  -3.0597101280873327  46.683197365535655  18.998470215607  6.943232910511822  13.089009429267902  11.068561491393098  18.019060065752278  11.351908110183517  120.000000
4.458292134831461  0.000000  0.000000  0.000000  -18.822310549989233  8.324031119190968  -1.6676718203712049  46.722960351187254  18.856586656393493  7.7381240444051835  10.308756705191614  13.265488256859207  19.40352851898798  11.261902033610689  120.000000
4.4984569288389515  0.000000  0.000000  0.000000  -19.954126649652906  9.45898466055054  -0.20110322721350885  46.81996147148836  18.728755024294273  8.561294688479995  8.354797389299987  15.594332388696701  19.9163179993229  11.177793351407363  120.000000
4.538621722846442  0.000000  0.000000  0.000000  -21.19869746210178  10.528865559008361  1.3261373013527038  46.982233262067965  18.610508426101838  9.404713110445648  6.96112984946513  18.01520409596294  19.834226385631332  11.087642765580679  120.000000
4.578786516853933  0.000000  0.000000  0.000000  -22.53370120182858  11.519714251911928  2.8975614972939505  47.21516892276634  18.49759442264048  10.259356706602448  5.952670468727161  20.493015869817587  19.345558058317028  10.985842469432356  120.000000
4.618951310861423  0.000000  0.000000  0.000000  -23.935286105400618  12.422259404548294  4.494699198149873  47.52082817406228  18.386196960980577  11.115419808007694  5.211309851367731  22.997110851885296  18.583746950349454  10.873211804594087  120.000000
4.659116104868914  0.000000  0.000000  0.000000  -25.380036643012353  13.23193854637786  6.098105105185399  47.897549263000165  18.273346353831318  11.962382480995071  4.655860116398728  25.501026163227145  17.646253273224065  10.755638175154562  120.000000
4.699280898876404  0.000000  0.000000  0.000000  -26.846381794603253  13.948468275817083  7.6884943995806925  48.339663672572875  18.157296545982685  12.78929099337124  4.229571424640752  27.982166079543173  16.605570282852018  10.642316281766012  120.000000
4.739445692883895  0.000000  0.000000  0.000000  -28.31554794567511  14.574910947832997  9.248088581819266  48.837848285086324  18.03771339172332  13.585480776635377  3.8932320166620875  30.421269367723248  15.514612130850482  10.54396413353107  120.000000
4.779610486891386  0.000000  0.000000  0.000000  -29.771838231578286  15.11653543703302  10.761681678871552  49.37960148338674  17.915730858493518  14.34139348460578  3.6204283683283642  32.802026452839065  14.410240913581854  10.471280508636655  120.000000
4.8197752808988765  0.000000  0.000000  0.000000  -31.202619127569022  15.579688387934594  12.21716451265257  49.949700058829904  17.79397133081815  15.048806384295858  3.3931346399915814  35.110750510732295  13.316944101127596  10.433935036195553  120.000000
4.859940074906367  0.000000  0.000000  0.000000  -32.59792218869051  15.97105229456488  13.605382021016739  50.5314621760963  17.675888312992626  15.701017376095741  3.199404471107635  37.33562635645343  12.249206507572913  10.439773608822168  120.000000
4.900104868913858  0.000000  0.000000  0.000000  -33.948870118224306  16.29657851432552  14.9194741555596  51.10821861052959  17.56490778684131  16.293320423894897  3.032643943734581  39.466051738658486  11.213148335231965  10.494889373269524  120.000000
4.940269662921349  0.000000  0.000000  0.000000  -35.24650503070045  16.561183540080602  16.154221510711437  51.6648582727837  17.464133494267994  16.82328257178133  2.890121766802785  41.492132308756815  10.209064230050393  10.603440603482856  120.000000
4.980434456928839  0.000000  0.000000  0.000000  -36.481902533442174  16.769286586185334  17.30558529484094  52.18839393313095  17.376236387726934  17.29027122737945  2.7716321855176083  43.404486795709296  9.233740512437548  10.767068399338783  120.000000
5.020599250936329  0.000000  0.000000  0.000000  -37.64633914246424  16.924939607930682  18.37032787551527  52.66808996225368  17.30335676844831  17.694706690677023  2.678618006404263  45.19427981864664  8.282414942674658  10.98457544550025  120.000000
5.06076404494382  0.000000  0.000000  0.000000  -38.73135994325845  17.03207742259932  19.345489244488796  53.095846348500416  17.24675272767842  18.037548533585312  2.613978948036715  46.85314371417422  7.350295108078606  11.25151131658782  120.000000
5.100928838951311  0.000000  0.000000  0.000000  -39.72884642474038  17.0947818748753  20.227811648190368  53.46645796011246  17.206552364991065  18.319557244365352  2.5820456193663905  48.37313733272279  6.433900375388467  11.559868194751637  120.000000
5.1410936329588015  0.000000  0.000000  0.000000  -40.631303092333155  17.11761669698484  21.013244155785756  53.77773445883336  17.181582046620832  18.540618962285976  2.588454925227439  49.746778329721415  5.532278786853688  11.897662962318277  120.000000
5.181258426966292  0.000000  0.000000  0.000000  -41.43223515156848  17.10591126204682  21.696557925615988  54.030412607465955  17.1692674355519  18.6991820551424  2.6400243592698414  50.96707170106151  4.647774530576053  12.24871352608809  120.000000
5.221423220973783  0.000000  0.000000  0.000000  -42.126406373240044  17.06585890082302  22.271103065082308  54.22798614982892  17.165722268629203  18.79189348545047  2.744466525445669  52.02743738461987  3.7861978877663716  12.593000468769638  120.000000
5.261588014981274  0.000000  0.000000  0.000000  -42.709880358336584  17.004366245252985  22.728774113651433  54.3763973697822  17.16595883987246  18.81362427719212  2.9100305052897992  52.92143994515583  2.9560541324266447  12.908016606081224  120.000000
5.301752808988764  0.000000  0.000000  0.000000  -43.1797291753865  16.928564370335593  23.060154487540142  54.48372696401716  17.164240974479373  18.75785973778158  3.1449352205784957  53.64240071994311  2.166970780337989  13.171257100157856  120.000000
5.341917602996254  0.000000  0.000000  0.000000  -43.53359928168848  16.8451505882271  23.25479528321006  54.55985098154987  17.1543564127493  18.617495721718537  3.456748742910257  54.183048692205865  1.4276571521025478  13.363430080376672  120.000000
5.382082397003745  0.000000  0.000000  0.000000  -43.76935270324812  16.75960918460816  23.301576055436566  54.616057903253  17.129808563923334  18.38575101050701  3.851606569741486  54.53541883550812  0.7439739470599553  13.471805083309917  120.000000
5.422247191011236  0.000000  0.000000  0.000000  -43.885084044024204  16.67545310866458  23.18916851851326  54.66439987026529  17.08385031596564  18.057047544158  4.3334025963368035  54.691085737509226  0.11764348159083772  13.492868710311766  120.000000
5.4624119850187265  0.000000  0.000000  0.000000  -43.87943340056497  16.593489007641132  22.906607284608587  54.71675877738503  17.00941984590635  17.627721541057337  4.90328254044759  54.64181661330181  -0.4539785227187195  13.43340170857981  120.000000
5.502576779026217  0.000000  0.000000  0.000000  -43.75203635155458  16.511183202895676  22.443940848474426  54.78363902106337  16.898917831359206  17.0968467218241  5.559969613163209  54.38068729915006  -0.9769679976933491  13.309397727285232  120.000000
5.542741573033708  0.000000  0.000000  0.000000  -43.50406153653038  16.42218210910009  21.792945281790907  54.87282897938724  16.744076980385596  16.467088041872604  6.300657259193261  53.90358766252115  -1.458881920866588  13.143100460747686  120.000000
5.582906367041199  0.000000  0.000000  0.000000  -43.13896644444451  16.316180485540457  20.947991131468257  54.98805128905568  16.536183012320564  15.745285873124388  7.121764449949445  53.210849347406  -1.90617625905581  12.958971410506884  120.000000
5.623071161048689  0.000000  0.000000  0.000000  -42.6633186846787  16.17925668896827  19.907139795199125  55.12792474087716  16.26676661916622  14.942602098640458  8.019094280254278  52.30862613436492  -2.3214695274927193  12.779488553587228  120.000000
5.66323595505618  0.000000  0.000000  0.000000  -42.0872747153763  15.99472389630937  18.67328203650336  55.2856005673365  15.92866769746284  14.074261587450202  8.987470230606121  51.20961890491543  -2.701362906382127  12.621688790486548  120.000000
5.70340074906367  0.000000  0.000000  0.000000  -41.42434305423131  15.744400074794655  17.255073919864216  55.44920598407481  15.517346142510135  13.158851241367978  10.020009297742925  49.932663769301215  -3.035326661854259  12.495315969413083  120.000000
5.743565543071161  0.000000  0.000000  0.000000  -40.69042153152225  15.41021645475791  15.667335217026162  55.60315391337496  15.032162048593776  12.21708383473621  11.107198357368748  48.50120881637802  -3.305943569215347  12.4028174556458  120.000000
5.7837303370786515  0.000000  0.000000  0.000000  -39.902429200517  14.97597350552952  13.930855863967418  55.73001093775113  14.477343789540019  11.270190449481348  12.236027189316141  46.941029352531444  -3.4902361295417976  12.340674625959902  120.000000
5.823895131086142  0.000000  0.000000  0.000000  -39.07674136615331  14.429056071287048  12.071491060313567  55.81260673461907  13.862471388125845  10.337938188287326  13.389259575478004  45.27781526521636  -3.561654889041077  12.301395516466606  120.000000
5.864059925093633  0.000000  0.000000  0.000000  -38.227618651650786  13.761738249804928  10.118748651226387  55.836091748172954  13.202141740956863  9.437000363337637  14.545428229851737  43.53495315249384  -3.4925444315889957  12.275593976517575  120.000000
5.904224719101124  0.000000  0.000000  0.000000  -37.3655413080972  12.971626291658662  8.104088978780766  55.78960580124474  12.515024382693326  8.579993041208295  15.67973419935718  41.732051475245036  -3.256859889483747  12.254064570186566  120.000000
5.944389513108614  0.000000  0.000000  0.000000  -36.49626830203589  12.061665095534288  6.059446991488219  55.667243375598304  11.822711257274443  7.775215576787456  16.764960705191637  39.88436664066166  -2.832229899425793  12.229246743421609  120.000000
5.984554307116105  0.000000  0.000000  0.000000  -35.62080803346404  11.040006312522813  4.016192026876936  55.46816912640133  11.148587276068236  7.02663589738411  17.772341910934454  38.00336028918606  -2.201284474214128  12.19595139083448  120.000000
6.024719101123596  0.000000  0.000000  0.000000  -34.735789478179335  9.919525996821827  2.0045003152521153  55.19629671707566  10.516741876630489  6.334300111765311  18.67286163487269  36.09802332369695  -1.3525610905002516  12.152022660735785  120.000000
6.064883895131086  0.000000  0.000000  0.000000  -33.83434953471065  8.71705859872044  0.05293993945469842  54.85992136241877  9.9506395712048  5.695412029894822  19.438977035294016  34.17665788380987  -0.28100011501271505  12.098777206656974  120.000000
6.1050486891385765  0.000000  0.000000  0.000000  -32.90764799555552  7.452530786260023  -1.812022432777128  54.47117519251266  9.47180104462334  5.105402762584072  20.046423561129654  32.24896604805669  1.0118982753162835  12.041268998532402  120.000000
6.145213483146067  0.000000  0.000000  0.000000  -31.947254627849652  6.1481794739177955  -3.566618750914524  54.0452495251437  9.098434107828785  4.559125449819371  20.475749461378477  30.328062091571358  2.518563848889203  11.988131681647179  120.000000
6.185378277153558  0.000000  0.000000  0.000000  -30.947632512980206  4.827738740784563  -5.190901526893985  53.59948919327847  8.84419418319928  4.051611769985708  20.71354432427446  28.431970453598048  4.226128713686162  11.950856276523067  120.000000
6.225543071161049  0.000000  0.000000  0.000000  -29.90821728875128  3.515269291198389  -6.670241815077416  53.152271025947044  8.717179379541928  3.5785189585350823  20.753123272296317  26.58357822391173  6.117521668768266  11.942633420774147  120.000000
6.265707865168539  0.000000  0.000000  0.000000  -28.834208034319968  2.2335546894280727  -7.996547496793833  52.72138739311743  8.719134021758219  3.136556885296196  20.594894709433923  24.80862118520643  8.172407831103701  11.976989762491439  120.000000
6.30587265917603  0.000000  0.000000  0.000000  -27.735091005055665  1.0021196537816113  -9.169126714792045  52.3234572451096  8.845776856603642  2.7231755880698594  20.247476031823645  23.132245610988384  10.366712097615947  12.06655578890334  120.000000
6.346037453183521  0.000000  0.000000  0.000000  -26.622110511421013  -0.164822879692797  -10.192775207188713  51.97334926367498  9.08580968504817  2.3359186808892116  19.729959364321402  21.57439642497835  12.670513721552027  12.222126595189154  120.000000
6.386202247191012  0.000000  0.000000  0.000000  -25.506256675204423  -1.2601930465631128  -11.076003757365127  51.68280285235321  9.421889416430865  1.9730859767745144  19.07268810974573  20.1455852722216  15.04617469050071  12.4517938943801  120.000000
6.426367041198501  0.000000  0.000000  0.000000  -24.397925784684787  -2.282993727198308  -11.829552795186812  51.46001436462394  9.83309937127821  1.6333343889432692  18.31641134223621  18.846099722668768  17.447441820001902  12.759672466773509  120.000000
6.466531835205992  0.000000  0.000000  0.000000  -23.30822523761199  -3.2349409586917885  -12.464381990933175  51.30870991118793  10.29666658168004  1.3149950925407299  17.508624191297688  17.667609665940628  19.820707296145184  13.1447890273093  120.000000
6.506696629213483  0.000000  0.000000  0.000000  -22.251058001971874  -4.118518792977686  -12.99465978771979  51.227411428928946  10.79255484813034  1.0183636468830928  16.70207205512585  16.596692391747226  22.104167112924078  13.59957416144504  120.000000
6.546861423220974  0.000000  0.000000  0.000000  -21.244168279258588  -4.9351208548799645  -13.435941000951589  51.209920118355384  11.302460652352263  0.7456738680328893  15.958768200450677  15.618236434736769  24.22228298917772  14.109149873647345  120.000000
6.587026217228464  0.000000  0.000000  0.000000  -20.3084273059923  -5.684235773841495  -13.801716003158079  51.24632674135092  11.80866604203379  0.4993912898928738  15.353435481318328  14.717438508430496  26.082142639735938  14.652123242541947  120.000000
6.627191011235955  0.000000  0.000000  0.000000  -19.465981363448535  -6.363444469571134  -14.104572703945735  51.32510519658241  12.295678230146768  0.2815917466054974  14.98064306210509  13.881649098277432  27.566470850370596  15.201515150324612  120.000000
6.667355805243446  0.000000  0.000000  0.000000  -18.73919777938494  -6.969172001656683  -14.355850329189327  51.433954808148435  12.748699947426244  0.0933050308108757  14.955285946963523  13.099278008439732  28.536904808209602  15.727336386606286  120.000000
6.707520599250937  0.000000  0.000000  0.000000  -18.148088528621038  -7.498953218391465  -14.568757390826226  51.55740312565218  13.154053671404128  -0.06301758467873422  15.395606973988498  12.35785905352187  28.854972272514374  16.201477780089796  120.000000
6.747685393258427  0.000000  0.000000  0.000000  -17.706990402604994  -7.9515636364060995  -14.758838249229997  51.679441915813406  13.498599327075214  -0.18366491846681893  16.422894068492546  11.645371072823202  28.384993444991974  16.601885622801795  120.000000
6.787850187265918  0.000000  0.000000  0.000000  -17.420559258661733  -8.328361961292735  -14.940430534179441  51.79154475844005  13.77123952862509  -0.26778236779565395  18.171472609776572  10.954897803055442  26.98775723502672  16.91556244285282  120.000000
6.828014981273408  0.000000  0.000000  0.000000  -17.279611068385652  -8.63399989332123  -15.122139532184027  51.89075972650867  13.966967801563069  -0.3157844952226053  20.764280293951007  10.287556558982367  24.548970441366844  17.140580690910696  120.000000
6.868179775280899  0.000000  0.000000  0.000000  -17.26180283618489  -8.87339630824918  -15.303991973823848  51.977939986608995  14.0893230722524  -0.32881366558386255  24.27054056423581  9.653802614457783  21.025039390414065  17.286265717198006  120.000000
6.908344569288389  0.000000  0.000000  0.000000  -17.33647088143503  -9.050176445373705  -15.478240389125478  52.058324022025246  14.149659988768551  -0.31087237469300466  28.681300965642865  9.071372277567345  16.46350551551  17.370355999667346  120.000000
6.94850936329588  0.000000  0.000000  0.000000  -17.474386827680526  -9.166967844509529  -15.63278411113585  52.13749796424509  14.162637554222423  -0.2673336124506974  33.920867980211526  8.560098725077053  10.979226425057247  17.412837507123214  120.000000
6.988674157303371  0.000000  0.000000  0.000000  -17.653178921427735  -9.22603535220986  -15.755360452242709  52.21986786663536  14.142714884792728  -0.20363690218047042  39.85653472158585  8.137197519439802  4.737952923604922  17.431472879339022  120.000000
7.028838951310862  0.000000  0.000000  0.000000  -17.85594702610471  -9.22974293662322  -15.835194265184514  52.308895234164645  14.102629898861293  -0.12510676082349273  46.29328449696865  7.812735876089787  -2.036819984181394  17.440252546647425  120.000000
7.069003745318352  0.000000  0.000000  0.000000  -18.070501885949774  -9.18060180726887  -15.863924750115276  52.40779833964022  14.05329353803714  -0.03710257063803684  52.98968042748826  7.588039270993881  -9.079255140464102  17.448539688781775  120.000000
7.109168539325843  0.000000  0.000000  0.000000  -18.287812449075677  -9.080850314546838  -15.835257261616153  52.519222932402876  14.003966018441844  0.05539475272486252  59.689743304775625  7.455239929978334  -16.112468229942642  17.461341774642804  120.000000
7.149333333333334  0.000000  0.000000  0.000000  -18.500966020123293  -8.932227200362727  -15.744658934559869  52.644961267533645  13.962570874162404  0.14799011243701235  66.1627673615164  7.398218216688667  -22.88776946771645  17.48039189785983  120.000000
7.189498127340824  0.000000  0.000000  0.000000  -18.704734061547633  -8.73615098524587  -15.588951699958884  52.785709116898865  13.935706595465529  0.23694607786597208  72.23745584297886  7.395125683836364  -29.218508806029423  17.50516586722409  120.000000
7.229662921348314  0.000000  0.000000  0.000000  -18.89483669160988  -8.494123225948302  -15.365923628996974  52.94065050657018  13.928948799300189  0.3196101163198366  77.81615956156408  7.420902980334206  -34.99393239532861  17.533963810217063  120.000000
7.269827715355805  0.000000  0.000000  0.000000  -19.067582147480017  -8.207892313644578  -15.073791595496608  53.10724216011698  13.946631175765294  0.39431484336797806  82.87211110818427  7.449665478587362  -40.17601106305331  17.56486945354119  120.000000
7.309992509363296  0.000000  0.000000  0.000000  -19.219353650859585  -7.879224822871686  -14.711642723725635  53.28220234258242  13.991761565353677  0.45996063899471745  87.43534460830446  7.457524111972564  -44.7854548457272  17.596302517907002  120.000000
7.3501573033707865  0.000000  0.000000  0.000000  -19.34645813744506  -7.510297789020051  -14.279988975899384  53.46201578849211  14.06657361435943  0.5163179372426295  91.57399942036693  7.42388699068939  -48.88261599808848  17.6275191508354  120.000000
7.390322097378277  0.000000  0.000000  0.000000  -19.4454050832185  -7.104119217764818  -13.780450476894233  53.64260540005247  14.171795638929282  0.564027979035981  95.37948350309314  7.33192834053225  -52.55266970117488  17.658582242742714  120.000000
7.430486891385768  0.000000  0.000000  0.000000  -19.513185023216714  -6.664478618247703  -13.215892357937976  53.81970149562123  14.306178737684617  0.6042578068244763  98.95910211101382  7.169115993203514  -55.89837189878208  17.69030014873989  120.000000
7.470651685393259  0.000000  0.000000  0.000000  -19.547395766765604  -6.195929355932059  -12.590460593290693  53.988940432986176  14.4663050790774  0.6387893009519754  102.43459638443659  6.92725230553667  -59.0385859547628  17.724151878681056  120.000000
7.5108164794007495  0.000000  0.000000  0.000000  -19.546660928997284  -5.703826518771299  -11.909306344459978  54.14582830495444  14.646422356175501  0.6697881807077373  105.94627033013327  6.602586353937065  -62.112699372457854  17.761777823644426  120.000000
7.550981273408239  0.000000  0.000000  0.000000  -19.510346393534768  -5.193881069902576  -11.1784118093535  54.28597380364627  14.838683355091538  0.6996768981814707  109.66394371434339  6.196012498542402  -65.2917227406066  17.804627461460058  120.000000
7.59114606741573  0.000000  0.000000  0.000000  -19.43838646284639  -4.671703752009011  -10.404523077387312  54.40607792484214  15.033737470378147  0.730690626037545  113.80066863334905  5.7145233297509215  -68.79244464898711  17.853406624724702  120.000000
7.631310861423221  0.000000  0.000000  0.000000  -19.331236322344203  -4.1425520684004145  -9.595384100356036  54.50437296037375  15.221324254104518  0.764778631465828  118.63536446415002  5.172348439229743  -72.90070173721436  17.907522229508615  120.000000
7.6714756554307115  0.000000  0.000000  0.000000  -19.18979053435717  -3.611109733647377  -8.759902138236782  54.5798844265287  15.390634906587904  0.8038610690681905  124.55875544595173  4.591750208740514  -78.01752773201379  17.964370790673485  120.000000
7.711640449438202  0.000000  0.000000  0.000000  -19.016106944056883  -3.0814579601118766  -7.908189219070714  54.632084775131446  15.530512053739777  0.8498742438715483  132.12108406041796  4.005776600706964  -84.7075083576987  18.01896931891077  120.000000
7.751805243445693  0.000000  0.000000  0.000000  -18.813603492184008  -2.5569228119474428  -7.051112542347113  54.66121141109071  15.62947517510564  0.9046847162760944  142.0199100260646  3.462656016595742  -93.68716313526284  18.0641636084002  120.000000
7.791970037453184  0.000000  0.000000  0.000000  -18.58739457445405  -2.0403480894319195  -6.20004959460195  54.668408666852734  15.675773693676161  0.9693138940436719  154.8213505428047  3.027466640711257  -105.54697955454235  18.090830544908062  120.000000
7.8321348314606745  0.000000  0.000000  0.000000  -18.34504559032803  -1.5336158296167253  -5.367254703329399  54.65576973355611  15.65778252818834  1.0434012597971616  170.10534587895873  2.7696220659794917  -119.89764430374542  18.08823243575583  120.000000
7.872299625468165  0.000000  0.000000  0.000000  -18.097499955377273  -1.0367748701631256  -4.565474173351112  54.62595712858614  15.564586784297243  1.1253378471437778  -174.40297874533377  2.722156915737057  -134.50260654017254  18.04440038071297  120.000000
7.912464419475655  0.000000  0.000000  0.000000  -17.860830078351974  -0.5475926141568689  -3.8063938109659703  54.58004686070644  15.38815663240544  1.2132059938611457  -161.7502859695787  2.8411556148557753  -146.36283908377345  17.945652196948405  120.000000
7.952629213483146  0.000000  0.000000  0.000000  -17.651769224714336  -0.06102560528561548  -3.096819965255411  54.518329799044785  15.12756913368643  1.3064458097398497  -153.4708713732164  3.026230407028313  -153.9919790036895  17.778193927050907  120.000000
7.9927940074906365  0.000000  0.000000  0.000000  -17.47875395210917  0.43122595984477385  -2.43445675783709  54.44381735094157  14.792275356419943  1.407835194314859  -149.34576213517232  3.1803516864774624  -157.63957133392685  17.53234024232361  120.000000
8.032958801498127  0.000000  0.000000  0.000000  -17.34304719176892  0.9406241479683572  -1.8070687896890836  54.3609141485488  14.401031394728118  1.5241703573061454  -148.60506426011045  3.2404120170485053  -158.0863868683613  17.203448326989665  120.000000
8.073123595505619  0.000000  0.000000  0.000000  -17.244775605235834  1.4802006015114069  -1.1953890104882479  54.27342982487824  13.97871055959746  1.6652886554040178  -150.73368516239128  3.1735804870445845  -155.847997141099  16.791907319207066  120.000000
8.113288389513109  0.000000  0.000000  0.000000  -17.185609111621098  2.062859260387294  -0.577686360131346  54.18615837393183  13.552443631855256  1.8428739926668067  -155.819243164801  2.9690073224919984  -150.83285442543234  16.30496336511177  120.000000
8.153453183520599  0.000000  0.000000  0.000000  -17.171836837324086  2.699251908792172  0.06562300228310124  54.10421628993248  13.146120919428776  2.069010743026191  -164.90360955235576  2.6434726568306814  -141.99450261495898  15.757058900006877  120.000000
8.19361797752809  0.000000  0.000000  0.000000  -17.21568258649729  3.3968729442145444  0.7484459502854642  54.03143975723563  12.777574248088449  2.355339016897018  179.44233353905022  2.2708602593286886  -126.75792768323548  15.169071612186885  120.000000
8.23378277153558  0.000000  0.000000  0.000000  -17.332387880079  4.15987975501429  1.4804000770781975  53.97161424231079  12.459245687956086  2.7126852442224445  153.776037980904  2.0509510145308654  -101.67777672047471  14.565762738453023  120.000000
8.273947565543072  0.000000  0.000000  0.000000  -17.536661444208253  4.987535231647797  2.2704204439166418  53.93046295102759  12.199727718850454  3.1508463545454655  122.35608478984548  2.3163926830351063  -71.00871398645052  13.971897852803007  120.000000
8.314112359550561  0.000000  0.000000  0.000000  -17.84090709918458  5.87540661493196  3.1262157254611074  53.91524186441454  12.003784522491728  3.677571746386989  98.19107392088264  3.1978576902129316  -47.75160233689033  13.409593981062319  120.000000
8.354277153558053  0.000000  0.000000  0.000000  -18.254296290120923  6.815701036507695  4.052513992585911  53.93323802974755  11.871654290889168  4.297681901078978  83.42784081027673  4.548325983220749  -34.04138890955258  12.895189570946751  120.000000
8.394441947565543  0.000000  0.000000  0.000000  -18.781826125621006  7.7957878857995295  5.050326521534525  53.99119285654201  11.798952940957067  5.013340696452091  74.26209004336428  6.230407634442934  -26.05715741389125  12.437694427666294  120.000000
8.434606741573035  0.000000  0.000000  0.000000  -19.42353887702713  8.79956989871889  6.116727928399095  54.0956120421301  11.77717870883103  5.823981386556355  68.10302700611238  8.166177543252822  -21.188172680226497  12.03987667545998  120.000000
8.474771535580524  0.000000  0.000000  0.000000  -20.17477823866227  9.809289168731837  7.245400050811258  54.253425995875496  11.79569820401181  6.725611797948171  63.65170709942931  10.30426663788026  -18.113422828403134  11.699758758130871  120.000000
8.514936329588014  0.000000  0.000000  0.000000  -21.026962597467225  10.807533734050613  8.427288312581933  54.470867907445786  11.843901611152294  7.710507321222789  60.24664703356043  12.60297014754443  -16.14966309933786  11.412371463438696  120.000000
8.555101123595506  0.000000  0.000000  0.000000  -21.968991767158215  11.77912223439201  9.65146531633618  54.751507326094284  11.912501177688936  8.767762127011853  57.52526770938888  15.024241412412927  -14.914794463807116  11.171191747737723  120.000000
8.595265917602996  0.000000  0.000000  0.000000  -22.989038609344686  12.711726288430349  10.906023198747622  55.095139329538725  11.994377442915214  9.883552874292176  55.27264237100417  17.532087491402443  -14.178026901972677  10.96951127916338  120.000000
8.635430711610487  0.000000  0.000000  0.000000  -24.075486883146095  13.59601225557476  12.178735909092744  55.49758582495556  12.084912041681193  11.041566642628906  53.352695430052876  20.092376598686123  -13.791677688295957  10.80125947269122  120.000000
8.675595505617977  0.000000  0.000000  0.000000  -25.2172326452754  14.42528104783283  13.457428945986624  55.95109534733432  12.181808410899508  12.223760626503575  51.6742778608019  22.67295668776989  -13.656882900447508  10.661437542119016  120.000000
8.715760299625469  0.000000  0.000000  0.000000  -26.403452885405795  15.194977360256393  14.730086413100047  56.44495701049729  12.284475109191767  13.41130854615013  50.173942642624056  25.243755766778964  -13.705582584275833  10.5462290129088  120.000000
8.755925093632959  0.000000  0.000000  0.000000  -27.623098457315585  15.902291337738802  15.98470269567607  56.96644720758203  12.393264313448233  14.585539141541696  48.80649097886534  27.77687870077228  -13.88989751607741  10.452919983455999  120.000000
8.79608988764045  0.000000  0.000000  0.000000  -28.864419811641614  16.54583516318353  17.209191179235443  57.5018300840431  12.508757285091553  15.728766499128247  47.5398108700048  30.246661180315712  -14.175836289398168  10.379763555066  120.000000
8.83625468164794  0.000000  0.000000  0.000000  -30.11465195051939  17.125451701555082  18.391349645965995  58.037384527732826  12.631279367568359  16.82498206531198  46.35152187367493  32.62988668524212  -14.538795787651315  10.325695346757295  120.000000
8.87641947565543  0.000000  0.000000  0.000000  -31.3601225631727  17.642055100459196  19.519246769989003  58.56013093499976  12.760691213269299  17.860434158717773  45.22675156594316  34.90605080655338  -14.960413019265898  10.289936460328041  120.000000
8.916584269662922  0.000000  0.000000  0.000000  -32.5866398986455  18.097484009488312  20.581806369178786  59.05831964656927  12.896564515796955  18.82390771030918  44.15613905181514  37.05779706065479  -15.425746219410055  10.271489945607607  120.000000
8.956749063670411  0.000000  0.000000  0.000000  -33.77999529318918  18.494318677226765  21.569641878258878  59.52187954058195  13.038294548204645  19.707070765204886  43.13497485289269  39.07134381989893  -15.921597763625433  10.26875048577618  120.000000
8.996913857677903  0.000000  0.000000  0.000000  -34.92594561505603  18.83517863743243  22.475575423351998  59.942818978765466  13.18512766419166  20.504995502612175  42.16289682991657  40.93695993127029  -16.435429196397273  10.279301810069265  120.000000
9.037078651685393  0.000000  0.000000  0.000000  -36.01072211590988  19.122397860197733  23.295006554010946  60.31532584271459  13.336450293062006  21.216254234563298  41.24266458511959  42.64880649409837  -16.95396591543706  10.29981959815266  120.000000
9.077243445692885  0.000000  0.000000  0.000000  -37.0222363783224  19.358253504062997  24.02623544283365  60.63528956511018  13.491970089187518  21.841892528621  40.37873238508379  44.20444916398757  -17.46232850321693  10.325957147383145  120.000000
9.117408239700374  0.000000  0.000000  0.000000  -37.950394538912796  19.54474975735358  24.670180135184093  60.89973390934214  13.651441005260237  22.384435904145068  39.57645185405428  45.60416514611072  -17.944512765576683  10.352743260391229  120.000000
9.157573033707866  0.000000  0.000000  0.000000  -38.78667157405849  19.683579166500408  25.229644811031932  61.106921904722725  13.814243940437809  22.8471803940746  38.842090364917766  46.849875483651864  -18.384712750692152  10.375311614897665  120.000000
9.197737827715356  0.000000  0.000000  0.000000  -39.52326219038336  19.77628132918751  25.708218763950057  61.256593842966524  13.978935811285545  23.23347354953472  38.18302181454535  47.9439617826834  -18.76901549325752  10.389850983942512  120.000000
9.237902621722846  0.000000  0.000000  0.000000  -40.152151380564995  19.82436017809025  26.109175536289886  61.35022756474239  14.142953227073695  23.546128623792622  37.607700360748474  48.887990897675316  -19.086707813854346  10.39424434941385  120.000000
9.278067415730337  0.000000  0.000000  0.000000  -40.66447582253477  19.82955027429815  26.434571546602612  61.391081138593044  14.302544216329169  23.786984602630348  37.1255363691169  49.6817473762202  -19.33122245331223  10.388397181745939  120.000000
9.318232209737827  0.000000  0.000000  0.000000  -41.05021394500534  19.793863016711615  26.684724730828766  61.383998008365964  14.452979803456117  23.956696501156475  36.74638491023695  50.32268365610075  -19.500103835213498  10.373908471747196  120.000000
9.358397003745319  0.000000  0.000000  0.000000  -41.298475674082574  19.719633604006386  26.858104540799168  61.33486551102564  14.589000610350027  24.054686255573518  36.47995859314833  50.8058139544209  -19.594502521377663  10.353299683956713  120.000000
9.398561797752809  0.000000  0.000000  0.000000  -41.39815120899486  19.60939767453535  26.95147585900614  61.24992763648698  14.705325923038899  24.079200906558548  36.3349672604898  51.124024884830646  -19.617945047926625  10.328962277920542  120.000000
9.4387265917603  0.000000  0.000000  0.000000  -41.33884002554844  19.46569456202752  26.960179079906517  61.13500075720018  14.797185152110693  24.0274250289392  36.318424066235515  51.26853331253665  -19.575257744049512  10.302164007280071  120.000000
9.47889138576779  0.000000  0.000000  0.000000  -41.111860708917106  19.29089030501176  26.878405564687853  60.99487103766044  14.860664529174317  23.89561150664032  36.43497625009467  51.2295040078202  -19.47128041099776  10.272414725208641  120.000000
9.519056179775282  0.000000  0.000000  0.000000  -40.711033043167824  19.08687768198119  26.699375963252894  60.832936955373256  14.893000317554913  23.67919421916564  36.686600630207394  50.99657992304556  -19.310270671901307  10.237405942849163  120.000000
9.559220973782772  0.000000  0.000000  0.000000  -40.13334458463274  18.855005083674694  26.41547257726965  60.65118799023327  14.892608038191321  23.37297203150998  37.07251469972884  50.55938331486721  -19.09536043019785  10.193773412553325  120.000000
9.599385767790261  0.000000  0.000000  0.000000  -39.37930857304114  18.595800086613647  26.018432904288648  60.45044879177545  14.85912224656799  22.971130660479048  37.58925853031628  49.90801200329047  -18.828674525158  10.138305889104137  120.000000
9.639550561797753  0.000000  0.000000  0.000000  -38.4536539116167  18.30882408666521  25.499718157527344  60.23037229527866  14.793151573492532  22.46763337966598  38.230571777758115  49.03352119836432  -18.511017369954086  10.069562032859336  120.000000
9.679715355805243  0.000000  0.000000  0.000000  -37.3659638754119  17.99240691024949  24.851064134048226  59.98944014446633  14.696400417519957  21.856158697155543  38.986848616959946  47.928679895078346  -18.141693679610356  9.98913902892524  120.000000
9.719880149812735  0.000000  0.000000  0.000000  -36.13118522833676  17.643509348581308  24.065379441810308  59.72484622974489  14.571462753658706  21.130965506958503  39.844970037497134  46.58864951735828  -17.718001774181737  9.90276297714855  120.000000
9.760044943820224  0.000000  0.000000  0.000000  -34.76905956433742  17.257523626067467  23.13750693236442  59.433363029181024  14.421782076406934  20.287781708328588  40.7890796570929  45.01254385297763  -17.235527567327445  9.820750044495512  120.000000
9.800209737827716  0.000000  0.000000  0.000000  -33.303234620839305  16.827576503891443  22.06534955941486  59.11154980933941  14.251305417999449  19.326054195020312  41.80104825941112  43.204235372278696  -16.68790055749089  9.757524891260546  120.000000
9.840374531835206  0.000000  0.000000  0.000000  -31.761029808006064  16.344982463399354  20.850776586244493  58.75624213744977  14.064972746877126  18.249659671494978  42.85967171495918  41.17387227158045  -16.066093194623075  9.730187182672463  120.000000
9.880539325842697  0.000000  0.000000  0.000000  -30.172710739109053  15.799510675079524  19.501099864146678  58.36428542117389  13.869160555860596  17.067740818778667  43.93986388851264  38.938229544740516  -15.357704914224788  9.756953140844963  120.000000
9.920704119850187  0.000000  0.000000  0.000000  -28.57014610656149  15.180527453685782  18.02948882362785  57.93349867904264  13.67215985378491  15.79460629308259  45.012264598377044  36.52191887658942  -14.547017925290131  9.855527088222095  120.000000
9.960868913857677  0.000000  0.000000  0.000000  -26.984984899391044  14.4781098273658  16.455114580009408  57.46344628907751  13.484131436342608  14.449670595815327  46.0433644336371  33.95688621714605  -13.615489745060037  10.041784645975142  120.000000
10.001033707865169  0.000000  0.000000  0.000000  -25.44681937855048  13.684490016852163  14.801744724031552  56.95673668561619  13.316685679391572  13.056312160024497  46.99623904246033  31.28205566249458  -12.543245194288875  10.32843189978795  120.000000
10.041198501872659  0.000000  0.000000  0.000000  -23.98152174091071  12.79587530957527  13.096010151960721  56.41998520828388  13.18192739782258  11.640053704119032  47.83161511818927  28.54165147413859  -11.310704385023147  10.72386070951196  120.000000
10.08136329588015  0.000000  0.000000  0.000000  -22.61018935300915  11.813050051792436  11.365023232145754  55.86396834695616  13.091101185187318  10.226786702722102  48.509862557546356  25.7832083541622  -9.901149264583077  11.230600884816882  120.000000
10.12152808988764  0.000000  0.000000  0.000000  -21.348605842139563  10.741994113133543  9.634141729071352  55.3034595243951  13.052970667622283  8.840975608973908  48.99393873626388  23.055610260384984  -8.303603717395767  11.84430855826923  120.000000
10.161692883895132  0.000000  0.000000  0.000000  -20.207505651865958  9.592924367437114  7.925615197466692  54.7557340519859  13.072479659095036  7.504856524961846  49.254373203705896  20.406520179628128  -6.517479766279874  12.552570252454792  120.000000
10.201857677902622  0.000000  0.000000  0.000000  -19.193608728789798  8.379607394049929  6.257730413005377  54.23845539870671  13.150122392663517  6.237550016733499  49.27344018060043  17.88054664666352  -4.555920334285452  13.334932438131444  120.000000
10.242022471910113  0.000000  0.000000  0.000000  -18.31098044067405  7.119140925109217  4.645592264712757  53.767439209966554  13.282718314335016  5.054626586606477  49.05071312621707  15.516791453611182  -2.450034088133302  14.16370480463834  120.000000
10.282187265917603  0.000000  0.000000  0.000000  -17.56196148399395  5.831039586357407  3.1019159984000133  53.35449670212653  13.464412999284736  3.968148111458555  48.607063532124535  13.347987719588428  -0.2519072495558357  15.005097296904529  120.000000
10.322352059925093  0.000000  0.000000  0.000000  -16.947315064422348  4.537898194016771  1.638211556556551  53.00707845606618  13.68863094771073  2.986421587760938  47.993031789689326  11.39922704181743  1.9589045735708488  15.821356051816176  120.000000
10.362516853932584  0.000000  0.000000  0.000000  -16.465858907748306  3.2653465535590427  0.2645616622248358  52.72757339349563  13.948196666907235  2.114143615357086  47.29375527899551  9.687166284639034  4.071897865961462  16.5726949376117  120.000000
10.402681647940074  0.000000  0.000000  0.000000  -16.11506976940168  2.040067995685971  -1.0097396577214606  52.51258790187996  14.235641410134146  1.3527964977387292  46.627535039114036  8.21833487837737  5.949316446805628  17.21988061126806  120.000000
10.442846441947566  0.000000  0.000000  0.000000  -15.891074429484613  0.8894560616246476  -2.175961900618914  52.35339050447065  14.542871236644602  0.7008599057879431  46.13334496565164  6.991379574965268  7.439412228092571  17.726868730804803  120.000000
10.483011235955056  0.000000  0.000000  0.000000  -15.786038457021048  -0.15911832953988025  -3.224246194737505  52.23744935266674  14.862512233629696  0.15522566626406942  45.94002955510738  5.998689251960332  8.409378594613505  18.06470301854885  120.000000
10.523176029962547  0.000000  0.000000  0.000000  -15.787266333851301  -1.0801047779135091  -4.143629683609361  52.15186102057974  15.187168562717238  -0.28946210777253495  46.12609542393667  5.229965550394731  8.786697662675593  18.21443309244808  120.000000
10.563340823970037  0.000000  0.000000  0.000000  -15.873554327860463  -1.851651844386555  -4.922893623242116  52.08419098981593  15.507670249171056  -0.6383508559854295  46.65242832526845  4.668235678254539  8.62931065457876  18.17352146885285  120.000000
10.603505617977529  0.000000  0.000000  0.000000  -16.015250693168245  -2.45808538794133  -5.552744930724708  52.02703646376815  15.810039027419146  -0.898112810658518  47.3557616964711  4.290280524356939  8.131237037996012  17.958733597517977  120.000000
10.643670411985019  0.000000  0.000000  0.000000  -16.17643163032991  -2.8895573016897647  -6.021523113177839  51.97472777889339  16.06923169013757  -1.0746268704176676  47.977905911713925  4.062439659506472  7.592499930177206  17.608177907305446  120.000000
10.683835205992509  0.000000  0.000000  0.000000  -16.30843076988266  -3.1427406437696006  -6.313934580868903  51.93206982998754  16.251598084783723  -1.1770562380917469  48.30995016627866  3.9458947393914374  7.275006953343683  17.1809391688927  120.000000
10.724  0.000000  0.000000  0.000000  -16.359993980159278  -3.2248817529994804  -6.41434013643611  51.9153684787655  16.318981895032135  -1.2117370685534228  48.38902717123759  3.911476860719159  7.193137712685954  16.74139998809065  120.000000
