Simulation
nRows=201
nColumns=15
endheader
time  TH_x TH_y TH_z SC_y  SC_z  SC_x  AC_y  AC_z  AC_x  GH_y  GH_z  GH_yy  EL_x  PS_y
0.0  0.000000  0.000000  0.000000  -21.481837363305974  5.049547332879065  0.3347068766571287  40.904314626304135  3.896775965024035  -9.111725846374172  78.53568036943008  10.610404752923582  -25.030359293070127  20.76372386275017  120.000000
0.04802000000000001  0.000000  0.000000  0.000000  -22.544054789157506  5.109878562957164  0.4625697613306268  41.8472944695054  4.604546681489689  -8.215337402602149  71.50263342180504  9.649174174178464  -18.913353536448128  20.22950662636325  120.000000
0.09604000000000001  0.000000  0.000000  0.000000  -23.42695645631195  5.154665720124054  0.56089109633002  42.7682190023759  5.225076702060697  -7.365022115294308  63.113894260053634  9.02436758672781  -11.60074110993805  19.688967024722462  120.000000
0.14406000000000002  0.000000  0.000000  0.000000  -24.1319455207057  5.196010940363658  0.5970964119092081  43.60955457723069  5.724356590821682  -6.598484476798399  53.24991887953169  8.761062407969723  -3.119719258160564  19.091582143752962  120.000000
0.19208000000000003  0.000000  0.000000  0.000000  -24.76127706765583  5.269553766651597  0.575425489910655  44.332762684363935  6.108341638640333  -5.888419596006497  42.464171039777085  8.931525389262397  5.8938485077925  18.42801835497574  120.000000
0.24010000000000004  0.000000  0.000000  0.000000  -25.403761826544084  5.390454844068755  0.5219472646367497  44.953401333650966  6.407138601743243  -5.212536288693132  32.07272357353625  9.595569348679557  14.124347245041873  17.70800032909907  120.000000
0.28812000000000004  0.000000  0.000000  0.000000  -26.148458069374612  5.585953724532571  0.48121164891432466  45.49310089827926  6.654470599491262  -4.553696290182119  23.29325874716247  10.725832091156438  20.40742635118704  16.959913006706476  120.000000
0.33614000000000005  0.000000  0.000000  0.000000  -27.04220959456076  5.875392737426699  0.49872921208418636  45.97350880442137  6.892213468332702  -3.9099115698255145  16.44902144435867  12.232838411078006  24.493794013647864  16.200112299412346  120.000000
0.38416000000000006  0.000000  0.000000  0.000000  -28.094496642632098  6.277888186814184  0.6149089390440491  46.40375004737989  7.149123529983046  -3.2753900193894414  11.230261465416538  14.023445600238121  26.776583729843594  15.445059883937994  120.000000
0.43218000000000006  0.000000  0.000000  0.000000  -29.286310219433915  6.796986289326814  0.8582364795055539  46.782570632580416  7.436732532216315  -2.64756097741572  7.172399684068458  16.030059279845602  27.801254749728212  14.706367517596432  120.000000
0.48020000000000007  0.000000  0.000000  0.000000  -30.58392761279657  7.430471541175529  1.2395798710878763  47.10694153867182  7.747749078586311  -2.0279237600182674  3.905095511177991  18.208146410283092  28.016674789590912  13.99897979453274  120.000000
0.5282200000000001  0.000000  0.000000  0.000000  -31.94804141281106  8.161720275506257  1.756229282672937  47.370832122670386  8.061701348548045  -1.4204148875759153  1.179684671200475  20.526137958480817  27.743114575638657  13.332463510442233  120.000000
0.5762400000000001  0.000000  0.000000  0.000000  -33.34043362034276  8.973527047581833  2.396297249198076  47.57465774944607  8.3516802160295  -0.8284070709972805  -1.1277539305614794  22.959861311615736  27.16784551664336  12.715544949531907  120.000000
0.62426  0.000000  0.000000  0.000000  -34.72769788544499  9.84204981767118  3.142940430051452  47.72349015163408  8.592152213002864  -0.25517026101333756  -3.073274441179052  25.487530604469487  26.395752907595924  12.15207868718997  120.000000
0.6722800000000001  0.000000  0.000000  0.000000  -36.083330016296955  10.745077977955106  3.975686666255883  47.83050264976727  8.763607428538718  0.29558540029651503  -4.671420411089422  28.084689084903438  25.471857989384443  11.642818509867535  120.000000
0.7203000000000002  0.000000  0.000000  0.000000  -37.38864255044724  11.657121672681724  4.872028581231472  47.91147214921965  8.86038407967583  0.8240398942116234  -5.927407723395364  30.724368193932886  24.408733494386002  11.181441412361995  120.000000
0.7683200000000001  0.000000  0.000000  0.000000  -38.63146601298061  12.555765145854735  5.817006809402788  47.98691573099714  8.885836881986352  1.3268886609927901  -6.8476418669725545  33.3763241914561  23.198043740116034  10.75427857604691  120.000000
0.8163400000000001  0.000000  0.000000  0.000000  -39.80580081347084  13.417439951984436  6.808840994100669  48.07629270631508  8.848914277906822  1.7983322235060355  -7.451051441183675  36.01154989020099  21.827249502462653  10.340899469451381  120.000000
0.8643600000000001  0.000000  0.000000  0.000000  -40.9098827769809  14.222360901137693  7.85022395183189  48.196382324410735  8.764144918851091  2.2321965367271255  -7.771097770763304  38.60360441577688  20.29169967161902  9.91947151925056  120.000000
0.9123800000000002  0.000000  0.000000  0.000000  -41.94243236838401  14.953278494876495  8.942211409333456  48.35667398636863  8.64979392256595  2.62435701273401  -7.85718409481742  41.13108511942886  18.6063242728769  9.473856017826114  120.000000
0.9604000000000001  0.000000  0.000000  0.000000  -42.89965234811298  15.597586376842598  10.078468556315247  48.55753825830734  8.522634565420278  2.972703910138534  -7.770364919543353  43.57552890723328  16.810837378183326  9.001687464445755  120.000000
1.00842  0.000000  0.000000  0.000000  -43.772401590833255  16.148488174594753  11.2478533582189  48.78915238799727  8.391516111942025  3.2710381099872454  -7.577736012521344  45.91916440819596  14.967983982966102  8.516840998602577  120.000000
1.0564400000000003  0.000000  0.000000  0.000000  -44.55181718926065  16.606207027173674  12.436867769659099  49.03400382960249  8.254460763115707  3.5094731278907236  -7.343476506196824  48.144647637587  13.153789525960201  8.044455477139774  120.000000
1.1044600000000002  0.000000  0.000000  0.000000  -45.23202132713255  16.97799714158673  13.625286263954935  49.2727798546526  8.102717730511808  3.676715408757111  -7.120909517353111  50.23384140325863  11.444925160033808  7.61307798334439  120.000000
1.1524800000000002  0.000000  0.000000  0.000000  -45.81357469371164  17.274041423924604  14.788552454894987  49.48906047748019  7.923432694654896  3.7653834094598455  -6.946801612140736  52.16747733725023  9.907904087362954  7.248112414515439  120.000000
1.2005000000000001  0.000000  0.000000  0.000000  -46.30098458934533  17.50694732988443  15.898830145684078  49.67365133763141  7.703157700531675  3.771098093534207  -6.840883091368642  53.92463338059753  8.59255953836623  6.968141659408152  120.000000
1.24852  0.000000  0.000000  0.000000  -46.70222953207378  17.688557025194143  16.93009062847423  49.82420509828338  7.430612741794728  3.694468037987883  -6.807874359357486  55.48472947157798  7.529953588902369  6.784748202179619  120.000000
1.2965400000000002  0.000000  0.000000  0.000000  -47.02589318924358  17.830299610304404  17.86049767335004  49.942912817613184  7.099627676856085  3.539611426709554  -6.842892733951644  56.83050982876576  6.733215174365833  6.703313846896787  120.000000
1.3445600000000002  0.000000  0.000000  0.000000  -47.28109920468177  17.941429391887386  18.677174598348568  50.0331710310718  6.711161080551235  3.315348194406583  -6.935963377245521  57.95237831901018  6.198214140156829  6.721297634031515  120.000000
1.3925800000000002  0.000000  0.000000  0.000000  -47.476288058851395  18.028607613129754  19.37880219943035  50.097438674064406  6.275434416240324  3.0348429544541333  -7.076050833377361  58.850676800611886  5.903376300077965  6.823538527386789  120.000000
1.4406000000000003  0.000000  0.000000  0.000000  -47.61938627759863  18.095601768629116  19.97607238963744  50.13867215284552  5.812388703106565  2.714413094299897  -7.252476322969409  59.53683470388377  5.810841866851144  6.979192324974044  120.000000
1.4886200000000003  0.000000  0.000000  0.000000  -47.71706022266068  18.14302097943638  20.490342497534265  50.15948135541043  5.348310614130492  2.372783153131399  -7.454976549494324  60.03163287266245  5.871820703143169  7.145778293997936  120.000000
1.5366400000000002  0.000000  0.000000  0.000000  -47.77511020859645  18.170567536250385  20.94652989399426  50.16415635314504  4.909957375479772  2.026433630951472  -7.672287431529333  60.36103376096694  6.034935358061613  7.278700108554023  120.000000
1.5846600000000002  0.000000  0.000000  0.000000  -47.79738333358649  18.17705410913127  21.367243627521077  50.156822822135695  4.518012327332381  1.6882965030776393  -7.89031034344377  60.549599611290795  6.254828894560287  7.343651271241123  120.000000
1.6326800000000001  0.000000  0.000000  0.000000  -47.784975807250795  18.161571469384462  21.765754297550707  50.14186660135957  4.182767136271009  1.3643395375312528  -8.090938708043128  60.61341912141538  6.4982816107434065  7.326984305679353  120.000000
1.6807000000000003  0.000000  0.000000  0.000000  -47.7343302279227  18.12242126073168  22.144110998051335  50.122428530546976  3.903362335470852  1.053955222123308  -8.252363800588776  60.553640028963045  6.745222557398272  7.238852839615765  120.000000
1.7287200000000003  0.000000  0.000000  0.000000  -47.6360406334397  18.055824386272445  22.493883302225985  50.101154696077494  3.670926949400703  0.7504305923682023  -8.350490838530513  60.351465462436835  6.983910393317596  7.107346762193437  120.000000
1.7767400000000002  0.000000  0.000000  0.000000  -47.47517069023511  17.95509134233905  22.799142264349715  50.08103634970413  3.4725000267107227  0.44261454743148737  -8.36174211176015  59.96582689837055  7.203558655536379  6.970275514883788  120.000000
1.8247600000000004  0.000000  0.000000  0.000000  -47.23429274111485  17.80989368576452  23.0396235611954  50.06605063946624  3.2942584319851314  0.11739190953267006  -8.265866829496874  59.3340440392307  7.38800975191049  6.8697675238019835  120.000000
1.8727800000000003  0.000000  0.000000  0.000000  -46.89817301932931  17.607650801727594  23.191829323362633  50.06203761636364  3.1225871781470604  -0.23943530979344907  -8.048240904275605  58.37638374236636  7.513443123942372  6.849735042191462  120.000000
1.9208000000000003  0.000000  0.000000  0.000000  -46.45767351092164  17.33395363416017  23.23002802765802  50.0748099915185  2.9449677931848854  -0.6398608505883614  -7.699779019939962  57.00696224790394  7.552001002680534  6.953555960785676  120.000000
1.9688200000000002  0.000000  0.000000  0.000000  -45.910977445440786  16.975819829542484  23.125991394224904  50.10827086771394  2.7502768236398887  -1.0943969658377148  -7.215271445255998  55.1488578751957  7.482586850769657  7.218308974932229  120.000000
2.01684  0.000000  0.000000  0.000000  -45.259963251538174  16.522275330481904  22.85086442149942  50.15848295289247  2.5302690311049165  -1.6095429401609878  -6.589957016547465  52.75271035313745  7.306139926879741  7.662516251105306  120.000000
2.0648600000000004  0.000000  0.000000  0.000000  -44.50404320765856  15.96747893694876  22.375837864870526  50.21170727345216  2.282733680065849  -2.1871303560829265  -5.815798751634721  49.813105441796196  7.061433815383612  8.269402176660819  120.000000
2.1128800000000005  0.000000  0.000000  0.000000  -43.634520665583906  15.310702372683846  21.676100485648632  50.244367433875546  2.0164530089597643  -2.8182300170671635  -4.881944175307029  46.37851047233052  6.833176310338153  8.976916442321897  120.000000
2.1609000000000003  0.000000  0.000000  0.000000  -42.63489029545543  14.557704973097527  20.74241666866632  50.230253347429084  1.7475120023722124  -3.4840607318352173  -3.780421877319571  42.548225690405296  6.7470242347364335  9.687258083843064  120.000000
2.2089200000000004  0.000000  0.000000  0.000000  -41.48677979198418  13.72044497820636  19.590987481113547  50.15097792621595  1.493700747963015  -4.161116421832073  -2.5201901232451984  38.45519448882323  6.9546421900437085  10.295052320298407  120.000000
2.25694  0.000000  0.000000  0.000000  -40.178671915018754  12.814654015079844  18.258136319597185  50.00121896767855  1.2749004178203482  -4.816656213776895  -1.1396659263835405  34.245404987106774  7.612206348808541  10.72637783994273  120.000000
2.3049600000000003  0.000000  0.000000  0.000000  -38.71414456639655  11.86083195798829  16.797495852143758  49.79236043417662  1.1077813139136787  -5.416075300436863  0.2868036480632141  30.058085114629314  8.855705827518403  10.975913669407227  120.000000
2.3529800000000005  0.000000  0.000000  0.000000  -37.1170502545932  10.884704956469122  15.274537197070504  49.548418548664365  1.0011740069579176  -5.929297160280468  1.6521621271022444  26.01384299338478  10.781389396043862  11.11766330602094  120.000000
2.4010000000000002  0.000000  0.000000  0.000000  -35.43185660310884  9.915323688287154  13.75285835863235  49.30009524270729  0.9593561007214312  -6.3323146826425765  2.8340279359897522  22.209516024770263  13.429369164638135  11.278348769090584  120.000000
2.4490200000000004  0.000000  0.000000  0.000000  -33.72000243984374  8.983106338484625  12.286140388112615  49.078757442256034  0.9878711281184535  -6.607657659600576  3.7296778751725506  18.716371197596306  16.76338860375813  11.589035505586452  120.000000
2.49704  0.000000  0.000000  0.000000  -32.05537074176728  8.119250120147393  10.917551600611228  48.91169399030029  1.0962080553920919  -6.744694591510899  4.322705937545627  15.579841274176813  20.624146130975298  12.137014269319765  120.000000
2.5450600000000003  0.000000  0.000000  0.000000  -30.518739369157494  7.35295661653383  9.680988050574793  48.819149478828884  1.2968712848480417  -6.742473752571974  4.794368746753399  12.817556612299112  24.63494259283271  12.933909497322746  120.000000
2.5930800000000005  0.000000  0.000000  0.000000  -29.191932883234205  6.709359831060571  8.60185063178548  48.80795672785746  1.6016407956730032  -6.6116060793660445  5.657058378583135  10.420321123307712  28.087330760959524  13.917852972910257  120.000000
2.6411000000000002  0.000000  0.000000  0.000000  -28.147386047880794  6.2084052556712015  7.694246278264877  48.86774372787187  2.01702815770097  -6.376220573756699  7.899625076710297  8.364705470948671  29.81492942481273  14.984402069246924  120.000000
2.6891200000000004  0.000000  0.000000  0.000000  -27.43493506440213  5.860330547406319  6.958660493814008  48.9684945524511  2.5395539412138097  -6.0702721075754855  13.104283281253224  6.645504377668229  28.097630896155426  16.021769982872627  120.000000
2.7371400000000006  0.000000  0.000000  0.000000  -27.064269883657268  5.66199753876022  6.381526746404273  49.068120366931474  3.153472709075411  -5.7311199035367615  23.33904047345798  5.327859349582898  20.788457374772545  16.93736287136445  120.000000
2.7851600000000003  0.000000  0.000000  0.000000  -26.99554880882617  5.596984474580034  5.937980182159215  49.12885564520625  3.8321353382570056  -5.392365150924427  39.66393161204272  4.576886453007516  6.816287748430707  17.67086810747523  120.000000
2.8331800000000005  0.000000  0.000000  0.000000  -27.148269106547115  5.636856003396819  5.597528634651744  49.123741319336006  4.5423701009682524  -5.076045232178893  58.51473914268464  4.528517380232632  -10.20710925779373  18.191649953429085  120.000000
2.8812000000000006  0.000000  0.000000  0.000000  -27.424896893133187  5.749116028794514  5.320309089139695  49.042732860216894  5.256633456393514  -4.787957263190601  73.57763412545786  5.052611073571662  -23.885446751444707  18.490900434082427  120.000000
2.9292200000000004  0.000000  0.000000  0.000000  -27.73615698000699  5.903271970212085  5.063054592472847  48.89097069837691  5.9526626979402355  -4.523157807144491  82.84801861072543  5.8490277652241325  -32.12158419878285  18.577493837740057  120.000000
2.9772400000000006  0.000000  0.000000  0.000000  -28.01569476219188  6.071689158547299  4.788378333555631  48.68088070794795  6.608469696029157  -4.274433651909046  87.65825204170983  6.692502039895902  -36.162279252485966  18.4789449865689  120.000000
3.0252600000000003  0.000000  0.000000  0.000000  -28.22174982423392  6.228736313937391  4.469104756234122  48.434234007675165  7.198146793860138  -4.036374898169319  89.55888965690849  7.490851580297435  -37.48829605208023  18.245147906800554  120.000000
3.0732800000000005  0.000000  0.000000  0.000000  -28.32574330874645  6.35033508311772  4.091190153000287  48.1801833784455  7.689557297414819  -3.8062703652134307  89.60129919957296  8.240978152320565  -37.097705754418314  17.943362111988296  120.000000
3.1213000000000006  0.000000  0.000000  0.000000  -28.311171180559242  6.420478482361233  3.646523194013565  47.94089301183439  8.058107244621683  -3.5864842277062463  88.44528518829458  8.969241741240507  -35.61112048723092  17.640601226854738  120.000000
3.1693200000000004  0.000000  0.000000  0.000000  -28.17643690877402  6.43474788853017  3.1311092609821936  47.72049403205921  8.296355365043935  -3.386048508667675  86.48708368300187  9.691799194460412  -33.399528641698744  17.377584107371696  120.000000
3.2173400000000005  0.000000  0.000000  0.000000  -27.93430582741342  6.396979628266747  2.5473060928769558  47.5050375429133  8.413074316072025  -3.2155350453904736  83.93491844954124  10.405835243164585  -30.65861294397928  17.152526679447963  120.000000
3.2653600000000003  0.000000  0.000000  0.000000  -27.60774844709519  6.315106933051878  1.902501967667439  47.27575271408679  8.427695332986293  -3.0821035888407846  80.873007860137  11.10402461175109  -27.47310539549413  16.925674612099566  120.000000
3.3133800000000004  0.000000  0.000000  0.000000  -27.222716993971893  6.196521934662099  1.2060148607249515  47.02114659086646  8.365341999244645  -2.9856163261114945  77.31713322789562  11.791525545552844  -23.874939426314363  16.637496705819583  120.000000
3.3614000000000006  0.000000  0.000000  0.000000  -26.803915594713615  6.045470269287239  0.4678183787030544  46.74130024241101  8.255477717233711  -2.9177930078823957  73.26285916849808  12.497346520748511  -19.89170449397712  16.23376760020339  120.000000
3.4094200000000003  0.000000  0.000000  0.000000  -26.3723773342144  5.862451868435672  -0.2993991838508727  46.447962960128876  8.130586810955421  -2.8650788104067826  68.72605658411162  13.27628289326938  -15.581788933061407  15.68957781365815  120.000000
3.4574400000000005  0.000000  0.000000  0.000000  -25.94663171264619  5.64669690330025  -1.0776181257526616  46.16001277588015  8.021321781549897  -2.8126482293678663  63.774852988151395  14.200648186611174  -11.056723521830481  15.022810889609362  120.000000
3.5054600000000007  0.000000  0.000000  0.000000  -25.54225298066198  5.400942913058312  -1.8456012958011203  45.90052768262638  7.951941750123563  -2.749018943072451  58.545783250714436  15.34821928369008  -6.489422067860753  14.28975075269113  120.000000
3.5534800000000004  0.000000  0.000000  0.000000  -25.17508549870268  5.130808318515464  -2.5813568598583556  45.689710827809755  7.9383651159032  -2.667188347827634  53.22248124305507  16.789085158242525  -2.092649616643313  13.56469425715934  120.000000
3.6015000000000006  0.000000  0.000000  0.000000  -24.861160135251545  4.844855887245077  -3.264411438439843  45.541919420190524  7.989288212362109  -2.5643242725564974  47.99557462801934  18.575625660833612  1.9216315057996216  12.916205020201927  120.000000
3.6495200000000008  0.000000  0.000000  0.000000  -24.617585942542473  4.552712461205703  -3.877435425452996  45.467856024643645  8.108869335847235  -2.4412559944603354  43.0286689126681  20.738806079409546  5.376230203059747  12.38789197690438  120.000000
3.6975400000000005  0.000000  0.000000  0.000000  -24.464369531660772  4.263761835879813  -4.40591309426234  45.474118245790144  8.297585081378386  -2.2989489845954787  38.43735450345151  23.28572299333123  8.151073279328678  11.991133002361149  120.000000
3.7455600000000007  0.000000  0.000000  0.000000  -24.425318013363345  3.9879571660537767  -4.838522088249428  45.57105097629876  8.553734767134808  -2.138551496390233  34.29539142457226  26.204331932368984  10.179111620626731  11.71236748608659  120.000000
3.7935800000000004  0.000000  0.000000  0.000000  -24.527032278688214  3.7309428952097243  -5.164199002604516  45.770382284867075  8.870125055775839  -1.9570718700297955  30.647167349276128  29.464927922914733  11.43720986377024  11.525621533018613  120.000000
3.8416000000000006  0.000000  0.000000  0.000000  -24.791092641778246  3.4947656029099594  -5.371664577231767  46.078315934719626  9.232284207373583  -1.7499923608088335  27.512508517589  33.01600112812873  11.945185528966524  11.403351883753682  120.000000
3.8896200000000007  0.000000  0.000000  0.000000  -25.22612110146782  3.286948235679159  -5.454616893949225  46.49868874113325  9.623544050622565  -1.5243372516845373  24.883554825261182  36.78479298538137  11.766335021362183  11.319167092057997  120.000000
3.9376400000000005  0.000000  0.000000  0.000000  -25.823332795848806  3.12119260413776  -5.407023397300145  47.018826564747584  10.021017383733541  -1.2900577087123015  22.72052552544016  40.6787704886938  11.007294768762005  11.2482429726777  120.000000
3.9856600000000006  0.000000  0.000000  0.000000  -26.55907125448671  3.0163461805518073  -5.2202248767752435  47.612112403261044  10.394802358805078  -1.056569459013697  20.973863083744302  44.60037771238541  9.7900571008414  11.168955988356807  120.000000
4.03368  0.000000  0.000000  0.000000  -27.399398396477185  2.9974381364850307  -4.88544041454015  48.2488441685344  10.714507206218084  -0.8362732175192797  19.60217802432542  48.46396719812213  8.228780429946605  11.067164068198407  120.000000
4.0817000000000005  0.000000  0.000000  0.000000  -28.311219054501674  3.0850533033022005  -4.392674307146124  48.89099429228761  10.951568281252804  -0.6375760581095573  18.56689727877908  52.20130477384706  6.42926624085778  10.94039724197539  120.000000
4.129720000000001  0.000000  0.000000  0.000000  -29.26785592509706  3.2947057715756687  -3.735075360292042  49.499441550318934  11.08304179206556  -0.4691927272296431  17.826120262527493  55.759611797261286  4.4881461823229465  10.79539000040272  120.000000
4.177740000000001  0.000000  0.000000  0.000000  -30.251170232405077  3.636231935466121  -2.909120178464187  50.03932708240575  11.09468528149696  -0.34151040085949314  17.33434623900797  59.09850802870967  2.488909021001243  10.646022530663963  120.000000
4.225760000000001  0.000000  0.000000  0.000000  -31.249538279340943  4.109519681420566  -1.913101340179552  50.48406879765587  10.980911671796118  -0.26300173070027827  17.044204898416485  62.18797331263008  0.4963983628655064  10.510148364471211  120.000000
4.27378  0.000000  0.000000  0.000000  -32.25445348479421  4.704924333197852  -0.74915666943156  50.82082987309779  10.74389582742863  -0.24077045819475837  16.907973653256086  65.00617892996631  -1.4469869557024857  10.40859009137078  120.000000
4.3218000000000005  0.000000  0.000000  0.000000  -33.25967045857636  5.4027090892879785  0.575705935872201  51.051823875289905  10.391736906902773  -0.27884419078936007  16.87820621106853  67.53829300626299  -3.3233698393358715  10.364898209728318  120.000000
4.369820000000001  0.000000  0.000000  0.000000  -34.25931581790133  6.175084793327298  2.048765629064968  51.19305542632164  9.937332352920073  -0.3778400586051888  16.908600218023523  69.7754756625574  -5.1353425063420675  10.405343199373757  120.000000
4.417840000000001  0.000000  0.000000  0.000000  -35.24675008046492  6.988699860711899  3.6520906429858693  51.26996523104109  9.397589817043306  -0.5350713541291328  16.95644360852262  71.71447871283118  -6.896938670950252  10.556636657786324  120.000000
4.465860000000001  0.000000  0.000000  0.000000  -36.21256600165394  7.808211833310494  5.363538008564907  51.31055191377709  8.792259192052644  -0.7457279631177524  16.98597419939606  73.3566146358455  -8.620820811232564  10.838383878001666  120.000000
4.51388  0.000000  0.000000  0.000000  -37.14377315975836  8.599527023425606  7.157417433940041  51.339199147421944  8.142733790484591  -1.0046202954011954  16.97309966403922  74.70764614185926  -10.304162089620338  11.251081962466113  120.000000
4.5619000000000005  0.000000  0.000000  0.000000  -38.02244494651258  9.332333545515738  9.004893632643054  51.37203909437577  7.470500839453899  -1.3075504567019678  16.90913774764414  75.77851811926332  -11.918004044209152  11.765300256516435  120.000000
4.609920000000001  0.000000  0.000000  0.000000  -38.82593453697086  9.981408628053256  10.87363175187571  51.4167227755931  6.794667781304829  -1.652569433131539  16.801613512802298  76.58610775280398  -13.408318008349495  12.322218221664125  120.000000
4.657940000000001  0.000000  0.000000  0.000000  -39.52756554806246  10.525966039688075  12.72644069793915  51.47540890772235  6.128422924295608  -2.039793481989149  16.669218645413423  77.15393519517507  -14.70531674280441  12.845923121628445  120.000000
4.705960000000001  0.000000  0.000000  0.000000  -40.09875062613958  10.948878036648923  14.519496335121499  51.54818429115448  5.475778513172934  -2.472081503889148  16.532751276644454  77.51257342273664  -15.735596243679396  13.263760870353996  120.000000
4.75398  0.000000  0.000000  0.000000  -40.5111286920847  11.23588426992497  16.20097356269553  51.636312337858975  4.828279736179988  -2.954909433838388  16.406860799617704  77.69973376417217  -16.439445765230644  13.527356003484803  120.000000
4.8020000000000005  0.000000  0.000000  0.000000  -40.73775370598749  11.374677346562022  17.709965717062627  51.74463327496831  4.162377883769548  -3.496703126988695  16.29453166006576  77.76134841464389  -16.780659154838066  13.625071270479705  120.000000
4.850020000000001  0.000000  0.000000  0.000000  -40.756636441735445  11.357677322706508  18.98683668974772  51.87924872545  3.4467477132770092  -4.104773536211933  16.192973674150714  77.73010728765047  -16.751423183049003  13.57810928171326  120.000000
4.898040000000001  0.000000  0.000000  0.000000  -40.55830609078514  11.189412091751105  19.995376691818578  52.03901537986386  2.663478719845683  -4.775511906274651  16.110955726653295  77.57821708836686  -16.379022833466443  13.427078783249588  120.000000
4.946060000000001  0.000000  0.000000  0.000000  -40.14778255416824  10.885113625384728  20.725060783390653  52.21236840644582  1.8178994573319671  -5.49140849828347  16.068523565221422  77.2186912725938  -15.718676685880455  13.21784859479049  120.000000
4.99408  0.000000  0.000000  0.000000  -39.53904171874399  10.46156922058935  21.174617569431142  52.382085700784685  0.9295054147378657  -6.2284156645058975  16.078506993385375  76.55829321401256  -14.832056992117117  12.991232370920969  120.000000
5.0421000000000005  0.000000  0.000000  0.000000  -38.75222276237958  9.934278211631613  21.346671813632344  52.52997546669006  0.02597741714719823  -6.9606221012007286  16.140351644536494  75.52443216322473  -13.7795123980499  12.778111417254548  120.000000
5.090120000000001  0.000000  0.000000  0.000000  -37.81306776948673  9.319472366578651  21.249359575772523  52.638956475834554  -0.8570385208811464  -7.661034922808308  16.246271399954953  74.06477897944687  -12.619055243322347  12.600015659319203  120.000000
5.138140000000001  0.000000  0.000000  0.000000  -36.75262176124544  8.636862743735685  20.895726571368183  52.69365468710631  -1.6786404408769438  -8.303446812034656  16.388785367240853  72.14694192214867  -11.40212036653754  12.470847517219038  120.000000
5.186160000000001  0.000000  0.000000  0.000000  -35.60653117225131  7.91110591898015  20.303438825108973  52.680204213808125  -2.396023757480969  -8.865009837614751  16.567545936830577  69.75926537527405  -10.169294459126608  12.395108050452363  120.000000
5.234180000000001  0.000000  0.000000  0.000000  -34.41283514537762  7.171930973297281  19.495327657335835  52.586091544426054  -2.9682684002775845  -9.329575949614911  16.794867109959654  66.91248974834637  -8.946008520723172  12.364943112222196  120.000000
5.2822000000000005  0.000000  0.000000  0.000000  -33.20717941236155  6.451321624524665  18.5003584640619  52.40222465450399  -3.3607053314734556  -9.689409469802698  17.099914088108278  63.64160581670215  -7.7435676419690305  12.36084491988951  120.000000
5.330220000000001  0.000000  0.000000  0.000000  -32.018960110647555  5.778587336030889  17.354292583344836  52.12577720623069  -3.5494474308172337  -9.946516326963648  17.52959025768493  60.00633980631506  -6.565666066824947  12.35791110830226  120.000000
5.378240000000001  0.000000  0.000000  0.000000  -30.87211401490519  5.173405306022482  16.10217950308779  51.75972729442329  -3.5283213538751372  -10.115419474189826  18.143627270980232  56.08863194087415  -5.418335467882892  12.333665976186632  120.000000
5.426260000000001  0.000000  0.000000  0.000000  -29.7889510212749  4.641775334155717  14.802656547971914  51.30966868670435  -3.3158374635540397  -10.23071374981937  19.007912146290995  51.98915148154969  -4.319565959811143  12.276677172115935  120.000000
5.474280000000001  0.000000  0.000000  0.000000  -28.79778215623329  4.187456933917349  13.51263990955228  50.794148216762004  -2.9414038830965374  -10.316800634713223  20.18173470438683  47.809139217504864  -3.3017090898002133  12.189454573893276  120.000000
5.5223  0.000000  0.000000  0.000000  -27.935735613316364  3.8247115991097895  12.267259503007603  50.25436245194352  -2.424463969248552  -10.351377159104665  21.705392030777773  43.63285620171553  -2.404974067050098  12.084368018052606  120.000000
5.570320000000001  0.000000  0.000000  0.000000  -27.236911523553466  3.569834281918072  11.092044657543733  49.73665461284606  -1.7837388430520154  -10.300720457644921  23.606429588016283  39.53832314554924  -1.6751772793215243  11.982778621495891  120.000000
5.618340000000001  0.000000  0.000000  0.000000  -26.720288376653063  3.428453648887045  10.01209811657418  49.27555618757187  -1.046925332031787  -10.149543879704773  25.905808418493443  35.60463558827897  -1.1603292851248603  11.910792260909172  120.000000
5.666360000000001  0.000000  0.000000  0.000000  -26.389023603680883  3.3947760462146053  9.044996762613378  48.89201389869746  -0.24387986251256502  -9.892531709328159  28.609533155646535  31.903053009577565  -0.8964875043945083  11.892947259852178  120.000000
5.714380000000001  0.000000  0.000000  0.000000  -26.23073856179324  3.4567318473005257  8.196180318224283  48.59721960748271  0.5968096770810426  -9.533736112004057  31.700570677360776  28.489199130814765  -0.8955774083207094  11.94952480134966  120.000000
5.762400000000001  0.000000  0.000000  0.000000  -26.219063683871035  3.5957518215810835  7.459742429869116  48.39646259021083  1.4486966227975393  -9.084472603712156  35.142984974724776  25.39810211630352  -1.151554272557952  12.095475621037604  120.000000
5.810420000000001  0.000000  0.000000  0.000000  -26.318559400340224  3.7878653027996636  6.824393451534198  48.29005273366515  2.289863783183572  -8.558832532937194  38.88997116494596  22.644970017612746  -1.6528073347877241  12.340700983677321  120.000000
5.858440000000001  0.000000  0.000000  0.000000  -26.49272911518921  4.0106055566236165  6.27791249653476  48.27468640041601  3.1048031223673576  -7.972925123741475  42.89368302345162  20.2312170397006  -2.3959086614621325  12.688535642585023  120.000000
5.906460000000001  0.000000  0.000000  0.000000  -26.71119531897962  4.2449100888640645  5.809472641380941  48.340487383184474  3.883394552146092  -7.343635189284413  47.11564997698573  18.14955947030597  -3.398437376303705  13.13274826825334  120.000000
5.954480000000001  0.000000  0.000000  0.000000  -26.95268313411145  4.477097623652  5.409846007908546  48.4701216227225  4.620872635806667  -6.689387767692673  51.529587642299276  16.388276172294045  -4.699761302918649  13.65745595881899  120.000000
6.002500000000001  0.000000  0.000000  0.000000  -27.2035680830807  4.7018703303361224  5.069624212601843  48.643430038052436  5.318251046265922  -6.0314787777177585  56.1075697632263  14.934147683265975  -6.340160802947577  14.239846293594065  120.000000
6.050520000000001  0.000000  0.000000  0.000000  -27.45626573572281  4.918582060201311  4.778876957554947  48.83626374619405  5.979687167671843  -5.390436087996223  60.7913890112342  13.768592703481538  -8.321903046341896  14.852751146425243  120.000000
6.098540000000001  0.000000  0.000000  0.000000  -27.707795369758585  5.126747471200218  4.52784720093087  49.02259269675153  6.609523151993789  -4.782797681256732  65.47752733151447  12.864116222116905  -10.584111573970606  15.466098205900574  120.000000
6.146560000000001  0.000000  0.000000  0.000000  -27.95558365280953  5.325388128124882  4.307117479276258  49.18191517609655  7.210769465651117  -4.221450007099969  70.02814650919778  12.185147784263558  -13.007922017381892  16.048139388938477  120.000000
6.194580000000001  0.000000  0.000000  0.000000  -28.19757626654073  5.51137839477564  4.107348141448501  49.30144168210958  7.7826085440704595  -3.7158436113814166  74.29843102197611  11.689205739352946  -15.443965239362273  16.566271711452423  120.000000
6.242600000000001  0.000000  0.000000  0.000000  -28.43297415970806  5.678728659556463  3.9169819945407025  49.375876536535294  8.319330347552887  -3.2716835552081225  78.16284174382413  11.33094795382163  -17.744101584437566  16.99087135517631  120.000000
6.2906200000000005  0.000000  0.000000  0.000000  -28.659264984146727  5.820618323885077  3.7221899450195766  49.407955709360074  8.81180725383536  -2.8898301655719747  81.53042904763926  11.068418733888285  -19.78218759001802  17.303419674156423  120.000000
6.338640000000001  0.000000  0.000000  0.000000  -28.86995045663953  5.930185961040619  3.5092497170204684  49.406448538651446  9.24965701969896  -2.566942211169306  84.34380451789657  10.866759285527312  -21.457573505875036  17.503480493701748  120.000000
6.386660000000001  0.000000  0.000000  0.000000  -29.052963994623802  6.002391405215093  3.266439746773759  49.38278188892661  9.622944077250299  -2.296449456910394  86.56779147098341  10.699395341512169  -22.688096424778806  17.611206313514863  120.000000
6.434680000000001  0.000000  0.000000  0.000000  -29.19018068282063  6.035114003205201  2.9856295228769625  49.34882772109345  9.924489464633574  -2.0693939602862015  88.17674783903482  10.549214179767707  -23.40226491200465  17.662357832372038  120.000000
6.482700000000001  0.000000  0.000000  0.000000  -29.262161494306913  6.02909727446072  2.6622248464736664  49.31199189518825  10.150429187591005  -1.8749454352964636  89.14714710777375  10.407090646941658  -23.538662872998945  17.69625466520297  120.000000
6.5307200000000005  0.000000  0.000000  0.000000  -29.2536998529009  5.988932075584337  2.292998645122936  49.27203259510597  10.300589751075783  -1.7039322661003324  89.45795780006006  10.270077498963362  -23.05247278739827  17.743619569569866  120.000000
6.578740000000001  0.000000  0.000000  0.000000  -29.159498993638366  5.922848233746909  1.8738857428371873  49.21984059186457  10.37871629025163  -1.5517055045753998  89.09589500467135  10.143066215114931  -21.92669392124708  17.81631724688863  120.000000
6.626760000000001  0.000000  0.000000  0.000000  -28.984535148825703  5.840666529344995  1.400080654067979  49.13916662022466  10.393137805864583  -1.4168186547289972  88.05958075320837  10.038928178275883  -20.176164744472118  17.90570894327127  120.000000
6.674780000000001  0.000000  0.000000  0.000000  -28.740878475892465  5.751513364137119  0.8671731663079407  49.00841834193258  10.35613530231313  -1.2983515400604084  86.36320157312223  9.97705611448519  -17.84545025446797  17.987919266001956  120.000000
6.722800000000001  0.000000  0.000000  0.000000  -28.442078876837666  5.663570787633424  0.271304546001296  48.807252895534255  10.282531614406528  -1.195401201816883  84.04887117243481  9.983321443029745  -15.012627595217191  18.032062785774322  120.000000
6.770820000000001  0.000000  0.000000  0.000000  -28.097324439640627  5.581227202211749  -0.39158122394651673  48.52524239290826  10.186428055291778  -1.105602909574669  81.2111997405116  10.091397481766965  -11.803703918042272  18.00737925526041  120.000000
6.818840000000001  0.000000  0.000000  0.000000  -27.709546572641422  5.502431695943953  -1.1228572430070558  48.16777493979893  10.079500675780926  -1.0218202265151706  78.00888234621917  10.3433429776257  -8.398313977877185  17.88696595506263  120.000000
6.866860000000001  0.000000  0.000000  0.000000  -27.27862999968423  5.421863899148804  -1.9163175962159231  47.75833230722854  9.973399261692595  -0.9307773106940154  74.64865990264087  10.788347912628163  -5.012367615351231  17.648455823565275  120.000000
6.914880000000001  0.000000  0.000000  0.000000  -26.808414995791285  5.332951877273609  -2.755284780301924  47.33245112242995  9.879608863963771  -0.8148817712866939  71.35335265205339  11.476424977557059  -1.869824923339263  17.275305645530242  120.000000
6.962900000000001  0.000000  0.000000  0.000000  -26.31203388642056  5.230571622686322  -3.6148453758566  46.93091873743385  9.806333133407431  -0.6593566504401751  68.31855960539403  12.45006559741318  0.834702572506697  16.761293864198876  120.000000
7.010920000000001  0.000000  0.000000  0.000000  -25.81880211387279  5.111910662940056  -4.469912488221397  46.592580921147814  9.756444649626557  -0.4574828120811206  65.64973104513211  13.73714599098126  2.9878972274374735  16.1176662830806  120.000000
7.058940000000001  0.000000  0.000000  0.000000  -25.367751867305323  4.979143763252585  -5.297409279207528  46.35120104364314  9.731646010328207  -0.2089542260230031  63.33560082038188  15.353458826195558  4.576888274728287  15.382273297332928  120.000000
7.106960000000001  0.000000  0.000000  0.000000  -24.99764461809064  4.838668815149699  -6.06824394871915  46.233587981955964  9.739338368244635  0.08526996586259836  61.29136587369347  17.31435414084264  5.6449266775463585  14.611630996943529  120.000000
7.154980000000001  0.000000  0.000000  0.000000  -24.74207382199799  4.697968763914566  -6.744506158423202  46.25840084486109  9.790740109434998  0.42363507568688796  59.41321567743807  19.63741628287895  6.257542369694904  13.863555613477311  120.000000
7.203000000000001  0.000000  0.000000  0.000000  -24.621434373610967  4.567252417426403  -7.288959705263652  46.44041399435799  9.891209802799535  0.7972870254851053  57.61920025566745  22.331208930096334  6.489401193364868  13.184841939874055  120.000000
7.251020000000001  0.000000  0.000000  0.000000  -24.639356806301652  4.456630832390479  -7.673317405370845  46.78806224398892  10.03096964714251  1.192745299898945  55.870395212968695  25.38497206798475  6.409938627227791  12.602582174650662  120.000000
7.2990400000000015  0.000000  0.000000  0.000000  -24.784903910737526  4.372142926444082  -7.88016602090534  47.30516938697635  10.186760180582986  1.597724743939307  54.170063125587525  28.76936706802695  6.079402642078515  12.121037108207101  120.000000
7.347060000000001  0.000000  0.000000  0.000000  -25.039820392205414  4.315255785631258  -7.903710561115399  47.987941605390375  10.326640409088357  2.004082222570192  52.54684030593523  32.43658801865578  5.5543173953036264  11.727952943014028  120.000000
7.395080000000001  0.000000  0.000000  0.000000  -25.384926620637632  4.2857470235038075  -7.746469577403785  48.820839693470305  10.416984579392379  2.4066133155576837  51.04175070038399  36.323042035406516  4.8834508657931455  11.406357391367074  120.000000
7.443100000000001  0.000000  0.000000  0.000000  -25.800896528114567  4.285352532778625  -7.414332696808775  49.78543013645328  10.43505681370589  2.7929372579524783  49.69100497964489  40.35934623314262  4.104297818103474  11.140220087079845  120.000000
7.491120000000001  0.000000  0.000000  0.000000  -26.2693101912013  4.31334108876225  -6.911491737144592  50.850477987193855  10.36750672433389  3.149121828692131  48.51001374159676  44.465880357100524  3.2464440782748087  10.918764691906684  120.000000
7.5391400000000015  0.000000  0.000000  0.000000  -26.771900299234744  4.365612778886202  -6.240600561613353  51.971465094988176  10.210042321800232  3.4627374166921263  47.49258358930693  48.55803245236185  2.329408989238872  10.736036083461954  120.000000
7.587160000000001  0.000000  0.000000  0.000000  -27.28874249657339  4.443693436815208  -5.403698793399496  53.108088484018836  9.970399471433952  3.7146461581923105  46.61574421657469  52.565098890839046  1.36160127652284  10.587020010118538  120.000000
7.635180000000001  0.000000  0.000000  0.000000  -27.805373838565266  4.5474217438236515  -4.400955090969184  54.22251484569684  9.656175969816454  3.886367047552908  45.84569375071915  56.432232048720174  0.3465751996429702  10.468297437232419  120.000000
7.683200000000001  0.000000  0.000000  0.000000  -28.310002244772317  4.671384928362214  -3.238706816820867  55.277296645120494  9.269829251540926  3.9662787186614397  45.14379051449372  60.115206890935696  -0.7140695744776122  10.37737254460322  120.000000
7.731220000000001  0.000000  0.000000  0.000000  -28.790117436764504  4.809520532816987  -1.934655649966087  56.2430254756297  8.813258717056833  3.9467381388280542  44.4743285236558  63.57676926740801  -1.8199880109520135  10.312655311072975  120.000000
7.7792400000000015  0.000000  0.000000  0.000000  -29.233451207329217  4.954575130523768  -0.5132192470783756  57.09933646772452  8.286206646974817  3.8254621059365306  43.808395726704134  66.784016795946  -2.970679715589775  10.274128559706476  120.000000
7.827260000000001  0.000000  0.000000  0.000000  -29.628605916850184  5.099591391092172  0.9953727635831684  57.83533842233035  7.691468216276812  3.607517010637455  43.126818587198954  69.71000649326412  -4.16320802243106  10.261547510623346  120.000000
7.875280000000001  0.000000  0.000000  0.000000  -29.967425701828  5.238143886139498  2.5592198287579593  58.449856981736076  7.037165130854332  3.303666043561962  42.42243549332749  72.33581850381957  -5.387895043900684  10.273587489346001  120.000000
7.923300000000001  0.000000  0.000000  0.000000  -30.246325345455055  5.366841930490175  4.155659390363998  58.9487191051771  6.333663295168163  2.925263000075286  41.69975125437229  74.65241442946669  -6.625527733487402  10.305433189880024  120.000000
7.971320000000001  0.000000  0.000000  0.000000  -30.469130922574635  5.4866957340434945  5.770730868128964  59.3413186023703  5.595501961706534  2.482946445110743  40.97191510230697  76.6622891782669  -7.846740264795025  10.347707973162231  120.000000
8.019340000000001  0.000000  0.000000  0.000000  -30.64644935644757  5.600733427602563  7.395245034201121  59.63686695159414  4.838502584729452  1.9869187927441674  40.258820054447646  78.37714779292875  -9.013660242128898  10.387558801154457  120.000000
8.06736  0.000000  0.000000  0.000000  -30.792482984062147  5.7124078598854595  9.020625857420047  59.844021343098056  4.075273804327501  1.4462123667079396  39.58509557869959  79.81428296245416  -10.085536593333087  10.412545312821274  120.000000
8.115380000000002  0.000000  0.000000  0.000000  -30.92066313623702  5.823967806545581  10.634589477173144  59.97162050373992  3.311628256359324  0.8694865549847388  38.97893572577106  80.99212869989061  -11.025569373640606  10.414590415876289  120.000000
8.163400000000001  0.000000  0.000000  0.000000  -31.039241647329373  5.934500388639139  12.219187480241795  60.03046435823413  2.5447257565065486  0.2661663504153347  38.47065538614745  81.92592641745226  -11.80711521004996  10.393535870423761  120.000000
8.21142  0.000000  0.000000  0.000000  -31.149664818038495  6.040778902871058  13.750710016963366  60.03386608700208  1.7642992459642364  -0.3536134450406272  38.090992442713386  82.62481169147273  -12.415043029322486  10.35691732911624  120.000000
8.259440000000001  0.000000  0.000000  0.000000  -31.246875413688908  6.137095566689664  15.202125100848711  59.99586981162363  0.9564645748588755  -0.9789112022819892  37.86865972829881  83.0903739951684  -12.843200074149246  10.316400701950704  120.000000
8.30746  0.000000  0.000000  0.000000  -31.32229559351608  6.217954647428839  16.546364534122215  59.92883757675967  0.1082605241995902  -1.6001680151393256  37.82765206466032  83.31713979948408  -13.08888414620833  10.282230883577343  120.000000
8.355480000000002  0.000000  0.000000  0.000000  -31.366395814658137  6.278161937578461  17.759110938019788  59.840337686371456  -0.7887952055680764  -2.209901988912655  37.98477275763589  83.29315036766315  -13.148876014304609  10.258341057612473  120.000000
8.403500000000001  0.000000  0.000000  0.000000  -31.370582460551343  6.315147373310976  18.822728255340913  59.73229470992781  -1.734885121779407  -2.802905558485784  38.346340607837526  82.99494929564825  -13.01928580763935  10.239668133519833  120.000000
8.451520000000002  0.000000  0.000000  0.000000  -31.32716748656269  6.329583460458177  19.727520483788428  59.60148354569964  -2.71889551643028  -3.3741252616517676  38.90592524322193  82.38300363415792  -12.698620514026036  10.214062090331929  120.000000
8.499540000000001  0.000000  0.000000  0.000000  -31.22891355068811  6.3245863056673635  20.465767312001216  59.440181544612955  -3.7194364732761374  -3.9181455653093877  39.64660390723288  81.40954038503149  -12.18836810630992  10.167021286048016  120.000000
8.54756  0.000000  0.000000  0.000000  -31.069142799578177  6.30480085016864  21.02343778005159  59.23670975078846  -4.706051152504733  -4.429205613667079  40.54345097347086  80.02541880556676  -11.494534140941404  10.089396095139715  120.000000
8.595580000000002  0.000000  0.000000  0.000000  -30.843881880216454  6.275756750589311  21.38706781084605  58.97477107868268  -5.649317517329786  -4.9054649740708545  41.56455550598831  78.18243306459861  -10.62948969439467  9.984080797808128  120.000000
8.643600000000001  0.000000  0.000000  0.000000  -30.55571389168483  6.246787764534814  21.551213145900885  58.632117906149425  -6.525341911718068  -5.353960322521407  42.671756451935195  75.83970734636004  -9.611166137943357  9.868769017728512  120.000000
8.691620000000002  0.000000  0.000000  0.000000  -30.21352290682479  6.229680661596124  21.514103741347483  58.18465959523498  -7.307837804443763  -5.78299721718449  43.8265841163679  72.97426930650663  -8.460231808891981  9.772564090839444  120.000000
8.739640000000001  0.000000  0.000000  0.000000  -29.829260545035194  6.239221503626026  21.277550496225064  57.616027518136896  -7.962929590818905  -6.197816169812348  44.99527143133303  69.58887510356081  -7.1942398372557115  9.731311105546057  120.000000
8.78766  0.000000  0.000000  0.000000  -29.417354950284505  6.287576060031262  20.84732990987346  56.92106295822491  -8.448224027146209  -6.5960368058265155  46.14784792846819  65.71731772476409  -5.823265154694214  9.779380824148658  120.000000
8.835680000000002  0.000000  0.000000  0.000000  -28.992187755881464  6.380983328718976  20.23385770892439  56.10929680682134  -8.71534270351584  -6.969742067891413  47.2594269357943  61.42867705283398  -4.3472336785441055  9.946731354645395  120.000000
8.883700000000001  0.000000  0.000000  0.000000  -28.563222898216342  6.516161970541539  19.456816972489047  55.20764751588494  -8.722468013155044  -7.311393355752097  48.310863713169766  56.82706583318419  -2.7589574065472795  10.257538586942172  120.000000
8.931720000000002  0.000000  0.000000  0.000000  -28.135219556411357  6.66919449091052  18.55090992788153  54.24999098923729  -8.458062841405622  -7.625084250119502  49.29137883719782  52.04245046919134  -1.0524234246908846  10.730885778345213  120.000000
8.979740000000001  0.000000  0.000000  0.000000  -27.710528238928504  6.7962534349431145  17.56837010399632  53.264532595924486  -7.959889511799556  -7.944762328250773  50.19951539270911  47.22003307434741  0.7680959678882895  11.377090430236777  120.000000
9.02776  0.000000  0.000000  0.000000  -27.298997004198757  6.856370240959136  16.561463319096948  52.278815685372884  -7.29634148953404  -8.302634895660237  51.03886613785988  42.492393940237015  2.677844656558756  12.188803697681527  120.000000
9.075780000000002  0.000000  0.000000  0.000000  -26.92205897461463  6.838891925182346  15.553792853091327  51.336115765682024  -6.523242306778803  -8.665479994743423  51.81630690460879  37.94542702894112  4.628357262495856  13.133262558876078  120.000000
9.123800000000001  0.000000  0.000000  0.000000  -26.605010589971553  6.7601590545580486  14.55195947569434  50.49091041297278  -5.679982720565551  -8.959052536783698  52.564017107847654  33.63800150696387  6.528012371412764  14.159474179407466  120.000000
9.171820000000002  0.000000  0.000000  0.000000  -26.363236731258198  6.645476887721945  13.570687129669258  49.78660741301884  -4.800335145625597  -9.129364442649107  53.354306211736755  29.62340449430527  8.237014209040257  15.207702136749543  120.000000
9.219840000000001  0.000000  0.000000  0.000000  -26.20880734984818  6.523316811088416  12.63441295131889  49.248846626238105  -3.9010735866637503  -9.153888626577821  54.30951113173605  25.949730079616945  9.56262191643883  16.214982158831376  120.000000
9.26786  0.000000  0.000000  0.000000  -26.146575911647062  6.4187594246223005  11.774838834483104  48.887579588549904  -2.97601557517027  -9.031362681837335  55.592245848638036  22.650102850905533  10.277067299253439  17.114499500700525  120.000000
9.315880000000002  0.000000  0.000000  0.000000  -26.18258653714146  6.35025260721329  11.029201676149453  48.68840100357086  -2.002344030425852  -8.773465428976383  57.40307870775559  19.735768628983266  10.123867275099073  17.84105795683811  120.000000
9.363900000000001  0.000000  0.000000  0.000000  -26.324116927897396  6.3274604740136775  10.430553759987033  48.63432188274074  -0.9511407317742709  -8.407967219976056  59.96680686519546  17.210113437135156  8.831507849878426  18.326594746482293  120.000000
9.411920000000002  0.000000  0.000000  0.000000  -26.57977124725279  6.351444275590677  10.003820620024472  48.68811516402231  0.19479889582616242  -7.96761242073164  63.510220410303546  15.061705694154462  6.137030532200875  18.51074369035858  120.000000
9.459940000000001  0.000000  0.000000  0.000000  -26.953678829829567  6.413003448440671  9.752868004707558  48.81490223995484  1.431437449894211  -7.490981358747798  68.27498616307594  13.276473996570841  1.7789757558503307  18.34969091996413  120.000000
9.50796  0.000000  0.000000  0.000000  -27.44965892416552  6.491118123997065  9.653753811607011  48.98053956142472  2.7273250322653566  -7.011082956224463  74.50059336716726  11.84061339399355  -4.483094716199978  17.840391408590033  120.000000
9.555980000000002  0.000000  0.000000  0.000000  -28.04366433599758  6.564629326098981  9.657575660922918  49.15740836708746  4.037921971408304  -6.543881796832798  82.406882364912  10.746625927013339  -12.821065809135247  17.0594705026789  120.000000
9.604000000000001  0.000000  0.000000  0.000000  -28.70329204074397  6.613505103320459  9.700231565758294  49.34109285248429  5.321691101993606  -6.091772800968837  92.08004105141178  10.03536012023939  -23.2224772047672  16.15701877437152  120.000000
