Simulation
nRows=301
nColumns=15
endheader
time  TH_x TH_y TH_z SC_y  SC_z  SC_x  AC_y  AC_z  AC_x  GH_y  GH_z  GH_yy  EL_x  PS_y
0.0  0.000000  0.000000  0.000000  -21.481868867639264  5.049554904903947  1.5763508600500706  46.468456636897905  2.5832666792841796  0.23463898299199187  -2.961517587555432  2.1656239402848327  50.61148136263907  20.890912609311926  120.000000
0.03574666666666667  0.000000  0.000000  0.000000  -21.70061437276889  5.187008582763335  1.5460768326689505  46.620633374770925  2.6811913777782275  0.6633886531101036  -17.585531119825834  3.884786764164758  65.00798853392416  20.380780255271926  120.000000
0.07149333333333334  0.000000  0.000000  0.000000  -21.919285818331126  5.2254167484722815  1.5192857657387315  46.812020852065324  2.6799860730567637  1.1233456127838501  -22.54559097022044  5.572163859290581  69.53388116127687  19.909106630554067  120.000000
0.10724  0.000000  0.000000  0.000000  -22.153672668766806  5.195779019573369  1.4836770823516772  47.0713888610969  2.611134978915363  1.5778705552405805  -24.54779421100651  7.15364602780437  70.87586241667235  19.461013990993866  120.000000
0.14298666666666668  0.000000  0.000000  0.000000  -22.421188450937443  5.135165837935515  1.4271749614959799  47.40504116420608  2.517365802681602  1.9913927433183929  -25.243137584252633  8.637906418792682  70.66978151966813  19.018717529686718  120.000000
0.17873333333333336  0.000000  0.000000  0.000000  -22.74079733944854  5.068578726648111  1.3574983838521195  47.77331779431887  2.4403156740063063  2.3497537377419087  -25.38296265797932  10.077562222009897  69.66374412308122  18.55933192746028  120.000000
0.21448  0.000000  0.000000  0.000000  -23.120501878151426  5.005255712600106  1.295509695004125  48.129398500880775  2.4053593996951794  2.659388319215051  -25.31137743452858  11.527403875448556  68.20801648852036  18.06807771416115  120.000000
0.2502266666666667  0.000000  0.000000  0.000000  -23.551879162663305  4.948869057738305  1.258591412388678  48.455043121695965  2.4215511511493566  2.931425330852958  -25.122190041342407  13.022010586656869  66.41382534654433  17.544105714522214  120.000000
0.28597333333333336  0.000000  0.000000  0.000000  -24.022519926679312  4.908830453116354  1.2548151623549104  48.75121404767976  2.4887430371457744  3.172562564894441  -24.83037430955487  14.58124170160061  64.31908775013764  16.995253322805087  120.000000
0.32172  0.000000  0.000000  0.000000  -24.52333428940244  4.8987164389059155  1.2888112589988  49.02029718411623  2.6024512258329993  3.386895249207614  -24.46488681579135  16.217243380153832  61.97958488735945  16.43052749500599  120.000000
0.3574666666666667  0.000000  0.000000  0.000000  -25.050400340982776  4.93247275813051  1.365132114255269  49.25971778680424  2.7557053493773047  3.5800161124660015  -24.068952076001455  17.936108897593016  59.46807359213661  15.858803477518457  120.000000
0.39321333333333336  0.000000  0.000000  0.000000  -25.601321303401853  5.022780181584129  1.4880528656988277  49.466146860955966  2.940702823469086  3.7580839519483202  -23.692343869637945  19.73668968344794  56.86573094218992  15.28871675194058  120.000000
0.42896  0.000000  0.000000  0.000000  -26.174917227538657  5.180724837994977  1.6628083392461124  49.637315872802475  3.1496432319056913  3.9259045020984433  -23.38060850912004  21.611595640125174  54.252552244680096  14.728604449521766  120.000000
0.4647066666666667  0.000000  0.000000  0.000000  -26.769396246438802  5.413723441080745  1.8954913851459176  49.77332761228669  3.375617609407565  4.087454006411937  -23.172175293172938  23.548342261145557  51.70111780443494  14.185694776790388  120.000000
0.5004533333333334  0.000000  0.000000  0.000000  -27.382747611319054  5.724693876845769  2.1946044090880785  49.877540581271006  3.613017977200672  4.246147511503979  -23.0933854797225  25.53010654531255  49.27389016471575  13.665611055308602  120.000000
0.5362  0.000000  0.000000  0.000000  -28.011780579166174  6.111389574692127  2.5688593212861015  49.95774139777856  3.856978710888111  4.4048739019646845  -23.155765150891252  27.537535534454513  47.015267997400265  13.172397227550416  120.000000
0.5719466666666667  0.000000  0.000000  0.000000  -28.652951535118504  6.5674199800654245  3.027346633688983  50.025028950646565  4.104909899532148  4.56701932612964  -23.358121037686836  29.54984477612644  44.95693965206044  12.708769905728726  120.000000
0.6076933333333334  0.000000  0.000000  0.000000  -29.301879758316126  7.082622093685576  3.5773627002985102  50.09298269699985  4.355298769929787  4.736041838135459  -23.687009384438554  31.54756788796928  43.11219960591549  12.276554162593225  120.000000
0.64344  0.000000  0.000000  0.000000  -29.954633679738127  7.644526692019659  4.224192811775294  50.17529717891091  4.608261959293572  4.915412175354503  -24.121923801681476  33.5129346172795  41.48442376118263  11.876411908509585  120.000000
0.6791866666666667  0.000000  0.000000  0.000000  -30.60735588075533  8.238462679070869  4.969445235151252  50.28450473633337  4.863984625629849  5.108039819821064  -24.636684547606162  35.431993269211034  40.06257018612369  11.50736358631648  120.000000
0.7149333333333334  0.000000  0.000000  0.000000  -31.256881663710114  8.849159941009761  5.811588761963792  50.430636659804456  5.123654297848869  5.315918683733086  -25.20163804679391  37.294408489005434  38.82639788771826  11.166111541673645  120.000000
0.75068  0.000000  0.000000  0.000000  -31.89971505235987  9.460754162412483  6.745475917850847  50.62099334674408  5.3886569444134125  5.540308331217956  -25.786086542022275  39.09412812411178  37.745715728284516  10.846677465172803  120.000000
0.7864266666666667  0.000000  0.000000  0.000000  -32.532421162517835  10.058073219850076  7.762732728265446  50.85990296208646  5.661468548451757  5.781578388208194  -26.35943762299265  40.828381985639744  36.78491020641659  10.540720774238736  120.000000
0.8221733333333334  0.000000  0.000000  0.000000  -33.15053855598636  10.62679666538729  8.852592938926495  51.1491166808186  5.944915721906975  6.039677557848862  -26.895014940004224  42.49691670203487  35.9075889808136  10.238511486359599  120.000000
0.85792  0.000000  0.000000  0.000000  -33.74957057928757  11.154460005873492  10.002372332543981  51.48750137358817  6.242340268008173  6.313783348292523  -27.369906789051747  44.10102834863774  35.07954684986092  9.930486685447919  120.000000
0.8936666666666667  0.000000  0.000000  0.000000  -34.3248762555358  11.631011088335837  11.19912182464279  51.87095182342928  6.556060350999362  6.602006839361248  -27.7685135947057  45.64225638164369  34.27490511985884  9.609241591952737  120.000000
0.9294133333333334  0.000000  0.000000  0.000000  -34.873340265080074  12.049417608252305  12.429653750761034  52.291420713493615  6.887095811470999  6.901027605828564  -28.081795422880038  47.12203633078967  33.47758501218963  9.271631858537743  120.000000
0.9651600000000001  0.000000  0.000000  0.000000  -35.39354351180514  12.406015634054052  13.680788177991527  52.737041606256085  7.234707793196199  7.206535255177741  -28.30856664911658  48.54061848299714  32.6839856867732  8.919950760563824  120.000000
1.0009066666666668  0.000000  0.000000  0.000000  -35.88645708028629  12.700283913292711  14.939853308746812  53.19272559635788  7.596521192460917  7.513287930280191  -28.45399324019333  49.89727787612486  31.902001389232822  8.56154329605012  120.000000
1.0366533333333334  0.000000  0.000000  0.000000  -36.35515573717471  12.933903942745586  16.19432146051344  53.641831741333945  7.967700311853373  7.815339912889393  -28.528734575793003  51.18891992635055  31.147937846436292  8.20694646662513  120.000000
1.0724  0.000000  0.000000  0.000000  -36.804223470600064  13.110118846065935  17.43247844118716  54.06805249670402  8.341435057611124  8.10657113650856  -28.54785639645924  52.41059157730807  30.4449450482452  7.868105950891549  120.000000
1.1081466666666668  0.000000  0.000000  0.000000  -37.23786407289921  13.233533861508942  18.643715558220137  54.45781908447887  8.70957017713738  8.381370189994653  -28.527116320028316  53.555673932184796  29.81635440202421  7.5565723664421816  120.000000
1.1438933333333334  0.000000  0.000000  0.000000  -37.65848566911186  13.309990640459635  19.819131624410446  54.802071000240026  9.06387915986186  8.635780945740251  -28.483026060526768  54.61717618786973  29.285461844620922  7.282533134420322  120.000000
1.17964  0.000000  0.000000  0.000000  -38.066158426679614  13.345643880604547  20.950097102221505  55.096923379067555  9.395920395852581  8.867774943486728  -28.430561758261376  55.587447057015574  28.870508401754513  7.053787406861459  120.000000
1.2153866666666668  0.000000  0.000000  0.000000  -38.45852824943276  13.346910257705026  22.027947870117192  55.343987338684904  9.697992256833784  9.076781318389783  -28.384337638076868  56.45963203284283  28.585818773668812  6.876078923768686  120.000000
1.2511333333333334  0.000000  0.000000  0.000000  -38.83199129694541  13.319922898018117  23.043460898545327  55.549141668795556  9.962957513413906  9.262760851150794  -28.35644573536125  57.22760055422766  28.43911309422961  6.753207105993782  120.000000
1.28688  0.000000  0.000000  0.000000  -39.18267195967304  13.2705421442277  23.987288989230876  55.721346338902066  10.185251588794412  9.42533418494205  -28.35723110302352  57.887982384827716  28.432196911179105  6.687480129894977  120.000000
1.3226266666666668  0.000000  0.000000  0.000000  -39.50781795513702  13.203886388785055  24.850592288253985  55.87058806908936  10.361580345157915  9.563257767756774  -28.393473663353866  58.439625021344725  28.560084841633046  6.678716347572748  120.000000
1.3583733333333334  0.000000  0.000000  0.000000  -39.806333815618366  13.123935851466614  25.626308037753045  56.00641856513871  10.492040894080866  9.674491882029832  -28.468299932085895  58.88589622188429  28.809834187109296  6.723192151610503  120.000000
1.39412  0.000000  0.000000  0.000000  -40.0792630804683  13.033297121748795  26.310702564030432  56.13618532673939  10.580886093630697  9.756854633854848  -28.580338529544417  59.2328997150124  29.161818693434515  6.81198619064932  120.000000
1.4298666666666668  0.000000  0.000000  0.000000  -40.329221246531326  12.93292387512728  26.90365703800855  56.26421961892427  10.63581817378307  9.808742042588781  -28.723316412551895  59.49163928034662  29.588017079921787  6.931010541468448  120.000000
1.4656133333333334  0.000000  0.000000  0.000000  -40.5597526481032  12.8232283155199  27.408721795481764  56.39135262884703  10.666917880617897  9.829816472789531  -28.887500455161824  59.674657336988396  30.057357102494603  7.062074608894073  120.000000
1.50136  0.000000  0.000000  0.000000  -40.773946498549094  12.704653040844065  27.831211559928708  56.5154008812003  10.68384642336401  9.821137571444105  -29.05987917668192  59.79757478195445  30.534756864660736  7.185495750344411  120.000000
1.5371066666666668  0.000000  0.000000  0.000000  -40.973327376152795  12.579754639005117  28.177308715692995  56.63195225661918  10.694359335776687  9.785290733083741  -29.227289599019716  59.87425141568323  30.988199101943454  7.282791847282679  120.000000
1.5728533333333334  0.000000  0.000000  0.000000  -41.15649502323799  12.453826696701048  28.451678943188185  56.735407465138984  10.701643350295209  9.726121454723073  -29.37695390007372  59.917840499992685  31.3879280293297  7.339938061300969  120.000000
1.6086  0.000000  0.000000  0.000000  -41.318565940621085  12.336262699975839  28.65673241681875  56.819868717145155  10.703643050578126  9.648649032042877  -29.49924933158817  59.93626934530247  31.711944586910686  7.349907977328169  120.000000
1.6443466666666668  0.000000  0.000000  0.000000  -41.450911663589636  12.24000917766148  28.791769957525393  56.87978032144738  10.692323633612578  9.558531518437878  -29.587665461689376  59.933383118446656  31.94456200674997  7.31391316572675  120.000000
1.6800933333333334  0.000000  0.000000  0.000000  -41.542039762041625  12.180339329960733  28.854033437816398  56.91026890857853  10.655056419041866  9.461263394305298  -29.6394514800767  59.905443512643885  32.07738712067655  7.2401642241580335  120.000000
1.71584  0.000000  0.000000  0.000000  -41.57897915673087  12.172329774878635  28.83931139152977  56.906977290032174  10.577001753537456  9.361314173397123  -29.654869188996674  59.841673666081554  32.106851309260115  7.141533391299542  120.000000
1.7515866666666668  0.000000  0.000000  0.000000  -41.548995474792974  12.227733717199765  28.742477885553086  56.866158896248585  10.44399412899108  9.261342936017002  -29.635533264644437  59.72265166703505  32.03212429890233  7.033433154827519  120.000000
1.7873333333333334  0.000000  0.000000  0.000000  -41.44154547233808  12.352642843467734  28.558798882349514  56.78483993964664  10.24514911207576  9.160674669003539  -29.5828184189983  59.5206610553238  31.8530540405835  6.932547425110796  120.000000
1.8230800000000003  0.000000  0.000000  0.000000  -41.24978422473042  12.544366346973776  28.284036892616157  56.6612815958263  9.973608735133917  9.05408193216627  -29.496299015855897  59.200047800550706  31.56864973349228  6.85647793222169  120.000000
1.8588266666666668  0.000000  0.000000  0.000000  -40.972375505440176  12.790846918856392  27.91473589236536  56.49500099338964  9.628277333464169  8.93134083362805  -29.373190182852568  58.71802315246621  31.177241859890515  6.823433234366132  120.000000
1.8945733333333334  0.000000  0.000000  0.000000  -40.61322386992706  13.070493346280854  27.447004251921836  56.28731425950688  9.213002562184188  8.778432633428402  -29.208028683173037  58.02873859436543  30.677660302587597  6.85216284098192  120.000000
1.9303200000000003  0.000000  0.000000  0.000000  -40.181503931230544  13.354881379407402  26.876630699839115  56.04084907928586  8.736632155819606  8.579446908585911  -28.99334808207773  57.08671988689233  30.07285543922732  6.960606209628917  120.000000
1.9660666666666669  0.000000  0.000000  0.000000  -39.6895801487223  13.611059889391706  26.197787778833085  55.75940853942242  8.210472583913  8.319466126784157  -28.72078702217308  55.85274594867696  29.373033213513015  7.1638647753962275  120.000000
2.0018133333333337  0.000000  0.000000  0.000000  -39.15146873923819  13.805515089204313  25.404585968506563  55.44672135268933  7.648021206144658  7.98809282120268  -28.382241142770894  54.29989551104619  28.602307745279763  7.47046276117974  120.000000
2.03756  0.000000  0.000000  0.000000  -38.58028231887783  13.90837798646248  24.49264435118443  55.10639840308772  7.064108268061969  7.58211099750232  -27.970257863798203  52.41837354233612  27.79911085847237  7.877958623551923  120.000000
2.073306666666667  0.000000  0.000000  0.000000  -37.9859455174966  13.896258315157537  23.461323955847345  54.74177361366606  6.474486308825505  7.1073011390763385  -27.48152180008961  50.22063526148016  27.024414930325158  8.368839861633658  120.000000
2.1090533333333337  0.000000  0.000000  0.000000  -37.37456852723988  13.754977451947529  22.315863949662365  54.35651233960219  5.895610752809911  6.577511673936629  -26.918848393461147  47.737327162511164  26.35459309174385  8.91019387462494  120.000000
2.1448  0.000000  0.000000  0.000000  -36.74746547375134  13.479673688904853  21.068335692175737  53.95583765184709  5.3437823549651045  6.013250682964696  -26.29585137980715  45.01880961256853  25.886221601162067  9.458243191782572  120.000000
2.180546666666667  0.000000  0.000000  0.000000  -36.10319557519202  13.075896257230623  19.738462143613212  53.54713993361787  4.835739288390452  5.438091458966068  -25.63847460758255  42.12337311896369  25.721585587709054  9.965494742314426  120.000000
2.2162933333333337  0.000000  0.000000  0.000000  -35.43836707557965  12.556278255899437  18.350072655807132  53.14041712333579  4.3851749958997726  4.875787695300311  -24.99020638616283  39.115982041145195  25.971129930977142  10.390083601467362  120.000000
2.25204  0.000000  0.000000  0.000000  -34.75098209645768  11.939968103587656  16.93200263834808  52.74631478928012  4.001587036155981  4.346176849900887  -24.411862097683976  36.05640119945144  26.74013060897039  10.705635753837448  120.000000
2.287786666666667  0.000000  0.000000  0.000000  -34.04095121463699  11.250443881642584  15.514656702840481  52.374938901982105  3.6895383421320287  3.864421976900123  -23.980795890293557  33.00224124091347  28.125075510821173  10.910393905422417  120.000000
2.3235333333333337  0.000000  0.000000  0.000000  -33.31164669577174  10.515044455866152  14.126422353925662  52.03389817811917  3.4526574775466736  3.441539622238393  -23.787776186137094  30.00356966350057  30.208306638438582  11.029786838365032  120.000000
2.35928  0.000000  0.000000  0.000000  -32.56910429185881  9.761826232711911  12.79141305306396  51.728277044366486  3.2917364565348883  3.084548632200084  -23.931922844792066  27.107165556194577  33.052128586247235  11.111223031027667  120.000000
2.395026666666667  0.000000  0.000000  0.000000  -31.821211708129454  9.018221474070419  11.529469554824995  51.460796163512704  3.2059275113545795  2.796527603893095  -24.51610502152441  24.35442055967073  36.703609976991956  11.213114034195604  120.000000
2.4307733333333337  0.000000  0.000000  0.000000  -31.077217550559975  8.308457192904061  10.355225789913526  51.232328387163115  3.191669378996223  2.5770562457306574  -25.633976320144583  21.7829745780341  41.17939964118378  11.393311423614948  120.000000
2.46652  0.000000  0.000000  0.000000  -30.347017912740736  7.651914717178561  9.279245825747811  51.04306243644122  3.2440374475633273  2.422917366888782  -27.35525887785019  19.423985446016854  46.46341595709155  11.69713937157513  120.000000
2.502266666666667  0.000000  0.000000  0.000000  -29.64193663986533  7.06169826069654  8.30776592537685  50.893047672311745  3.3562635520830786  2.3283692612567526  -29.6973697198685  17.29838085394181  52.47347124192351  12.147899940969708  120.000000
2.5380133333333337  0.000000  0.000000  0.000000  -28.975039215649584  6.543565329350658  7.443571618859295  50.78232636375133  3.5205675534095153  2.2860440404000006  -32.606825414160475  15.41228841201355  59.055182960956124  12.741865423317604  120.000000
2.57376  0.000000  0.000000  0.000000  -28.362164774052154  6.0973307784203765  6.685613639037321  50.7097297684748  3.728333241423575  2.2863886612646165  -35.94835866144451  13.752840304824645  65.96751405658792  13.451895998661055  120.000000
2.609506666666667  0.000000  0.000000  0.000000  -27.821065684860024  5.717861134443344  6.030288231847279  50.67158332751639  3.9711966795712583  2.318781017903671  -39.524851357175834  12.290306016053504  72.9161009990089  14.235629037028596  120.000000
2.6452533333333337  0.000000  0.000000  0.000000  -27.369419138075095  5.398039710343785  5.471494032515358  50.661655518305906  4.241405449843281  2.371519856786695  -43.1147565977019  10.9832472431011  79.59124795588116  15.045270306493482  120.000000
2.681  0.000000  0.000000  0.000000  -27.021424321567334  5.129448264657478  5.001613464220732  50.671294910883354  4.531706678687054  2.433642287711658  -46.51382356083618  9.789489416492335  85.72136943032942  15.83494655056246  120.000000
2.716746666666667  0.000000  0.000000  0.000000  -26.783140674548623  4.90414822519427  4.6117959113216225  50.69178318408373  4.835132902424937  2.4960682909284686  -49.572855177241266  8.67675111456517  91.11429453972069  16.566961419007  120.000000
2.7524933333333337  0.000000  0.000000  0.000000  -26.649796315166537  4.715057486919494  4.292355702384687  50.71599911807256  5.144676020231737  2.5524913189299743  -52.19250015752106  7.629377197099965  95.65619778789174  17.214441718527688  120.000000
2.78824  0.000000  0.000000  0.000000  -26.60530740371965  4.556445828971402  4.034050190199512  50.74043642877839  5.45400803792551  2.60036052493168  -54.31740160018557  6.649764229909398  99.30531839428335  17.76149291373069  120.000000
2.823986666666667  0.000000  0.000000  0.000000  -26.626649762061977  4.423899830658604  3.8274936684369076  50.764945734795084  5.757316094615753  2.6397389058902285  -55.89129667043687  5.751689070965771  102.03852189260495  18.200337510983136  120.000000
2.8597333333333337  0.000000  0.000000  0.000000  -26.688167079554507  4.314010562197748  3.6648664432101845  50.792008811177425  6.050213799443342  2.6731850432566047  -56.8503511485007  4.954549222430582  103.840792767563  18.52875887478123  120.000000
2.89548  0.000000  0.000000  0.000000  -26.766559453427778  4.224383403392366  3.5394987229194244  50.82550117757179  6.328872135519796  2.7033278197893087  -57.09913323211279  4.275292468934727  104.66965896650608  18.748623592821364  120.000000
2.931226666666667  0.000000  0.000000  0.000000  -26.843995808237594  4.153201940191228  3.4463351966838327  50.869217195283305  6.591005824306747  2.732781278854803  -56.54879724366499  3.7244729330193427  104.49153079463882  18.86586630065395  120.000000
2.9669733333333337  0.000000  0.000000  0.000000  -26.910027604855145  4.09869206336285  3.3806588108765863  50.925935761875365  6.835068914816986  2.763282769481612  -55.15348965214613  3.3031413852278115  103.30969007705883  18.89153223739552  120.000000
3.00272  0.000000  0.000000  0.000000  -26.961340887483434  4.058782602033465  3.338449241080333  50.99664756234491  7.060751693647044  2.795865904332641  -52.98229776656679  3.002082652108435  101.23733836418211  18.841568456454524  120.000000
3.038466666666667  0.000000  0.000000  0.000000  -26.999350049062294  4.030633386723295  3.315722873749867  51.080989702089944  7.268013007744789  2.8311746780538902  -50.229371239214785  2.8039247543230617  98.50445804550131  18.735896501668716  120.000000
3.0742133333333337  0.000000  0.000000  0.000000  -27.027983141291408  4.011004373524441  3.3088906301777032  51.17708923951331  7.457549289004075  2.8695767634364118  -47.17201070468979  2.6850127706138647  95.41862814126716  18.595699791765703  120.000000
3.10996  0.000000  0.000000  0.000000  -27.051313035964395  3.9963355506040688  3.314546842885185  51.28215468916256  7.630147068827046  2.9115810341775594  -44.07461386914204  2.6202193747516778  92.26781097941435  18.441253342278745  120.000000
3.145706666666667  0.000000  0.000000  0.000000  -27.072803295817273  3.9836246955149206  3.329737365304166  51.392720612921714  7.78729075413541  2.957381106941221  -41.11983044478303  2.5853056647931583  89.25306201903352  18.28903239119918  120.000000
3.1814533333333337  0.000000  0.000000  0.000000  -27.094548623447746  3.970730514829431  3.3518297565727924  51.505711271251435  7.930815160739501  3.0068672518167867  -38.38986612326228  2.560459509095316  86.46913747746143  18.15003047570366  120.000000
3.2172  0.000000  0.000000  0.000000  -27.11763308813484  3.956709379007129  3.3786181481167805  51.618892836527976  8.06321764388697  3.0592061420024255  -35.88753658103058  2.5309180141087753  83.92642680385221  18.02875947939307  120.000000
3.252946666666667  0.000000  0.000000  0.000000  -27.14227669011491  3.941571454825638  3.408409542900502  51.731187260990055  8.187395549611455  3.113090046437271  -33.57209439088946  2.4877902398537497  81.58728876161466  17.924338394505465  120.000000
3.2886933333333337  0.000000  0.000000  0.000000  -27.168468078518806  3.92581146165381  3.440122775454774  51.84241956102997  8.306526339703812  3.166905644742992  -31.387652260687183  2.427195631434694  79.39556312896892  17.83229762068669  120.000000
3.32444  0.000000  0.000000  0.000000  -27.19627152019145  3.9099777080866693  3.473376111069444  51.953135630359014  8.423722395222308  3.219189889538315  -29.2820937267302  2.3490603872070106  77.29682050244992  17.746758200373698  120.000000
3.360186666666667  0.000000  0.000000  0.000000  -27.226274280510363  3.8941502855381094  3.5083664452762053  52.06436856145729  8.541687167944788  3.26885572916842  -27.212813007538287  2.2556017451161288  75.24497257473537  17.662205937846725  120.000000
3.3959333333333337  0.000000  0.000000  0.000000  -27.25976139883547  3.8778605164873436  3.5456689967490997  52.17747390999758  8.662516429439107  3.315261246480215  -25.148263674558848  2.1497171497848133  73.20495558331649  17.57486851798475  120.000000
3.43168  0.000000  0.000000  0.000000  -27.298792405444445  3.860067882875853  3.585952908863801  52.293894903656394  8.78752080125561  3.3582416417228393  -23.061976343123273  2.034010987091289  71.1471295456822  17.483471655095126  120.000000
3.467426666666667  0.000000  0.000000  0.000000  -27.34579480545026  3.8395565472665885  3.629780291393419  52.41482309796729  8.917256752363336  3.398051005229396  -20.92423508290378  1.910131354753385  69.03946800217798  17.389141511285818  120.000000
3.5031733333333337  0.000000  0.000000  0.000000  -27.402967130423384  3.815281670788993  3.6773760470610277  52.54069036818125  9.051521330178383  3.4352789927836183  -18.694198131343377  1.7789509140586706  66.83959743344008  17.29461533654415  120.000000
3.5389200000000005  0.000000  0.000000  0.000000  -27.47126685980252  3.7869349040919413  3.7284789150611757  52.67067117605563  9.189412578166987  3.4707559547657842  -16.314421484324733  1.6410594356807855  64.48933626281803  17.20313768460389  120.000000
3.574666666666667  0.000000  0.000000  0.000000  -27.549315049348856  3.7553977870806476  3.7822009920470716  52.80225988805896  9.329308037781187  3.505475689291563  -13.707573314652223  1.497645973940588  61.911205097089265  17.117258709637106  120.000000
3.6104133333333337  0.000000  0.000000  0.000000  -27.632214840015536  3.7231774800467723  3.8369632777032696  52.93120186109495  9.468874361644064  3.5404918344886758  -10.778082589685171  1.351330723804783  59.009946618771195  17.03766872309355  120.000000
3.6461600000000005  0.000000  0.000000  0.000000  -27.710788095718566  3.6945366652572225  3.8904379180507953  53.05170397394763  9.604984286063265  3.5768593736729875  -7.421068064363512  1.2069933606188774  55.68125704814511  16.962405444767008  120.000000
3.681906666666667  0.000000  0.000000  0.000000  -27.77184933838936  3.6752028084791997  3.939721047340103  53.15684435418207  9.733798106450726  3.6156180637215254  -3.5530725189068035  1.0720369756145258  51.842147738901915  16.886732213934355  120.000000
3.7176533333333337  0.000000  0.000000  0.000000  -27.799462724697648  3.671639833160184  3.9814976680672935  53.2390536750271  9.85077979803311  3.6578300919410403  0.8103595109949789  0.9566062809836955  47.50798035325289  16.803799016826634  120.000000
3.7534000000000005  0.000000  0.000000  0.000000  -27.777220006503956  3.690112572962579  4.012384990165091  53.29076926064506  9.951010362713998  3.7044974230563197  5.419910689809708  0.8728670949694791  42.92650079449757  16.705530913225637  120.000000
3.789146666666667  0.000000  0.000000  0.000000  -27.690777380467733  3.735667119537129  4.028959217611314  53.30522965448245  10.029282365617405  3.7563494810028897  9.67772128729399  0.8346039808175962  38.69168287318655  16.583654895731563  120.000000
3.8248933333333337  0.000000  0.000000  0.000000  -27.530845136049795  3.8111976472120586  4.027967606006221  53.277062150280805  10.080533139366597  3.813546984817444  12.78695801299376  0.8566145317910201  35.59333681299461  16.43048986719084  120.000000
3.8606400000000005  0.000000  0.000000  0.000000  -27.295602978269216  3.9167168800148966  4.006147908065557  53.20268555912841  10.09988840291771  3.875307888530867  14.290870945779647  0.9559415280079296  34.077167971064114  16.239652539793397  120.000000
3.896386666666667  0.000000  0.000000  0.000000  -26.991630886661877  4.049217929119179  3.9606032317111164  53.08050391971142  10.083239682825338  3.9398294413901773  14.469818597125688  1.1524289043238005  33.84805286413865  16.006177614462327  120.000000
3.9321333333333337  0.000000  0.000000  0.000000  -26.633037014405705  4.203126153484028  3.8890174791301084  52.911247722100555  10.02760408230642  4.004279741008893  14.040121838157773  1.4680076208841424  34.17178889331652  15.726386555616758  120.000000
3.9678800000000005  0.000000  0.000000  0.000000  -26.23901036106325  4.371346960649869  3.790320541275073  52.69818324413267  9.931786863847798  4.065160545552036  13.565394089896744  1.9236398250406648  34.46599653218006  15.397879309279313  120.000000
4.003626666666667  0.000000  0.000000  0.000000  -25.83133265080354  4.54641977786869  3.665542808953406  52.44706994829131  9.79702320605388  4.118812389587245  13.263653970225143  2.5374040900963974  34.49463418970073  15.020369113042978  120.000000
4.039373333333334  0.000000  0.000000  0.000000  -25.431398309610504  4.721960821561207  3.5192844691092566  52.165900717990475  9.628084981622855  4.1622817383902415  13.123102393496579  3.32312797597333  34.25465192112511  14.597307699338943  120.000000
4.07512  0.000000  0.000000  0.000000  -25.057956976397797  4.894001659806967  3.36100027905411  51.864819380270454  9.43420891132513  4.1938896488455475  13.055100867532401  4.289553730741365  33.82452786509578  14.137881629718363  120.000000
4.110866666666667  0.000000  0.000000  0.000000  -24.7255573305275  5.061936336148742  3.205361533752184  51.55574586745844  9.229173757887441  4.2133912431598475  12.97405814849002  5.4399301676431  33.285114252863515  13.658016188571835  120.000000
4.146613333333334  0.000000  0.000000  0.000000  -24.4446373053948  5.228458238249991  3.0717983182786655  51.251603983314006  9.030430898883505  4.221786819710604  12.824901063065797  6.771839112386507  32.69161254629863  13.179434479930226  120.000000
4.18236  0.000000  0.000000  0.000000  -24.22229984662146  5.39876157490012  2.9826415676501443  50.96521027409982  8.8570807438901  4.220766001865144  12.586005007215531  8.278187664610556  32.068784379261686  12.727041462153299  120.000000
4.218106666666667  0.000000  0.000000  0.000000  -24.06343277626118  5.579240552939858  2.9611457407621216  50.70820054246369  8.727804069790272  4.21219773387763  12.260115035026784  9.94753535186884  31.418542975177946  12.325199023877543  120.000000
4.253853333333334  0.000000  0.000000  0.000000  -23.971510617780076  5.77590051066174  3.028585090314401  50.49010267097162  8.658198544937676  4.197599163164056  11.865518946638169  11.765226044864699  30.726963177123434  11.993475899170216  120.000000
4.2896  0.000000  0.000000  0.000000  -23.949160404500724  5.9926999020939276  3.2020497515694104  50.3176059043947  8.658796126731756  4.178065388050661  11.429018162450634  13.713268899421765  29.970702908646444  11.742185291596973  120.000000
4.325346666666667  0.000000  0.000000  0.000000  -23.998244605937074  6.230192021946118  3.4924303307918034  50.19440900297587  8.73348613944649  4.154435131106415  10.980498849142664  15.771164578388266  29.122122763464365  11.569744632964843  120.000000
4.361093333333334  0.000000  0.000000  0.000000  -24.11998128041629  6.485224231072595  3.904063729321243  50.12133260493477  8.879835228401499  4.127533779646304  10.548595721328912  17.915684301483964  28.15472852943557  11.46320524086289  120.000000
4.39684  0.000000  0.000000  0.000000  -24.31457536531534  6.7516297448941165  4.435117333616181  50.096992633589515  9.090162597040615  4.098148868333011  10.155764766843532  20.12186254571377  27.04931133439193  11.402181817348428  120.000000
4.432586666666667  0.000000  0.000000  0.000000  -24.58075212418724  7.021595447050059  5.079113996501812  50.11836458764123  9.353632094704631  4.0670061349208115  9.817355261300076  22.363702743944874  25.79585524062836  11.363407828279682  120.000000
4.468333333333334  0.000000  0.000000  0.000000  -24.91487572623127  7.286860575026918  5.826456488645934  50.18154470149869  9.657871689677398  4.034939291003153  9.54078952944459  24.616344881269104  24.395012214973505  11.32510787759482  120.000000
4.50408  0.000000  0.000000  0.000000  -25.3099103662471  7.539989069378366  6.665808766890617  50.282065310049745  9.990469233095498  4.00321857204905  9.32534968577464  26.857508863560398  22.860094710429205  11.270747980743971  120.000000
4.539826666666667  0.000000  0.000000  0.000000  -25.75490398211493  7.7751897286757075  7.584771297941734  50.41501279240955  10.339454417303504  3.973736002203902  9.161595115133233  29.06890224864535  21.21849179992617  11.191764382891018  120.000000
4.575573333333334  0.000000  0.000000  0.000000  -26.235516863754746  7.9888850930303805  8.570124813919055  50.57493732193809  10.693417354094858  3.948975450370336  9.032498251639238  31.236300392017203  19.510864868721846  11.087908497653274  120.000000
4.61132  0.000000  0.000000  0.000000  -26.735491711020888  8.179712294869113  9.608014934136044  50.75598257561577  11.041369376000075  3.931746146262565  8.916608884909932  33.34910380249868  17.78623055650914  10.965387530930487  120.000000
4.647066666666667  0.000000  0.000000  0.000000  -27.23837902096657  8.348284231197644  10.684426018738002  50.9521751771289  11.372908043715801  3.9251335079492247  8.791093321750958  35.39940510134668  16.097092036094658  10.834088836414772  120.000000
4.682813333333334  0.000000  0.000000  0.000000  -27.729538317765844  8.496855364229965  11.786144651110014  51.157766877143445  11.678817674727997  3.9322992860837136  8.635366910530795  37.38103229813588  14.492728668497877  10.705118881023656  120.000000
4.71856  0.000000  0.000000  0.000000  -28.19772993180859  8.628960661167842  12.901941382493982  51.36757636397199  11.951886709536907  3.9564794775691094  8.432909025665177  39.288776914881275  13.015027119586428  10.589052264551961  120.000000
4.754306666666667  0.000000  0.000000  0.000000  -28.636388437591943  8.748928605341558  14.023823438561847  51.57713368050663  12.187722876649465  4.000899994644993  8.173041013738484  41.117705543245236  11.694292201957895  10.494803051690049  120.000000
4.790053333333334  0.000000  0.000000  0.000000  -29.043849008056597  8.861286159594528  15.147625460629625  51.78267318257843  12.384866367720205  4.068893096080494  7.850660549597108  42.86289007275465  10.548486120233015  10.429215761248958  120.000000
4.8258  0.000000  0.000000  0.000000  -29.422687989796636  8.970153967719305  16.272661786607316  51.98090504008644  12.544132946359788  4.1638312160890925  7.465390915364691  44.519290086031084  9.584344609159865  10.397172082600244  120.000000
4.861546666666667  0.000000  0.000000  0.000000  -29.778318027222912  9.078835940424508  17.400652410069764  52.16896103653626  12.667461147154802  4.289183461116388  7.020290498843099  46.08206968018561  8.79964575474542  10.4021139100206  120.000000
4.897293333333334  0.000000  0.000000  0.000000  -30.117413526228198  9.189671873603482  18.53454746643807  52.34447334676711  12.756885550471372  4.4484569025324445  6.521116356840791  47.547006922802254  8.185593542435551  10.446506432545778  120.000000
4.93304  0.000000  0.000000  0.000000  -30.44660612768019  9.303904355578807  19.677242279657754  52.505753150902024  12.813617786649719  4.644777436531659  5.975783832940475  48.910901010658456  7.728185046791061  10.532079596298187  120.000000
4.968786666666667  0.000000  0.000000  0.000000  -30.77143350957647  9.421557251537525  20.830513833860355  52.65193105986104  12.837590407403175  4.880275490151779  5.393784476259717  50.17164173956957  7.409840376040722  10.65972372673398  120.000000
5.004533333333334  0.000000  0.000000  0.000000  -31.09570205500052  9.541439528017762  21.99431526156363  52.78310533159011  12.827469533178482  5.155411559203521  4.785906616031  51.32823882167405  7.209886256653646  10.829408122966223  120.000000
5.04028  0.000000  0.000000  0.000000  -31.421197680655858  9.66128044034995  23.166639078134427  52.900235328572705  12.781380789150688  5.468689391386112  4.163831772870801  52.380623138064635  7.1059295884088876  11.040227325185183  120.000000
5.076026666666667  0.000000  0.000000  0.000000  -31.74774294911406  9.77784770087652  24.343267319463575  53.00484091322174  12.69781602053817  5.816416161492226  3.5399642743943485  53.32952214431102  7.074633763133292  11.29040341005743  120.000000
5.111773333333334  0.000000  0.000000  0.000000  -32.073389057052104  9.887183254203995  25.51762823847428  53.09869286556828  12.576209611988542  6.192281663780833  2.9269398917633938  54.17606818488165  7.093797659545509  11.576799469242712  120.000000
5.14752  0.000000  0.000000  0.000000  -32.39464505632006  9.98507155925235  26.680477861252754  53.18365648635881  12.416939056387452  6.586699882973218  2.337678928817216  54.92181192877174  7.14378099881923  11.893843795215583  120.000000
5.183266666666667  0.000000  0.000000  0.000000  -32.70672853762976  10.067875026673988  27.81942255835736  53.2616711748702  12.22125284184553  6.986382207661897  1.785463559468059  55.568654932038264  7.209482428677075  12.232032226717227  120.000000
5.219013333333334  0.000000  0.000000  0.000000  -33.00382689715749  10.133513780949201  28.91822401404177  53.3349293964524  11.991342351057586  7.373782427634583  1.2841243441218468  56.11870495134091  7.281122968776845  12.576718017344993  120.000000
5.25476  0.000000  0.000000  0.000000  -33.27937684534487  10.182115494598266  29.956865193612714  53.4059938016129  11.730904177348336  7.727317449820984  0.8476261540579143  56.57330669312647  7.354143962635271  12.908169685512549  120.000000
5.290506666666667  0.000000  0.000000  0.000000  -33.526216163216645  10.215966206792451  30.91232013700138  53.47770311981613  11.445893119084127  8.022345228802832  0.48935847874763466  56.931767176609085  7.427523446109398  13.203235730122609  120.000000
5.326253333333334  0.000000  0.000000  0.000000  -33.73685527634317  10.238752416619274  31.760131606300366  53.55277333588559  11.144860760329527  8.233533214578697  0.22117644747896126  57.190002453819886  7.501411868364276  13.438255165052398  120.000000
5.362  0.000000  0.000000  0.000000  -33.90384381449707  10.254346757607026  32.476119790387884  53.63329783238592  10.838530234698542  8.33779460227149  0.05257163618368195  57.33977623913382  7.574363531810168  13.592907635226226  120.000000
5.397746666666667  0.000000  0.000000  0.000000  -34.020288756900804  10.265268458272836  33.03828969248586  53.72020764718044  10.538632373412481  8.317618306397096  -0.010093870807766138  57.36837982883897  7.640841677595556  13.654624083605185  120.000000
5.433493333333334  0.000000  0.000000  0.000000  -34.08035590165919  10.271453948486927  33.428433496080196  53.81294707422555  10.256336511237661  8.163415499612233  0.035803883184586056  57.25897451923044  7.689506905025412  13.622368641196509  120.000000
5.46924  0.000000  0.000000  0.000000  -34.07989142114429  10.269967134960401  33.63263751577657  53.90945567407935  10.000790627715771  7.874645449671519  0.18936402751935622  56.99206408268202  7.7034929550481674  13.507662096393238  120.000000
5.504986666666667  0.000000  0.000000  0.000000  -34.01690426114947  10.256080751373895  33.640804243710626  54.00673336337404  9.777911078740548  7.459065087711577  0.447232794556311  56.54808114466334  7.662529450022675  13.33213659485427  120.000000
5.540733333333334  0.000000  0.000000  0.000000  -33.89190013151944  10.224612715811888  33.446085465317125  54.1012070921271  9.589477335615225  6.930929152458341  0.8052718013393346  55.91058531856239  7.546696110688108  13.123002539662721  120.000000
5.57648  0.000000  0.000000  0.000000  -33.70786195951866  10.170773084275718  33.044432216673414  54.18867586123985  9.433043188884096  6.309430821515012  1.259807139790848  55.069382097351415  7.340474921958257  12.90823645631383  120.000000
5.612226666666667  0.000000  0.000000  0.000000  -33.469995132644506  10.090337124962371  32.43477726978389  54.26392776711704  9.30258454537584  5.617419152706735  1.808532082567592  54.02306612694795  7.036646410752376  12.71202372529776  120.000000
5.647973333333334  0.000000  0.000000  0.000000  -33.1851558120249  9.97942456680857  31.619741095262196  54.320519023428744  9.189495384123896  4.8804366904320915  2.4502880421969953  52.7805192340828  6.639420522759383  12.551041253060845  120.000000
5.68372  0.000000  0.000000  0.000000  -32.86105393002055  9.834243203420268  30.606505127800975  54.35091032964362  9.084083054654528  4.125493345284308  3.184060744294024  51.36029563454689  6.165627533954578  12.432619672897365  120.000000
5.719466666666667  0.000000  0.000000  0.000000  -32.505326132400484  9.651036217915237  29.40743260447032  54.347124710008856  8.976863346982029  3.37979682268726  4.0070997869885305  49.788197379887016  5.643923442482494  12.35568281909169  120.000000
5.755213333333334  0.000000  0.000000  0.000000  -32.12481283773744  9.426518146661728  28.040183633206503  54.30175344779938  8.859860172414377  2.669127266093077  4.913196866156301  48.093184362245566  5.1116206489338945  12.313402008858679  120.000000
5.79096  0.000000  0.000000  0.000000  -31.72523793520291  9.1586580177605  26.527300746789226  54.20908312753592  8.727164938586782  2.016241479792218  5.891280630245832  46.30317147386728  4.611025544800369  12.296041497185152  120.000000
5.826706666666667  0.000000  0.000000  0.000000  -31.311070094048958  8.847743405378496  24.895618270329866  54.06589210897027  8.57527169960003  1.439433846176476  6.925170427139259  44.44121662285602  4.1850817787531795  12.293191303786557  120.000000
5.862453333333334  0.000000  0.000000  0.000000  -30.885408727423854  8.497315587096448  23.17634966182032  53.871652578289414  8.403338562212024  0.9523049774266699  7.994642243119532  42.52369644086023  3.873267481080357  12.295473273885733  120.000000
5.8982  0.000000  0.000000  0.000000  -30.44990069535579  8.115185469700487  21.404578516639877  53.6284592626157  8.214025058421386  0.5639726718385198  9.077686642499014  40.56029697557944  3.7079069076137725  12.295574752851959  120.000000
5.933946666666667  0.000000  0.000000  0.000000  -30.00477824299823  7.713507466157907  19.617443807162896  53.341055531139794  8.013697575276668  0.27873636698685905  10.152502374316471  38.5550512050833  3.7121085703099754  12.288376069320817  120.000000
5.969693333333334  0.000000  0.000000  0.000000  -29.549357658388704  7.307774436007939  17.85190606381699  53.016948916987744  7.811402671281592  0.09554653374410675  11.19919511936797  36.508368918371026  3.8993217491630188  12.270507919123709  120.000000
6.00544  0.000000  0.000000  0.000000  -29.083084779260354  6.91473506879317  16.142587158859797  52.666183882012035  7.617332064359962  0.008160118778905164  12.20106902617561  34.419649914808886  4.273742737335064  12.23996783981452  120.000000
6.041186666666667  0.000000  0.000000  0.000000  -28.606608642946536  6.5499451069643655  14.519712227459221  52.30087751244027  7.441435002160779  0.006240413583040549  13.145731897128536  32.290289506913496  4.831396849637043  12.19624668663313  120.000000
6.076933333333334  0.000000  0.000000  0.000000  -28.122889004782998  6.225710049437257  13.007715349674971  51.934801829666945  7.292308256119877  0.0767870554424196  14.026758185613986  30.12640874831326  5.56037929842595  12.141091247021244  120.000000
6.11268  0.000000  0.000000  0.000000  -27.638014477857812  5.949273939572886  11.624260916510869  51.58237320802611  7.176261262939861  0.20539017824380296  14.844216301505307  27.94049055430961  6.441959487195576  12.079126807478325  120.000000
6.148426666666667  0.000000  0.000000  0.000000  -27.161681916055194  5.722052629452763  10.38002568097091  51.257387406298186  7.09698320670082  0.3773194318231963  15.603938422747346  25.751268403760495  7.452330971066095  12.017747488720339  120.000000
6.184173333333334  0.000000  0.000000  0.000000  -26.70651630290205  5.5403427461505235  9.27941694587252  50.971884452126154  7.055820994534912  0.5786429921046341  16.315480181806155  23.582149318634546  8.565592962025566  11.966272413932868  120.000000
6.21992  0.000000  0.000000  0.000000  -26.28640581479747  5.397144093147473  8.32162045121005  50.735703994383286  7.052311886884443  0.7969012889355409  16.98987416561265  21.45869462252262  9.756593871119957  11.934952212293494  120.000000
6.255666666666667  0.000000  0.000000  0.000000  -25.91412829135484  5.284099585144484  7.501939866409125  50.55608805624351  7.084502807358051  1.0220295627222973  17.63716442236839  19.405980818238188  11.003748136719663  11.934167337678092  120.000000
6.291413333333334  0.000000  0.000000  0.000000  -25.59874475945414  5.1932474535844895  6.812810726922915  50.43764263629956  7.148989506668653  1.2470071781736392  18.264124203298188  17.44618513914069  12.291304212848953  11.973867175199118  120.000000
6.32716  0.000000  0.000000  0.000000  -25.343378044339588  5.118412016609887  6.244383795271174  50.382596497971974  7.240750076578384  1.4680613953384622  18.87185045026894  15.596767312745229  13.611382375402378  12.063156094473449  120.000000
6.362906666666667  0.000000  0.000000  0.000000  -25.14422332730433  5.055850070140432  5.785043921963039  50.391061810553765  7.353268022432317  1.6845129289755496  19.453467385822425  13.869593742912473  14.965470886661999  12.210113190304337  120.000000
6.398653333333334  0.000000  0.000000  0.000000  -24.99116906594695  5.004123325118578  5.422033327938225  50.461255531168995  7.479019388563791  1.8982276624186682  19.993057303327003  12.271313050453228  16.364150606053514  12.421738967203318  120.000000
6.4344  0.000000  0.000000  0.000000  -24.869742707297988  4.9635061114290675  5.142196841554915  50.58950892843243  7.610410253323105  2.1127609733560218  20.465531848006083  10.804493873761276  17.825603573621418  12.70355696115072  120.000000
6.470146666666667  0.000000  0.000000  0.000000  -24.763953640892062  4.935122511535804  4.932611618822862  50.77006436146562  7.740708844291371  2.3321719106287735  20.83756222818398  9.469156464974303  19.37290030339731  13.058344019835411  120.000000
6.505893333333334  0.000000  0.000000  0.000000  -24.659473987277135  4.920145839716376  4.780904878108016  50.994886376082555  7.864774806662454  2.559581112604289  21.07140418104427  8.264066752873417  21.028581606061817  13.483982948354775  120.000000
6.54164  0.000000  0.000000  0.000000  -24.546681354165475  4.919016335313364  4.675393213603583  51.2535472647506  7.979412815505954  2.7958463313075734  21.134217639577766  7.187789535185657  22.804161152147973  13.971053397602892  120.000000
6.577386666666667  0.000000  0.000000  0.000000  -24.42266538076083  4.930959068664994  4.60516465925033  51.53324586918382  8.083448887661657  3.038728410509686  21.01154480704325  6.239010103217895  24.68673427158613  14.501518227441538  120.000000
6.613133333333334  0.000000  0.000000  0.000000  -24.291481762635794  4.95398225492845  4.559993544604263  51.81939520096237  8.177342080257969  3.2826195407269587  20.71962892844092  5.41612048505287  26.628383100838924  15.049678640993871  120.000000
6.64888  0.000000  0.000000  0.000000  -24.16268151279485  4.985163797981791  4.5303662577190265  52.09661740007255  8.262554342145208  3.519065304087241  20.311541542385793  4.7162203991718865  28.54353047313341  15.585263628841853  120.000000
6.684626666666667  0.000000  0.000000  0.000000  -24.048698101057553  5.020978127989567  4.507707647381291  52.350212975491324  8.340749594620013  3.738145234587308  19.87476447243085  4.134203682023064  30.315572019317692  16.077631942307793  120.000000
6.720373333333334  0.000000  0.000000  0.000000  -23.961534398157216  5.057583439799921  4.484931982787545  52.56781641345494  8.413242018456003  3.93042528638421  19.51470396475209  3.6621853261136295  31.818052127216124  16.500470167311086  120.000000
6.75612  0.000000  0.000000  0.000000  -23.90914380846309  5.091402964978617  4.457051638603145  52.74147178894655  8.480862209725426  4.088859497230621  19.321768027147147  3.2896085269404374  32.95167731746129  16.836435439378317  120.000000
6.791866666666667  0.000000  0.000000  0.000000  -23.892712786815526  5.119709093037437  4.421667918847196  52.86913418791318  8.544189679590541  4.210156641793508  19.330396155788765  3.003790204500278  33.6879069663037  17.080314276727144  120.000000
6.827613333333334  0.000000  0.000000  0.000000  -23.906329159510634  5.140899593197628  4.378902352206279  52.954673656467016  8.603603450774324  4.295315831999285  19.496073288421883  2.7906036337780473  34.09140750897642  17.238972055969825  120.000000
6.86336  0.000000  0.000000  0.000000  -23.93907435001283  5.154376478830852  4.330798173366355  53.006218962332206  8.659127242312382  4.349199636828189  19.706408092168033  2.635099081144253  34.305598002297344  17.328196772782537  120.000000
6.899106666666667  0.000000  0.000000  0.000000  -23.97810565999649  5.16031979952042  4.280487671721066  53.033788040344284  8.710373584171984  4.379325794770456  19.816333636720547  2.522250513875899  34.512471811694134  17.36827519688371  120.000000
6.934853333333334  0.000000  0.000000  0.000000  -24.011554145684848  5.159607933110695  4.231331091550989  53.047310721434314  8.756691638684478  4.394217309665481  19.689492011978164  2.4379534073450304  34.8859593730273  17.37984129546691  120.000000
6.970600000000001  0.000000  0.000000  0.000000  -24.03080624244111  5.1536403054617494  4.186194976187941  53.05513107763628  8.79733598488736  4.4018309544296335  19.232949250459423  2.3700739431587676  35.55250754819187  17.38054316510223  120.000000
7.006346666666667  0.000000  0.000000  0.000000  -24.031926665284967  5.143948245497313  4.14693307372922  53.063178858156896  8.831602904938734  4.408398845170823  18.41818660805659  2.309277617808456  36.56647730386793  17.382833385662025  120.000000
7.042093333333334  0.000000  0.000000  0.000000  -24.01566117371265  5.131963930974463  4.11420385291011  53.07485708952022  8.859026502768863  4.4178363619411725  17.280088734920085  2.249269793952614  37.90967144858816  17.39335979046199  120.000000
7.077840000000001  0.000000  0.000000  0.000000  -23.98611249005309  5.1189561012027625  4.08760772261713  53.091596132634635  8.879652271988485  4.431699582248729  15.893630079398921  2.186487252047532  39.51526143073154  17.41390905097716  120.000000
7.113586666666667  0.000000  0.000000  0.000000  -23.94887134266119  5.106083050472244  4.066067747193122  53.113529766614796  8.89414024845002  4.44970929505037  14.342902262830865  2.1194322202665004  41.3008111292587  17.443099074869217  120.000000
7.149333333333334  0.000000  0.000000  0.000000  -23.909447656132045  5.0942924884933065  4.048279817781248  53.139944340192955  8.90361224049849  4.470568244154058  12.69451276431289  2.047979581889008  43.19725267918266  17.478012637541703  120.000000
7.185080000000001  0.000000  0.000000  0.000000  -23.872226089026768  5.084133668790521  4.0330557751567095  53.16965439504142  8.909355209889787  4.492717974388756  10.982126067183188  1.9728432886203966  45.16651830088368  17.51540140125331  120.000000
7.220826666666667  0.000000  0.000000  0.000000  -23.83991001101486  5.075756195767375  4.019509929783211  53.20140053674334  8.912526458047928  4.514880733907516  9.202272331714996  1.8951821900931498  47.20745031464876  17.55252307508005  120.000000
7.256573333333334  0.000000  0.000000  0.000000  -23.813486450433043  5.068983680254143  4.007091313294086  53.234247975827856  8.913962838921165  4.536288550824965  7.319538693158679  1.8163344117313915  49.351696959353895  17.58753297085771  120.000000
7.292320000000001  0.000000  0.000000  0.000000  -23.79268631773066  5.063377888116055  3.9955370907246146  53.26780565634714  8.914136096377284  4.556682213666462  5.276799571164177  1.7376156797101718  51.653925412454726  17.61951548142721  120.000000
7.328066666666667  0.000000  0.000000  0.000000  -23.776681330424186  5.058303526102124  3.9848215810038914  53.302256421434215  8.913225746818402  4.5762139086322104  3.0036565051337765  1.6601946070071774  54.183389219370106  17.648281223000772  120.000000
7.363813333333334  0.000000  0.000000  0.000000  -23.76473956359563  5.052979447642659  3.9751235386684454  53.33830485598477  8.911296415144218  4.595272296400785  0.4208286819633298  1.5850731064807717  57.01932721511648  17.67415220708502  120.000000
7.399560000000001  0.000000  0.000000  0.000000  -23.75663893610779  5.046509026177801  3.966788586722958  53.37716712671095  8.908499142210708  4.6142752208650055  -2.55866803364511  1.5132036652955831  60.24952579953351  17.697797976159322  120.000000
7.435306666666667  0.000000  0.000000  0.000000  -23.75272102144275  5.038013406187063  3.960256833578949  53.42063436076818  8.905229330386481  4.63347299382639  -6.025238706460524  1.4456795829012374  63.96578216617982  17.720234154170562  120.000000
7.471053333333334  0.000000  0.000000  0.000000  -23.75360627042904  5.026714150777688  3.955955820772055  53.47103175232275  8.902146495137785  4.652880835237191  -10.062592118413422  1.383933056381936  68.2535811955416  17.74284053035258  120.000000
7.506800000000001  0.000000  0.000000  0.000000  -23.759643220089025  5.011990670330382  3.9541855136259763  53.53083669659735  8.900020844221283  4.6724378823295085  -14.730768694193442  1.3298389349391733  73.17490572745388  17.767353961272725  120.000000
7.542546666666667  0.000000  0.000000  0.000000  -23.770268325662855  4.993420213221553  3.9550338282844857  53.60182755564692  8.89942262149381  4.692382284674157  -20.04635022890063  1.2857142394407048  78.74823487221146  17.795685947841474  120.000000
7.578293333333334  0.000000  0.000000  0.000000  -23.7835124041193  4.970897645373902  3.958297295251905  53.6839016901275  8.900367294778901  4.713602781005343  -25.96059223932884  1.2542129386209615  84.92632377114268  17.82956927582365  120.000000
7.614040000000001  0.000000  0.000000  0.000000  -23.79583163687367  4.944985383247287  3.963343678718237  53.77391190017958  8.9020107536937  4.737706965970488  -32.336594591105786  1.2380865306561197  91.5728919485375  17.869956755106774  120.000000
7.649786666666667  0.000000  0.000000  0.000000  -23.802332756172934  4.917608448094269  3.968862145679903  53.86494918994502  8.902511671602584  4.766602048092175  -38.92975243666168  1.2396182497776316  98.44242758657896  17.916350867129776  120.000000
7.685533333333334  0.000000  0.000000  0.000000  -23.797335233124766  4.892799266688017  3.972541804096103  53.9464763895629  8.899142891226335  4.80165527764271  -45.392412495927836  1.259670156532426  105.18424411263385  17.966232262360236  120.000000
7.721280000000001  0.000000  0.000000  0.000000  -23.77506771585237  4.8771671600565485  3.970832203624457  54.00556116226852  8.888745638078053  4.842681435552569  -51.31964190461172  1.2965515986627292  111.38792807193997  18.015027239283864  120.000000
7.757026666666667  0.000000  0.000000  0.000000  -23.730350991195994  4.879489254874772  3.95897093090403  54.02888799523774  8.868427717230139  4.887346119848002  -56.32638280241089  1.345418187028553  116.66060736111825  18.05651945870157  120.000000
7.792773333333334  0.000000  0.000000  0.000000  -23.65918359553314  4.909082631676139  3.931413976351405  54.00484982778623  8.836257497735106  4.931490436180514  -60.10843249483527  1.3985718166906578  120.68842921693818  18.08349863062878  120.000000
7.828520000000001  0.000000  0.000000  0.000000  -23.559017443776078  4.972982472942987  3.8825129439464745  53.9255772341917  8.791753633022893  4.970474160216258  -62.44457189801626  1.4464253218762875  123.23938360272643  18.08824494649107  120.000000
7.864266666666667  0.000000  0.000000  0.000000  -23.428708587157576  5.072638313591587  3.807317118307411  53.78864633617121  8.736181370291472  5.00112322599397  -63.1459630805399  1.478869669889319  124.11356517470368  18.062826826512442  120.000000
7.900013333333334  0.000000  0.000000  0.000000  -23.268252360294834  5.201632723224957  3.7020500350548926  53.598423828310544  8.672816174995285  5.023197235439856  -61.961422573559766  1.487196004579409  123.0492308329338  17.999045036795707  120.000000
7.935760000000001  0.000000  0.000000  0.000000  -23.078716508714596  5.34590252879073  3.5642388145901394  53.36615010964878  8.60731163874783  5.039745031984687  -58.454287079234724  1.467462164816898  119.60022211490372  17.8883017997477  120.000000
7.971506666666667  0.000000  0.000000  0.000000  -22.86247315849131  5.486288553506742  3.3923370928195955  53.10855579870459  8.548037960610392  5.056056445852099  -51.874908565927214  1.4263376930728282  113.0085152940524  17.721471604980284  120.000000
8.007253333333335  0.000000  0.000000  0.000000  -22.623452859467935  5.6021887754583135  3.1848751772213837  52.84578027487212  8.505826112311018  5.078085637572336  -41.21475981845744  1.3903389497817442  102.25812785726706  17.4894786832998  120.000000
8.043000000000001  0.000000  0.000000  0.000000  -22.367363220324492  5.675258416366063  2.9417194038458647  52.59850149999096  8.492069550937874  5.110434739938872  -25.999565029574267  1.417417518121303  86.86808998602044  17.184706608122827  120.000000
8.078746666666667  0.000000  0.000000  0.000000  -22.101477649719556  5.692738107345782  2.666037925834518  52.38472731426588  8.517577029676154  5.154478995614127  -8.14608806356223  1.593930134662766  68.74910484570401  16.803430623142052  120.000000
8.114493333333334  0.000000  0.000000  0.000000  -21.83436870709942  5.650109752713812  2.3644499320469348  52.21692375647222  8.592320363774338  5.208159054095054  8.163887702831097  1.9927750204992833  52.076899219031134  16.3486223455536  120.000000
8.15024  0.000000  0.000000  0.000000  -21.57637248853138  5.5515612000366215  2.0472096192636124  52.09932332765434  8.724713261357664  5.266805329875219  20.36018086519505  2.6390576665965026  39.41433576558109  15.83150093853381  120.000000
8.185986666666667  0.000000  0.000000  0.000000  -21.338463584216335  5.408804600101245  1.7279356907207795  52.02793873250706  8.920718484861561  5.324040470993263  28.649761027774282  3.530681435798088  30.54622459394352  15.270919478267338  120.000000
8.221733333333335  0.000000  0.000000  0.000000  -21.13052781953748  5.238400604602042  1.423151582871658  51.99211946680753  9.183052633413505  5.373269466660673  34.16319974299346  4.664535927224362  24.333492943864023  14.690811575140438  120.000000
8.257480000000001  0.000000  0.000000  0.000000  -20.95956811319105  5.058576873202413  1.151621204103303  51.977300772435804  9.510690309479775  5.409380794935539  37.86837310872993  6.0425377415891  19.800784259778318  14.116814047143869  120.000000
8.293226666666667  0.000000  0.000000  0.000000  -20.827649630612033  4.886873166438357  0.9322702002122908  51.96897284949863  9.898206487716779  5.429141705695913  40.405425637110646  7.668155260914539  16.303876038223876  13.572723427703753  120.000000
8.328973333333334  0.000000  0.000000  0.000000  -20.730523871359885  4.738614676867356  0.781577528427538  51.955829768987876  10.335503606276118  5.430476430021375  42.16746009149885  9.541147883821086  13.451093048734158  13.076894496017283  120.000000
8.36472  0.000000  0.000000  0.000000  -20.658081455834612  4.625459872360162  0.7118535782993635  51.93045210306212  10.808215676344174  5.412530996765068  43.39053307009452  11.653209870288489  11.014364839074048  12.639233167606  120.000000
8.400466666666667  0.000000  0.000000  0.000000  -20.595958127533034  4.555144193807575  0.7307658337664399  51.88955767245343  11.299078272065453  5.375644764590754  44.219176163171454  13.985970035209146  8.86411714811922  12.261061003013756  120.000000
8.436213333333335  0.000000  0.000000  0.000000  -20.528728446831398  4.53117284567732  0.8417016691314058  51.833682331773474  11.789490175716347  5.321530920875403  44.74876927200744  16.512048582037306  6.925512989459119  11.937136589998836  120.000000
8.471960000000001  0.000000  0.000000  0.000000  -20.44248864478164  4.553246482012524  1.0448458705816133  51.76677951779297  12.260877895201745  5.254222833546494  45.04983769518667  19.19730498864154  5.153465898704026  11.659358106846405  120.000000
8.507706666666667  0.000000  0.000000  0.000000  -20.326679388469362  4.618849030197113  1.3379999425198268  51.696332596442765  12.696401348887909  5.179710216938666  45.17777003555202  22.003486204036008  3.520341665739984  11.420315030374333  120.000000
8.543453333333334  0.000000  0.000000  0.000000  -20.178387247750866  4.72366759428353  1.7174778918701732  51.631449183567504  13.082438598527476  5.104520242632486  45.174564828319255  24.891224920524493  2.0085864700835994  11.213506083972176  120.000000
8.5792  0.000000  0.000000  0.000000  -20.004202109207007  4.862923962987231  2.178894349038174  51.5822929068188  13.409763733552005  5.034184729359341  45.07028470815015  27.822843572004995  0.6071873921347851  11.033692143132384  120.000000
8.614946666666667  0.000000  0.000000  0.000000  -19.819527738303467  5.0315408066490495  2.7180874536421  51.559372397159045  13.67358666448979  4.973143646362517  44.88529512228571  30.763733063623786  -0.6909970893574159  10.877166325336026  120.000000
8.650693333333335  0.000000  0.000000  0.000000  -19.645940634582274  5.223937896421587  3.3314380467794873  51.57285287440034  13.873003690041537  4.924992087592734  44.63236466404823  33.68271780410811  -1.8912981395810176  10.741180420193306  120.000000
8.686440000000001  0.000000  0.000000  0.000000  -19.50732906095276  5.434301658462003  4.015825838621032  51.63220658548487  14.010155845225597  4.892719159782992  44.31887120499705  36.55145816513377  -2.998211841123386  10.623619746433118  120.000000
8.722186666666667  0.000000  0.000000  0.000000  -19.426027694576725  5.656965943732497  4.768208942577667  51.74541903380092  14.089355215068025  4.87908941024106  43.948650262906106  39.343328120905774  -4.016453562141746  10.522837572607019  120.000000
8.757933333333334  0.000000  0.000000  0.000000  -19.41978982587792  5.887060143068413  5.585230441437269  51.91838789697738  14.116377711787926  4.886793534938856  43.52355752428446  42.03255344609727  -4.9520437794492285  10.437567694385804  120.000000
8.79368  0.000000  0.000000  0.000000  -19.49956938096869  6.120921076680198  6.4626987069717305  52.15422315170376  14.097928878636505  4.918751528179506  43.0445890479618  44.59367341327465  -5.812681474644622  10.366965216462628  120.000000
8.829426666666667  0.000000  0.000000  0.000000  -19.668494191135625  6.356134486095384  7.395279751631949  52.45304216730023  14.041011376394975  4.978335354714362  42.51302676193143  47.00159772501983  -6.607677768984262  10.31080657378945  120.000000
8.865173333333335  0.000000  0.000000  0.000000  -19.92225960111129  6.59089001098204  8.37630954402022  52.811800947316016  13.952360236812718  5.069674021835297  41.931287690346714  49.232451281809176  -7.347514281048953  10.269506391260874  120.000000
8.900920000000001  0.000000  0.000000  0.000000  -20.251297678890378  6.824170397633132  9.398003754082737  53.22442117858252  13.83848926753749  5.196674175672866  41.30265737073532  51.26498528469841  -8.04237143944471  10.243725865617746  120.000000
8.936666666666667  0.000000  0.000000  0.000000  -20.643503283831745  7.055855613303749  10.451666231744529  53.68226702356986  13.705931255495177  5.361781150252692  40.63106594559356  53.0824170440168  -8.700754618624497  10.23370752940531  120.000000
8.972413333333334  0.000000  0.000000  0.000000  -21.085601361971552  7.285426657372955  11.52814498961552  54.17493070142795  13.560922567984912  5.565977648517892  39.92216987895007  54.67436758462746  -9.328412705756385  10.238924668998742  120.000000
9.00816  0.000000  0.000000  0.000000  -21.564460018270967  7.511326001976975  12.61815908187362  54.69112329651604  13.40925604295207  5.808531401304343  39.18427008049559  56.038479492064575  -9.927276251087317  10.257787660367276  120.000000
9.043906666666667  0.000000  0.000000  0.000000  -22.06869528893772  7.7311777092813125  13.712634186953906  55.21895835135724  13.256566535902085  6.086427584452359  38.427983674641716  57.18126467988638  -10.494365081088441  10.287162086193549  120.000000
9.079653333333335  0.000000  0.000000  0.000000  -22.589585719117043  7.941954382928307  14.802885067958645  55.74607979416292  13.108390802663518  6.394062264151755  37.665461345770694  58.117618704884826  -11.021974369521795  10.32233262396463  120.000000
9.115400000000001  0.000000  0.000000  0.000000  -23.120678705411777  8.13999247625841  15.880172478446614  56.260144057404425  12.969706067076652  6.723455322943698  36.90997746822186  58.869184025011165  -11.499209228279193  10.357499543738617  120.000000
9.151146666666667  0.000000  0.000000  0.000000  -23.656662147618807  8.321157813977639  16.934974717567986  56.74939637675105  12.844327880428446  7.064639043941235  36.17539009656622  59.461795937616074  -11.91433435530612  10.386665584886988  120.000000
9.186893333333334  0.000000  0.000000  0.000000  -24.192103823750994  8.481418067510514  17.95595670958376  57.203276992443215  12.734480496192846  7.406240397872341  35.475571758279195  59.922878659367775  -12.257219684391456  10.40457203619464  120.000000
9.22264  0.000000  0.000000  0.000000  -24.719071661963667  8.617313444839347  18.929245083789873  57.61382571919947  12.640248601909638  7.73624712562632  34.82480259849409  60.278985826891606  -12.522092932570224  10.408138249489337  120.000000
9.258386666666668  0.000000  0.000000  0.000000  -25.225734931639884  8.726744257106663  19.83908703160505  57.97661331715445  12.558883944063764  8.04219292630426  34.23774178328318  60.55405709532784  -12.709303013864721  10.397293594952014  120.000000
9.294133333333335  0.000000  0.000000  0.000000  -25.697186127375023  8.809152053381775  20.66893789643243  58.28977945934981  12.484763853389179  8.311155090230626  33.72785733613205  60.767930598969976  -12.825123413814602  10.374728994228244  120.000000
9.329880000000001  0.000000  0.000000  0.000000  -26.11639511090283  8.8654102092547  21.401455839861892  58.55350648733084  12.41064897715367  8.530053067264115  33.30693849704409  60.935207367563066  -12.88056141618927  10.344855250123214  120.000000
9.365626666666667  0.000000  0.000000  0.000000  -26.465623744416177  8.897713025011127  22.01926185549824  58.7698549170892  12.328916443581743  8.686362673287297  32.98570710637899  61.0649729424314  -12.889576960220158  10.312963758233554  120.000000
9.401373333333334  0.000000  0.000000  0.000000  -26.72846105833318  8.908471939520213  22.50631649925648  58.94154457443473  12.23280144251075  8.769304469561364  32.77387035552628  61.16104568694461  -12.866670188777803  10.283938958569419  120.000000
9.43712  0.000000  0.000000  0.000000  -26.892488300179068  8.899665897854085  22.849469225080632  59.070772493164604  12.11795253909632  8.770555407140119  32.67975276338853  61.22245778186648  -12.82439630088645  10.260967505655998  120.000000
9.472866666666668  0.000000  0.000000  0.000000  -26.951055218703495  8.87195776588584  23.039207606217968  59.15827394964984  11.983460668850778  8.68504773162232  32.71012585090499  61.24373988347833  -12.771325305564805  10.244441381904663  120.000000
9.508613333333335  0.000000  0.000000  0.000000  -26.90370001061717  8.824104833794005  23.069944387822254  59.2032864451448  11.831330012791303  8.511169337301697  32.8703404498729  61.21482614544977  -12.7110775255572  10.231720927238369  120.000000
9.544360000000001  0.000000  0.000000  0.000000  -26.755501504492454  8.753378335900658  22.940065786960083  59.20392349041066  11.66549457266252  8.250844703340672  33.16413187827286  61.121046843769  -12.642233155791365  10.217621494638655  120.000000
9.580106666666667  0.000000  0.000000  0.000000  -26.515696149124032  8.656092576920758  22.651849444228972  59.15763623649022  11.490646537430584  7.909729787429726  33.59325564370855  60.94319466718438  -12.559110088230772  10.195758937648145  120.000000
9.615853333333334  0.000000  0.000000  0.000000  -26.195964675599434  8.528554893628327  22.21120016129996  59.06172481201215  11.311585686626264  7.497236005896858  34.15682457081909  60.65737660871646  -12.452850489464165  10.160059031020062  120.000000
9.6516  0.000000  0.000000  0.000000  -25.80910021541275  8.367794560456817  21.62768742700662  58.91372982481791  11.132794725465939  7.026254174809473  34.85058701679253  60.234979780296776  -12.312730226441676  10.106741009463748  120.000000
9.687346666666668  0.000000  0.000000  0.000000  -25.368017321306304  8.172439831975668  20.914454749006204  58.71171570321866  10.958618905575296  6.512518691125276  35.66598050765175  59.642950545945766  -12.127247220676958  10.035908570836005  120.000000
9.723093333333335  0.000000  0.000000  0.000000  -24.885557113235567  7.943216385964883  20.088072216879485  58.45452759443506  10.793310675326987  5.9734543024224145  36.58957592601712  58.84495697812961  -11.884978780815073  9.952632658476787  120.000000
9.758840000000001  0.000000  0.000000  0.000000  -24.37459330607284  7.683531023020802  19.167822027994468  58.14201564434059  10.641340442326598  5.426707041612706  37.60267174198731  57.80377774104938  -11.574883493951818  9.86619427312697  120.000000
9.794586666666667  0.000000  0.000000  0.000000  -23.849127113181773  7.399283263988818  18.174652779711447  57.77474772809061  10.507577064842678  4.889039780024368  38.681201005962016  56.484975686409605  -11.185961067584486  9.788655847907513  120.000000
9.830333333333334  0.000000  0.000000  0.000000  -23.323145401981684  7.098359685202182  17.128848525310005  57.35513384447467  10.39746445611803  4.376317181445155  39.79756765811936  54.861326659212295  -10.707202460993773  9.733543351303851  120.000000
9.86608  0.000000  0.000000  0.000000  -22.809148798697233  6.7897018958734305  16.048989340944775  56.88973461133935  10.315293483021351  3.9024605351276556  40.923659457799594  52.91706950900701  -10.127807496857596  9.715480625222389  120.000000
9.901826666666668  0.000000  0.000000  0.000000  -22.31790266153271  6.48162610728735  14.951644767490583  56.388309713450276  10.263222356263576  3.478689000693669  42.02988552698668  50.65103206147201  -9.435683559069007  9.748539602865888  120.000000
9.937573333333335  0.000000  0.000000  0.000000  -21.85951951049777  6.181601542680065  13.851606301677368  55.862975330675  10.242392811662949  3.1136163335470415  43.08357260265966  48.07909960024464  -8.615725557976958  9.845367985612619  120.000000
9.973320000000001  0.000000  0.000000  0.000000  -21.442341097655007  5.896098272198929  12.762287940082649  55.328277920901876  10.253509866645436  2.8134262614763688  44.04883445202017  45.23445329504616  -7.649477400759811  10.01667922783366  120.000000
10.009066666666667  0.000000  0.000000  0.000000  -21.072445291802886  5.62941788558168  11.695816870185556  54.80058254509059  10.296130380411764  2.582485089423787  44.887899852760576  42.164953861441425  -6.515991567452103  10.271820640281051  120.000000
10.044813333333334  0.000000  0.000000  0.000000  -20.753438744887706  5.384371581510874  10.662553999148022  54.296941237476936  10.368027735653309  2.4225918479392763  45.5618705741284  38.9286955216238  -5.1929781588212505  10.617988012807338  120.000000
10.08056  0.000000  0.000000  0.000000  -20.487255682048684  5.162797815736419  9.670581637916277  53.833606472226606  10.464901965201854  2.3328330058466737  46.03221843807767  35.58922858009361  -3.6586871101348866  11.059450854685894  120.000000
10.116306666666668  0.000000  0.000000  0.000000  -20.27335416385862  4.9648513432067505  8.72554180286623  53.42407742365275  10.579852547624487  2.3105395871137975  46.26333540142357  32.21090886076986  -1.8947008636559817  11.595530679908684  120.000000
10.152053333333335  0.000000  0.000000  0.000000  -20.109716951125634  4.7896357035854065  7.83037367353703  53.07744475658674  10.70385298029616  2.3516082828952007  46.22453182591538  28.855166702495914  0.11148440541058748  12.219122378683101  120.000000
10.187800000000001  0.000000  0.000000  0.000000  -19.99282466415625  4.636185947049043  6.9857428724054  52.79763962779007  10.827259316879346  2.45000355227494  45.890133803925686  25.577631115919694  2.366042090695805  12.91570545398267  120.000000
10.223546666666667  0.000000  0.000000  0.000000  -19.918227848900454  4.503869986066392  6.191111650218473  52.58358049250962  10.941516914863362  2.5982419804374035  45.239218919752034  22.427093215527975  4.869183207980861  13.665124470642958  120.000000
10.259293333333334  0.000000  0.000000  0.000000  -19.879627772576875  4.3918743573064125  5.446301693770895  52.4301961442773  11.040511525920898  2.7880644240770276  44.253992511701895  19.44486974706695  7.617565522129866  14.443418015342688  120.000000
10.29504  0.000000  0.000000  0.000000  -19.870172536262448  4.299148383757037  4.752894816483736  52.32926711485565  11.121487140751693  3.011024586569052  42.916379500260454  16.66499539010247  10.608168143791557  15.224931680416892  120.000000
10.330786666666668  0.000000  0.000000  0.000000  -19.883213626445052  4.224352555875268  4.115081044761735  52.270030673812194  11.185369198157806  3.2579235782199514  41.19887869305409  14.113500080876332  13.848262860031792  15.982415199753161  120.000000
10.366533333333335  0.000000  0.000000  0.000000  -19.91426082215173  4.166563995452967  3.539896065573174  52.24055258133776  11.236307457948753  3.5183937367788034  39.0564908190547  11.808990064293859  17.364045353945038  16.68807734881778  120.000000
10.402280000000001  0.000000  0.000000  0.000000  -19.960235760167173  4.125410924998143  3.0364574276814484  52.230487094882264  11.280596352660586  3.7807818248319176  36.42378942459076  9.762836405352543  21.20469725847773  17.31378153543085  120.000000
10.438026666666667  0.000000  0.000000  0.000000  -20.021300230944203  4.101414728386364  2.6148789859643378  52.23183707503796  11.326015970491055  4.032722882659098  33.22067739964082  7.979684805300787  25.436289686898597  17.831835551268018  120.000000
10.473773333333334  0.000000  0.000000  0.000000  -20.101462739035412  4.09496081470122  2.2849089345378815  52.238463015352224  11.380885000302603  4.261383159116741  29.355123302902562  6.455809844623508  30.139924596761233  18.213973304706503  120.000000
10.50952  0.000000  0.000000  0.000000  -20.21099138896293  4.1069017963487475  2.054308604927345  52.24479830441026  11.451761780048669  4.454291221360863  24.732935267365374  5.177392570811476  35.40293462342776  18.433085552475823  120.000000
10.545266666666668  0.000000  0.000000  0.000000  -20.363685101321707  4.138404148462585  1.9255105884628856  52.24828861760359  11.541553751981047  4.5986734415042205  19.276696483884272  4.119379863679235  41.30183255180005  18.465399886680665  120.000000
10.581013333333335  0.000000  0.000000  0.000000  -20.57303626220066  4.1903747365051025  1.891683545711145  52.25333058650614  11.646610081209886  4.683534348094975  13.005586726948419  3.2443741428655493  47.82428859777645  18.298052924152675  120.000000
10.616760000000001  0.000000  0.000000  0.000000  -20.84158881524377  4.257966577502233  1.9334681781583412  52.27781588237123  11.75448065171642  4.703585536918733  6.178027861045274  2.4997028353622133  54.730074075691256  17.938057144608244  120.000000
10.652506666666667  0.000000  0.000000  0.000000  -21.160849150944163  4.323164953036608  2.020391941737557  52.34091536430394  11.84144803651323  4.668302508988681  -0.9987008380872813  1.8151277079921322  61.84383328372991  17.419890618967173  120.000000
10.688253333333334  0.000000  0.000000  0.000000  -21.51527762229769  4.354586435689943  2.114823548410626  52.44644398709984  11.875274256658221  4.601254484336832  -10.406666933414279  1.1221676721437859  71.09389304270717  16.80290516628469  120.000000
10.724  0.000000  0.000000  0.000000  -21.88533215284362  4.324223991373089  2.175167395374436  52.58874555098693  11.821902797837641  4.527898453229591  -43.05599215470269  0.42931298124247036  103.54355924139169  16.164137326602464  120.000000
