Simulation
nRows=70
nColumns=15
endheader
time  TH_x TH_y TH_z SC_y  SC_z  SC_x  AC_y  AC_z  AC_x  GH_y  GH_z  GH_yy  EL_x  PS_y
0.0  0.000000  0.000000  0.000000  -26.01732625339559  -4.137897303140689  -10.246280412931986  60.1353917678063  15.172805760673809  -5.621761632685341  -9.398218954408216  13.275433384246131  36.34437294478431  24.793005497110837  120.000000
0.04057971014492753  0.000000  0.000000  0.000000  -26.071380072224223  -3.652818989042341  -10.679643342674941  59.95663378190524  15.674300327510117  -5.084213497349904  -9.982712616064273  13.940038285778149  36.82293673237964  24.41993386304481  120.000000
0.08115942028985507  0.000000  0.000000  0.000000  -26.168924257771465  -3.2478305828641543  -11.092752441505796  59.8448002303451  16.040829850478897  -4.566511914750064  -10.528630773957905  14.574063692664087  37.28441022904769  24.060027282352085  120.000000
0.1217391304347826  0.000000  0.000000  0.000000  -26.362908446571215  -2.926751792615144  -11.491546503182747  59.82102735694749  16.310375681189463  -4.0573624274902205  -11.074588412519267  15.211261384349113  37.74075936963015  23.692558289541658  120.000000
0.16231884057971013  0.000000  0.000000  0.000000  -26.629860951350867  -2.682197227219615  -11.879497612903153  59.89360573829406  16.52668382868975  -3.554106415678484  -11.72365593596779  15.871264382484682  38.264528495446946  23.31512767193302  120.000000
0.20289855072463767  0.000000  0.000000  0.000000  -26.954786409222642  -2.491851150679123  -12.254981682244088  60.06674494483176  16.72638761672515  -3.054709576299775  -12.520669834432045  16.59161714763382  38.857108817618176  22.928509603798034  120.000000
0.2434782608695652  0.000000  0.000000  0.000000  -27.318268880055665  -2.3327290912606147  -12.610807071491966  60.32978074988568  16.94119937133771  -2.562486890282533  -13.489233212824185  17.414336889161504  39.48491733303926  22.538201389002722  120.000000
0.2840579710144927  0.000000  0.000000  0.000000  -27.70843577097427  -2.1881817256410856  -12.933292088465386  60.66911746295303  17.19504094025187  -2.0861784753079227  -14.631841770322696  18.382052470702163  40.098282581397534  22.14748915107889  120.000000
0.32463768115942027  0.000000  0.000000  0.000000  -28.11842045077286  -2.0435168536024855  -13.20282596260848  61.06516747793155  17.50373747181404  -1.63897122279508  -15.91745459496788  19.522880614720883  40.613102374983605  21.760588113814308  120.000000
0.3652173913043478  0.000000  0.000000  0.000000  -28.544708208820527  -1.8835023610775534  -13.39415139529627  61.497809815094556  17.876263523820054  -1.236782770467781  -17.294099583502664  20.845252376696497  40.935142149208524  21.380991494998803  120.000000
0.40579710144927533  0.000000  0.000000  0.000000  -28.98667863059633  -1.692693059044871  -13.477307751005553  61.94719406924663  18.315474081210212  -0.8959285921331476  -18.700386424434235  22.33639530077282  40.973192047802534  21.010523960935043  120.000000
0.44637681159420284  0.000000  0.000000  0.000000  -29.44395392068687  -1.457761684760162  -13.420909461254343  62.39606431039197  18.817454905654557  -0.6305822365297458  -20.080484401769805  23.96787154667873  40.66030966435022  20.64477219002645  120.000000
0.4869565217391304  0.000000  0.000000  0.000000  -29.91589393064034  -1.1706553089948883  -13.195850960821561  62.8324049260035  19.37139876897407  -0.4502867564674597  -21.392781667089714  25.704204914743276  39.9695844946741  20.268970937099525  120.000000
0.527536231884058  0.000000  0.000000  0.000000  -30.40185728175636  -0.8297767625396013  -12.779613667191073  63.250048890501205  19.959530740026022  -0.3578088767846959  -22.606966383374694  27.511725696523907  38.9150565063197  19.85757300879809  120.000000
0.5681159420289854  0.000000  0.000000  0.000000  -30.902053516278663  -0.43884009859224454  -12.158810926525353  63.64782330706802  20.559096794337535  -0.3482238844644363  -23.699663857728208  29.36453308906911  37.55008248731154  19.38051459464522  120.000000
0.608695652173913  0.000000  0.000000  0.000000  -31.417317512929657  -0.003950518821948  -11.330422331489526  64.02626762325707  21.144640763581176  -0.4090095472146068  -24.652123634909092  31.2475631675086  35.96232196525692  18.813895050288604  120.000000
0.6492753623188405  0.000000  0.000000  0.000000  -31.94885888534262  0.46922847903630766  -10.301452265827816  64.38488475713424  21.69073139591781  -0.5213261225335629  -25.450641489977954  33.156104870605105  34.26708297253847  18.147673215682104  120.000000
0.6898550724637681  0.000000  0.000000  0.000000  -32.4979585989296  0.9767077436868244  -9.088120889116553  64.72059477843877  22.17407316848463  -0.6620202785627191  -26.087972706465575  35.09274523319523  32.592908081959656  17.38701266504736  120.000000
0.7304347826086957  0.000000  0.000000  0.000000  -33.06726947478491  1.5160441611188453  -7.713604688139228  65.0295575922846  22.575661082944396  -0.8066034069076845  -26.56192564128859  37.06099540016542  31.058457081679947  16.546716724553747  120.000000
0.7710144927536231  0.000000  0.000000  0.000000  -33.66199914413954  2.0851636324128537  -6.205444283166518  65.31019131786424  22.882408980519592  -0.9317597652458987  -26.874302260453142  39.05949988034113  29.748995050933164  15.64485695641434  120.000000
0.8115942028985507  0.000000  0.000000  0.000000  -34.28854866992389  2.6811746202851645  -4.592953135921023  65.56459587984722  23.088931847204282  -1.0180663337022924  -27.031532496590575  41.07770102547608  28.70413383954701  14.699058096610742  120.000000
0.8521739130434782  0.000000  0.000000  0.000000  -34.95126322756077  3.2999468136750907  -2.905335404874142  65.79717257425777  23.197495772410978  -1.0509036469094275  -27.047736178289348  43.09648033639233  27.922988490060053  13.72733779818332  120.000000
0.8927536231884057  0.000000  0.000000  0.000000  -35.64974328322755  3.9367025105930553  -1.170741988803431  66.01149114893602  23.21701829386718  -1.020690219960654  -26.945915852458874  45.091123399529536  27.378670520571376  12.751775228572749  120.000000
0.9333333333333332  0.000000  0.000000  0.000000  -36.37762327358663  4.5861773689546785  0.5843760561795913  66.20717733688264  23.160859346830343  -0.9228750492631734  -26.756906199340992  47.03580865787719  27.03376586289292  11.801825637534721  120.000000
0.9739130434782608  0.000000  0.000000  0.000000  -37.124371384389256  5.242677007543639  2.3357254218215084  66.38019634582184  23.044739174551754  -0.7578678659666154  -26.5148617286784  48.9065117656211  26.85006876336128  10.912556753116021  120.000000
1.0144927536231882  0.000000  0.000000  0.000000  -37.878502426717304  5.899737543449351  4.061844622499946  66.52612192808422  22.88412230363112  -0.5300074162426248  -26.25081188982468  50.68278553023279  26.792076729122222  10.116468767943658  120.000000
1.055072463768116  0.000000  0.000000  0.000000  -38.629913247072835  6.5492252467215675  5.744177910977887  66.64477605146658  22.692804325723444  -0.24700314653952546  -25.98682457956279  52.347599073002634  26.826957974510684  9.431178537053583  120.000000
1.0956521739130434  0.000000  0.000000  0.000000  -39.3704756941173  7.1812737894730985  7.366704862476982  66.74254024250092  22.48168260309551  0.08150752707762891  -25.733569056496226  53.88690581129261  26.92493808597464  8.85154301826585  120.000000
1.1362318840579708  0.000000  0.000000  0.000000  -40.093216241846896  7.785145804968612  8.915185945906053  66.8311830179799  22.258785139205653  0.44476353928147805  -25.492370726925387  55.288875692823176  27.059725185747357  8.353348514168708  120.000000
1.1768115942028985  0.000000  0.000000  0.000000  -40.79069268154713  8.35090576144103  10.376640513262322  66.92347908009327  22.029750691151133  0.83153110886522  -25.26071041087365  56.54395215280681  27.208699244559227  7.907797366952903  120.000000
1.217391304347826  0.000000  0.000000  0.000000  -41.45381825653627  8.871078681738664  11.73929680979152  67.02826048405225  21.798876535241266  1.2303514440205827  -25.038438674948214  57.64505707410742  27.353513804411467  7.498207580267419  120.000000
1.2579710144927536  0.000000  0.000000  0.000000  -42.07162409422953  9.341144893870855  12.992726809153492  67.14775098403612  21.569670140679072  1.6294678695452496  -24.831121901688864  58.58849460524463  27.48043537291254  7.128231221452386  120.000000
1.298550724637681  0.000000  0.000000  0.000000  -42.6322082732562  9.7589129230866  14.128128041757158  67.2782857032224  21.34486673931373  2.016617011117095  -24.64886961102601  59.374415307291464  27.58093140349191  6.816620823831105  120.000000
1.3391304347826085  0.000000  0.000000  0.000000  -43.12418845860414  10.123421076166606  15.13831267917233  67.41312526314582  21.125793367802256  2.378850002868632  -24.501972445527194  60.00716312569151  27.652486922445437  6.583332872152936  120.000000
1.3797101449275362  0.000000  0.000000  0.000000  -43.53827586482464  10.43417125631114  16.017530699705617  67.5451775906345  20.91184408289315  2.7028060331363695  -24.396136167071653  60.49522562923277  27.69900595895029  6.436309348934434  120.000000
1.4202898550724636  0.000000  0.000000  0.000000  -43.86843000412935  10.690879898370097  16.761614661713626  67.66862095034398  20.700835323211944  2.975348469492901  -24.33038702572182  60.85069971673571  27.729420416057284  6.366692003164586  120.000000
1.4608695652173913  0.000000  0.000000  0.000000  -44.11236247563895  10.893417329853746  17.368960932193218  67.77897420425352  20.490175272748154  3.1847306526124797  -24.29803872909476  61.08827695740112  27.75405679874674  6.3534329174516095  120.000000
1.5014492753623188  0.000000  0.000000  0.000000  -44.27144885779923  11.041524556379173  17.84197826997508  67.87295202860456  20.278729559084706  3.321672128169678  -24.289675626613892  61.223399800705785  27.78013363004913  6.372112139141607  120.000000
1.5420289855072462  0.000000  0.000000  0.000000  -44.35002303983336  11.134581942338176  18.18793645634331  67.94801098072838  20.067807450339888  3.380301396369945  -24.295639869910016  61.270579768580205  27.808780705449603  6.402082508699643  120.000000
1.5826086956521739  0.000000  0.000000  0.000000  -44.35444830368427  11.17175942273285  18.418499610821577  68.0025525899503  19.860992896546765  3.358237675347142  -24.30749677231167  61.24189099277577  27.835272379065763  6.4293693808996295  120.000000
1.6231884057971013  0.000000  0.000000  0.000000  -44.29212765560209  11.152678858935555  18.54794155423965  68.03586834765359  19.662607249646012  3.2564234150363363  -24.31816114718187  61.14626569615148  27.852059780340188  6.44652574136316  120.000000
1.6637681159420288  0.000000  0.000000  0.000000  -44.170646861104885  11.078101387454165  18.590971768849723  68.04853211296016  19.47616354190386  3.07837524250598  -24.32195768769365  60.988724423734226  27.85227415523819  6.451489818998149  120.000000
1.7043478260869565  0.000000  0.000000  0.000000  -43.996841900213006  10.950201936383456  18.560886187690635  68.0424562757147  19.303271317720014  2.829774676838005  -24.31471102537319  60.76989638582955  27.83188753603066  6.446463276874703  120.000000
1.744927536231884  0.000000  0.000000  0.000000  -43.775868021879866  10.772487236346114  18.468144220586254  68.02136433857585  19.143193979766526  2.5178653575299146  -24.29419689843803  60.48581259556204  27.789571798002193  6.436399820215453  120.000000
1.7855072463768114  0.000000  0.000000  0.000000  -43.51046421374905  10.54966140134962  18.319434209074625  67.99070026288526  18.992463756487677  2.1514405562883603  -24.26051134507051  60.12866751249236  27.725573897434185  6.427394675471101  120.000000
1.826086956521739  0.000000  0.000000  0.000000  -43.20088736138102  10.287720793954861  18.117252308500195  67.95733574817994  18.84466901545703  1.7406530241467937  -24.21644548820198  59.68799842894463  27.640940613990363  6.425303989892361  120.000000
1.8666666666666665  0.000000  0.000000  0.000000  -42.8459279569707  9.994087141135836  17.860343895062698  67.92820694441144  18.69042515087662  1.2969883894426897  -24.1670242586417  59.15203077527838  27.538503600886127  6.435203757463495  120.000000
1.9072463768115941  0.000000  0.000000  0.000000  -42.44491189657228  9.677508363474995  17.54506273315393  67.90868662439136  18.518150450229545  0.8325977502880839  -24.118327649016866  58.50825805771154  27.42503691280292  6.461597905172019  120.000000
1.9478260869565216  0.000000  0.000000  0.000000  -41.999707050784465  9.34753810953463  17.167115913986002  67.90064038843722  18.315260476785674  0.35944742845374444  -24.075659090356208  57.74402346634612  27.31349216135835  6.509082395782086  120.000000
1.988405797101449  0.000000  0.000000  0.000000  -41.51594339895331  9.013415095863893  16.72319555607302  67.90189307533502  18.069742567056636  -0.11179310461076229  -24.042316126235416  56.84721044365585  27.222664779342164  6.582737986316096  120.000000
2.0289855072463765  0.000000  0.000000  0.000000  -41.00274767497476  8.682302066858167  16.212234535557954  67.90717066051936  17.771893162091253  -0.5724410632929227  -24.019588290488116  55.80738216639964  27.1736068822404  6.6879794962644565  120.000000
2.0695652173913044  0.000000  0.000000  0.000000  -40.471170329424965  8.357341304761826  15.635923691593902  67.91052767800433  17.415935368102026  -1.0163629652653359  -24.00765170549181  54.61740038405354  27.183257016287502  6.8300231910823  120.000000
2.110144927536232  0.000000  0.000000  0.000000  -39.932627812798174  8.036557366608015  14.998574463366326  67.9080729098085  17.001163211752317  -1.4398338266176918  -24.00620610193572  53.27494514382412  27.25920311705328  7.012969261416234  120.000000
2.1507246376811593  0.000000  0.000000  0.000000  -39.39698532639643  7.713377977720592  14.305853499605021  67.89854672975348  16.531567696189942  -1.841496892423701  -24.014317110924807  51.78445388927122  27.399217541023198  7.239013657603299  120.000000
2.1913043478260867  0.000000  0.000000  0.000000  -38.870926849060524  7.378939827054133  13.5630554621147  67.88152072133991  16.014075894261214  -2.2215425695623856  -24.030297292253035  50.15889376956298  27.598209220548014  7.507375373735299  120.000000
2.231884057971014  0.000000  0.000000  0.000000  -38.356400468672234  7.025287828324733  12.773208035959073  67.85437701894011  15.455798783064985  -2.5804565559539396  -24.051328560058995  48.421400733561974  27.858332751520532  7.812382798830951  120.000000
2.2724637681159416  0.000000  0.000000  0.000000  -37.848864096079815  6.647591774225618  11.936639957632915  67.80937854017189  14.86241391316116  -2.9181907336372914  -24.07416938726296  46.60512234752131  28.19772628732455  8.142482496484265  120.000000
2.3130434782608695  0.000000  0.000000  0.000000  -37.337352649799826  6.245367445128126  11.052509550781364  67.7330836033714  14.237937092734324  -3.2334553239716097  -24.09559952074508  44.75052202794819  28.651617072398654  8.481552868023789  120.000000
2.353623188405797  0.000000  0.000000  0.000000  -36.80689452535213  5.822060445488087  10.121565546533972  67.60825258259581  13.586444308258654  -3.52428445094878  -24.110989933776036  42.90002781691427  29.263827135154717  8.812939700797413  120.000000
2.3942028985507244  0.000000  0.000000  0.000000  -36.241692206441314  5.382808345283658  9.148721569834883  67.4174511916091  12.915407015913857  -3.7900710160548785  -24.112658388858605  41.09109413206251  30.074440911628965  9.124571260795877  120.000000
2.434782608695652  0.000000  0.000000  0.000000  -35.62856335882853  4.932447195319134  8.143912490501636  67.1470492921102  12.238287441640042  -4.033611102714024  -24.086738186868416  39.348548686220425  31.10574261485078  9.411942909423873  120.000000
2.4753623188405793  0.000000  0.000000  0.000000  -34.95958186297278  4.474302052166049  7.121831332159528  66.7910263728902  11.576014675791093  -4.261441165506225  -24.01162472332623  37.67636170883938  32.35386691957155  9.678025899373345  120.000000
2.5159420289855072  0.000000  0.000000  0.000000  -34.23344997770545  4.009187036756979  6.099408982186986  66.3534684713469  10.95621850793512  -4.483803861416082  -23.856133482066376  36.051497390470125  33.782329250762764  9.932010778982562  120.000000
2.5565217391304347  0.000000  0.000000  0.000000  -33.45701095202565  3.5343559761582704  5.093235993516975  65.85047084211587  10.411045877227048  -4.712579344376266  -23.581000533764666  34.41958664197238  35.32238265610994  10.187466114358502  120.000000
2.597101449275362  0.000000  0.000000  0.000000  -32.64457294379058  3.0420997386242314  4.114340927002061  65.3085648427583  9.97062954097902  -4.959510174437726  -23.14034859190084  32.69992397006039  36.87671777709562  10.463304608726874  120.000000
2.6376811594202896  0.000000  0.000000  0.000000  -31.8192564332017  2.518083688552521  3.16268542805889  64.76200444812979  9.655061131072522  -5.2324563790890855  -22.48091315312214  30.797767944024013  38.32591037788937  10.783305035900897  120.000000
2.678260869565217  0.000000  0.000000  0.000000  -31.00264539942101  1.9390512727879394  2.221906915345651  64.24530029887342  9.461531469545198  -5.533563930115166  -21.541579148181444  28.62934028801226  39.53986820727895  11.172739561686761  120.000000
2.718840579710145  0.000000  0.000000  0.000000  -30.201627503586206  1.2709037050587784  1.2608166648384291  63.78661708126516  9.360695047115687  -5.857311039831681  -20.247666331287363  26.144567656480145  40.385813745326395  11.658376038831364  120.000000
2.7594202898550724  0.000000  0.000000  0.000000  -29.409908920234475  0.4732642162543604  0.23664246147219642  63.40736626737841  9.295557540122445  -6.1771856297309435  -18.47509058850861  23.352840234843022  40.70973249782775  12.251684434186867  120.000000
2.8  0.000000  0.000000  0.000000  -28.575077382872525  -0.49800782668524873  -0.8922305256196703  63.10802072086421  9.21156683668509  -6.4575791266235685  -16.08220987257208  20.313058764061594  40.374040508431314  12.948697153250055  120.000000
